{"type":"Topology","transform":{"scale":[0.0012831345112129487,0.0009745357309423489],"translate":[-124.73273099999999,24.60334863324381]},"objects":{"area":{"type":"GeometryCollection","geometries":[{"arcs":[[0,1,2,3]],"type":"Polygon","properties":{"state":"AL","name":"MOODY","zip":"35004"}},{"arcs":[[4,5,6,7,8]],"type":"Polygon","properties":{"state":"AL","name":"ADAMSVILLE","zip":"35005"}},{"arcs":[[9,10,11,12,13]],"type":"Polygon","properties":{"state":"AL","name":"ADGER","zip":"35006"}},{"arcs":[[14,15,16,17,18,19,20]],"type":"Polygon","properties":{"state":"AL","name":"ALABASTER","zip":"35007"}},{"arcs":[[21,22,23,24,25,26,27,28,29]],"type":"Polygon","properties":{"state":"AL","name":"ALEXANDER CITY","zip":"35010"}},{"arcs":[[30,31,32,33,34]],"type":"Polygon","properties":{"state":"AL","name":"ALPINE","zip":"35014"}},{"arcs":[[35,36,37,38,39]],"type":"Polygon","properties":{"state":"AL","name":"ARAB","zip":"35016"}},{"arcs":[[40,41,42,43,44]],"type":"Polygon","properties":{"state":"AL","name":"BAILEYTON","zip":"35019"}},{"arcs":[[45,46,47,48,49]],"type":"Polygon","properties":{"state":"AL","name":"BESSEMER","zip":"35020"}},{"arcs":[[50,51,52,53,54,-48,55,56,57,58]],"type":"Polygon","properties":{"state":"AL","name":"BESSEMER","zip":"35022"}},{"arcs":[[59,-14,60,61,62,63,64,-49,-55]],"type":"Polygon","properties":{"state":"AL","name":"BESSEMER","zip":"35023"}},{"arcs":[[65,66,67,68,69,-40,70,71,72,73]],"type":"Polygon","properties":{"state":"AL","name":"BLOUNTSVILLE","zip":"35031"}},{"arcs":[[74,75,76,77,78,79]],"type":"Polygon","properties":{"state":"AL","name":"BREMEN","zip":"35033"}},{"arcs":[[80,81,82,83,84,85,86]],"type":"Polygon","properties":{"state":"AL","name":"BRENT","zip":"35034"}},{"arcs":[[87,88,89,90,91]],"type":"Polygon","properties":{"state":"AL","name":"BRIERFIELD","zip":"35035"}},{"arcs":[[92,93,94]],"type":"Polygon","properties":{"state":"AL","name":"BROOKSIDE","zip":"35036"}},{"arcs":[[95,-20,96,97,98]],"type":"Polygon","properties":{"state":"AL","name":"CALERA","zip":"35040"}},{"arcs":[[99,-89,100,101,102,103,-81]],"type":"Polygon","properties":{"state":"AL","name":"CENTREVILLE","zip":"35042"}},{"arcs":[[104,-18,105,106,107]],"type":"Polygon","properties":{"state":"AL","name":"CHELSEA","zip":"35043"}},{"arcs":[[108,109,110,-33,111,112,113]],"type":"Polygon","properties":{"state":"AL","name":"CHILDERSBURG","zip":"35044"}},{"arcs":[[114,115,116,117,118,119]],"type":"Polygon","properties":{"state":"AL","name":"CLANTON","zip":"35045"}},{"arcs":[[120,121,-120,122,123,124,125]],"type":"Polygon","properties":{"state":"AL","name":"CLANTON","zip":"35046"}},{"arcs":[[126,127,128,-66,129]],"type":"Polygon","properties":{"state":"AL","name":"CLEVELAND","zip":"35049"}},{"arcs":[[130,-97,-19,-105,131,132,-114]],"type":"Polygon","properties":{"state":"AL","name":"COLUMBIANA","zip":"35051"}},{"arcs":[[133,134,135,136,-78]],"type":"Polygon","properties":{"state":"AL","name":"CRANE HILL","zip":"35053"}},{"arcs":[[137,138,139,-35]],"type":"Polygon","properties":{"state":"AL","name":"CROPWELL","zip":"35054"}},{"arcs":[[140,141,142,-69,143]],"type":"Polygon","properties":{"state":"AL","name":"CULLMAN","zip":"35055"}},{"arcs":[[144,145,146,147,148,-141,149,-79,-137]],"type":"Polygon","properties":{"state":"AL","name":"CULLMAN","zip":"35057"}},{"arcs":[[150,151,-43,152,-142,-149]],"type":"Polygon","properties":{"state":"AL","name":"CULLMAN","zip":"35058"}},{"arcs":[[-65,153,154,155,-50]],"type":"Polygon","properties":{"state":"AL","name":"DOLOMITE","zip":"35061"}},{"arcs":[[156,157,158,159,160,161,162]],"type":"Polygon","properties":{"state":"AL","name":"DORA","zip":"35062"}},{"arcs":[[163,164,-76,165,166,-160,167]],"type":"Polygon","properties":{"state":"AL","name":"EMPIRE","zip":"35063"}},{"arcs":[[-156,168,169,170,171]],"type":"Polygon","properties":{"state":"AL","name":"FAIRFIELD","zip":"35064"}},{"arcs":[[172,173,174,175]],"type":"Polygon","properties":{"state":"AL","name":"FULTONDALE","zip":"35068"}},{"arcs":[[176,177,-162,178,179,180,181,182,-174]],"type":"Polygon","properties":{"state":"AL","name":"GARDENDALE","zip":"35071"}},{"arcs":[[183,184,185,186,187,188,-24]],"type":"Polygon","properties":{"state":"AL","name":"GOODWATER","zip":"35072"}},{"arcs":[[-178,189,-94,190,-9,-163]],"type":"Polygon","properties":{"state":"AL","name":"GRAYSVILLE","zip":"35073"}},{"arcs":[[191,-80,-150,-144,-68]],"type":"Polygon","properties":{"state":"AL","name":"HANCEVILLE","zip":"35077"}},{"arcs":[[192,193,194,-110]],"type":"Polygon","properties":{"state":"AL","name":"HARPERSVILLE","zip":"35078"}},{"arcs":[[195,196,-166,-75,-192,-67,-129]],"type":"Polygon","properties":{"state":"AL","name":"HAYDEN","zip":"35079"}},{"arcs":[[197,-51,198,199,-16]],"type":"Polygon","properties":{"state":"AL","name":"HELENA","zip":"35080"}},{"arcs":[[-42,200,-36,-70,-143,-153]],"type":"Polygon","properties":{"state":"AL","name":"HOLLY POND","zip":"35083"}},{"arcs":[[201,202,203,-101,-88,204,-99,205,-123,-119]],"type":"Polygon","properties":{"state":"AL","name":"JEMISON","zip":"35085"}},{"arcs":[[-41,206,-37,-201]],"type":"Polygon","properties":{"state":"AL","name":"JOPPA","zip":"35087"}},{"arcs":[[207,-184,-23]],"type":"Polygon","properties":{"state":"AL","name":"KELLYTON","zip":"35089"}},{"arcs":[[208,-180,209]],"type":"Polygon","properties":{"state":"AL","name":"KIMBERLY","zip":"35091"}},{"arcs":[[210,211,212,213,214,-2,215]],"type":"Polygon","properties":{"state":"AL","name":"LEEDS","zip":"35094"}},{"arcs":[[216,217,218,219,220,221,222]],"type":"Polygon","properties":{"state":"AL","name":"LINCOLN","zip":"35096"}},{"arcs":[[223,-145,-136]],"type":"Polygon","properties":{"state":"AL","name":"LOGAN","zip":"35098"}},{"arcs":[[224,225,-10,-60,-54,226,227]],"type":"Polygon","properties":{"state":"AL","name":"MC CALLA","zip":"35111"}},{"arcs":[[228,-52,-198,-15,229,-91]],"type":"Polygon","properties":{"state":"AL","name":"MAYLENE","zip":"35114"}},{"arcs":[[-230,-21,-96,-205,-92]],"type":"Polygon","properties":{"state":"AL","name":"MONTEVALLO","zip":"35115"}},{"arcs":[[230,-181,-209,231,232]],"type":"Polygon","properties":{"state":"AL","name":"MORRIS","zip":"35116"}},{"arcs":[[233,-95,-190,-177,-173,234]],"type":"Polygon","properties":{"state":"AL","name":"MOUNT OLIVE","zip":"35117"}},{"arcs":[[235,-63,236,-7,237]],"type":"Polygon","properties":{"state":"AL","name":"MULGA","zip":"35118"}},{"arcs":[[238,239,-4,240,241,242,243]],"type":"Polygon","properties":{"state":"AL","name":"ODENVILLE","zip":"35120"}},{"arcs":[[-74,244,245,246,247,248,-130]],"type":"Polygon","properties":{"state":"AL","name":"ONEONTA","zip":"35121"}},{"arcs":[[249,250,-106,-17,-200]],"type":"Polygon","properties":{"state":"AL","name":"PELHAM","zip":"35124"}},{"arcs":[[251,252,-239,253]],"type":"Polygon","properties":{"state":"AL","name":"PELL CITY","zip":"35125"}},{"arcs":[[254,255,256,-233,257,258,259,260]],"type":"Polygon","properties":{"state":"AL","name":"PINSON","zip":"35126"}},{"arcs":[[-64,-236,261,-154]],"type":"Polygon","properties":{"state":"AL","name":"PLEASANT GROVE","zip":"35127"}},{"arcs":[[262,-216,-1,-240,-253,263,-217,264,-139,265]],"type":"Polygon","properties":{"state":"AL","name":"PELL CITY","zip":"35128"}},{"arcs":[[-62,266,267,268,-157,-8,-237]],"type":"Polygon","properties":{"state":"AL","name":"QUINTON","zip":"35130"}},{"arcs":[[269,-254,-244,270,271,-219]],"type":"Polygon","properties":{"state":"AL","name":"RAGLAND","zip":"35131"}},{"arcs":[[272,-260,273,-127,-249]],"type":"Polygon","properties":{"state":"AL","name":"REMLAP","zip":"35133"}},{"arcs":[[-264,-252,-270,-218]],"type":"Polygon","properties":{"state":"AL","name":"RIVERSIDE","zip":"35135"}},{"arcs":[[274,-121,275,276,-185,-208,-22,277,278]],"type":"Polygon","properties":{"state":"AL","name":"ROCKFORD","zip":"35136"}},{"arcs":[[279,-124,-206,-98,-131]],"type":"Polygon","properties":{"state":"AL","name":"SHELBY","zip":"35143"}},{"arcs":[[280,-261,-273,-248,281,282,-242]],"type":"Polygon","properties":{"state":"AL","name":"SPRINGVILLE","zip":"35146"}},{"arcs":[[283,-132,-108,284,-212,285,286,-194]],"type":"Polygon","properties":{"state":"AL","name":"STERRETT","zip":"35147"}},{"arcs":[[287,-168,-159]],"type":"Polygon","properties":{"state":"AL","name":"SUMITON","zip":"35148"}},{"arcs":[[288,-112,-32,289,-187]],"type":"Polygon","properties":{"state":"AL","name":"SYLACAUGA","zip":"35150"}},{"arcs":[[-280,-113,-289,-186,-277,290,-125]],"type":"Polygon","properties":{"state":"AL","name":"SYLACAUGA","zip":"35151"}},{"arcs":[[-140,-265,-223,291,292,293,294,-188,-290,-31]],"type":"Polygon","properties":{"state":"AL","name":"TALLADEGA","zip":"35160"}},{"arcs":[[295,-202,-118]],"type":"Polygon","properties":{"state":"AL","name":"THORSBY","zip":"35171"}},{"arcs":[[296,-196,-128,-274,-259]],"type":"Polygon","properties":{"state":"AL","name":"TRAFFORD","zip":"35172"}},{"arcs":[[297,-255,-281,-241,-3,-215,298]],"type":"Polygon","properties":{"state":"AL","name":"TRUSSVILLE","zip":"35173"}},{"arcs":[[299,300,301,302,-38,-207]],"type":"Polygon","properties":{"state":"AL","name":"UNION GROVE","zip":"35175"}},{"arcs":[[-211,-263,-286]],"type":"Polygon","properties":{"state":"AL","name":"VANDIVER","zip":"35176"}},{"arcs":[[-111,-195,-287,-266,-138,-34]],"type":"Polygon","properties":{"state":"AL","name":"VINCENT","zip":"35178"}},{"arcs":[[-148,303,304,305,306,-151]],"type":"Polygon","properties":{"state":"AL","name":"VINEMONT","zip":"35179"}},{"arcs":[[-210,-179,-161,-167,-197,-297,-258,-232]],"type":"Polygon","properties":{"state":"AL","name":"WARRIOR","zip":"35180"}},{"arcs":[[-291,-276,-126]],"type":"Polygon","properties":{"state":"AL","name":"WEOGUFKA","zip":"35183"}},{"arcs":[[307,308,309,310,-227,-53,-229,-90,-100,-87]],"type":"Polygon","properties":{"state":"AL","name":"WEST BLOCTON","zip":"35184"}},{"arcs":[[-133,-284,-193,-109]],"type":"Polygon","properties":{"state":"AL","name":"WILSONVILLE","zip":"35186"}},{"arcs":[[311,-228,-311]],"type":"Polygon","properties":{"state":"AL","name":"WOODSTOCK","zip":"35188"}},{"arcs":[[312,313,314,315]],"type":"Polygon","properties":{"state":"AL","name":"BIRMINGHAM","zip":"35203"}},{"arcs":[[316,317,318,319,320,321,-314]],"type":"Polygon","properties":{"state":"AL","name":"BIRMINGHAM","zip":"35204"}},{"arcs":[[322,323,324,-317,325,326,327]],"type":"Polygon","properties":{"state":"AL","name":"BIRMINGHAM","zip":"35205"}},{"arcs":[[328,329,330,331,332]],"type":"Polygon","properties":{"state":"AL","name":"BIRMINGHAM","zip":"35206"}},{"arcs":[[333,-321,334,-235,-176,335]],"type":"Polygon","properties":{"state":"AL","name":"BIRMINGHAM","zip":"35207"}},{"arcs":[[336,337,-171,338,339,-319]],"type":"Polygon","properties":{"state":"AL","name":"BIRMINGHAM","zip":"35208"}},{"arcs":[[340,341,342,-324,343]],"type":"Polygon","properties":{"state":"AL","name":"BIRMINGHAM","zip":"35209"}},{"arcs":[[344,345,346,347,-333,348,-299,-214]],"type":"Polygon","properties":{"state":"AL","name":"BIRMINGHAM","zip":"35210"}},{"arcs":[[349,-57,350,351,-337,-318,-325,-343]],"type":"Polygon","properties":{"state":"AL","name":"BIRMINGHAM","zip":"35211"}},{"arcs":[[352,353,354,355,-329,-348]],"type":"Polygon","properties":{"state":"AL","name":"BIRMINGHAM","zip":"35212"}},{"arcs":[[356,-353,-347,357,-328]],"type":"Polygon","properties":{"state":"AL","name":"BIRMINGHAM","zip":"35213"}},{"arcs":[[358,359,-5,-191,-93,-234,-335,-320,-340]],"type":"Polygon","properties":{"state":"AL","name":"BIRMINGHAM","zip":"35214"}},{"arcs":[[360,-331,361,-182,-231,-257]],"type":"Polygon","properties":{"state":"AL","name":"BIRMINGHAM","zip":"35215"}},{"arcs":[[362,363,364,-341,365,366]],"type":"Polygon","properties":{"state":"AL","name":"BIRMINGHAM","zip":"35216"}},{"arcs":[[-175,-183,-362,-330,-356,367,-336]],"type":"Polygon","properties":{"state":"AL","name":"BIRMINGHAM","zip":"35217"}},{"arcs":[[-170,368,-359,-339]],"type":"Polygon","properties":{"state":"AL","name":"BIRMINGHAM","zip":"35218"}},{"arcs":[[-47,369,-351,-56]],"type":"Polygon","properties":{"state":"AL","name":"BIRMINGHAM","zip":"35221"}},{"arcs":[[370,-316,371,-354,-357,-327]],"type":"Polygon","properties":{"state":"AL","name":"BIRMINGHAM","zip":"35222"}},{"arcs":[[-323,-358,-346,372,373,-366,-344]],"type":"Polygon","properties":{"state":"AL","name":"BIRMINGHAM","zip":"35223"}},{"arcs":[[-238,-6,-360,-369,-169,-155,-262]],"type":"Polygon","properties":{"state":"AL","name":"BIRMINGHAM","zip":"35224"}},{"arcs":[[-350,-342,-365,374,-58]],"type":"Polygon","properties":{"state":"AL","name":"BIRMINGHAM","zip":"35226"}},{"arcs":[[-46,-172,-338,-352,-370]],"type":"Polygon","properties":{"state":"AL","name":"BIRMINGHAM","zip":"35228"}},{"arcs":[[-313,-371,-326]],"type":"Polygon","properties":{"state":"AL","name":"BIRMINGHAM","zip":"35233"}},{"arcs":[[-315,-322,-334,-368,-355,-372]],"type":"Polygon","properties":{"state":"AL","name":"BIRMINGHAM","zip":"35234"}},{"arcs":[[-361,-256,-298,-349,-332]],"type":"Polygon","properties":{"state":"AL","name":"BIRMINGHAM","zip":"35235"}},{"arcs":[[-107,-251,375,-363,376,-373,-345,-213,-285]],"type":"Polygon","properties":{"state":"AL","name":"BIRMINGHAM","zip":"35242"}},{"arcs":[[-374,-377,-367]],"type":"Polygon","properties":{"state":"AL","name":"BIRMINGHAM","zip":"35243"}},{"arcs":[[-199,-59,-375,-364,-376,-250]],"type":"Polygon","properties":{"state":"AL","name":"BIRMINGHAM","zip":"35244"}},{"arcs":[[377,378,379,380,381,382,383]],"type":"Polygon","properties":{"state":"AL","name":"TUSCALOOSA","zip":"35401"}},{"arcs":[[384,385,386,-382]],"type":"Polygon","properties":{"state":"AL","name":"TUSCALOOSA","zip":"35404"}},{"arcs":[[387,-383,-387,388,389,390]],"type":"Polygon","properties":{"state":"AL","name":"TUSCALOOSA","zip":"35405"}},{"arcs":[[-381,391,392,393,394,395,-385]],"type":"Polygon","properties":{"state":"AL","name":"TUSCALOOSA","zip":"35406"}},{"arcs":[[396,397,398,399,400]],"type":"Polygon","properties":{"state":"AL","name":"AKRON","zip":"35441"}},{"arcs":[[401,402,403,404]],"type":"Polygon","properties":{"state":"AL","name":"ALICEVILLE","zip":"35442"}},{"arcs":[[405,406,407,408]],"type":"Polygon","properties":{"state":"AL","name":"BOLIGEE","zip":"35443"}},{"arcs":[[409,-11,-226,410,411,-395]],"type":"Polygon","properties":{"state":"AL","name":"BROOKWOOD","zip":"35444"}},{"arcs":[[412,413,414,415,416,417,-378]],"type":"Polygon","properties":{"state":"AL","name":"BUHL","zip":"35446"}},{"arcs":[[418,419,-404,420,421,422]],"type":"Polygon","properties":{"state":"AL","name":"CARROLLTON","zip":"35447"}},{"arcs":[[-418,423,424,425,-379]],"type":"Polygon","properties":{"state":"AL","name":"COKER","zip":"35452"}},{"arcs":[[426,-309,427,-389,-386,-396,-412]],"type":"Polygon","properties":{"state":"AL","name":"COTTONDALE","zip":"35453"}},{"arcs":[[428,-390,-428,-308,-86]],"type":"Polygon","properties":{"state":"AL","name":"DUNCANVILLE","zip":"35456"}},{"arcs":[[429,430,-416,431]],"type":"Polygon","properties":{"state":"AL","name":"ELROD","zip":"35458"}},{"arcs":[[432,433,434,435]],"type":"Polygon","properties":{"state":"AL","name":"EMELLE","zip":"35459"}},{"arcs":[[436,-436,437,438,-408]],"type":"Polygon","properties":{"state":"AL","name":"EPES","zip":"35460"}},{"arcs":[[439,440,441,-422]],"type":"Polygon","properties":{"state":"AL","name":"ETHELSVILLE","zip":"35461"}},{"arcs":[[442,443,-409,-439,444,-405,-420,445,446,-398]],"type":"Polygon","properties":{"state":"AL","name":"EUTAW","zip":"35462"}},{"arcs":[[447,-413,-384,-388,448,449]],"type":"Polygon","properties":{"state":"AL","name":"FOSTERS","zip":"35463"}},{"arcs":[[450,-402,-445,-438,-435]],"type":"Polygon","properties":{"state":"AL","name":"GAINESVILLE","zip":"35464"}},{"arcs":[[451,-419,452,453,454,-432,-415]],"type":"Polygon","properties":{"state":"AL","name":"GORDO","zip":"35466"}},{"arcs":[[455,-450,456,-399,-447]],"type":"Polygon","properties":{"state":"AL","name":"KNOXVILLE","zip":"35469"}},{"arcs":[[457,458,459,460,-433,-437,-407]],"type":"Polygon","properties":{"state":"AL","name":"LIVINGSTON","zip":"35470"}},{"arcs":[[461,-393,462,-425]],"type":"Polygon","properties":{"state":"AL","name":"NORTHPORT","zip":"35473"}},{"arcs":[[463,-400,-457,-449,-391,-429,-85]],"type":"Polygon","properties":{"state":"AL","name":"MOUNDVILLE","zip":"35474"}},{"arcs":[[-431,464,465,466,-12,-410,-394,-462,-424,-417]],"type":"Polygon","properties":{"state":"AL","name":"NORTHPORT","zip":"35475"}},{"arcs":[[-463,-392,-380,-426]],"type":"Polygon","properties":{"state":"AL","name":"NORTHPORT","zip":"35476"}},{"arcs":[[-456,-446,-452,-414,-448]],"type":"Polygon","properties":{"state":"AL","name":"RALPH","zip":"35480"}},{"arcs":[[-423,-442,467,468,-453]],"type":"Polygon","properties":{"state":"AL","name":"REFORM","zip":"35481"}},{"arcs":[[-427,-411,-225,-312,-310]],"type":"Polygon","properties":{"state":"AL","name":"VANCE","zip":"35490"}},{"arcs":[[469,470,471,472,473,474,475]],"type":"Polygon","properties":{"state":"AL","name":"JASPER","zip":"35501"}},{"arcs":[[476,477,478,479,-475]],"type":"Polygon","properties":{"state":"AL","name":"JASPER","zip":"35503"}},{"arcs":[[-480,480,-134,-77,-165,481,-476]],"type":"Polygon","properties":{"state":"AL","name":"JASPER","zip":"35504"}},{"arcs":[[482,483,484,-304,-147,485,486]],"type":"Polygon","properties":{"state":"AL","name":"ADDISON","zip":"35540"}},{"arcs":[[487,488,-486,-146,-224,-135,-481,-479]],"type":"Polygon","properties":{"state":"AL","name":"ARLEY","zip":"35541"}},{"arcs":[[489,490,491,492]],"type":"Polygon","properties":{"state":"AL","name":"BANKSTON","zip":"35542"}},{"arcs":[[493,494,495,496]],"type":"Polygon","properties":{"state":"AL","name":"BEAR CREEK","zip":"35543"}},{"arcs":[[497,498,499]],"type":"Polygon","properties":{"state":"AL","name":"BEAVERTON","zip":"35544"}},{"arcs":[[500,-490,501,502,-466]],"type":"Polygon","properties":{"state":"AL","name":"BERRY","zip":"35546"}},{"arcs":[[503,504,505,506,507,508]],"type":"Polygon","properties":{"state":"AL","name":"BRILLIANT","zip":"35548"}},{"arcs":[[509,510,-502,-493,511,512,-474]],"type":"Polygon","properties":{"state":"AL","name":"CARBON HILL","zip":"35549"}},{"arcs":[[-269,513,-470,-482,-164,-288,-158]],"type":"Polygon","properties":{"state":"AL","name":"CORDOVA","zip":"35550"}},{"arcs":[[514,515,516]],"type":"Polygon","properties":{"state":"AL","name":"DETROIT","zip":"35552"}},{"arcs":[[-478,517,518,519,520,-483,521,-488]],"type":"Polygon","properties":{"state":"AL","name":"DOUBLE SPRINGS","zip":"35553"}},{"arcs":[[522,523,524,-512,-492]],"type":"Polygon","properties":{"state":"AL","name":"ELDRIDGE","zip":"35554"}},{"arcs":[[-465,-430,-455,525,526,527,528,-523,-491,-501]],"type":"Polygon","properties":{"state":"AL","name":"FAYETTE","zip":"35555"}},{"arcs":[[529,-500,530,-504,531,-528]],"type":"Polygon","properties":{"state":"AL","name":"GUIN","zip":"35563"}},{"arcs":[[532,533,534,-496]],"type":"Polygon","properties":{"state":"AL","name":"HACKLEBURG","zip":"35564"}},{"arcs":[[535,-494,536,537,538,-520,539,-506]],"type":"Polygon","properties":{"state":"AL","name":"HALEYVILLE","zip":"35565"}},{"arcs":[[540,-517,541,542,543,-533,-495,-536,-505,-531,-499]],"type":"Polygon","properties":{"state":"AL","name":"HAMILTON","zip":"35570"}},{"arcs":[[-544,544,545,546,-534]],"type":"Polygon","properties":{"state":"AL","name":"HODGES","zip":"35571"}},{"arcs":[[-487,-489,-522]],"type":"Polygon","properties":{"state":"AL","name":"HOUSTON","zip":"35572"}},{"arcs":[[-454,-469,547,548,-526]],"type":"Polygon","properties":{"state":"AL","name":"KENNEDY","zip":"35574"}},{"arcs":[[-540,-519,549,-507]],"type":"Polygon","properties":{"state":"AL","name":"LYNN","zip":"35575"}},{"arcs":[[550,551,552,-548,-468,-441]],"type":"Polygon","properties":{"state":"AL","name":"MILLPORT","zip":"35576"}},{"arcs":[[553,-508,-550,-518,-477,-513,-525]],"type":"Polygon","properties":{"state":"AL","name":"NAUVOO","zip":"35578"}},{"arcs":[[-13,-467,-503,-511,554,-472,555,-267,-61]],"type":"Polygon","properties":{"state":"AL","name":"OAKMAN","zip":"35579"}},{"arcs":[[-556,-471,-514,-268]],"type":"Polygon","properties":{"state":"AL","name":"PARRISH","zip":"35580"}},{"arcs":[[-547,556,557,-537,-497,-535]],"type":"Polygon","properties":{"state":"AL","name":"PHIL CAMPBELL","zip":"35581"}},{"arcs":[[558,559,560,561]],"type":"Polygon","properties":{"state":"AL","name":"RED BAY","zip":"35582"}},{"arcs":[[562,563,564,-557,-546]],"type":"Polygon","properties":{"state":"AL","name":"SPRUCE PINE","zip":"35585"}},{"arcs":[[565,-552,566,-515,-541,-498,-530]],"type":"Polygon","properties":{"state":"AL","name":"SULLIGENT","zip":"35586"}},{"arcs":[[-510,-473,-555]],"type":"Polygon","properties":{"state":"AL","name":"TOWNLEY","zip":"35587"}},{"arcs":[[-553,-566,-527,-549]],"type":"Polygon","properties":{"state":"AL","name":"VERNON","zip":"35592"}},{"arcs":[[-543,567,-562,568,-563,-545]],"type":"Polygon","properties":{"state":"AL","name":"VINA","zip":"35593"}},{"arcs":[[-509,-554,-524,-529,-532]],"type":"Polygon","properties":{"state":"AL","name":"WINFIELD","zip":"35594"}},{"arcs":[[569,570,571,572]],"type":"Polygon","properties":{"state":"AL","name":"DECATUR","zip":"35601"}},{"arcs":[[573,574,575,576,577,-570,578]],"type":"Polygon","properties":{"state":"AL","name":"DECATUR","zip":"35603"}},{"arcs":[[579,580,581,582,583,584]],"type":"Polygon","properties":{"state":"AL","name":"ANDERSON","zip":"35610"}},{"arcs":[[585,586,587,588,589]],"type":"Polygon","properties":{"state":"AL","name":"ATHENS","zip":"35611"}},{"arcs":[[590,591,592,593,594,595,-590]],"type":"Polygon","properties":{"state":"AL","name":"ATHENS","zip":"35613"}},{"arcs":[[596,-584,597,-591,-589]],"type":"Polygon","properties":{"state":"AL","name":"ATHENS","zip":"35614"}},{"arcs":[[598,599,600,-560]],"type":"Polygon","properties":{"state":"AL","name":"CHEROKEE","zip":"35616"}},{"arcs":[[601,602,603]],"type":"Polygon","properties":{"state":"AL","name":"COURTLAND","zip":"35618"}},{"arcs":[[604,-576,605,606,-305,-485]],"type":"Polygon","properties":{"state":"AL","name":"DANVILLE","zip":"35619"}},{"arcs":[[607,608,609,610,-592,-598,-583]],"type":"Polygon","properties":{"state":"AL","name":"ELKMONT","zip":"35620"}},{"arcs":[[-152,-307,611,612,-44]],"type":"Polygon","properties":{"state":"AL","name":"EVA","zip":"35621"}},{"arcs":[[613,614,-612,-306,-607]],"type":"Polygon","properties":{"state":"AL","name":"FALKVILLE","zip":"35622"}},{"arcs":[[615,616,617]],"type":"Polygon","properties":{"state":"AL","name":"FLORENCE","zip":"35630"}},{"arcs":[[618,619,620,-616,621]],"type":"Polygon","properties":{"state":"AL","name":"FLORENCE","zip":"35633"}},{"arcs":[[-621,622,623,624,-617]],"type":"Polygon","properties":{"state":"AL","name":"FLORENCE","zip":"35634"}},{"arcs":[[-575,625,-614,-606]],"type":"Polygon","properties":{"state":"AL","name":"HARTSELLE","zip":"35640"}},{"arcs":[[626,627,-572,628,629,-604]],"type":"Polygon","properties":{"state":"AL","name":"HILLSBORO","zip":"35643"}},{"arcs":[[630,631,-624,632,633]],"type":"Polygon","properties":{"state":"AL","name":"KILLEN","zip":"35645"}},{"arcs":[[634,635,636,637]],"type":"Polygon","properties":{"state":"AL","name":"LEIGHTON","zip":"35646"}},{"arcs":[[-582,638,-608]],"type":"Polygon","properties":{"state":"AL","name":"LESTER","zip":"35647"}},{"arcs":[[639,-634,640,-580]],"type":"Polygon","properties":{"state":"AL","name":"LEXINGTON","zip":"35648"}},{"arcs":[[641,642,643,-602,-630,644,-577,-605,-484,-521,-539]],"type":"Polygon","properties":{"state":"AL","name":"MOULTON","zip":"35650"}},{"arcs":[[645,646,-643]],"type":"Polygon","properties":{"state":"AL","name":"MOUNT HOPE","zip":"35651"}},{"arcs":[[-640,-585,-597,-588,647,-631]],"type":"Polygon","properties":{"state":"AL","name":"ROGERSVILLE","zip":"35652"}},{"arcs":[[648,-564,-569,-561,-601,649]],"type":"Polygon","properties":{"state":"AL","name":"RUSSELLVILLE","zip":"35653"}},{"arcs":[[-565,-649,650,-635,651,-646,-642,-538,-558]],"type":"Polygon","properties":{"state":"AL","name":"RUSSELLVILLE","zip":"35654"}},{"arcs":[[652,653,654]],"type":"Polygon","properties":{"state":"AL","name":"SHEFFIELD","zip":"35660"}},{"arcs":[[655,-655,656,657,-637]],"type":"Polygon","properties":{"state":"AL","name":"MUSCLE SHOALS","zip":"35661"}},{"arcs":[[-615,-626,-574,658,659,660,-300,-45,-613]],"type":"Polygon","properties":{"state":"AL","name":"SOMERVILLE","zip":"35670"}},{"arcs":[[-586,-596,661,662]],"type":"Polygon","properties":{"state":"AL","name":"TANNER","zip":"35671"}},{"arcs":[[-638,-658,663,-627,-603,-644,-647,-652]],"type":"Polygon","properties":{"state":"AL","name":"TOWN CREEK","zip":"35672"}},{"arcs":[[-645,-629,-571,-578]],"type":"Polygon","properties":{"state":"AL","name":"TRINITY","zip":"35673"}},{"arcs":[[-651,-650,-600,664,-653,-656,-636]],"type":"Polygon","properties":{"state":"AL","name":"TUSCUMBIA","zip":"35674"}},{"arcs":[[665,-619,666]],"type":"Polygon","properties":{"state":"AL","name":"WATERLOO","zip":"35677"}},{"arcs":[[667,-610,668]],"type":"Polygon","properties":{"state":"AL","name":"ARDMORE","zip":"35739"}},{"arcs":[[669,670]],"type":"Polygon","properties":{"state":"AL","name":"BRIDGEPORT","zip":"35740"}},{"arcs":[[671,672,673,674,675]],"type":"Polygon","properties":{"state":"AL","name":"BROWNSBORO","zip":"35741"}},{"arcs":[[676,677,678,679,680,681]],"type":"Polygon","properties":{"state":"AL","name":"DUTTON","zip":"35744"}},{"arcs":[[682,683,684,685,686]],"type":"Polygon","properties":{"state":"AL","name":"ESTILLFORK","zip":"35745"}},{"arcs":[[687,688,689,690]],"type":"Polygon","properties":{"state":"AL","name":"FACKLER","zip":"35746"}},{"arcs":[[[691,692,693,694,695,696,697]],[[698,699,700]]],"type":"MultiPolygon","properties":{"state":"AL","name":"GRANT","zip":"35747"}},{"arcs":[[701,702,703,-676,704,705,706]],"type":"Polygon","properties":{"state":"AL","name":"GURLEY","zip":"35748"}},{"arcs":[[707,708,709,710,-594]],"type":"Polygon","properties":{"state":"AL","name":"HARVEST","zip":"35749"}},{"arcs":[[711,712,713,714]],"type":"Polygon","properties":{"state":"AL","name":"HAZEL GREEN","zip":"35750"}},{"arcs":[[715,716,-707,717,718,719,720]],"type":"Polygon","properties":{"state":"AL","name":"HOLLYTREE","zip":"35751"}},{"arcs":[[721,722,-690,723]],"type":"Polygon","properties":{"state":"AL","name":"HOLLYWOOD","zip":"35752"}},{"arcs":[[-661,724,725,-301]],"type":"Polygon","properties":{"state":"AL","name":"LACEYS SPRING","zip":"35754"}},{"arcs":[[[726,727,728]],[[729,730,731]]],"type":"MultiPolygon","properties":{"state":"AL","name":"LANGSTON","zip":"35755"}},{"arcs":[[732,733,-662,-595,-711,734,735,736]],"type":"Polygon","properties":{"state":"AL","name":"MADISON","zip":"35756"}},{"arcs":[[-710,737,738,-735]],"type":"Polygon","properties":{"state":"AL","name":"MADISON","zip":"35757"}},{"arcs":[[739,-736,-739,740,741]],"type":"Polygon","properties":{"state":"AL","name":"MADISON","zip":"35758"}},{"arcs":[[742,-715,743,744,745]],"type":"Polygon","properties":{"state":"AL","name":"MERIDIANVILLE","zip":"35759"}},{"arcs":[[746,-693,747,748,-703,749]],"type":"Polygon","properties":{"state":"AL","name":"NEW HOPE","zip":"35760"}},{"arcs":[[-706,750,-744,-714,751,-685,752,-718]],"type":"Polygon","properties":{"state":"AL","name":"NEW MARKET","zip":"35761"}},{"arcs":[[753,754,-672,-704,-749]],"type":"Polygon","properties":{"state":"AL","name":"OWENS CROSS ROADS","zip":"35763"}},{"arcs":[[755,-750,-702,-717,756]],"type":"Polygon","properties":{"state":"AL","name":"PAINT ROCK","zip":"35764"}},{"arcs":[[757,758,-682,759,760,761]],"type":"Polygon","properties":{"state":"AL","name":"PISGAH","zip":"35765"}},{"arcs":[[762,-719,-753,-684]],"type":"Polygon","properties":{"state":"AL","name":"PRINCETON","zip":"35766"}},{"arcs":[[763,-720,-763,-683,764,-691,-723,765,766]],"type":"Polygon","properties":{"state":"AL","name":"SCOTTSBORO","zip":"35768"}},{"arcs":[[[-766,-722,767]],[[-680,768,-732,769]],[[770,-767,771,-695]],[[-697,772,773,-701,774]]],"type":"MultiPolygon","properties":{"state":"AL","name":"SCOTTSBORO","zip":"35769"}},{"arcs":[[775,776,777,-730,-769,-679,778]],"type":"Polygon","properties":{"state":"AL","name":"SECTION","zip":"35771"}},{"arcs":[[-765,-687,779,-670,780,-688]],"type":"Polygon","properties":{"state":"AL","name":"STEVENSON","zip":"35772"}},{"arcs":[[781,-708,-593,-611,-668,782,-712,-743]],"type":"Polygon","properties":{"state":"AL","name":"TONEY","zip":"35773"}},{"arcs":[[-716,783,-757]],"type":"Polygon","properties":{"state":"AL","name":"TRENTON","zip":"35774"}},{"arcs":[[-725,-660,784]],"type":"Polygon","properties":{"state":"AL","name":"VALHERMOSO SPRINGS","zip":"35775"}},{"arcs":[[-694,-747,-756,-784,-721,-764,-771]],"type":"Polygon","properties":{"state":"AL","name":"WOODVILLE","zip":"35776"}},{"arcs":[[785,786,787,788,-674]],"type":"Polygon","properties":{"state":"AL","name":"HUNTSVILLE","zip":"35801"}},{"arcs":[[789,790,791,-786,-673,-755]],"type":"Polygon","properties":{"state":"AL","name":"HUNTSVILLE","zip":"35802"}},{"arcs":[[-692,792,793,-790,-754,-748]],"type":"Polygon","properties":{"state":"AL","name":"HUNTSVILLE","zip":"35803"}},{"arcs":[[-792,794,795,796,797,-787]],"type":"Polygon","properties":{"state":"AL","name":"HUNTSVILLE","zip":"35805"}},{"arcs":[[798,799,-741,-738,-709,800,801,-797]],"type":"Polygon","properties":{"state":"AL","name":"HUNTSVILLE","zip":"35806"}},{"arcs":[[802,-799,-796]],"type":"Polygon","properties":{"state":"AL","name":"HUNTSVILLE","zip":"35808"}},{"arcs":[[-782,-746,803,804,-801]],"type":"Polygon","properties":{"state":"AL","name":"HUNTSVILLE","zip":"35810"}},{"arcs":[[-745,-751,-705,-675,-789,-804]],"type":"Polygon","properties":{"state":"AL","name":"HUNTSVILLE","zip":"35811"}},{"arcs":[[-798,-802,-805,-788]],"type":"Polygon","properties":{"state":"AL","name":"HUNTSVILLE","zip":"35816"}},{"arcs":[[-740,805,-737]],"type":"Polygon","properties":{"state":"AL","name":"HUNTSVILLE","zip":"35824"}},{"arcs":[[-733,-806,-742,-800,-803,-795,-791,-794,806]],"type":"Polygon","properties":{"state":"AL","name":"HUNTSVILLE","zip":"35898"}},{"arcs":[[807,808,809,810,811,812,813]],"type":"Polygon","properties":{"state":"AL","name":"GADSDEN","zip":"35901"}},{"arcs":[[814,-808,815,816,817]],"type":"Polygon","properties":{"state":"AL","name":"GADSDEN","zip":"35903"}},{"arcs":[[818,819,820,-812]],"type":"Polygon","properties":{"state":"AL","name":"GADSDEN","zip":"35904"}},{"arcs":[[821,822,823,-809,-815,824,825]],"type":"Polygon","properties":{"state":"AL","name":"GADSDEN","zip":"35905"}},{"arcs":[[826,827,-819,-811,828,829]],"type":"Polygon","properties":{"state":"AL","name":"RAINBOW CITY","zip":"35906"}},{"arcs":[[830,-829,-810,-824,831]],"type":"Polygon","properties":{"state":"AL","name":"GADSDEN","zip":"35907"}},{"arcs":[[832,833,834,835]],"type":"Polygon","properties":{"state":"AL","name":"ALBERTVILLE","zip":"35950"}},{"arcs":[[836,837,-835,838,839,840,841,842]],"type":"Polygon","properties":{"state":"AL","name":"ALBERTVILLE","zip":"35951"}},{"arcs":[[843,844,-245,-73,845,846,847]],"type":"Polygon","properties":{"state":"AL","name":"ALTOONA","zip":"35952"}},{"arcs":[[-243,-283,848,-830,-831,849,-271]],"type":"Polygon","properties":{"state":"AL","name":"ASHVILLE","zip":"35953"}},{"arcs":[[850,-844,851,852,853,-820,-828,854]],"type":"Polygon","properties":{"state":"AL","name":"ATTALLA","zip":"35954"}},{"arcs":[[-848,855,856,-852]],"type":"Polygon","properties":{"state":"AL","name":"BOAZ","zip":"35956"}},{"arcs":[[857,-836,-838,858,-856,-847]],"type":"Polygon","properties":{"state":"AL","name":"BOAZ","zip":"35957"}},{"arcs":[[859,860,861]],"type":"Polygon","properties":{"state":"AL","name":"BRYANT","zip":"35958"}},{"arcs":[[862,863,864,865,866]],"type":"Polygon","properties":{"state":"AL","name":"CEDAR BLUFF","zip":"35959"}},{"arcs":[[867,868,-817,869,-867]],"type":"Polygon","properties":{"state":"AL","name":"CENTRE","zip":"35960"}},{"arcs":[[870,871,872,873,874,875,876,-813,-821,-854]],"type":"Polygon","properties":{"state":"AL","name":"COLLINSVILLE","zip":"35961"}},{"arcs":[[-837,877,878,-871,-853,-857,-859]],"type":"Polygon","properties":{"state":"AL","name":"CROSSVILLE","zip":"35962"}},{"arcs":[[-879,879,880,-872]],"type":"Polygon","properties":{"state":"AL","name":"DAWSON","zip":"35963"}},{"arcs":[[-860,881,882,883,-761,884]],"type":"Polygon","properties":{"state":"AL","name":"FLAT ROCK","zip":"35966"}},{"arcs":[[885,-876,886,887,888,889,-864]],"type":"Polygon","properties":{"state":"AL","name":"FORT PAYNE","zip":"35967"}},{"arcs":[[890,891,892,893,-887,-875]],"type":"Polygon","properties":{"state":"AL","name":"FORT PAYNE","zip":"35968"}},{"arcs":[[894,-776,895,-873,-881,896]],"type":"Polygon","properties":{"state":"AL","name":"FYFFE","zip":"35971"}},{"arcs":[[897,-246,-845,-851]],"type":"Polygon","properties":{"state":"AL","name":"GALLANT","zip":"35972"}},{"arcs":[[898,-865,-890,899]],"type":"Polygon","properties":{"state":"AL","name":"GAYLESVILLE","zip":"35973"}},{"arcs":[[-878,-843,900,-897,-880]],"type":"Polygon","properties":{"state":"AL","name":"GERALDINE","zip":"35974"}},{"arcs":[[901,-729,902,-777,-895,-901,-842]],"type":"Polygon","properties":{"state":"AL","name":"GROVEOAK","zip":"35975"}},{"arcs":[[[-774,903,-699]],[[-727,-902,-841,904]],[[905,-71,-39,-303,906,-839,-834]]],"type":"MultiPolygon","properties":{"state":"AL","name":"GUNTERSVILLE","zip":"35976"}},{"arcs":[[907,-893,908,-758,909]],"type":"Polygon","properties":{"state":"AL","name":"HENAGAR","zip":"35978"}},{"arcs":[[-862,910,-882]],"type":"Polygon","properties":{"state":"AL","name":"HIGDON","zip":"35979"}},{"arcs":[[-72,-906,-833,-858,-846]],"type":"Polygon","properties":{"state":"AL","name":"HORTON","zip":"35980"}},{"arcs":[[911,-910,-762,-884,912]],"type":"Polygon","properties":{"state":"AL","name":"IDER","zip":"35981"}},{"arcs":[[-877,-886,-863,-870,-816,-814]],"type":"Polygon","properties":{"state":"AL","name":"LEESBURG","zip":"35983"}},{"arcs":[[-889,913,914,-900]],"type":"Polygon","properties":{"state":"AL","name":"MENTONE","zip":"35984"}},{"arcs":[[-779,-678,915,-891,-874,-896]],"type":"Polygon","properties":{"state":"AL","name":"RAINSVILLE","zip":"35986"}},{"arcs":[[-898,-855,-827,-849,-282,-247]],"type":"Polygon","properties":{"state":"AL","name":"STEELE","zip":"35987"}},{"arcs":[[-916,-677,-759,-909,-892]],"type":"Polygon","properties":{"state":"AL","name":"SYLVANIA","zip":"35988"}},{"arcs":[[-888,-894,-908,-912,916,-914]],"type":"Polygon","properties":{"state":"AL","name":"VALLEY HEAD","zip":"35989"}},{"arcs":[[917,918,919,920,921,922]],"type":"Polygon","properties":{"state":"AL","name":"AUTAUGAVILLE","zip":"36003"}},{"arcs":[[923,924,925,926,927]],"type":"Polygon","properties":{"state":"AL","name":"BANKS","zip":"36005"}},{"arcs":[[928,929,930,-116,931,932,-920]],"type":"Polygon","properties":{"state":"AL","name":"BILLINGSLEY","zip":"36006"}},{"arcs":[[933,934,935,936,937,938,939,940,941,942]],"type":"Polygon","properties":{"state":"AL","name":"BRANTLEY","zip":"36009"}},{"arcs":[[943,944,-925,945,946,947]],"type":"Polygon","properties":{"state":"AL","name":"BRUNDIDGE","zip":"36010"}},{"arcs":[[948,949,950]],"type":"Polygon","properties":{"state":"AL","name":"CECIL","zip":"36013"}},{"arcs":[[951,952,953,954,955]],"type":"Polygon","properties":{"state":"AL","name":"CLAYTON","zip":"36016"}},{"arcs":[[956,957,958,-946,-924,959,-953,960]],"type":"Polygon","properties":{"state":"AL","name":"CLIO","zip":"36017"}},{"arcs":[[961,962,963,964]],"type":"Polygon","properties":{"state":"AL","name":"COOSADA","zip":"36020"}},{"arcs":[[965,966,967,968,969,970,971]],"type":"Polygon","properties":{"state":"AL","name":"DEATSVILLE","zip":"36022"}},{"arcs":[[972,973,974,975,976]],"type":"Polygon","properties":{"state":"AL","name":"ECLECTIC","zip":"36024"}},{"arcs":[[977,-964,978,-966]],"type":"Polygon","properties":{"state":"AL","name":"ELMORE","zip":"36025"}},{"arcs":[[979,980,-278,-30,981,-975]],"type":"Polygon","properties":{"state":"AL","name":"EQUALITY","zip":"36026"}},{"arcs":[[982,983,984,985,986,987,-956]],"type":"Polygon","properties":{"state":"AL","name":"EUFAULA","zip":"36027"}},{"arcs":[[988,-934]],"type":"Polygon","properties":{"state":"AL","name":"DOZIER","zip":"36028"}},{"arcs":[[989,990,991,992,-951,993,994,995]],"type":"Polygon","properties":{"state":"AL","name":"FITZPATRICK","zip":"36029"}},{"arcs":[[996,997,998,999,1000]],"type":"Polygon","properties":{"state":"AL","name":"FOREST HOME","zip":"36030"}},{"arcs":[[1001,1002,1003]],"type":"Polygon","properties":{"state":"AL","name":"FORT DAVIS","zip":"36031"}},{"arcs":[[1004,1005,-1001,1006,1007,1008,1009,1010]],"type":"Polygon","properties":{"state":"AL","name":"FORT DEPOSIT","zip":"36032"}},{"arcs":[[1011,1012,1013,1014,1015,-936]],"type":"Polygon","properties":{"state":"AL","name":"GEORGIANA","zip":"36033"}},{"arcs":[[1016,1017,1018]],"type":"Polygon","properties":{"state":"AL","name":"GLENWOOD","zip":"36034"}},{"arcs":[[1019,1020,1021,1022,1023,-1018]],"type":"Polygon","properties":{"state":"AL","name":"GOSHEN","zip":"36035"}},{"arcs":[[1024,1025,1026,-992,1027,-1022,1028]],"type":"Polygon","properties":{"state":"AL","name":"GRADY","zip":"36036"}},{"arcs":[[1029,-937,-1016,-997,-1006,1030,1031]],"type":"Polygon","properties":{"state":"AL","name":"GREENVILLE","zip":"36037"}},{"arcs":[[1032,-989,-943,1033,1034]],"type":"Polygon","properties":{"state":"AL","name":"GANTT","zip":"36038"}},{"arcs":[[1035,-995,1036,1037,-1002]],"type":"Polygon","properties":{"state":"AL","name":"HARDAWAY","zip":"36039"}},{"arcs":[[1038,-1008,1039,1040,1041,1042]],"type":"Polygon","properties":{"state":"AL","name":"HAYNEVILLE","zip":"36040"}},{"arcs":[[1043,1044,-1011,1045,1046,-1029,-1021,1047]],"type":"Polygon","properties":{"state":"AL","name":"HIGHLAND HOME","zip":"36041"}},{"arcs":[[-1005,-1045,1048,-1031]],"type":"Polygon","properties":{"state":"AL","name":"HONORAVILLE","zip":"36042"}},{"arcs":[[1049,1050,1051,-1043,1052,1053]],"type":"Polygon","properties":{"state":"AL","name":"HOPE HULL","zip":"36043"}},{"arcs":[[1054,-1025,-1047]],"type":"Polygon","properties":{"state":"AL","name":"LAPINE","zip":"36046"}},{"arcs":[[-1039,-1052,-1009]],"type":"Polygon","properties":{"state":"AL","name":"LETOHATCHEE","zip":"36047"}},{"arcs":[[-960,-928,1055,1056,-954]],"type":"Polygon","properties":{"state":"AL","name":"LOUISVILLE","zip":"36048"}},{"arcs":[[1057,-1048,-1020,-1017,1058,-938,-1030]],"type":"Polygon","properties":{"state":"AL","name":"LUVERNE","zip":"36049"}},{"arcs":[[1059,1060,1061,-970]],"type":"Polygon","properties":{"state":"AL","name":"MARBURY","zip":"36051"}},{"arcs":[[1062,1063,1064,-993,-1027]],"type":"Polygon","properties":{"state":"AL","name":"MATHEWS","zip":"36052"}},{"arcs":[[1065,1066,1067,-983,-955,-1057]],"type":"Polygon","properties":{"state":"AL","name":"MIDWAY","zip":"36053"}},{"arcs":[[1068,-967,-979,-963,1069,1070]],"type":"Polygon","properties":{"state":"AL","name":"MILLBROOK","zip":"36054"}},{"arcs":[[1071,-990,1072,-1066,-1056,-927]],"type":"Polygon","properties":{"state":"AL","name":"PEROTE","zip":"36061"}},{"arcs":[[-1065,1073,1074,1075,1076,-949]],"type":"Polygon","properties":{"state":"AL","name":"PIKE ROAD","zip":"36064"}},{"arcs":[[1077,1078,-968,-1069,1079]],"type":"Polygon","properties":{"state":"AL","name":"PRATTVILLE","zip":"36066"}},{"arcs":[[-933,1080,-1060,-969,-1079,1081,1082,-921]],"type":"Polygon","properties":{"state":"AL","name":"PRATTVILLE","zip":"36067"}},{"arcs":[[-1010,-1051,1083,1084,-1063,-1026,-1055,-1046]],"type":"Polygon","properties":{"state":"AL","name":"RAMER","zip":"36069"}},{"arcs":[[-1049,-1044,-1058,-1032]],"type":"Polygon","properties":{"state":"AL","name":"RUTLEDGE","zip":"36071"}},{"arcs":[[-1077,1085,1086,-1037,-994,-950]],"type":"Polygon","properties":{"state":"AL","name":"SHORTER","zip":"36075"}},{"arcs":[[-1076,1087,1088,-977,1089,1090,1091,1092,-1086]],"type":"Polygon","properties":{"state":"AL","name":"TALLASSEE","zip":"36078"}},{"arcs":[[-1019,-1024,1093,-944,1094,1095,-939,-1059]],"type":"Polygon","properties":{"state":"AL","name":"TROY","zip":"36079"}},{"arcs":[[1096,-971,-1062,1097,-279,-981]],"type":"Polygon","properties":{"state":"AL","name":"TITUS","zip":"36080"}},{"arcs":[[-945,-1094,-1023,-1028,-991,-1072,-926]],"type":"Polygon","properties":{"state":"AL","name":"TROY","zip":"36081"}},{"arcs":[[-1087,-1093,1098,1099,1100,1101,-1003,-1038]],"type":"Polygon","properties":{"state":"AL","name":"TUSKEGEE","zip":"36083"}},{"arcs":[[-1036,-1004,-1102,1102,1103,1104,-1067,-1073,-996]],"type":"Polygon","properties":{"state":"AL","name":"UNION SPRINGS","zip":"36089"}},{"arcs":[[-115,-122,-275,-1098,-1061,-1081,-932]],"type":"Polygon","properties":{"state":"AL","name":"VERBENA","zip":"36091"}},{"arcs":[[1105,1106,-965,-978,-972,-1097,-980,-974]],"type":"Polygon","properties":{"state":"AL","name":"WETUMPKA","zip":"36092"}},{"arcs":[[1107,1108,-1106,-973,-1089]],"type":"Polygon","properties":{"state":"AL","name":"WETUMPKA","zip":"36093"}},{"arcs":[[1109,1110,1111,1112,1113,1114,-1080,-1071,1115]],"type":"Polygon","properties":{"state":"AL","name":"MONTGOMERY","zip":"36104"}},{"arcs":[[1116,-1084,-1050,1117,-1112,1118,1119]],"type":"Polygon","properties":{"state":"AL","name":"MONTGOMERY","zip":"36105"}},{"arcs":[[-1111,1120,1121,1122,1123,1124,-1119]],"type":"Polygon","properties":{"state":"AL","name":"MONTGOMERY","zip":"36106"}},{"arcs":[[1125,-1121,-1110,1126]],"type":"Polygon","properties":{"state":"AL","name":"MONTGOMERY","zip":"36107"}},{"arcs":[[1127,-1082,-1078,-1115,1128,-1113,-1118,-1054]],"type":"Polygon","properties":{"state":"AL","name":"MONTGOMERY","zip":"36108"}},{"arcs":[[1129,1130,-1122,-1126]],"type":"Polygon","properties":{"state":"AL","name":"MONTGOMERY","zip":"36109"}},{"arcs":[[-1127,-1116,-1070,-962,-1107,-1109,1131,-1130]],"type":"Polygon","properties":{"state":"AL","name":"MONTGOMERY","zip":"36110"}},{"arcs":[[1132,-1120,-1125]],"type":"Polygon","properties":{"state":"AL","name":"MONTGOMERY","zip":"36111"}},{"arcs":[[-1114,-1129]],"type":"Polygon","properties":{"state":"AL","name":"MONTGOMERY","zip":"36112"}},{"arcs":[[-1133,-1124,1133,-1074,-1064,-1085,-1117]],"type":"Polygon","properties":{"state":"AL","name":"MONTGOMERY","zip":"36116"}},{"arcs":[[-1131,-1132,-1108,-1088,-1075,-1134,-1123]],"type":"Polygon","properties":{"state":"AL","name":"MONTGOMERY","zip":"36117"}},{"arcs":[[1134,1135,1136,-221,1137,1138,1139]],"type":"Polygon","properties":{"state":"AL","name":"ANNISTON","zip":"36201"}},{"arcs":[[1140,-1136,1141,1142,1143,1144]],"type":"Polygon","properties":{"state":"AL","name":"OXFORD","zip":"36203"}},{"arcs":[[-1140,1145,1146,1147,1148]],"type":"Polygon","properties":{"state":"AL","name":"ANNISTON","zip":"36206"}},{"arcs":[[-1149,1149,1150,1151,-1142,-1135]],"type":"Polygon","properties":{"state":"AL","name":"ANNISTON","zip":"36207"}},{"arcs":[[1152,-1146,-1139,1153,1154,1155]],"type":"Polygon","properties":{"state":"AL","name":"ALEXANDRIA","zip":"36250"}},{"arcs":[[1156,-295,1157,1158,-26]],"type":"Polygon","properties":{"state":"AL","name":"ASHLAND","zip":"36251"}},{"arcs":[[1159,-1159,1160,1161]],"type":"Polygon","properties":{"state":"AL","name":"CRAGFORD","zip":"36255"}},{"arcs":[[1162,1163,-27,-1160,1164]],"type":"Polygon","properties":{"state":"AL","name":"DAVISTON","zip":"36256"}},{"arcs":[[1165,1166,1167,-1144,1168]],"type":"Polygon","properties":{"state":"AL","name":"DELTA","zip":"36258"}},{"arcs":[[1169,-292,-222,-1137,-1141]],"type":"Polygon","properties":{"state":"AL","name":"EASTABOGA","zip":"36260"}},{"arcs":[[1170,1171,1172,1173]],"type":"Polygon","properties":{"state":"AL","name":"FRUITHURST","zip":"36262"}},{"arcs":[[1174,1175,1176,1177]],"type":"Polygon","properties":{"state":"AL","name":"GRAHAM","zip":"36263"}},{"arcs":[[1178,1179,-1169,-1143,-1152,1180,-1172,1181,1182]],"type":"Polygon","properties":{"state":"AL","name":"HEFLIN","zip":"36264"}},{"arcs":[[-1148,1183,-1156,1184,-826,1185,-1150]],"type":"Polygon","properties":{"state":"AL","name":"JACKSONVILLE","zip":"36265"}},{"arcs":[[1186,1187,-1161,-1158,-294,1188,-1167]],"type":"Polygon","properties":{"state":"AL","name":"LINEVILLE","zip":"36266"}},{"arcs":[[-1157,-25,-189]],"type":"Polygon","properties":{"state":"AL","name":"MILLERVILLE","zip":"36267"}},{"arcs":[[-293,-1170,-1145,-1168,-1189]],"type":"Polygon","properties":{"state":"AL","name":"MUNFORD","zip":"36268"}},{"arcs":[[1189,1190,-1182,-1171]],"type":"Polygon","properties":{"state":"AL","name":"MUSCADINE","zip":"36269"}},{"arcs":[[1191,1192,-1179,1193,-1177]],"type":"Polygon","properties":{"state":"AL","name":"NEWELL","zip":"36270"}},{"arcs":[[-220,-272,-850,-832,-823,1194,-1154,-1138]],"type":"Polygon","properties":{"state":"AL","name":"OHATCHEE","zip":"36271"}},{"arcs":[[-1181,-1151,-1186,-825,-818,-869,1195,-1173]],"type":"Polygon","properties":{"state":"AL","name":"PIEDMONT","zip":"36272"}},{"arcs":[[1196,-1178,-1194,-1183,-1191]],"type":"Polygon","properties":{"state":"AL","name":"RANBURNE","zip":"36273"}},{"arcs":[[1197,1198,1199,1200,1201,1202]],"type":"Polygon","properties":{"state":"AL","name":"ROANOKE","zip":"36274"}},{"arcs":[[-1188,1203,-1198,1204,-1165,-1162]],"type":"Polygon","properties":{"state":"AL","name":"WADLEY","zip":"36276"}},{"arcs":[[-1153,-1184,-1147]],"type":"Polygon","properties":{"state":"AL","name":"WEAVER","zip":"36277"}},{"arcs":[[-1204,-1187,-1166,-1180,-1193,1205,-1199]],"type":"Polygon","properties":{"state":"AL","name":"WEDOWEE","zip":"36278"}},{"arcs":[[-822,-1185,-1155,-1195]],"type":"Polygon","properties":{"state":"AL","name":"WELLINGTON","zip":"36279"}},{"arcs":[[-1192,-1176,1206,-1200,-1206]],"type":"Polygon","properties":{"state":"AL","name":"WOODLAND","zip":"36280"}},{"arcs":[[1207,1208,1209,1210,1211,1212,1213]],"type":"Polygon","properties":{"state":"AL","name":"DOTHAN","zip":"36301"}},{"arcs":[[1214,1215,-1213,1216,1217,1218,1219]],"type":"Polygon","properties":{"state":"AL","name":"DOTHAN","zip":"36303"}},{"arcs":[[1220,1221,-1217,-1212]],"type":"Polygon","properties":{"state":"AL","name":"DOTHAN","zip":"36305"}},{"arcs":[[1222,1223,-961,-952,-988,1224,1225]],"type":"Polygon","properties":{"state":"AL","name":"ABBEVILLE","zip":"36310"}},{"arcs":[[1226,1227,1228,-947,-959]],"type":"Polygon","properties":{"state":"AL","name":"ARITON","zip":"36311"}},{"arcs":[[1229,1230,1231,1232,1233,-1208]],"type":"Polygon","properties":{"state":"AL","name":"ASHFORD","zip":"36312"}},{"arcs":[[1234,1235,1236,1237]],"type":"Polygon","properties":{"state":"AL","name":"CHANCELLOR","zip":"36316"}},{"arcs":[[1238,1239,-957,-1224]],"type":"Polygon","properties":{"state":"AL","name":"CLOPTON","zip":"36317"}},{"arcs":[[1240,1241,-1236,1242,1243,1244]],"type":"Polygon","properties":{"state":"AL","name":"COFFEE SPRINGS","zip":"36318"}},{"arcs":[[1245,1246,1247,-1232,1248,1249,1250,1251]],"type":"Polygon","properties":{"state":"AL","name":"COLUMBIA","zip":"36319"}},{"arcs":[[1252,1253,1254,-1209,-1234,1255]],"type":"Polygon","properties":{"state":"AL","name":"COTTONWOOD","zip":"36320"}},{"arcs":[[-1216,1256,-1230,-1214]],"type":"Polygon","properties":{"state":"AL","name":"COWARTS","zip":"36321"}},{"arcs":[[1257,1258,1259,1260,1261,-1243,-1235]],"type":"Polygon","properties":{"state":"AL","name":"DALEVILLE","zip":"36322"}},{"arcs":[[1262,-941,1263,1264,1265,1266]],"type":"Polygon","properties":{"state":"AL","name":"ELBA","zip":"36323"}},{"arcs":[[1267,-1265,1268,-1095,-948,-1229,1269,1270,-1258,-1238,1271]],"type":"Polygon","properties":{"state":"AL","name":"ENTERPRISE","zip":"36330"}},{"arcs":[[1272,1273,-1245,1274]],"type":"Polygon","properties":{"state":"AL","name":"GENEVA","zip":"36340"}},{"arcs":[[1275,-1247,1276,-1253]],"type":"Polygon","properties":{"state":"AL","name":"GORDON","zip":"36343"}},{"arcs":[[-1275,-1244,-1262,1277,1278]],"type":"Polygon","properties":{"state":"AL","name":"HARTFORD","zip":"36344"}},{"arcs":[[1279,1280,-1250,1281,-1220]],"type":"Polygon","properties":{"state":"AL","name":"HEADLAND","zip":"36345"}},{"arcs":[[-1096,-1269,-1264,-940]],"type":"Polygon","properties":{"state":"AL","name":"JACK","zip":"36346"}},{"arcs":[[1282,1283,-1221,-1211]],"type":"Polygon","properties":{"state":"AL","name":"MALVERN","zip":"36349"}},{"arcs":[[-1219,1284,1285,1286,-1239,-1223,1287,-1280]],"type":"Polygon","properties":{"state":"AL","name":"MIDLAND CITY","zip":"36350"}},{"arcs":[[-1268,1288,-1266]],"type":"Polygon","properties":{"state":"AL","name":"NEW BROCKTON","zip":"36351"}},{"arcs":[[1289,1290,-1285,-1218,-1222,-1284,1291,-1260]],"type":"Polygon","properties":{"state":"AL","name":"NEWTON","zip":"36352"}},{"arcs":[[-1288,-1226,-1251,-1281]],"type":"Polygon","properties":{"state":"AL","name":"NEWVILLE","zip":"36353"}},{"arcs":[[-1291,1292,-1270,-1228,1293,-1286]],"type":"Polygon","properties":{"state":"AL","name":"OZARK","zip":"36360"}},{"arcs":[[-1259,-1271,-1293,-1290]],"type":"Polygon","properties":{"state":"AL","name":"FORT RUCKER","zip":"36362"}},{"arcs":[[-1233,-1248,-1276,-1256]],"type":"Polygon","properties":{"state":"AL","name":"PANSEY","zip":"36370"}},{"arcs":[[-1225,-987,1294,-1252]],"type":"Polygon","properties":{"state":"AL","name":"SHORTERVILLE","zip":"36373"}},{"arcs":[[-1294,-1227,-958,-1240,-1287]],"type":"Polygon","properties":{"state":"AL","name":"SKIPPERVILLE","zip":"36374"}},{"arcs":[[1295,-1278,-1261,-1292,-1283,-1210,-1255]],"type":"Polygon","properties":{"state":"AL","name":"SLOCOMB","zip":"36375"}},{"arcs":[[-1215,-1282,-1249,-1231,-1257]],"type":"Polygon","properties":{"state":"AL","name":"WEBB","zip":"36376"}},{"arcs":[[1296,1297,1298,1299,1300,1301,1302,1303,-1014,1304]],"type":"Polygon","properties":{"state":"AL","name":"EVERGREEN","zip":"36401"}},{"arcs":[[1305,1306,1307,-1298,1308,-1035,1309]],"type":"Polygon","properties":{"state":"AL","name":"ANDALUSIA","zip":"36420"}},{"arcs":[[1310,1311,1312,-998,-1015,-1304,1313]],"type":"Polygon","properties":{"state":"AL","name":"BEATRICE","zip":"36425"}},{"arcs":[[1314,1315,1316,1317,1318,-1299,-1308,1319,1320]],"type":"Polygon","properties":{"state":"AL","name":"BREWTON","zip":"36426"}},{"arcs":[[1321,1322,-1300,-1319]],"type":"Polygon","properties":{"state":"AL","name":"CASTLEBERRY","zip":"36432"}},{"arcs":[[1323,1324,1325,1326,-1312,1327]],"type":"Polygon","properties":{"state":"AL","name":"COY","zip":"36435"}},{"arcs":[[1328,1329,1330]],"type":"Polygon","properties":{"state":"AL","name":"DICKINSON","zip":"36436"}},{"arcs":[[1331,1332,-1315]],"type":"Polygon","properties":{"state":"AL","name":"FLOMATON","zip":"36441"}},{"arcs":[[1333,1334,1335,-1306,1336]],"type":"Polygon","properties":{"state":"AL","name":"FLORALA","zip":"36442"}},{"arcs":[[1337,1338,1339,1340,1341]],"type":"Polygon","properties":{"state":"AL","name":"FRANKLIN","zip":"36444"}},{"arcs":[[1342,1343,1344,-1342,1345,1346,1347,1348,1349]],"type":"Polygon","properties":{"state":"AL","name":"FRISCO CITY","zip":"36445"}},{"arcs":[[1350,1351,1352,1353,-1340,1354,-1331]],"type":"Polygon","properties":{"state":"AL","name":"FULTON","zip":"36446"}},{"arcs":[[-1345,1355,1356,1357,1358,1359,1360,-1351,-1330,1361,-1338]],"type":"Polygon","properties":{"state":"AL","name":"GROVE HILL","zip":"36451"}},{"arcs":[[1362,1363,-1267,-1289,-1272,-1237,-1242]],"type":"Polygon","properties":{"state":"AL","name":"KINSTON","zip":"36453"}},{"arcs":[[1364,1365,-1322,-1318]],"type":"Polygon","properties":{"state":"AL","name":"LENOX","zip":"36454"}},{"arcs":[[1366,-1305,-1013]],"type":"Polygon","properties":{"state":"AL","name":"MC KENZIE","zip":"36456"}},{"arcs":[[1367,-1347,1368,1369,-1302]],"type":"Polygon","properties":{"state":"AL","name":"MONROEVILLE","zip":"36460"}},{"arcs":[[1370,-1337,-1310,-1034,-942,-1263,-1364]],"type":"Polygon","properties":{"state":"AL","name":"OPP","zip":"36467"}},{"arcs":[[-1370,1371,-1314,-1303]],"type":"Polygon","properties":{"state":"AL","name":"PETERMAN","zip":"36471"}},{"arcs":[[1372,-1349,1373,-1365,-1317]],"type":"Polygon","properties":{"state":"AL","name":"RANGE","zip":"36473"}},{"arcs":[[-1367,-1012,-935,-1033,-1309,-1297]],"type":"Polygon","properties":{"state":"AL","name":"RED LEVEL","zip":"36474"}},{"arcs":[[-1348,-1368,-1301,-1323,-1366,-1374]],"type":"Polygon","properties":{"state":"AL","name":"REPTON","zip":"36475"}},{"arcs":[[-1371,-1363,-1241,-1274,1374,-1334]],"type":"Polygon","properties":{"state":"AL","name":"SAMSON","zip":"36477"}},{"arcs":[[1375,1376,1377,-1343,1378]],"type":"Polygon","properties":{"state":"AL","name":"URIAH","zip":"36480"}},{"arcs":[[-1346,-1341,-1354,-1328,-1311,-1372,-1369]],"type":"Polygon","properties":{"state":"AL","name":"VREDENBURGH","zip":"36481"}},{"arcs":[[-1362,-1329,-1355,-1339]],"type":"Polygon","properties":{"state":"AL","name":"WHATLEY","zip":"36482"}},{"arcs":[[1379,-1320,-1307,-1336]],"type":"Polygon","properties":{"state":"AL","name":"WING","zip":"36483"}},{"arcs":[[1380,1381,1382,-1379,-1350,-1373,-1316,-1333]],"type":"Polygon","properties":{"state":"AL","name":"ATMORE","zip":"36502"}},{"arcs":[[1383,1384,1385,1386]],"type":"Polygon","properties":{"state":"AL","name":"AXIS","zip":"36505"}},{"arcs":[[1387,1388,1389,1390,1391,1392,1393,1394,1395]],"type":"Polygon","properties":{"state":"AL","name":"BAY MINETTE","zip":"36507"}},{"arcs":[[1396,1397,1398,1399]],"type":"Polygon","properties":{"state":"AL","name":"BAYOU LA BATRE","zip":"36509"}},{"arcs":[[1400,1401,1402]],"type":"Polygon","properties":{"state":"AL","name":"BON SECOUR","zip":"36511"}},{"arcs":[[1403,1404,1405,1406,1407,1408]],"type":"Polygon","properties":{"state":"AL","name":"CHATOM","zip":"36518"}},{"arcs":[[1409,1410,1411,1412,1413,-1386,1414]],"type":"Polygon","properties":{"state":"AL","name":"CHUNCHULA","zip":"36521"}},{"arcs":[[1415,1416,1417,1418,-1413,1419]],"type":"Polygon","properties":{"state":"AL","name":"CITRONELLE","zip":"36522"}},{"arcs":[[1420,1421,1422,-1397]],"type":"Polygon","properties":{"state":"AL","name":"CODEN","zip":"36523"}},{"arcs":[[1423,1424,1425,1426,-1360,1427,1428]],"type":"Polygon","properties":{"state":"AL","name":"COFFEEVILLE","zip":"36524"}},{"arcs":[[1429,-1384,1430,1431,-1393,1432]],"type":"Polygon","properties":{"state":"AL","name":"CREOLA","zip":"36525"}},{"arcs":[[1433,1434,1435,1436]],"type":"Polygon","properties":{"state":"AL","name":"DAPHNE","zip":"36526"}},{"arcs":[[1437,-1437,1438,1439,1440,-1391,1441]],"type":"Polygon","properties":{"state":"AL","name":"SPANISH FORT","zip":"36527"}},{"arcs":[[1442,1443,1444,1445,-1417]],"type":"Polygon","properties":{"state":"AL","name":"DEER PARK","zip":"36529"}},{"arcs":[[1446,1447,1448,1449,1450,1451,1452,1453,1454]],"type":"Polygon","properties":{"state":"AL","name":"ELBERTA","zip":"36530"}},{"arcs":[[1455,1456,1457,-1435,1458,1459]],"type":"Polygon","properties":{"state":"AL","name":"FAIRHOPE","zip":"36532"}},{"arcs":[[-1457,1460,-1449,1461,-1403,1462]],"type":"Polygon","properties":{"state":"AL","name":"FOLEY","zip":"36535"}},{"arcs":[[1463,1464,1465,1466,-1429]],"type":"Polygon","properties":{"state":"AL","name":"FRANKVILLE","zip":"36538"}},{"arcs":[[1467,-1445,1468,1469,-1406,1470,1471]],"type":"Polygon","properties":{"state":"AL","name":"FRUITDALE","zip":"36539"}},{"arcs":[[1472,-1356,-1344,-1378]],"type":"Polygon","properties":{"state":"AL","name":"GAINESTOWN","zip":"36540"}},{"arcs":[[1473,1474,1475,1476,-1399,1477]],"type":"Polygon","properties":{"state":"AL","name":"GRAND BAY","zip":"36541"}},{"arcs":[[1478,1479,-1401,-1462,-1448]],"type":"Polygon","properties":{"state":"AL","name":"GULF SHORES","zip":"36542"}},{"arcs":[[-1400,-1477,1480,-1421]],"type":"Polygon","properties":{"state":"AL","name":"IRVINGTON","zip":"36544"}},{"arcs":[[1481,1482,1483,1484,1485,1486,1487,-1357,-1473,-1377]],"type":"Polygon","properties":{"state":"AL","name":"JACKSON","zip":"36545"}},{"arcs":[[1488,1489,-1485]],"type":"Polygon","properties":{"state":"AL","name":"LEROY","zip":"36548"}},{"arcs":[[-1454,1490]],"type":"Polygon","properties":{"state":"AL","name":"LILLIAN","zip":"36549"}},{"arcs":[[1491,1492,1493,1494,-1482,-1376,-1383]],"type":"Polygon","properties":{"state":"AL","name":"LITTLE RIVER","zip":"36550"}},{"arcs":[[-1438,1495,-1389,1496,1497,-1459,-1434]],"type":"Polygon","properties":{"state":"AL","name":"LOXLEY","zip":"36551"}},{"arcs":[[1498,-1418,-1446,-1468,1499,-1483,-1495]],"type":"Polygon","properties":{"state":"AL","name":"MC INTOSH","zip":"36553"}},{"arcs":[[1500,1501,-1466,1502,-1408]],"type":"Polygon","properties":{"state":"AL","name":"MILLRY","zip":"36558"}},{"arcs":[[-1419,-1499,-1494,1503,-1431,-1387,-1414]],"type":"Polygon","properties":{"state":"AL","name":"MOUNT VERNON","zip":"36560"}},{"arcs":[[-1447,1504,-1479]],"type":"Polygon","properties":{"state":"AL","name":"ORANGE BEACH","zip":"36561"}},{"arcs":[[1505,-1395,1506,-1492,-1382]],"type":"Polygon","properties":{"state":"AL","name":"PERDIDO","zip":"36562"}},{"arcs":[[1507,1508,-1497,-1388,1509,1510,-1451]],"type":"Polygon","properties":{"state":"AL","name":"ROBERTSDALE","zip":"36567"}},{"arcs":[[-1503,-1465,1511,-1486,-1490,1512,-1409]],"type":"Polygon","properties":{"state":"AL","name":"SAINT STEPHENS","zip":"36569"}},{"arcs":[[-1428,-1359,1513,-1487,-1512,-1464]],"type":"Polygon","properties":{"state":"AL","name":"SALITPA","zip":"36570"}},{"arcs":[[1514,1515,1516,1517,-1415,-1385,-1430]],"type":"Polygon","properties":{"state":"AL","name":"SARALAND","zip":"36571"}},{"arcs":[[1518,-1515,-1433,-1392,-1441]],"type":"Polygon","properties":{"state":"AL","name":"SATSUMA","zip":"36572"}},{"arcs":[[-1511,1519,-1452]],"type":"Polygon","properties":{"state":"AL","name":"SEMINOLE","zip":"36574"}},{"arcs":[[1520,1521,1522,-1411,1523]],"type":"Polygon","properties":{"state":"AL","name":"SEMMES","zip":"36575"}},{"arcs":[[-1498,-1509,1524,-1460]],"type":"Polygon","properties":{"state":"AL","name":"SILVERHILL","zip":"36576"}},{"arcs":[[-1442,-1390,-1496]],"type":"Polygon","properties":{"state":"AL","name":"STAPLETON","zip":"36578"}},{"arcs":[[-1504,-1493,-1507,-1394,-1432]],"type":"Polygon","properties":{"state":"AL","name":"STOCKTON","zip":"36579"}},{"arcs":[[-1525,-1508,-1450,-1461,-1456]],"type":"Polygon","properties":{"state":"AL","name":"SUMMERDALE","zip":"36580"}},{"arcs":[[-1422,-1481,-1476,1525,1526,1527,1528,1529]],"type":"Polygon","properties":{"state":"AL","name":"THEODORE","zip":"36582"}},{"arcs":[[-1405,1530,-1471]],"type":"Polygon","properties":{"state":"AL","name":"TIBBIE","zip":"36583"}},{"arcs":[[1531,-1469,-1444]],"type":"Polygon","properties":{"state":"AL","name":"VINEGAR BEND","zip":"36584"}},{"arcs":[[-1531,-1404,-1513,-1489,-1484,-1500,-1472]],"type":"Polygon","properties":{"state":"AL","name":"WAGARVILLE","zip":"36585"}},{"arcs":[[-1514,-1358,-1488]],"type":"Polygon","properties":{"state":"AL","name":"WALKER SPRINGS","zip":"36586"}},{"arcs":[[1532,-1420,-1412,-1523,1533]],"type":"Polygon","properties":{"state":"AL","name":"WILMER","zip":"36587"}},{"arcs":[[1534,1535,1536,1537]],"type":"Polygon","properties":{"state":"AL","name":"MOBILE","zip":"36602"}},{"arcs":[[[1538,1539,1540,-1536]],[[1541,1542,-1538,1543]]],"type":"MultiPolygon","properties":{"state":"AL","name":"MOBILE","zip":"36603"}},{"arcs":[[1544,1545,1546,-1539,-1535,-1543,1547]],"type":"Polygon","properties":{"state":"AL","name":"MOBILE","zip":"36604"}},{"arcs":[[1548,1549,-1548,-1542,1550,-1529]],"type":"Polygon","properties":{"state":"AL","name":"MOBILE","zip":"36605"}},{"arcs":[[1551,1552,1553,-1545,-1550,1554]],"type":"Polygon","properties":{"state":"AL","name":"MOBILE","zip":"36606"}},{"arcs":[[-1554,1555,1556,1557,-1546]],"type":"Polygon","properties":{"state":"AL","name":"MOBILE","zip":"36607"}},{"arcs":[[-1522,1558,-1556,-1553,1559,1560,1561,-1534]],"type":"Polygon","properties":{"state":"AL","name":"MOBILE","zip":"36608"}},{"arcs":[[1562,1563,-1560,-1552]],"type":"Polygon","properties":{"state":"AL","name":"MOBILE","zip":"36609"}},{"arcs":[[1564,1565,1566,-1516,-1519,-1440,1567,-1537,-1541]],"type":"Polygon","properties":{"state":"AL","name":"MOBILE","zip":"36610"}},{"arcs":[[1568,1569,-1517,-1567]],"type":"Polygon","properties":{"state":"AL","name":"MOBILE","zip":"36611"}},{"arcs":[[1570,1571,1572,-1569,-1566]],"type":"Polygon","properties":{"state":"AL","name":"MOBILE","zip":"36612"}},{"arcs":[[-1573,1573,-1524,-1410,-1518,-1570]],"type":"Polygon","properties":{"state":"AL","name":"EIGHT MILE","zip":"36613"}},{"type":null,"properties":{"state":"AL","name":"MOBILE","zip":"36615"}},{"arcs":[[-1547,-1558,1574,-1571,-1565,-1540]],"type":"Polygon","properties":{"state":"AL","name":"MOBILE","zip":"36617"}},{"arcs":[[-1557,-1559,-1521,-1574,-1572,-1575]],"type":"Polygon","properties":{"state":"AL","name":"MOBILE","zip":"36618"}},{"arcs":[[1575,1576,-1527]],"type":"Polygon","properties":{"state":"AL","name":"MOBILE","zip":"36619"}},{"arcs":[[1577,-1563,-1555,-1549,-1528,-1577]],"type":"Polygon","properties":{"state":"AL","name":"MOBILE","zip":"36693"}},{"arcs":[[-1475,1578,-1561,-1564,-1578,-1576,-1526]],"type":"Polygon","properties":{"state":"AL","name":"MOBILE","zip":"36695"}},{"arcs":[[1579,1580,1581,1582,1583,1584,1585,1586,1587]],"type":"Polygon","properties":{"state":"AL","name":"SELMA","zip":"36701"}},{"arcs":[[1588,-1586,1589,1590,-918]],"type":"Polygon","properties":{"state":"AL","name":"SELMA","zip":"36703"}},{"arcs":[[1591,1592,1593,1594,1595]],"type":"Polygon","properties":{"state":"AL","name":"ALBERTA","zip":"36720"}},{"arcs":[[1596,1597,1598,1599]],"type":"Polygon","properties":{"state":"AL","name":"ARLINGTON","zip":"36722"}},{"arcs":[[1600,1601,-1593,1602,1603,-1326]],"type":"Polygon","properties":{"state":"AL","name":"CAMDEN","zip":"36726"}},{"arcs":[[1604,1605,1606]],"type":"Polygon","properties":{"state":"AL","name":"CAMPBELL","zip":"36727"}},{"arcs":[[1607,1608,-1594,-1602,1609,-1599]],"type":"Polygon","properties":{"state":"AL","name":"CATHERINE","zip":"36728"}},{"arcs":[[1610,-459,1611,1612,1613,1614,1615]],"type":"Polygon","properties":{"state":"AL","name":"DEMOPOLIS","zip":"36732"}},{"arcs":[[1616,1617,1618,1619,1620,1621,-1597]],"type":"Polygon","properties":{"state":"AL","name":"DIXONS MILLS","zip":"36736"}},{"arcs":[[1622,1623,1624,-1614,1625,1626]],"type":"Polygon","properties":{"state":"AL","name":"FAUNSDALE","zip":"36738"}},{"arcs":[[-406,-444,1627,1628,1629,-1612,-458]],"type":"Polygon","properties":{"state":"AL","name":"FORKLAND","zip":"36740"}},{"arcs":[[-1630,1630,1631,-1626,-1613]],"type":"Polygon","properties":{"state":"AL","name":"GALLION","zip":"36742"}},{"arcs":[[1632,-1631,-1629,1633,-401,-464,-84,1634]],"type":"Polygon","properties":{"state":"AL","name":"GREENSBORO","zip":"36744"}},{"arcs":[[1635,-1620,1636,1637,-1615,-1625,1638]],"type":"Polygon","properties":{"state":"AL","name":"LINDEN","zip":"36748"}},{"arcs":[[-1591,1639,-929,-919]],"type":"Polygon","properties":{"state":"AL","name":"JONES","zip":"36749"}},{"arcs":[[-931,1640,1641,1642,1643,-203,-296,-117]],"type":"Polygon","properties":{"state":"AL","name":"MAPLESVILLE","zip":"36750"}},{"arcs":[[-1353,1644,1645,-1324]],"type":"Polygon","properties":{"state":"AL","name":"LOWER PEACH TREE","zip":"36751"}},{"arcs":[[1646,-922,-1083,-1128,-1053,-1042]],"type":"Polygon","properties":{"state":"AL","name":"LOWNDESBORO","zip":"36752"}},{"arcs":[[-1636,1647,-1621]],"type":"Polygon","properties":{"state":"AL","name":"MAGNOLIA","zip":"36754"}},{"arcs":[[1648,-1582,1649,1650,1651,-1635,-83]],"type":"Polygon","properties":{"state":"AL","name":"MARION","zip":"36756"}},{"arcs":[[-1590,-1585,1652,-1641,-930,-1640]],"type":"Polygon","properties":{"state":"AL","name":"PLANTERSVILLE","zip":"36758"}},{"arcs":[[1653,1654,-1650,-1581,1655]],"type":"Polygon","properties":{"state":"AL","name":"MARION JUNCTION","zip":"36759"}},{"arcs":[[-1000,1656,-1603,-1592,1657,1658,1659,-1040,-1007]],"type":"Polygon","properties":{"state":"AL","name":"MINTER","zip":"36761"}},{"arcs":[[-1632,-1633,-1652,1660,-1627]],"type":"Polygon","properties":{"state":"AL","name":"NEWBERN","zip":"36765"}},{"arcs":[[1661,-1656,-1580,1662,-1658,-1596]],"type":"Polygon","properties":{"state":"AL","name":"ORRVILLE","zip":"36767"}},{"arcs":[[-1327,-1604,-1657,-999,-1313]],"type":"Polygon","properties":{"state":"AL","name":"PINE APPLE","zip":"36768"}},{"arcs":[[1663,-1617,-1600,-1610,-1601,-1325,-1646]],"type":"Polygon","properties":{"state":"AL","name":"PINE HILL","zip":"36769"}},{"arcs":[[1664,1665,-1654,-1662,-1595,-1609]],"type":"Polygon","properties":{"state":"AL","name":"SAFFORD","zip":"36773"}},{"arcs":[[1666,-1659,-1663,-1588]],"type":"Polygon","properties":{"state":"AL","name":"SARDIS","zip":"36775"}},{"arcs":[[-1628,-443,-397,-1634]],"type":"Polygon","properties":{"state":"AL","name":"SAWYERVILLE","zip":"36776"}},{"arcs":[[1667,-1583,-1649,-82,-104,1668]],"type":"Polygon","properties":{"state":"AL","name":"SPROTT","zip":"36779"}},{"arcs":[[1669,1670,-1637,-1619,1671,-1607]],"type":"Polygon","properties":{"state":"AL","name":"SWEET WATER","zip":"36782"}},{"arcs":[[-1639,-1624,1672,-1665,-1608,-1598,-1622,-1648]],"type":"Polygon","properties":{"state":"AL","name":"THOMASTON","zip":"36783"}},{"arcs":[[1673,-1605,-1672,-1618,-1664,-1645,-1352,-1361,-1427]],"type":"Polygon","properties":{"state":"AL","name":"THOMASVILLE","zip":"36784"}},{"arcs":[[-1587,-1589,-923,-1647,-1041,-1660,-1667]],"type":"Polygon","properties":{"state":"AL","name":"TYLER","zip":"36785"}},{"arcs":[[-1666,-1673,-1623,-1661,-1651,-1655]],"type":"Polygon","properties":{"state":"AL","name":"UNIONTOWN","zip":"36786"}},{"arcs":[[-1584,-1668,1674,-1642,-1653]],"type":"Polygon","properties":{"state":"AL","name":"STANTON","zip":"36790"}},{"arcs":[[1675,-102,-204,-1644]],"type":"Polygon","properties":{"state":"AL","name":"RANDOLPH","zip":"36792"}},{"arcs":[[-1675,-1669,-103,-1676,-1643]],"type":"Polygon","properties":{"state":"AL","name":"LAWLEY","zip":"36793"}},{"arcs":[[1676,1677,1678,1679,1680]],"type":"Polygon","properties":{"state":"AL","name":"OPELIKA","zip":"36801"}},{"arcs":[[1681,-1677,1682,1683,1684,1685,1686,1687,-1104]],"type":"Polygon","properties":{"state":"AL","name":"OPELIKA","zip":"36804"}},{"arcs":[[-1103,-1101,1688,1689,-1678,-1682]],"type":"Polygon","properties":{"state":"AL","name":"AUBURN","zip":"36830"}},{"arcs":[[1690,1691,1692,-1689,-1100]],"type":"Polygon","properties":{"state":"AL","name":"AUBURN","zip":"36832"}},{"arcs":[[1693,-1692,1694,1695,1696]],"type":"Polygon","properties":{"state":"AL","name":"CAMP HILL","zip":"36850"}},{"arcs":[[-1681,1697,1698,1699,-1683]],"type":"Polygon","properties":{"state":"AL","name":"CUSSETA","zip":"36852"}},{"arcs":[[-1091,1700,1701,-1164,1702,-1696]],"type":"Polygon","properties":{"state":"AL","name":"DADEVILLE","zip":"36853"}},{"arcs":[[-1700,1703,1704,1705,-1684]],"type":"Polygon","properties":{"state":"AL","name":"VALLEY","zip":"36854"}},{"arcs":[[1706,1707,-1202,1708]],"type":"Polygon","properties":{"state":"AL","name":"FIVE POINTS","zip":"36855"}},{"arcs":[[1709,1710,1711]],"type":"Polygon","properties":{"state":"AL","name":"FORT MITCHELL","zip":"36856"}},{"arcs":[[1712,1713,1714]],"type":"Polygon","properties":{"state":"AL","name":"HATCHECHUBBEE","zip":"36858"}},{"arcs":[[1715,-984,-1068,-1105,-1688,1716,-1714]],"type":"Polygon","properties":{"state":"AL","name":"HURTSBORO","zip":"36860"}},{"arcs":[[-28,-1702,1717]],"type":"Polygon","properties":{"state":"AL","name":"JACKSONS GAP","zip":"36861"}},{"arcs":[[1718,-1698,-1680,1719,-1697,-1703,-1163,-1205,-1203,-1708]],"type":"Polygon","properties":{"state":"AL","name":"LAFAYETTE","zip":"36862"}},{"arcs":[[-1707,1720,-1704,-1699,-1719]],"type":"Polygon","properties":{"state":"AL","name":"LANETT","zip":"36863"}},{"arcs":[[-1099,-1092,-1695,-1691]],"type":"Polygon","properties":{"state":"AL","name":"NOTASULGA","zip":"36866"}},{"arcs":[[1721,1722,1723,1724]],"type":"Polygon","properties":{"state":"AL","name":"PHENIX CITY","zip":"36867"}},{"arcs":[[1725,1726,-1723,1727,1728,-1686]],"type":"Polygon","properties":{"state":"AL","name":"PHENIX CITY","zip":"36869"}},{"arcs":[[1729,1730,-1724,-1727]],"type":"Polygon","properties":{"state":"AL","name":"PHENIX CITY","zip":"36870"}},{"arcs":[[-1713,1731,-1710,1732,-985,-1716]],"type":"Polygon","properties":{"state":"AL","name":"PITTSVIEW","zip":"36871"}},{"arcs":[[-1726,-1685,-1706,1733,1734,-1730]],"type":"Polygon","properties":{"state":"AL","name":"SALEM","zip":"36874"}},{"arcs":[[-1732,-1715,-1717,-1687,-1729,1735,-1711]],"type":"Polygon","properties":{"state":"AL","name":"SEALE","zip":"36875"}},{"arcs":[[1736,-1725,-1731,-1735]],"type":"Polygon","properties":{"state":"AL","name":"SMITHS STATION","zip":"36877"}},{"arcs":[[-1693,-1694,-1720,-1679,-1690]],"type":"Polygon","properties":{"state":"AL","name":"WAVERLY","zip":"36879"}},{"arcs":[[-1426,1737,1738,1739,1740,1741,1742,1743,1744,-1670,-1606,-1674]],"type":"Polygon","properties":{"state":"AL","name":"BUTLER","zip":"36904"}},{"arcs":[[1745,1746,1747,1748]],"type":"Polygon","properties":{"state":"AL","name":"CUBA","zip":"36907"}},{"arcs":[[1749,1750,-1738,-1425,1751]],"type":"Polygon","properties":{"state":"AL","name":"GILBERTOWN","zip":"36908"}},{"arcs":[[1752,1753,1754,-1744]],"type":"Polygon","properties":{"state":"AL","name":"JACHIN","zip":"36910"}},{"arcs":[[-1743,1755,-1747,1756,-1753]],"type":"Polygon","properties":{"state":"AL","name":"LISMAN","zip":"36912"}},{"arcs":[[1757,-1740]],"type":"Polygon","properties":{"state":"AL","name":"NEEDHAM","zip":"36915"}},{"arcs":[[1758,1759,-1616,-1638,-1671,-1745,-1755]],"type":"Polygon","properties":{"state":"AL","name":"PENNINGTON","zip":"36916"}},{"arcs":[[1760,-1752,-1424,-1467,-1502]],"type":"Polygon","properties":{"state":"AL","name":"SILAS","zip":"36919"}},{"arcs":[[-1751,1761,-1741,-1758,-1739]],"type":"Polygon","properties":{"state":"AL","name":"TOXEY","zip":"36921"}},{"arcs":[[-1757,-1746,1762,-1759,-1754]],"type":"Polygon","properties":{"state":"AL","name":"WARD","zip":"36922"}},{"arcs":[[-1760,-1763,-1749,1763,-460,-1611]],"type":"Polygon","properties":{"state":"AL","name":"YORK","zip":"36925"}}]}},"arcs":[[[29826,9211],[-23,-13]],[[29803,9198],[-31,25]],[[29772,9223],[18,36]],[[29790,9259],[45,8],[-9,-56]],[[29461,9246],[4,-56]],[[29465,9190],[-31,-7]],[[29434,9183],[-77,48]],[[29357,9231],[18,41]],[[29375,9272],[86,-26]],[[29321,8987],[-40,-41]],[[29281,8946],[-153,140]],[[29128,9086],[67,56]],[[29195,9142],[-9,53],[41,-25]],[[29227,9170],[108,-84],[-14,-99]],[[29528,8819],[-9,56]],[[29519,8875],[23,20]],[[29542,8895],[72,8]],[[29614,8903],[18,-18]],[[29632,8885],[-13,-66]],[[29619,8819],[-45,-31]],[[29574,8788],[-46,31]],[[30114,8478],[0,49]],[[30114,8527],[67,27],[0,84]],[[30181,8638],[64,87]],[[30245,8725],[4,0]],[[30249,8725],[59,-3]],[[30308,8722],[-32,-25],[90,-8],[-13,-109]],[[30353,8580],[-63,-46]],[[30290,8534],[-77,-38],[54,-46],[-9,-132],[-95,125]],[[30163,8443],[-49,35]],[[29952,9091],[117,-76],[-50,-33],[0,-89]],[[30019,8893],[-31,-44],[-9,56]],[[29979,8905],[-14,92],[-49,-25]],[[29916,8972],[-27,45],[58,69]],[[29947,9086],[5,5]],[[29763,9874],[-5,23]],[[29758,9897],[-36,122]],[[29722,10019],[126,15]],[[29848,10034],[32,-61],[-81,-86]],[[29799,9887],[-36,-13]],[[29713,10022],[-22,-56],[49,-74]],[[29740,9892],[-45,-8]],[[29695,9884],[-45,59]],[[29650,9943],[32,81]],[[29682,10024],[31,-2]],[[29447,9086],[27,-18]],[[29474,9068],[9,-7]],[[29483,9061],[-45,-89],[-18,50]],[[29420,9022],[23,59]],[[29443,9081],[4,5]],[[29483,8923],[-31,-40]],[[29452,8883],[-68,-41]],[[29384,8842],[-13,28]],[[29371,8870],[49,84],[-58,38]],[[29362,8992],[58,30]],[[29483,9061],[9,5]],[[29492,9066],[18,-31]],[[29510,9035],[-9,-56]],[[29501,8979],[-18,-56]],[[29362,8992],[-41,-5]],[[29227,9170],[36,18]],[[29263,9188],[49,2]],[[29312,9190],[81,-76]],[[29393,9114],[32,-15]],[[29425,9099],[18,-18]],[[29772,9661],[27,28],[-68,-26]],[[29731,9663],[-117,-5]],[[29614,9658],[68,94]],[[29682,9752],[22,15]],[[29704,9767],[59,107]],[[29799,9887],[63,-28]],[[29862,9859],[-50,-92],[32,-33]],[[29844,9734],[-9,-53]],[[29835,9681],[-63,-20]],[[29474,9556],[-40,-58]],[[29434,9498],[-77,-20]],[[29357,9478],[-36,119]],[[29321,9597],[86,92]],[[29407,9689],[36,-61]],[[29443,9628],[-36,-82],[67,10]],[[29249,8651],[-13,-66],[67,-69],[-58,-68]],[[29245,8448],[-5,0]],[[29240,8448],[-162,40]],[[29078,8488],[0,16]],[[29078,8504],[0,117]],[[29078,8621],[81,2],[5,82]],[[29164,8705],[85,-54]],[[29501,8618],[0,-15]],[[29501,8603],[-157,33]],[[29344,8636],[45,165]],[[29389,8801],[0,-10]],[[29389,8791],[112,-173]],[[29483,9264],[-13,8]],[[29470,9272],[9,7]],[[29479,9279],[4,-15]],[[29564,8638],[10,150]],[[29619,8819],[76,-92]],[[29695,8727],[14,-40]],[[29709,8687],[-145,-49]],[[29249,8651],[95,-15]],[[29501,8603],[0,-3]],[[29501,8600],[-40,-76]],[[29461,8524],[-68,-117]],[[29393,8407],[-76,-46],[-18,87],[-54,0]],[[29722,8964],[-90,-79]],[[29614,8903],[-4,33]],[[29610,8936],[58,33]],[[29668,8969],[50,56],[4,-61]],[[29794,8801],[45,64]],[[29839,8865],[59,96]],[[29898,8961],[18,11]],[[29979,8905],[-63,-17],[18,-39]],[[29934,8849],[-126,-68]],[[29808,8781],[-14,20]],[[29740,8392],[-63,-61]],[[29677,8331],[-81,-16]],[[29596,8315],[-18,120]],[[29578,8435],[63,13],[5,99]],[[29646,8547],[22,13]],[[29668,8560],[72,-168]],[[29839,8463],[-13,-20]],[[29826,8443],[-86,-51]],[[29668,8560],[36,-8],[23,109]],[[29727,8661],[54,-23]],[[29781,8638],[4,-45]],[[29785,8593],[54,-130]],[[29731,9523],[-31,21]],[[29700,9544],[-36,-5]],[[29664,9539],[67,124]],[[29772,9661],[-41,-138]],[[29808,8781],[-113,-54]],[[29722,8964],[14,0]],[[29736,8964],[0,-104],[58,-59]],[[29321,9597],[-31,38]],[[29290,9635],[31,92]],[[29321,9727],[104,13]],[[29425,9740],[-18,-51]],[[29947,9086],[-54,43]],[[29893,9129],[77,56],[-5,-46]],[[29965,9139],[-13,-48]],[[29510,9747],[-9,107]],[[29501,9854],[185,-33]],[[29686,9821],[18,-54]],[[29682,9752],[-172,-5]],[[29425,9740],[31,66],[-130,0]],[[29326,9806],[-5,12]],[[29321,9818],[0,46]],[[29321,9864],[180,8]],[[29501,9872],[0,-18]],[[29510,9747],[-67,-119]],[[29501,9872],[104,86]],[[29605,9958],[45,-15]],[[29695,9884],[-9,-63]],[[29425,9099],[13,10]],[[29438,9109],[9,0]],[[29447,9109],[0,-23]],[[29375,9272],[-22,81],[-59,-3]],[[29294,9350],[63,59]],[[29357,9409],[18,-51],[14,43]],[[29389,9401],[58,36]],[[29447,9437],[-9,-61]],[[29438,9376],[-4,-31]],[[29434,9345],[-59,-73]],[[29357,9414],[-27,28]],[[29330,9442],[27,36]],[[29434,9498],[31,-38]],[[29465,9460],[-18,-23]],[[29389,9401],[-32,13]],[[29447,9109],[27,20]],[[29474,9129],[9,-7]],[[29483,9122],[-4,-16]],[[29479,9106],[-32,-20]],[[29510,9221],[18,43]],[[29528,9264],[41,5]],[[29569,9269],[-9,-46]],[[29560,9223],[-50,-2]],[[29528,9264],[-18,89],[-54,-41]],[[29456,9312],[-22,33]],[[29438,9376],[104,30]],[[29542,9406],[9,-20]],[[29551,9386],[50,-76]],[[29601,9310],[4,-13]],[[29605,9297],[-36,-28]],[[30181,8638],[-85,26],[-41,-69]],[[30055,8595],[-27,51]],[[30028,8646],[-27,46],[41,5]],[[30042,8697],[9,97],[54,15]],[[30105,8809],[130,-5]],[[30235,8804],[10,-79]],[[29456,9312],[23,-33]],[[29470,9272],[-9,-26]],[[29614,9658],[-140,-102]],[[29839,8865],[-81,94]],[[29758,8959],[50,76]],[[29808,9035],[90,-74]],[[29664,9539],[-45,-54]],[[29619,9485],[-100,64],[-54,-89]],[[29519,8875],[-67,8]],[[29483,8923],[54,33]],[[29537,8956],[5,-61]],[[29740,9892],[18,5]],[[29646,8547],[-100,-41]],[[29546,8506],[-45,10]],[[29501,8516],[0,84]],[[29501,8618],[63,20]],[[29709,8687],[18,-26]],[[29713,10022],[9,-3]],[[30114,8527],[-59,68]],[[29560,9411],[-9,-25]],[[29542,9406],[18,5]],[[29812,9147],[-54,-43]],[[29758,9104],[-40,-28]],[[29718,9076],[-54,53]],[[29664,9129],[45,46]],[[29709,9175],[63,48]],[[29803,9198],[9,-51]],[[30037,9183],[-22,35]],[[30015,9218],[36,74]],[[30051,9292],[-23,33],[45,-13]],[[30073,9312],[104,10]],[[30177,9322],[0,-53]],[[30177,9269],[-50,-86]],[[30127,9183],[-90,0]],[[29321,9727],[5,79]],[[29272,8847],[-23,41],[59,40]],[[29308,8928],[-27,18]],[[29371,8870],[-63,-23]],[[29308,8847],[-36,0]],[[29389,8801],[-5,41]],[[29528,8819],[-139,-28]],[[29614,9335],[-13,-25]],[[29560,9411],[50,-17]],[[29610,9394],[4,-59]],[[29497,9221],[-14,43]],[[29510,9221],[-13,0]],[[29411,9132],[-18,-18]],[[29312,9190],[45,41]],[[29434,9183],[-23,-51]],[[29934,9310],[-59,-82]],[[29875,9228],[-49,-17]],[[29790,9259],[0,99]],[[29790,9358],[40,46],[41,-87],[45,26]],[[29916,9343],[54,51]],[[29970,9394],[-36,-84]],[[29835,9681],[85,18],[-58,-66],[63,0],[-27,-54],[67,46]],[[29965,9625],[-22,-48]],[[29943,9577],[-23,-46]],[[29920,9531],[-148,-61]],[[29772,9470],[-41,53]],[[29537,8956],[77,49]],[[29614,9005],[-4,-69]],[[30033,9289],[-32,-68]],[[30001,9221],[-126,7]],[[29934,9310],[99,-21]],[[29754,9378],[-59,-73]],[[29695,9305],[-13,-16]],[[29682,9289],[-68,46]],[[29610,9394],[22,40]],[[29632,9434],[18,0]],[[29650,9434],[86,-33]],[[29736,9401],[18,-23]],[[29411,9132],[27,-23]],[[29839,9132],[-27,15]],[[30001,9221],[14,-3]],[[30037,9183],[-72,-44]],[[29893,9129],[-54,3]],[[29263,9188],[-41,68]],[[29222,9256],[50,41]],[[29272,9297],[40,-3],[-18,56]],[[30051,9292],[-18,-3]],[[29970,9394],[171,30]],[[30141,9424],[-68,-112]],[[29772,9470],[-36,-69]],[[29650,9434],[50,110]],[[29893,8364],[-67,79]],[[29839,8463],[126,66]],[[29965,8529],[63,117]],[[30114,8478],[-41,23],[-67,-137]],[[30006,8364],[-113,0]],[[29808,8781],[-27,-143]],[[29790,9358],[-36,20]],[[29920,9531],[9,-31]],[[29929,9500],[-13,-157]],[[29758,8959],[-22,5]],[[29668,8969],[50,107]],[[29758,9104],[81,28]],[[29839,9132],[-31,-97]],[[29357,9409],[0,5]],[[30042,8697],[-108,152]],[[30019,8893],[86,-84]],[[29965,8529],[-58,13],[27,89],[-149,-38]],[[30127,9183],[54,0]],[[30181,9183],[-13,-128],[144,44]],[[30312,9099],[-72,-145]],[[30240,8954],[32,-49],[-86,-43],[49,-58]],[[29578,8435],[-32,71]],[[29632,9434],[-49,28],[36,23]],[[29691,9223],[4,82]],[[29709,9175],[-18,48]],[[29713,10022],[-13,107]],[[29700,10129],[67,5],[-13,63]],[[29754,10197],[121,-119]],[[29875,10078],[-27,-44]],[[29321,9864],[0,87]],[[29321,9951],[50,12]],[[29371,9963],[162,-48],[50,64]],[[29583,9979],[22,-21]],[[29164,8705],[0,2]],[[29164,8707],[13,28]],[[29177,8735],[72,15]],[[29249,8750],[72,0],[-13,97]],[[29249,8750],[23,97]],[[29574,9150],[-32,-18]],[[29542,9132],[9,20]],[[29551,9152],[13,10]],[[29564,9162],[10,-12]],[[29542,9132],[-5,-3]],[[29537,9129],[-18,0]],[[29519,9129],[0,13],[0,2],[-9,3]],[[29510,9147],[5,18]],[[29515,9165],[27,10]],[[29542,9175],[9,-23]],[[29578,9127],[-4,-3]],[[29574,9124],[-41,-18]],[[29533,9106],[4,23]],[[29542,9132],[36,10]],[[29578,9142],[5,-8]],[[29583,9134],[-5,-7]],[[29623,9170],[-18,20]],[[29605,9190],[18,33]],[[29623,9223],[18,0]],[[29641,9223],[18,-7]],[[29659,9216],[-36,-46]],[[29569,9183],[-27,-8]],[[29515,9165],[-18,56]],[[29560,9223],[9,-40]],[[29519,9129],[-18,-18]],[[29501,9111],[-22,-5]],[[29483,9122],[18,25]],[[29501,9147],[9,0]],[[29587,9101],[-36,-30]],[[29551,9071],[-23,-10]],[[29528,9061],[5,45]],[[29574,9124],[13,-23]],[[29664,9129],[-23,-7]],[[29641,9122],[-4,20]],[[29637,9142],[-18,18]],[[29619,9160],[4,10]],[[29659,9216],[32,7]],[[29528,9061],[-18,-26]],[[29492,9066],[5,40]],[[29497,9106],[4,5]],[[29619,9160],[-9,0]],[[29610,9160],[-32,10]],[[29578,9170],[5,13]],[[29583,9183],[22,7]],[[29583,9134],[27,26]],[[29637,9142],[-59,-15]],[[29501,9147],[-9,8]],[[29492,9155],[-27,35]],[[29682,9289],[-41,-66]],[[29623,9223],[-18,74]],[[29601,9040],[0,-10]],[[29601,9030],[-46,-20]],[[29555,9010],[-4,61]],[[29587,9101],[9,-10]],[[29596,9091],[5,-51]],[[29583,9183],[-14,0]],[[29474,9129],[18,26]],[[29474,9068],[23,38]],[[29578,9142],[-4,8]],[[29564,9162],[14,8]],[[29641,9122],[-9,-8]],[[29632,9114],[-36,-23]],[[29555,9010],[-54,-31]],[[29614,9005],[-13,25]],[[29601,9040],[31,74]],[[28857,8778],[36,49]],[[28893,8827],[14,7]],[[28907,8834],[59,5]],[[28966,8839],[4,0]],[[28970,8839],[23,0],[4,-30]],[[28997,8809],[-49,-104]],[[28948,8705],[-91,73]],[[28970,8839],[86,38]],[[29056,8877],[-18,-68]],[[29038,8809],[-41,0]],[[28948,8694],[0,11]],[[29038,8809],[0,-43]],[[29038,8766],[-54,-120]],[[28984,8646],[-36,48]],[[28966,8839],[4,21]],[[28970,8860],[18,76]],[[28988,8936],[32,130],[85,38]],[[29105,9104],[-27,-214]],[[29078,8890],[-22,-13]],[[28907,8387],[-108,53],[-50,-51]],[[28749,8389],[18,115]],[[28767,8504],[59,45]],[[28826,8549],[104,-68]],[[28930,8481],[-23,-94]],[[28493,8613],[-131,-5]],[[28362,8608],[9,81],[9,117]],[[28380,8806],[194,5],[13,-109],[-45,-46]],[[28542,8656],[-49,-43]],[[28673,8349],[-77,-51]],[[28596,8298],[-54,0]],[[28542,8298],[23,117]],[[28565,8415],[67,48],[41,-114]],[[29105,9104],[23,-18]],[[29308,8928],[-86,-7],[-49,-112]],[[29173,8809],[-95,81]],[[28857,8778],[-4,-61]],[[28853,8717],[-86,66]],[[28767,8783],[36,92]],[[28803,8875],[9,81]],[[28812,8956],[36,-12]],[[28848,8944],[-22,-102],[67,-15]],[[28668,8928],[86,-56],[0,-99]],[[28754,8773],[-212,-117]],[[28380,8806],[9,107],[5,13],[0,48]],[[28394,8974],[139,18]],[[28533,8992],[135,-64]],[[28848,8944],[59,-6],[-32,64],[50,-58]],[[28925,8944],[-13,-87]],[[28912,8857],[-5,-23]],[[29173,8809],[4,-74]],[[29164,8707],[-72,-18],[-54,77]],[[29078,8621],[-94,25]],[[28754,9058],[58,69]],[[28812,9127],[0,-171]],[[28803,8875],[-27,53],[14,3],[-36,127]],[[28443,8321],[-108,-13]],[[28335,8308],[5,38],[9,117]],[[28349,8463],[63,-28]],[[28412,8435],[31,-114]],[[28542,8298],[-99,23]],[[28412,8435],[76,5]],[[28488,8440],[77,-25]],[[28394,8974],[13,120]],[[28407,9094],[72,-84],[68,17]],[[28547,9027],[-14,-35]],[[28749,8389],[-18,-18]],[[28731,8371],[-58,-22]],[[28488,8440],[5,173]],[[28754,8773],[4,-99]],[[28758,8674],[-36,-20],[45,-150]],[[28817,8664],[36,53]],[[28948,8694],[-100,-71]],[[28848,8623],[-31,41]],[[28349,8463],[9,81],[4,64]],[[28767,8783],[-13,-10]],[[28668,8928],[-13,227]],[[28655,9155],[45,0]],[[28700,9155],[49,0],[5,-97]],[[28758,8674],[59,-10]],[[28848,8623],[-22,-74]],[[28596,8298],[-22,-87],[166,18],[-36,-23],[36,-71]],[[28740,8135],[-144,-120]],[[28596,8015],[-108,67],[14,71],[-176,58]],[[28326,8211],[9,97]],[[28925,8944],[63,-8]],[[28970,8860],[-58,-3]],[[29078,8504],[-99,-77],[-49,54]],[[28812,9127],[45,2]],[[28857,9129],[32,-48],[72,109],[-18,-86],[99,7],[45,87]],[[29087,9198],[108,-56]],[[28547,9027],[31,130],[54,0]],[[28632,9157],[23,-2]],[[29294,9445],[-67,-26]],[[29227,9419],[-77,-41]],[[29150,9378],[-27,69]],[[29123,9447],[-45,48]],[[29078,9495],[14,8]],[[29092,9503],[90,-15]],[[29182,9488],[112,-43]],[[29092,9503],[31,135]],[[29123,9638],[113,5]],[[29236,9643],[0,-8]],[[29236,9635],[-54,-147]],[[29236,9635],[54,0]],[[29330,9442],[-36,3]],[[29177,9790],[-63,161]],[[29114,9951],[77,0]],[[29191,9951],[130,0]],[[29321,9818],[-94,-61]],[[29227,9757],[13,54],[-63,-21]],[[29236,9643],[-32,69]],[[29204,9712],[23,45]],[[28898,9406],[-27,-188]],[[28871,9218],[-41,51],[18,196]],[[28848,9465],[50,8]],[[28898,9473],[0,-67]],[[28880,9925],[-63,-152]],[[28817,9773],[-45,-11],[9,54]],[[28781,9816],[58,81],[-31,33]],[[28808,9930],[72,-5]],[[28664,9498],[-131,71],[23,130]],[[28556,9699],[81,-3]],[[28637,9696],[27,-198]],[[28857,9129],[14,89]],[[28898,9406],[50,-50],[18,86],[67,-99]],[[29033,9343],[54,-145]],[[28776,9640],[-45,69]],[[28731,9709],[104,48]],[[28835,9757],[77,-20]],[[28912,9737],[0,-92]],[[28912,9645],[0,-30]],[[28912,9615],[-50,102],[-9,-92],[-77,15]],[[29078,9495],[-90,11],[59,-135]],[[29047,9371],[-14,-28]],[[28898,9473],[63,124]],[[28961,9597],[131,-94]],[[29272,9297],[-59,48],[14,74]],[[28542,9699],[-54,-59],[23,-76],[-59,20]],[[28452,9584],[18,178],[5,13]],[[28475,9775],[85,20],[-18,-96]],[[29123,9638],[-81,96]],[[29042,9734],[-9,26]],[[29033,9760],[-45,13],[68,53],[-36,130]],[[29020,9956],[94,-5]],[[29177,9790],[27,-78]],[[28848,9465],[-18,28]],[[28830,9493],[82,117]],[[28912,9610],[49,-13]],[[28700,9155],[-32,157]],[[28668,9312],[-4,183]],[[28664,9495],[27,-17]],[[28691,9478],[139,15]],[[28664,9495],[0,3]],[[28637,9696],[72,69],[22,-56]],[[28776,9640],[-90,-81],[5,-81]],[[28781,9816],[-108,104]],[[28673,9920],[45,59]],[[28718,9979],[72,20],[18,-69]],[[28835,9757],[-18,16]],[[28880,9925],[72,94]],[[28952,10019],[41,-20]],[[28993,9999],[27,-43]],[[29033,9760],[-121,-23]],[[28556,9699],[-14,0]],[[28475,9775],[9,84]],[[28484,9859],[130,107]],[[28614,9966],[59,-46]],[[28614,9966],[41,122]],[[28655,10088],[72,-46]],[[28727,10042],[-9,-63]],[[28632,9157],[-18,115],[-54,20]],[[28560,9292],[108,20]],[[29042,9734],[-4,-96],[-126,7]],[[28407,9094],[5,73],[9,97]],[[28421,9264],[85,53]],[[28506,9317],[54,-25]],[[28912,9610],[0,5]],[[29047,9371],[22,-38],[0,104],[54,10]],[[29150,9378],[-27,-35],[59,-23],[-9,-81],[49,17]],[[28727,10042],[94,-23],[23,61]],[[28844,10080],[90,26],[18,-87]],[[28493,9971],[18,201],[9,66]],[[28520,10238],[121,-5]],[[28641,10233],[5,-104]],[[28646,10129],[-63,-18],[0,53],[-9,-152],[-54,25],[-27,-66]],[[28655,10088],[9,5]],[[28664,10093],[157,13]],[[28821,10106],[23,-26]],[[28664,9495],[-23,-63],[-198,25],[63,-140]],[[28421,9264],[4,23],[14,152],[9,92],[4,53]],[[28484,9859],[4,94],[5,18]],[[28646,10129],[18,-36]],[[29465,10235],[-99,21]],[[29366,10256],[-40,43]],[[29326,10299],[0,13]],[[29326,10312],[139,-77]],[[29479,10230],[63,-28],[-27,-43]],[[29515,10159],[-131,-8]],[[29384,10151],[-63,11]],[[29321,10162],[-4,23]],[[29317,10185],[49,71]],[[29465,10235],[14,-5]],[[29150,10574],[0,96]],[[29150,10670],[81,-2],[9,0]],[[29240,10668],[50,-79]],[[29290,10589],[-5,-5]],[[29285,10584],[-45,30],[0,-56]],[[29240,10558],[-90,16]],[[29438,10393],[-67,-28]],[[29371,10365],[-167,59]],[[29204,10424],[36,56]],[[29240,10480],[212,2]],[[29452,10482],[-14,-89]],[[29452,10482],[13,43]],[[29465,10525],[81,74]],[[29546,10599],[0,-132]],[[29546,10467],[-18,-43]],[[29528,10424],[-27,-33]],[[29501,10391],[-63,2]],[[29240,10480],[0,78]],[[29285,10584],[144,-69],[45,56],[-9,-46]],[[28520,10238],[4,43],[9,74],[9,119],[27,-66],[23,161],[144,-153]],[[28736,10416],[13,-89]],[[28749,10327],[-108,-94]],[[29204,10276],[-72,-2]],[[29132,10274],[32,94]],[[29164,10368],[81,-87],[-41,-5]],[[29191,9951],[-32,94],[63,-41],[32,125],[67,33]],[[29384,10151],[-40,-48],[45,-79]],[[29389,10024],[-18,-61]],[[29290,10589],[54,-20],[18,96]],[[29362,10665],[121,-5]],[[29483,10660],[72,-61]],[[29555,10599],[-9,0]],[[29583,9979],[36,25],[-36,41]],[[29583,10045],[99,-21]],[[29389,10024],[166,44]],[[29555,10068],[28,-23]],[[28866,10441],[-27,49],[45,58]],[[28884,10548],[50,-56]],[[28934,10492],[-68,-51]],[[28668,10548],[41,-5],[18,130]],[[28727,10673],[40,0],[50,0],[67,0]],[[28884,10673],[0,-125]],[[28866,10441],[-112,-28],[-86,135]],[[28884,10673],[73,0]],[[28957,10673],[58,-31],[-31,-58],[67,-13],[-76,3],[-9,-59]],[[28966,10515],[-32,-23]],[[29515,10159],[40,-91]],[[29164,10368],[4,38]],[[29168,10406],[32,-54],[40,64],[86,-104]],[[29326,10299],[-77,-102]],[[29249,10197],[-45,79]],[[29074,10553],[13,-79]],[[29087,10474],[-121,41]],[[28957,10673],[45,-3],[22,0],[9,0]],[[29033,10670],[41,-117]],[[28993,10225],[-81,8]],[[28912,10233],[36,127]],[[28948,10360],[45,58]],[[28993,10418],[81,-48],[-81,-145]],[[29240,10668],[95,-3],[27,0]],[[29150,10574],[-76,-21]],[[29033,10670],[104,0],[13,0]],[[28993,9999],[0,25]],[[28993,10024],[117,84],[-36,28]],[[29074,10136],[58,138]],[[29249,10197],[68,-12]],[[28993,10024],[0,161]],[[28993,10185],[81,-49]],[[29204,10424],[-117,50]],[[28808,10230],[54,-25],[-41,-99]],[[28749,10327],[59,-97]],[[28808,10230],[40,54],[64,-51]],[[28993,10225],[0,-40]],[[28875,10406],[-58,-10]],[[28817,10396],[67,48]],[[28884,10444],[-9,-38]],[[28948,10360],[-73,46]],[[28884,10444],[185,2]],[[29069,10446],[-76,-28]],[[29479,10230],[126,-15]],[[29605,10215],[50,-58]],[[29655,10157],[45,-28]],[[29501,10391],[-22,-151]],[[29479,10240],[-108,125]],[[29069,10446],[99,-40]],[[28736,10416],[81,-20]],[[28484,10675],[157,0],[86,-2]],[[28668,10548],[-139,31],[-45,96]],[[29605,10660],[-50,-61]],[[29483,10660],[18,0],[104,0]],[[30384,10556],[-90,102]],[[30294,10658],[126,-3],[-36,-99]],[[29862,10365],[-77,-38]],[[29785,10327],[-9,33]],[[29776,10360],[18,56]],[[29794,10416],[59,15]],[[29853,10431],[9,-66]],[[30299,10238],[-18,-18]],[[30281,10220],[-27,-20]],[[30254,10200],[-64,53]],[[30190,10253],[55,54]],[[30245,10307],[13,10]],[[30258,10317],[54,-10],[-13,-69]],[[30123,10607],[-90,-82]],[[30033,10525],[-50,66]],[[29983,10591],[-40,69]],[[29943,10660],[126,-2],[63,0]],[[30132,10658],[-9,-51]],[[30154,10507],[81,18],[5,-91]],[[30240,10434],[-5,15]],[[30235,10449],[-72,3]],[[30163,10452],[-9,55]],[[29821,10131],[5,3]],[[29826,10134],[108,28]],[[29934,10162],[90,86]],[[30024,10248],[22,-69]],[[30046,10179],[0,-2]],[[30046,10177],[-67,-59]],[[29979,10118],[-90,-40],[-68,53]],[[29974,10108],[-36,-10]],[[29938,10098],[36,13]],[[29974,10111],[0,-3]],[[29920,10418],[-13,-122]],[[29907,10296],[-27,-30]],[[29880,10266],[-45,23],[27,76]],[[29853,10431],[0,54]],[[29853,10485],[76,10]],[[29929,10495],[-9,-77]],[[29546,10467],[28,84],[112,-64]],[[29686,10487],[-58,5]],[[29628,10492],[-64,-81]],[[29564,10411],[-36,13]],[[29713,10546],[-67,114]],[[29646,10660],[72,0],[58,-2],[68,2]],[[29844,10660],[-77,-91]],[[29767,10569],[-54,-23]],[[30046,10429],[-103,-8]],[[29943,10421],[-23,-3]],[[29929,10495],[-4,20]],[[29925,10515],[121,-23]],[[30046,10492],[5,-53]],[[30051,10439],[-5,-10]],[[30222,10327],[-23,33]],[[30199,10360],[-36,92]],[[30235,10449],[37,-56],[-50,-66]],[[29655,10157],[18,48]],[[29673,10205],[81,-8]],[[30069,10106],[-32,10]],[[30037,10116],[54,63],[23,-40]],[[30114,10139],[-45,-33]],[[30132,10195],[-14,-26]],[[30118,10169],[23,44]],[[30141,10213],[-9,-18]],[[29623,10284],[0,-44]],[[29623,10240],[-144,0]],[[29564,10411],[10,-3]],[[29574,10408],[0,-86]],[[29574,10322],[49,-38]],[[29628,10492],[0,-74]],[[29628,10418],[-54,-10]],[[29628,10329],[-54,-7]],[[29628,10418],[0,-68]],[[29628,10350],[0,-21]],[[29736,10492],[-23,54]],[[29767,10569],[27,-23]],[[29794,10546],[-22,-36]],[[29772,10510],[-36,-18]],[[29925,10274],[9,-112]],[[29826,10134],[9,71]],[[29835,10205],[45,61]],[[29907,10296],[18,-22]],[[29853,10485],[-59,-8],[0,69]],[[29844,10660],[94,0],[5,0]],[[29983,10591],[-54,13],[-4,-89]],[[29835,10205],[-50,97]],[[29785,10302],[0,25]],[[29974,10375],[-49,-101]],[[29943,10421],[31,-46]],[[30384,10335],[-63,-77]],[[30321,10258],[-22,-20]],[[30258,10317],[63,89]],[[30321,10406],[72,38],[23,-53]],[[30416,10391],[-32,-56]],[[30033,10525],[13,-33]],[[30051,10281],[40,178],[-40,-20]],[[30123,10607],[36,-5],[-36,-44],[31,-51]],[[30199,10360],[-99,-84]],[[30100,10276],[-49,5]],[[30222,10327],[-90,-102],[-32,51]],[[30190,10253],[-58,-58]],[[30141,10213],[104,94]],[[30024,10248],[27,33]],[[30100,10276],[-54,-97]],[[30046,10177],[-36,-56]],[[30010,10121],[-36,-13]],[[29974,10111],[5,7]],[[30254,10185],[-91,-56]],[[30163,10129],[-36,-8]],[[30127,10121],[-9,48]],[[30254,10200],[0,-15]],[[30132,10658],[158,0],[4,0]],[[30384,10556],[-63,-79],[-58,-46],[-23,3]],[[29736,10492],[-50,-5]],[[29605,10660],[14,0],[27,0]],[[30046,10429],[-72,-54]],[[29605,10215],[68,-10]],[[29776,10360],[-45,-10]],[[29731,10350],[-9,41]],[[29722,10391],[-4,20]],[[29718,10411],[76,5]],[[29785,10302],[-58,-16]],[[29727,10286],[-18,41]],[[29709,10327],[22,23]],[[29821,10131],[-94,112]],[[29727,10243],[0,43]],[[29709,10327],[-14,30]],[[29695,10357],[-27,13]],[[29668,10370],[0,31]],[[29668,10401],[54,-10]],[[29668,10370],[-4,-2]],[[29664,10368],[-36,-18]],[[29686,10487],[0,-69]],[[29686,10418],[-18,-17]],[[29695,10357],[-13,-43],[-18,54]],[[29772,10510],[-54,-99]],[[29718,10411],[-32,7]],[[29628,10329],[-5,-45]],[[29727,10243],[-104,-3]],[[30321,9762],[0,-84],[-72,23],[27,-66],[-90,18],[36,-69]],[[30222,9584],[-23,-10]],[[30199,9574],[-31,10]],[[30168,9584],[-5,36]],[[30163,9620],[145,201]],[[30308,9821],[9,-13]],[[30317,9808],[4,-46]],[[30344,9589],[-122,-5]],[[30321,9762],[59,-43]],[[30380,9719],[0,-2]],[[30380,9717],[31,-41],[-67,-87]],[[30163,9620],[-49,13]],[[30114,9633],[153,213]],[[30267,9846],[41,-25]],[[30263,9562],[-9,-59]],[[30254,9503],[-55,0]],[[30199,9503],[0,71]],[[30344,9589],[4,-5]],[[30348,9584],[-85,-22]],[[30042,9569],[13,15]],[[30055,9584],[59,49]],[[30168,9584],[-36,-78]],[[30132,9506],[-90,63]],[[30136,9480],[-4,26]],[[30199,9503],[-63,-23]],[[29974,9856],[-54,26]],[[29920,9882],[59,66]],[[29979,9948],[81,-66]],[[30060,9882],[-86,-26]],[[30100,10032],[-40,-53],[40,-61]],[[30100,9918],[-40,-36]],[[29979,9948],[36,71]],[[30015,10019],[0,3]],[[30015,10022],[72,76]],[[30087,10098],[18,-36]],[[30105,10062],[-5,-30]],[[30091,9740],[-94,-100]],[[29997,9640],[-32,-15]],[[29844,9734],[36,72]],[[29880,9806],[72,-61]],[[29952,9745],[139,-5]],[[29929,9500],[113,69]],[[30136,9480],[5,-56]],[[30033,9630],[-36,10]],[[30091,9740],[95,106]],[[30186,9846],[13,16]],[[30199,9862],[68,-16]],[[30055,9584],[-22,46]],[[29952,9745],[85,86],[140,15]],[[30177,9846],[9,0]],[[29880,9806],[94,50]],[[30100,9918],[77,-72]],[[30474,10497],[-63,69]],[[30411,10566],[14,89],[63,-3],[4,0],[18,-127]],[[30510,10525],[-36,-28]],[[30420,9846],[-54,66]],[[30366,9912],[68,18],[9,71]],[[30443,10001],[54,-117],[108,56]],[[30605,9940],[0,-5],[13,-89]],[[30618,9846],[-112,-43],[-18,61],[-68,-18]],[[30618,9846],[18,-122],[5,-12]],[[30641,9712],[-261,5]],[[30380,9719],[40,127]],[[30199,9862],[46,94]],[[30245,9956],[27,109]],[[30272,10065],[13,33]],[[30285,10098],[5,-2]],[[30290,10096],[40,-36]],[[30330,10060],[-18,-153],[41,0]],[[30353,9907],[-36,-99]],[[30100,10032],[108,-20]],[[30208,10012],[37,-56]],[[30208,10012],[-13,17]],[[30195,10029],[77,36]],[[30474,10497],[9,-58],[32,46]],[[30515,10485],[9,-61]],[[30524,10424],[-108,-33]],[[30321,10406],[-9,7],[54,112],[45,41]],[[30366,9912],[-13,-5]],[[30330,10060],[77,107]],[[30407,10167],[54,12]],[[30461,10179],[49,-66]],[[30510,10113],[-67,-112]],[[30290,10096],[76,81]],[[30366,10177],[41,36],[-45,40]],[[30362,10253],[36,-5]],[[30398,10248],[9,-81]],[[30177,10042],[-14,87]],[[30254,10185],[31,-87]],[[30195,10029],[-18,13]],[[30033,9630],[-90,-53]],[[30569,10157],[9,-61],[27,-156]],[[30510,10113],[59,44]],[[30105,10062],[72,-20]],[[30087,10098],[-18,8]],[[30114,10139],[13,-18]],[[30010,10121],[-45,-94],[-27,71]],[[30015,10022],[22,94]],[[29920,9882],[-58,-23]],[[29875,10078],[54,-13],[-45,-127],[131,81]],[[30470,10307],[-72,-59]],[[30362,10253],[-41,5]],[[30384,10335],[86,-28]],[[30510,10525],[5,-40]],[[30533,10393],[-63,-86]],[[30524,10424],[9,-31]],[[30461,10179],[81,140]],[[30542,10319],[27,-162]],[[30281,10220],[85,-43]],[[30533,10393],[9,-74]],[[29546,7975],[-4,109]],[[29542,8084],[13,79]],[[29555,8163],[46,-51]],[[29601,8112],[4,-61],[5,43],[58,-46],[23,74],[36,-76],[-36,-43]],[[29691,8003],[-36,-51],[-77,41],[-23,-87]],[[29555,7906],[-9,69]],[[30443,7349],[-23,-25]],[[30420,7324],[-90,18]],[[30330,7342],[-36,73],[54,51]],[[30348,7466],[104,0]],[[30452,7466],[-9,-117]],[[29555,8163],[14,74]],[[29569,8237],[-5,61]],[[29564,8298],[32,17]],[[29677,8331],[23,-38]],[[29700,8293],[-99,-181]],[[29961,7105],[-90,69],[-63,-72]],[[29808,7102],[-9,0]],[[29799,7102],[0,105]],[[29799,7207],[31,30]],[[29830,7237],[77,-68],[103,68],[36,-40]],[[30046,7197],[27,0]],[[30073,7197],[-40,-95]],[[30033,7102],[0,-86]],[[30033,7016],[-63,15]],[[29970,7031],[-9,74]],[[30245,7199],[49,127]],[[30294,7326],[36,16]],[[30420,7324],[-13,-66]],[[30407,7258],[-54,-59]],[[30353,7199],[-108,0]],[[30186,7842],[-41,59],[45,58]],[[30190,7959],[59,-48]],[[30249,7911],[-63,-69]],[[30695,7288],[-54,-46]],[[30641,7242],[-41,69]],[[30600,7311],[-112,214]],[[30488,7525],[144,114],[90,-66]],[[30722,7573],[-32,-109],[99,-3],[-103,-81],[9,-92]],[[30641,7199],[-50,3]],[[30591,7202],[-36,-3]],[[30555,7199],[-148,59]],[[30443,7349],[117,-94],[40,56]],[[30641,7242],[0,-43]],[[29970,8089],[-23,-18]],[[29947,8071],[-36,51]],[[29911,8122],[41,-10]],[[29952,8112],[18,-23]],[[29929,8176],[-22,-36]],[[29907,8140],[-41,-43]],[[29866,8097],[-45,86]],[[29821,8183],[-49,84]],[[29772,8267],[130,69]],[[29902,8336],[36,-66]],[[29938,8270],[-9,-94]],[[30132,8115],[-14,71]],[[30118,8186],[-22,155]],[[30096,8341],[49,13]],[[30145,8354],[100,-46]],[[30245,8308],[-113,-193]],[[29929,8176],[23,-64]],[[29911,8122],[-4,18]],[[30096,8341],[-77,-26]],[[30019,8315],[-13,49]],[[30163,8443],[-18,-67],[59,-10],[-59,-12]],[[30722,7573],[36,8],[-81,55],[45,59],[-90,-8],[13,54]],[[30645,7741],[113,7]],[[30758,7748],[54,-89],[72,41],[36,-46]],[[30920,7654],[-9,-73],[-45,-117],[-9,-100],[9,-17]],[[30866,7347],[-81,-61]],[[30785,7286],[-90,2]],[[29961,7105],[-81,-79],[-5,79],[-67,-3]],[[30330,7690],[-85,-43]],[[30245,7647],[-55,-5]],[[30190,7642],[0,30]],[[30190,7672],[50,69],[-54,101]],[[30249,7911],[14,-2]],[[30263,7909],[36,-82]],[[30299,7827],[31,-137]],[[29709,7553],[-95,-184],[-135,-33]],[[29479,7336],[0,79]],[[29479,7415],[0,132],[40,3]],[[29519,7550],[113,3]],[[29632,7553],[77,0]],[[30384,7830],[-13,40]],[[30371,7870],[40,-40]],[[30411,7830],[-27,0]],[[29871,7558],[-36,-5]],[[29835,7553],[-126,0]],[[29632,7553],[-18,111]],[[29614,7664],[27,0]],[[29641,7664],[162,-91],[68,84]],[[29871,7657],[0,-15]],[[29871,7642],[0,-84]],[[29799,7102],[-113,0]],[[29686,7102],[-45,67],[-126,-46]],[[29515,7123],[-86,188]],[[29429,7311],[50,25]],[[29479,7336],[36,-94],[284,-35]],[[30060,7242],[13,26]],[[30073,7268],[0,-23]],[[30073,7245],[-13,-3]],[[30073,7268],[-40,124]],[[30033,7392],[13,66]],[[30046,7458],[-4,97],[112,0]],[[30154,7555],[18,-51]],[[30172,7504],[-76,-5],[-23,-84],[77,-38],[-77,-132]],[[29988,7555],[-9,43]],[[29979,7598],[63,-2],[-36,96],[58,-10]],[[30064,7682],[126,-10]],[[30190,7642],[-36,-87]],[[30046,7458],[-58,97]],[[29839,7293],[-9,-56]],[[29835,7553],[4,-138]],[[29839,7415],[0,-122]],[[29776,6945],[32,157]],[[29970,7031],[0,-68]],[[29970,6963],[-194,-18]],[[30384,7830],[-85,-3]],[[30263,7909],[90,53]],[[30353,7962],[72,-33],[-54,-59]],[[29844,7781],[-54,-94],[-68,77],[-81,-100]],[[29614,7664],[-27,77]],[[29587,7741],[9,160]],[[29596,7901],[45,10],[41,-117],[81,23]],[[29763,7817],[81,-36]],[[29943,7403],[-36,15]],[[29907,7418],[18,91],[-54,49]],[[29871,7642],[81,-36]],[[29952,7606],[36,-51]],[[30033,7392],[-90,11]],[[29907,7418],[-68,-3]],[[29902,7881],[36,-168]],[[29938,7713],[-67,-56]],[[29871,7657],[-27,124]],[[29763,7817],[40,81]],[[29803,7898],[54,-58],[0,61],[45,-20]],[[29952,7606],[27,-8]],[[30452,7466],[31,69]],[[30483,7535],[5,-10]],[[29839,7293],[126,13],[-22,97]],[[30060,7242],[-14,-45]],[[29772,8267],[-50,-81],[0,104]],[[29722,8290],[176,71]],[[29898,8361],[4,-25]],[[30064,7682],[-18,46]],[[30046,7728],[50,59]],[[30096,7787],[63,-13],[-18,68],[45,0]],[[30483,7535],[-22,107]],[[30461,7642],[63,99],[-23,89],[54,0]],[[30555,7830],[72,0],[18,-89]],[[29898,8031],[-32,66]],[[29947,8071],[0,-51]],[[29947,8020],[-49,11]],[[30348,7466],[27,81],[-130,100]],[[30330,7690],[131,-48]],[[30096,7787],[-54,99],[45,23]],[[30087,7909],[63,40],[-14,61]],[[30136,8010],[32,10]],[[30168,8020],[22,-61]],[[29893,8031],[-27,-21]],[[29866,8010],[-45,173]],[[29898,8031],[-5,0]],[[29700,8293],[22,-3]],[[29866,8010],[-67,-66]],[[29799,7944],[-108,59]],[[29938,7713],[36,43]],[[29974,7756],[72,-28]],[[30168,8020],[113,41]],[[30281,8061],[72,-99]],[[30136,8010],[-22,23]],[[30114,8033],[18,82]],[[30245,8308],[9,-21]],[[30254,8287],[81,-48],[54,59]],[[30389,8298],[-45,-181]],[[30344,8117],[-63,-56]],[[30172,7504],[0,-107],[122,-71]],[[30245,7199],[-14,-30]],[[30231,7169],[-86,-44],[14,74],[-86,-2]],[[30019,8315],[-27,-76],[-54,31]],[[29898,8361],[-5,3]],[[30344,8117],[108,-63],[58,35]],[[30510,8089],[18,-7]],[[30528,8082],[45,-36],[-40,-41],[54,0]],[[30587,8005],[-14,-112],[-121,56],[18,-109],[-59,-10]],[[30587,8005],[27,18]],[[30614,8023],[13,-30]],[[30627,7993],[0,-156],[-72,-7]],[[30118,8186],[-121,-87]],[[29997,8099],[-27,-10]],[[30114,8033],[-77,5]],[[30037,8038],[-40,61]],[[29961,7998],[0,-26]],[[29961,7972],[-9,-20]],[[29952,7952],[-14,0]],[[29938,7952],[-27,20]],[[29911,7972],[14,18],[-18,13]],[[29907,8003],[-14,28]],[[29947,8020],[14,-22]],[[29952,7926],[90,-178],[-68,8]],[[29902,7881],[45,2],[-9,69]],[[29952,7952],[0,-8]],[[29952,7944],[0,-18]],[[29961,7972],[18,-7]],[[29979,7965],[40,-3]],[[30019,7962],[-4,-13]],[[30015,7949],[-14,-18]],[[30001,7931],[-49,13]],[[29979,8010],[0,-45]],[[29961,7998],[18,12]],[[29803,7898],[-4,46]],[[29907,8003],[4,-31]],[[29979,8010],[4,-2],[0,2],[23,13]],[[30006,8023],[13,-61]],[[30037,8038],[-31,-15]],[[30001,7931],[-49,-5]],[[30015,7949],[72,-40]],[[30326,9330],[-5,-71]],[[30321,9259],[-95,-23]],[[30226,9236],[-49,33]],[[30177,9322],[40,67]],[[30217,9389],[59,-18]],[[30276,9371],[50,-41]],[[30231,9193],[-5,43]],[[30321,9259],[68,-28]],[[30389,9231],[-5,-33]],[[30384,9198],[-18,-10]],[[30366,9188],[-135,5]],[[30276,9371],[9,2]],[[30285,9373],[68,18]],[[30353,9391],[49,15]],[[30402,9406],[-40,-20],[-36,-53],[0,-3]],[[30402,9406],[27,23]],[[30429,9429],[41,-63]],[[30470,9366],[0,-84],[-81,-51]],[[30303,9409],[-18,-36]],[[30217,9389],[32,45]],[[30249,9434],[36,0]],[[30285,9434],[18,-25]],[[30249,8725],[-14,79]],[[30240,8954],[86,25],[54,-94]],[[30380,8885],[-72,-163]],[[30362,8722],[-54,0]],[[30380,8885],[63,13],[45,-71]],[[30488,8827],[-126,-105]],[[30501,8727],[0,-94]],[[30501,8633],[-148,-53]],[[30362,8722],[139,5]],[[30515,9096],[-23,-58]],[[30492,9038],[-121,-23],[-41,84]],[[30330,9099],[36,89]],[[30384,9198],[131,-102]],[[30231,9193],[-50,-10]],[[30672,9480],[-49,-56],[27,-114]],[[30650,9310],[-153,114]],[[30497,9424],[13,59],[153,48]],[[30663,9531],[9,-51]],[[30726,9111],[9,-56]],[[30735,9055],[-76,16]],[[30659,9071],[-36,51]],[[30623,9122],[103,-11]],[[30609,9124],[-45,-38]],[[30564,9086],[-49,10]],[[30470,9366],[27,58]],[[30650,9310],[22,-38]],[[30672,9272],[-63,-148]],[[30353,9391],[-50,18]],[[30285,9434],[-22,77],[58,68],[-58,-17]],[[30348,9584],[45,-10],[-31,-68],[94,-6],[-27,-71]],[[30492,9038],[-4,-204]],[[30488,8834],[0,-7]],[[30312,9099],[18,0]],[[30672,9480],[27,-170],[0,-23],[9,-31]],[[30708,9256],[-36,16]],[[30659,9071],[-59,-71]],[[30600,9000],[-36,86]],[[30609,9124],[14,-2]],[[30254,9503],[-41,-66],[36,-3]],[[30641,9712],[22,-171],[0,-10]],[[30708,9256],[18,-145]],[[30564,8694],[45,150]],[[30609,8844],[36,61]],[[30645,8905],[113,13]],[[30758,8918],[22,-170],[5,-21]],[[30785,8727],[-162,-45]],[[30623,8682],[-59,12]],[[30488,8834],[121,10]],[[30564,8694],[-27,-35],[-36,68]],[[30600,9000],[54,-28],[-9,-67]],[[30735,9055],[5,-20],[4,-20],[14,-97]],[[30717,6759],[5,-91]],[[30722,6668],[-104,-36]],[[30618,6632],[-31,51]],[[30587,6683],[0,53]],[[30587,6736],[40,61]],[[30627,6797],[90,-23]],[[30717,6774],[0,-15]],[[30735,6861],[9,-69]],[[30744,6792],[-27,-18]],[[30627,6797],[-81,13]],[[30546,6810],[0,13]],[[30546,6823],[45,-5],[-27,84],[77,-3]],[[30641,6899],[94,-38]],[[30587,6736],[-36,31]],[[30551,6767],[-5,43]],[[30641,7067],[0,86]],[[30641,7153],[0,46]],[[30785,7286],[-5,-232]],[[30780,7054],[-139,13]],[[30555,7199],[-54,-2],[0,-89]],[[30501,7108],[-148,10]],[[30353,7118],[0,81]],[[30717,6759],[32,13]],[[30749,6772],[54,61]],[[30803,6833],[27,-69]],[[30830,6764],[-23,-140]],[[30807,6624],[-85,44]],[[30290,6764],[-14,-40]],[[30276,6724],[-63,40]],[[30213,6764],[13,56]],[[30226,6820],[64,-56]],[[30641,7153],[-45,3]],[[30596,7156],[-5,46]],[[30204,6683],[-27,81]],[[30177,6764],[36,0]],[[30276,6724],[59,-26]],[[30335,6698],[-23,-53]],[[30312,6645],[-108,38]],[[30929,7092],[-41,-236],[-9,-97]],[[30879,6759],[-4,0]],[[30875,6759],[-45,5]],[[30803,6833],[0,46]],[[30803,6879],[-14,114]],[[30789,6993],[-9,61]],[[30780,7054],[149,38]],[[30807,6619],[-27,-53]],[[30780,6566],[-72,-3],[-58,-2]],[[30650,6561],[-32,71]],[[30807,6624],[0,-5]],[[30744,6792],[5,-20]],[[30290,6764],[58,0],[27,148]],[[30375,6912],[86,-13]],[[30461,6899],[-50,-135]],[[30411,6764],[-13,-15]],[[30398,6749],[-63,-51]],[[30033,6909],[0,107]],[[30033,7102],[103,-71],[63,84]],[[30199,7115],[9,-107]],[[30208,7008],[-27,-124]],[[30181,6884],[-148,25]],[[30249,6889],[14,86],[-55,33]],[[30199,7115],[32,54]],[[30353,7118],[-5,-54]],[[30348,7064],[27,-152]],[[30226,6820],[23,69]],[[30317,6558],[-104,-2]],[[30213,6556],[-9,127]],[[30312,6645],[5,-87]],[[30807,6619],[50,10],[18,130]],[[30879,6759],[64,-117],[22,-79],[-113,0],[-67,3],[-5,0]],[[30398,6749],[94,-102],[-27,-89]],[[30465,6558],[-63,0],[-36,0],[-49,0]],[[30641,6899],[0,76]],[[30641,6975],[148,18]],[[30803,6879],[-68,-18]],[[30587,6683],[-72,-3],[0,84]],[[30515,6764],[36,3]],[[30546,6823],[-4,124]],[[30542,6947],[18,120]],[[30560,7067],[36,89]],[[30641,7067],[0,-92]],[[30249,6889],[-68,-5]],[[30461,6899],[27,38]],[[30488,6937],[54,10]],[[30515,6764],[-104,0]],[[30488,6937],[-140,127]],[[30501,7108],[59,-41]],[[30866,7347],[63,-252],[0,-3]],[[30650,6561],[-32,0],[-103,0],[-50,-3]],[[29641,7102],[23,-137]],[[29664,6965],[-72,-132]],[[29592,6833],[-86,0]],[[29506,6833],[-140,193]],[[29366,7026],[-90,94]],[[29276,7120],[5,13]],[[29281,7133],[40,99]],[[29321,7232],[108,79]],[[29515,7123],[126,-21]],[[29853,6670],[-5,-7]],[[29848,6663],[-54,157],[-58,13],[-95,-71],[-9,-135],[-72,5]],[[29560,6632],[-68,36],[77,35],[23,130]],[[29664,6965],[112,-20]],[[29970,6963],[-117,-293]],[[29164,7270],[72,145]],[[29236,7415],[45,-2]],[[29281,7413],[198,2]],[[29321,7232],[5,79],[-162,-41]],[[29281,6563],[-45,120],[-41,-51],[-72,46]],[[29123,6678],[0,152]],[[29123,6830],[108,0]],[[29231,6830],[50,0]],[[29281,6830],[225,3]],[[29560,6632],[-23,-71]],[[29537,6561],[-63,0],[-193,2]],[[29281,6830],[9,122]],[[29290,6952],[36,-35],[40,109]],[[29015,7415],[-18,46]],[[28997,7461],[45,64],[68,-23]],[[29110,7502],[90,71],[72,-69]],[[29272,7504],[9,-91]],[[29236,7415],[-221,0]],[[28948,7278],[-82,-56],[5,58]],[[28871,7280],[-14,51]],[[28857,7331],[55,23],[36,-76]],[[29281,6563],[-158,-2]],[[29123,6561],[41,48],[-41,69]],[[30037,6693],[5,-135]],[[30042,6558],[-86,0],[-193,0]],[[29763,6558],[85,105]],[[29853,6670],[184,23]],[[28966,7133],[0,20]],[[28966,7153],[0,122]],[[28966,7275],[36,61]],[[29002,7336],[117,-17],[-113,-183]],[[29006,7136],[-40,-3]],[[29047,6896],[-90,110]],[[28957,7006],[9,51]],[[28966,7057],[-45,33],[45,43]],[[29006,7136],[14,7]],[[29020,7143],[90,0],[54,-188]],[[29164,6955],[-5,-5]],[[29159,6950],[-45,-66]],[[29114,6884],[-67,12]],[[28857,7331],[-45,16]],[[28812,7347],[27,114],[86,-43]],[[28925,7418],[90,-3]],[[29015,7415],[-13,-79]],[[28966,7275],[-18,3]],[[28966,7057],[-100,-26]],[[28866,7031],[0,107],[-63,13]],[[28803,7151],[-9,112],[-67,-23]],[[28727,7240],[-63,79]],[[28664,7319],[27,30]],[[28691,7349],[72,43],[49,-45]],[[28871,7280],[-23,-58],[118,-69]],[[30177,6764],[-140,-2]],[[30037,6762],[-4,147]],[[29231,6830],[-9,125]],[[29222,6955],[68,-3]],[[29686,7102],[-45,0]],[[29276,7120],[-112,-165]],[[29020,7143],[81,54]],[[29101,7197],[180,-64]],[[30037,6762],[0,-69]],[[29101,7197],[63,73]],[[29123,6830],[-49,0],[40,54]],[[29159,6950],[63,5]],[[30213,6556],[-108,0],[-63,2]],[[28925,6815],[-113,54]],[[28812,6869],[0,68]],[[28812,6937],[145,69]],[[29047,6896],[-36,-78],[-86,-3]],[[29763,6558],[-189,3],[-37,0]],[[29123,6561],[-99,0],[-81,0]],[[28943,6561],[-63,107]],[[28880,6668],[45,147]],[[28637,6568],[-45,-109]],[[28592,6459],[-5,71]],[[28587,6530],[18,44]],[[28605,6574],[32,-6]],[[28993,6299],[-109,-48]],[[28884,6251],[-27,-3]],[[28857,6248],[-49,102],[-27,-66]],[[28781,6284],[-77,-18],[-36,130]],[[28668,6396],[-18,22]],[[28650,6418],[36,89]],[[28686,6507],[95,28],[63,112]],[[28844,6647],[4,-86],[95,-21]],[[28943,6540],[-31,-114],[81,-119],[0,-8]],[[28452,5956],[-36,-28]],[[28416,5928],[-18,7]],[[28398,5935],[23,31]],[[28421,5966],[31,-10]],[[28844,5862],[-27,-26]],[[28817,5836],[-9,15]],[[28808,5851],[36,11]],[[28551,7092],[-99,-107]],[[28452,6985],[-63,3]],[[28389,6988],[-112,23]],[[28277,7011],[-5,81]],[[28272,7092],[167,122],[-5,-91],[99,10]],[[28533,7133],[18,-41]],[[28511,6434],[-77,-21]],[[28434,6413],[-9,8]],[[28425,6421],[-49,66]],[[28376,6487],[-18,94],[108,-68],[9,76],[76,46]],[[28551,6635],[54,-61]],[[28587,6530],[-27,-63],[-45,33],[27,-104],[-31,38]],[[28295,6530],[0,33],[-5,117]],[[28290,6680],[167,31]],[[28457,6711],[90,0]],[[28547,6711],[-36,-20],[40,-56]],[[28376,6487],[-81,43]],[[28452,5956],[9,10]],[[28461,5966],[81,35]],[[28542,6001],[-13,-117],[-113,44]],[[28560,7280],[-72,128]],[[28488,7408],[14,30]],[[28502,7438],[18,26]],[[28520,7464],[45,30],[9,-91],[117,-54]],[[28664,7319],[-99,-61]],[[28565,7258],[-5,22]],[[28583,6439],[9,20]],[[28637,6568],[18,8]],[[28655,6576],[31,-69]],[[28650,6418],[-67,21]],[[28767,6200],[18,-99]],[[28785,6101],[-81,7]],[[28704,6108],[-13,87]],[[28691,6195],[76,5]],[[28790,6284],[-23,-84]],[[28691,6195],[-68,43],[-13,91]],[[28610,6329],[4,11]],[[28614,6340],[54,56]],[[28781,6284],[9,0]],[[28290,6680],[-4,110]],[[28286,6790],[81,35]],[[28367,6825],[135,5]],[[28502,6830],[-45,-119]],[[29002,5859],[-41,-10]],[[28961,5849],[-22,40]],[[28939,5889],[-36,112]],[[28903,6001],[49,61]],[[28952,6062],[45,-5]],[[28997,6057],[68,-23]],[[29065,6034],[0,-2]],[[29065,6032],[-45,-140]],[[29020,5892],[-18,-33]],[[28781,6034],[-5,-43]],[[28776,5991],[-22,-68]],[[28754,5923],[-77,111],[27,74]],[[28785,6101],[0,-3]],[[28785,6098],[-4,-64]],[[28776,5991],[127,10]],[[28939,5889],[-95,-27]],[[28808,5851],[-54,72]],[[28565,7258],[22,-94]],[[28587,7164],[-31,2]],[[28556,7166],[-81,38],[-14,76]],[[28461,7280],[99,0]],[[28479,6894],[23,-64]],[[28367,6825],[-86,61]],[[28281,6886],[-4,125]],[[28389,6988],[-18,-89],[86,13]],[[28457,6912],[22,-18]],[[28812,6937],[-13,89],[67,5]],[[28317,5935],[-4,204]],[[28313,6139],[103,17]],[[28416,6156],[-36,-63],[45,-33]],[[28425,6060],[-4,-94]],[[28398,5935],[-81,0]],[[28961,5849],[-77,-56]],[[28884,5793],[-279,-28],[212,71]],[[28425,6060],[59,7],[-23,-101]],[[28812,6869],[-144,-107]],[[28668,6762],[-4,94]],[[28664,6856],[54,102],[-45,-6],[18,41]],[[28691,6993],[-23,112]],[[28668,7105],[-54,48]],[[28614,7153],[113,74]],[[28727,7227],[-5,-63],[81,-13]],[[28691,6993],[-72,64]],[[28619,7057],[49,48]],[[29065,6032],[40,-36],[-85,-104]],[[28880,6668],[-5,0]],[[28875,6668],[-85,5],[0,58],[67,10],[-67,44],[-117,-79]],[[28673,6706],[-23,25]],[[28650,6731],[18,31]],[[28790,6284],[67,-36]],[[28884,6251],[-45,-133]],[[28839,6118],[-54,-20]],[[28650,6731],[-103,-20]],[[28479,6894],[131,18],[54,-56]],[[28272,7092],[0,16],[-4,145],[0,27]],[[28268,7280],[193,0]],[[28556,7166],[-23,-33]],[[28673,6706],[-18,-130]],[[29002,5859],[-118,-66]],[[28943,6561],[0,-21]],[[28844,6647],[31,21]],[[28952,6062],[-117,8]],[[28835,6070],[4,48]],[[28993,6299],[99,-74],[-5,-99]],[[29087,6126],[-72,8],[-18,-77]],[[28587,7164],[27,-11]],[[28619,7057],[-68,35]],[[28727,7240],[0,-13]],[[28583,6439],[-27,-36],[58,-5],[-4,-56]],[[28610,6342],[-27,-5]],[[28583,6337],[-32,8]],[[28551,6345],[-40,89]],[[28614,6340],[-4,2]],[[29087,6126],[-18,-76],[-4,-16]],[[28461,6329],[-9,-56]],[[28452,6273],[-49,8]],[[28403,6281],[-36,31],[58,109]],[[28434,6413],[27,-84]],[[28835,6070],[-54,-36]],[[28416,6156],[9,0]],[[28425,6156],[108,-7]],[[28533,6149],[5,-3]],[[28538,6146],[22,-71]],[[28560,6075],[-18,-74]],[[28452,6985],[5,-73]],[[28286,6790],[0,71],[-5,25]],[[28308,6205],[0,20],[-13,305]],[[28403,6281],[-63,0],[-32,-76]],[[28587,6240],[-4,5]],[[28583,6245],[9,11]],[[28592,6256],[4,-11]],[[28596,6245],[-9,-5]],[[28583,6245],[-18,13]],[[28565,6258],[9,15]],[[28574,6273],[18,-17]],[[28583,6210],[0,13]],[[28583,6223],[4,17]],[[28596,6245],[-13,-35]],[[28565,6228],[0,15]],[[28565,6243],[0,13]],[[28565,6256],[0,2]],[[28583,6223],[-18,5]],[[28538,6146],[-5,51]],[[28533,6197],[32,31]],[[28583,6210],[0,-48],[-23,-87]],[[28529,6218],[0,15]],[[28529,6233],[0,10]],[[28529,6243],[36,0]],[[28533,6197],[-4,21]],[[28529,6243],[4,20]],[[28533,6263],[0,5]],[[28533,6268],[32,-12]],[[28452,6273],[81,-10]],[[28529,6233],[-50,0]],[[28479,6233],[-171,-71]],[[28308,6162],[0,43]],[[28529,6218],[-50,-23]],[[28479,6195],[0,38]],[[28574,6273],[-32,23]],[[28542,6296],[14,18]],[[28556,6314],[27,23]],[[28610,6329],[-14,-84]],[[28556,6314],[-9,13]],[[28547,6327],[4,18]],[[28542,6296],[-4,-2]],[[28538,6294],[-14,13]],[[28524,6307],[23,20]],[[28524,6307],[-63,22]],[[28533,6268],[5,26]],[[28425,6156],[54,8]],[[28479,6164],[54,-15]],[[28479,6164],[0,31]],[[28313,6139],[-5,23]],[[29335,7916],[-27,23]],[[29308,7939],[27,76],[-54,74]],[[29281,8089],[18,0]],[[29299,8089],[94,249]],[[29393,8338],[36,-68]],[[29429,8270],[0,-125]],[[29429,8145],[-40,-130],[94,-81]],[[29483,7934],[-4,-135]],[[29479,7799],[-86,125],[-58,-8]],[[29546,7975],[-40,35],[-23,-76]],[[29429,8145],[36,5]],[[29465,8150],[5,-71],[72,5]],[[29209,7736],[-5,-18]],[[29204,7718],[-22,-89],[-72,114]],[[29110,7743],[-36,102]],[[29074,7845],[81,-51]],[[29155,7794],[54,-58]],[[28921,7626],[0,54]],[[28921,7680],[76,45]],[[28997,7725],[18,-53]],[[29015,7672],[-94,-46]],[[29110,7502],[-72,91]],[[29038,7593],[72,150]],[[29204,7718],[108,-79]],[[29312,7639],[9,-140],[-49,5]],[[28601,7581],[76,-21],[-99,-38]],[[28578,7522],[-45,18],[36,41]],[[28569,7581],[32,0]],[[28997,7725],[0,128],[41,10]],[[29038,7863],[36,-18]],[[29038,7593],[-23,79]],[[28682,7909],[-86,106]],[[28740,8135],[32,-8]],[[28772,8127],[81,-43]],[[28853,8084],[0,-38]],[[28853,8046],[-81,-3],[-18,-112],[-72,-40]],[[28682,7891],[0,18]],[[28921,7626],[-18,13]],[[28903,7639],[-55,36],[-40,-44],[45,-50],[-72,0]],[[28781,7581],[18,150]],[[28799,7731],[13,7]],[[28812,7738],[81,-61],[0,46]],[[28893,7723],[28,-43]],[[28997,8084],[0,-58]],[[28997,8026],[-122,-122]],[[28875,7904],[23,81],[-45,61]],[[28853,8084],[77,0]],[[28930,8084],[67,0]],[[28731,8371],[90,-127]],[[28821,8244],[-49,-5],[45,-56]],[[28817,8183],[-45,-56]],[[28817,8183],[90,36]],[[28907,8219],[-32,-74],[55,-61]],[[29038,8298],[-131,-79]],[[28821,8244],[86,143]],[[29078,8488],[-40,-190]],[[28871,7769],[-59,-31]],[[28799,7731],[-77,53],[32,92],[-140,-46]],[[28614,7830],[9,63],[59,-2]],[[28875,7904],[-4,-135]],[[29465,8150],[36,84],[68,3]],[[29564,8298],[-67,20]],[[29497,8318],[-63,64]],[[29434,8382],[36,68]],[[29470,8450],[31,66]],[[28925,7418],[-22,46]],[[28903,7464],[94,-3]],[[29596,7901],[-41,5]],[[28871,7769],[22,-46]],[[29240,8448],[-40,-107],[99,-252]],[[29281,8089],[-162,10]],[[29119,8099],[-54,110],[-68,-11]],[[28997,8198],[41,100]],[[29429,8270],[68,48]],[[29159,7939],[-81,69]],[[29078,8008],[-13,74],[54,17]],[[29308,7939],[-149,0]],[[29519,7550],[0,89],[-207,0]],[[29209,7736],[117,73]],[[29326,7809],[112,-101],[45,53]],[[29483,7761],[104,-20]],[[28997,8198],[0,-114]],[[29155,7794],[40,82],[-36,63]],[[29335,7916],[4,-56],[-63,5],[50,-56]],[[28903,7464],[0,175]],[[29038,7863],[0,43]],[[29038,7906],[40,0],[0,102]],[[29479,7799],[4,-38]],[[29393,8399],[0,-61]],[[29393,8407],[0,-8]],[[28569,7581],[-31,66],[76,101]],[[28614,7748],[0,82]],[[28781,7581],[-180,0]],[[28997,8026],[0,-120],[41,0]],[[28520,7464],[58,58]],[[29393,8399],[41,-17]],[[29470,8450],[-9,74]],[[30722,8313],[-86,-99]],[[30636,8214],[-72,51]],[[30564,8265],[63,96]],[[30627,8361],[45,8]],[[30672,8369],[50,-56]],[[30614,8023],[22,191]],[[30722,8313],[90,-10]],[[30812,8303],[-5,-21]],[[30807,8282],[-103,-188],[85,-40]],[[30789,8054],[-9,-56]],[[30780,7998],[-49,-16]],[[30731,7982],[-104,11]],[[30528,8082],[-4,50],[76,5],[-18,61],[5,13],[-27,51]],[[30560,8262],[4,3]],[[30510,8089],[-67,191]],[[30443,8280],[40,-13]],[[30483,8267],[77,-5]],[[30528,8443],[-45,-176]],[[30443,8280],[-54,18]],[[30389,8298],[45,99],[-41,13],[108,94],[0,96]],[[30501,8600],[41,-33],[-14,-124]],[[30672,8369],[50,46]],[[30722,8415],[76,17]],[[30798,8432],[-54,-78],[63,2],[5,-53]],[[30254,8287],[130,59],[-103,3],[-9,55],[58,23]],[[30330,8427],[23,153]],[[30501,8633],[0,-33]],[[30798,8432],[27,36]],[[30825,8468],[45,-140],[5,-33]],[[30875,8295],[-68,-13]],[[30803,8608],[-59,-54]],[[30744,8554],[-121,128]],[[30785,8727],[18,-119]],[[30997,7814],[-54,51]],[[30943,7865],[18,49],[49,-100]],[[31010,7814],[-13,0]],[[30798,7802],[-45,-15]],[[30753,7787],[-85,94],[54,73]],[[30722,7954],[49,-12],[27,-140]],[[30753,7787],[5,-39]],[[30731,7982],[-9,-28]],[[30330,8427],[-40,-12],[36,53],[-54,31],[13,12],[5,23]],[[30744,8554],[-22,-139]],[[30627,8361],[-99,82]],[[30803,8608],[13,-104],[9,-36]],[[30952,8135],[18,-48],[0,-31]],[[30970,8056],[-27,20]],[[30943,8076],[-18,33]],[[30925,8109],[27,26]],[[30789,8054],[23,5]],[[30812,8059],[131,17]],[[30970,8056],[22,-20],[-13,-43]],[[30979,7993],[-50,-54],[-95,99],[-54,-40]],[[30812,8059],[36,50]],[[30848,8109],[77,0]],[[30798,7802],[145,63]],[[30997,7814],[-72,-152],[-5,-8]],[[30875,8295],[18,-25],[-5,-28]],[[30888,8242],[-40,-133]],[[30979,7993],[9,-16],[-27,-53],[90,-69],[-27,-28],[-14,-13]],[[30888,8242],[14,-28],[50,-79]],[[28502,7438],[-41,23]],[[28461,7461],[-31,109]],[[28430,7570],[-86,94]],[[28344,7664],[-63,77]],[[28281,7741],[5,30],[4,33]],[[28290,7804],[126,-56]],[[28416,7748],[77,31]],[[28493,7779],[121,-31]],[[28452,7962],[-76,-56]],[[28376,7906],[-77,0]],[[28299,7906],[9,76],[5,69],[9,114]],[[28322,8165],[130,-203]],[[28263,7405],[-4,76],[4,39]],[[28263,7520],[198,-59]],[[28488,7408],[-225,-3]],[[28416,7748],[0,158]],[[28416,7906],[72,0]],[[28488,7906],[5,-127]],[[28290,7804],[9,102]],[[28376,7906],[40,0]],[[28430,7570],[-95,-12],[9,106]],[[28488,7906],[14,0]],[[28502,7906],[180,3]],[[28268,7280],[-5,125]],[[28263,7520],[18,221]],[[28452,7962],[50,-56]],[[28322,8165],[4,18],[0,28]]]}