{"type":"Topology","transform":{"scale":[0.0012831345112129487,0.0009745357309423489],"translate":[-124.73273099999999,24.60334863324381]},"objects":{"area":{"type":"GeometryCollection","geometries":[{"arcs":[[0,1,2,3,4]],"type":"Polygon","properties":{"state":"AZ","name":"WEST PIMA COUNTY","zip":"00014"}},{"arcs":[[5,6,7,8,9,10,11,12,13,14,15]],"type":"Polygon","properties":{"state":"AZ","name":"CORONADO NTL FOREST","zip":"00015"}},{"arcs":[[16,17,18,-2,19,20,21,22,23,24,25,26,27,28,29]],"type":"Polygon","properties":{"state":"AZ","name":"B M GOLDWATER A F RANGE","zip":"00197"}},{"arcs":[[30,31,32,33]],"type":"Polygon","properties":{"state":"AZ","name":"TONTO NATIONAL FOREST","zip":"00199"}},{"arcs":[[34,35,36,37]],"type":"Polygon","properties":{"state":"AZ","name":"PHOENIX","zip":"85003"}},{"arcs":[[38,39,-38,40,41]],"type":"Polygon","properties":{"state":"AZ","name":"PHOENIX","zip":"85004"}},{"arcs":[[42,43,-42,44,45]],"type":"Polygon","properties":{"state":"AZ","name":"PHOENIX","zip":"85006"}},{"arcs":[[46,47,48,49,-36]],"type":"Polygon","properties":{"state":"AZ","name":"PHOENIX","zip":"85007"}},{"arcs":[[50,51,52,53,54,-43]],"type":"Polygon","properties":{"state":"AZ","name":"PHOENIX","zip":"85008"}},{"arcs":[[55,56,57,58,59,60,-48]],"type":"Polygon","properties":{"state":"AZ","name":"PHOENIX","zip":"85009"}},{"arcs":[[61,-41,62,63]],"type":"Polygon","properties":{"state":"AZ","name":"PHOENIX","zip":"85012"}},{"arcs":[[-37,-50,64,65,-63]],"type":"Polygon","properties":{"state":"AZ","name":"PHOENIX","zip":"85013"}},{"arcs":[[66,-45,-62,67]],"type":"Polygon","properties":{"state":"AZ","name":"PHOENIX","zip":"85014"}},{"arcs":[[-49,-61,68,69,-65]],"type":"Polygon","properties":{"state":"AZ","name":"PHOENIX","zip":"85015"}},{"arcs":[[-46,-67,70,71,72,73,-51]],"type":"Polygon","properties":{"state":"AZ","name":"PHOENIX","zip":"85016"}},{"arcs":[[74,75,-69,-60]],"type":"Polygon","properties":{"state":"AZ","name":"PHOENIX","zip":"85017"}},{"arcs":[[76,-52,-74,77,78]],"type":"Polygon","properties":{"state":"AZ","name":"PHOENIX","zip":"85018"}},{"arcs":[[-59,79,80,81,-75]],"type":"Polygon","properties":{"state":"AZ","name":"PHOENIX","zip":"85019"}},{"arcs":[[82,83,84,85,-71,-68,-64]],"type":"Polygon","properties":{"state":"AZ","name":"PHOENIX","zip":"85020"}},{"arcs":[[-66,-70,86,87,-83]],"type":"Polygon","properties":{"state":"AZ","name":"PHOENIX","zip":"85021"}},{"arcs":[[88,-85,89,90,91,92]],"type":"Polygon","properties":{"state":"AZ","name":"PHOENIX","zip":"85022"}},{"arcs":[[93,94,95,-91]],"type":"Polygon","properties":{"state":"AZ","name":"PHOENIX","zip":"85023"}},{"arcs":[[96,97,98,-92]],"type":"Polygon","properties":{"state":"AZ","name":"PHOENIX","zip":"85024"}},{"arcs":[[99,100,101,102,-97,-96]],"type":"Polygon","properties":{"state":"AZ","name":"PHOENIX","zip":"85027"}},{"arcs":[[103,-72,-86,-89,104,105]],"type":"Polygon","properties":{"state":"AZ","name":"PHOENIX","zip":"85028"}},{"arcs":[[106,107,108,109,-94,-90,-84,-88]],"type":"Polygon","properties":{"state":"AZ","name":"PHOENIX","zip":"85029"}},{"arcs":[[110,111,112,-80]],"type":"Polygon","properties":{"state":"AZ","name":"PHOENIX","zip":"85031"}},{"arcs":[[113,-105,-93,114]],"type":"Polygon","properties":{"state":"AZ","name":"PHOENIX","zip":"85032"}},{"arcs":[[115,116,117,118,-112]],"type":"Polygon","properties":{"state":"AZ","name":"PHOENIX","zip":"85033"}},{"arcs":[[-44,-55,119,120,-39]],"type":"Polygon","properties":{"state":"AZ","name":"PHOENIX","zip":"85034"}},{"arcs":[[121,122,-116,-111,-58]],"type":"Polygon","properties":{"state":"AZ","name":"PHOENIX","zip":"85035"}},{"arcs":[[123,124,125,126,127,-117,-123]],"type":"Polygon","properties":{"state":"AZ","name":"PHOENIX","zip":"85037"}},{"arcs":[[128,129,130,-40,-121,131]],"type":"Polygon","properties":{"state":"AZ","name":"PHOENIX","zip":"85040"}},{"arcs":[[132,133,134,135,-56,-47,-35,-131]],"type":"Polygon","properties":{"state":"AZ","name":"PHOENIX","zip":"85041"}},{"arcs":[[136,137,-133,-130,138,139]],"type":"Polygon","properties":{"state":"AZ","name":"PHOENIX","zip":"85042"}},{"arcs":[[140,-122,-57,-136,141]],"type":"Polygon","properties":{"state":"AZ","name":"PHOENIX","zip":"85043"}},{"arcs":[[142,143,-137,144,145]],"type":"Polygon","properties":{"state":"AZ","name":"PHOENIX","zip":"85044"}},{"arcs":[[146,147,148]],"type":"Polygon","properties":{"state":"AZ","name":"PHOENIX","zip":"85045"}},{"arcs":[[149,-134,-138,-144,150,151,-148]],"type":"Polygon","properties":{"state":"AZ","name":"PHOENIX","zip":"85048"}},{"arcs":[[152,153,-115,-99]],"type":"Polygon","properties":{"state":"AZ","name":"PHOENIX","zip":"85050"}},{"arcs":[[-82,154,155,156,-107,-87,-76]],"type":"Polygon","properties":{"state":"AZ","name":"PHOENIX","zip":"85051"}},{"arcs":[[157,158,-100,-95,-110]],"type":"Polygon","properties":{"state":"AZ","name":"PHOENIX","zip":"85053"}},{"arcs":[[159,160,-154,161]],"type":"Polygon","properties":{"state":"AZ","name":"PHOENIX","zip":"85054"}},{"arcs":[[162,-103,163,164,165]],"type":"Polygon","properties":{"state":"AZ","name":"PHOENIX","zip":"85085"}},{"arcs":[[166,167,168,-166]],"type":"Polygon","properties":{"state":"AZ","name":"PHOENIX","zip":"85086"}},{"arcs":[[169,170,171,-33,172,-168,173]],"type":"Polygon","properties":{"state":"AZ","name":"NEW RIVER","zip":"85087"}},{"arcs":[[174,175,176,177,178]],"type":"Polygon","properties":{"state":"AZ","name":"MESA","zip":"85201"}},{"arcs":[[179,180,181,182,183,-176]],"type":"Polygon","properties":{"state":"AZ","name":"MESA","zip":"85202"}},{"arcs":[[184,185,186,-179]],"type":"Polygon","properties":{"state":"AZ","name":"MESA","zip":"85203"}},{"arcs":[[187,188,189,-187,190,191]],"type":"Polygon","properties":{"state":"AZ","name":"MESA","zip":"85204"}},{"arcs":[[192,193,194,195]],"type":"Polygon","properties":{"state":"AZ","name":"MESA","zip":"85205"}},{"arcs":[[196,-192,-196,197,198]],"type":"Polygon","properties":{"state":"AZ","name":"MESA","zip":"85206"}},{"arcs":[[199,200,-195,201,202]],"type":"Polygon","properties":{"state":"AZ","name":"MESA","zip":"85207"}},{"arcs":[[203,-198,-201,204,205]],"type":"Polygon","properties":{"state":"AZ","name":"MESA","zip":"85208"}},{"arcs":[[-175,-190,206,207,-180]],"type":"Polygon","properties":{"state":"AZ","name":"MESA","zip":"85210"}},{"arcs":[[208,-206,209,210]],"type":"Polygon","properties":{"state":"AZ","name":"MESA","zip":"85212"}},{"arcs":[[-186,211,212,-193,-191]],"type":"Polygon","properties":{"state":"AZ","name":"MESA","zip":"85213"}},{"arcs":[[-194,-213,213,214,-202]],"type":"Polygon","properties":{"state":"AZ","name":"MESA","zip":"85215"}},{"arcs":[[215,216,217,218]],"type":"Polygon","properties":{"state":"AZ","name":"APACHE JUNCTION","zip":"85218"}},{"arcs":[[219,220,221,-217]],"type":"Polygon","properties":{"state":"AZ","name":"APACHE JUNCTION","zip":"85219"}},{"arcs":[[222,-210,-205,-200,223,-221]],"type":"Polygon","properties":{"state":"AZ","name":"APACHE JUNCTION","zip":"85220"}},{"arcs":[[224,225,-17,226,227,228]],"type":"Polygon","properties":{"state":"AZ","name":"CASA GRANDE","zip":"85222"}},{"arcs":[[229,230,231,232,233,-181]],"type":"Polygon","properties":{"state":"AZ","name":"CHANDLER","zip":"85224"}},{"arcs":[[234,235,-230,-208,236,237]],"type":"Polygon","properties":{"state":"AZ","name":"CHANDLER","zip":"85225"}},{"arcs":[[-143,238,-232,239,240,-151]],"type":"Polygon","properties":{"state":"AZ","name":"CHANDLER","zip":"85226"}},{"arcs":[[241,242,-229,243]],"type":"Polygon","properties":{"state":"AZ","name":"COOLIDGE","zip":"85228"}},{"arcs":[[-243,244,245,-225]],"type":"Polygon","properties":{"state":"AZ","name":"ELOY","zip":"85231"}},{"arcs":[[246,247,248,249,-245,-242,250,251,252,253,254]],"type":"Polygon","properties":{"state":"AZ","name":"FLORENCE","zip":"85232"}},{"arcs":[[255,-237,-207,-189,256]],"type":"Polygon","properties":{"state":"AZ","name":"GILBERT","zip":"85233"}},{"arcs":[[-188,-197,257,258,-257]],"type":"Polygon","properties":{"state":"AZ","name":"GILBERT","zip":"85234"}},{"arcs":[[259,260,261,-258,-199,-204,-209]],"type":"Polygon","properties":{"state":"AZ","name":"HIGLEY","zip":"85236"}},{"arcs":[[262,263,264,265]],"type":"Polygon","properties":{"state":"AZ","name":"KEARNY","zip":"85237"}},{"arcs":[[-30,266,-227]],"type":"Polygon","properties":{"state":"AZ","name":"MARICOPA","zip":"85239"}},{"arcs":[[267,-260,-211,-223,-220,-216,268,-252,269,270]],"type":"Polygon","properties":{"state":"AZ","name":"QUEEN CREEK","zip":"85242"}},{"arcs":[[-244,-228,-267,-29,271,-149,-152,-241,272,273,-270,-251]],"type":"Polygon","properties":{"state":"AZ","name":"SACATON","zip":"85247"}},{"arcs":[[274,-273,-240,-231,-236]],"type":"Polygon","properties":{"state":"AZ","name":"CHANDLER","zip":"85248"}},{"arcs":[[-274,-275,-235,275,276,-271]],"type":"Polygon","properties":{"state":"AZ","name":"CHANDLER","zip":"85249"}},{"arcs":[[277,278,279,280]],"type":"Polygon","properties":{"state":"AZ","name":"SCOTTSDALE","zip":"85250"}},{"arcs":[[281,-279,282,283,-79]],"type":"Polygon","properties":{"state":"AZ","name":"SCOTTSDALE","zip":"85251"}},{"arcs":[[-282,-78,-73,-104,284,285,-280]],"type":"Polygon","properties":{"state":"AZ","name":"PARADISE VALLEY","zip":"85253"}},{"arcs":[[-114,-161,286,287,-285,-106]],"type":"Polygon","properties":{"state":"AZ","name":"SCOTTSDALE","zip":"85254"}},{"arcs":[[288,289,290,-287,-160,291,292,293,294]],"type":"Polygon","properties":{"state":"AZ","name":"SCOTTSDALE","zip":"85255"}},{"arcs":[[-278,295,296,297,298,-214,-212,-185,-178,299,-283]],"type":"Polygon","properties":{"state":"AZ","name":"SCOTTSDALE","zip":"85256"}},{"arcs":[[300,-53,-77,-284,-300]],"type":"Polygon","properties":{"state":"AZ","name":"SCOTTSDALE","zip":"85257"}},{"arcs":[[-281,-286,301,302,-296]],"type":"Polygon","properties":{"state":"AZ","name":"SCOTTSDALE","zip":"85258"}},{"arcs":[[303,-297,-303,304,-290]],"type":"Polygon","properties":{"state":"AZ","name":"SCOTTSDALE","zip":"85259"}},{"arcs":[[-291,-305,-302,-288]],"type":"Polygon","properties":{"state":"AZ","name":"SCOTTSDALE","zip":"85260"}},{"arcs":[[305,306,307,308,-293,309,-31,310]],"type":"Polygon","properties":{"state":"AZ","name":"SCOTTSDALE","zip":"85262"}},{"arcs":[[-309,311,-294]],"type":"Polygon","properties":{"state":"AZ","name":"RIO VERDE","zip":"85263"}},{"arcs":[[-224,-203,-215,-299,312,-295,-312,-308,313,314,315,-218,-222]],"type":"Polygon","properties":{"state":"AZ","name":"FORT MCDOWELL","zip":"85264"}},{"arcs":[[-298,-304,-289,-313]],"type":"Polygon","properties":{"state":"AZ","name":"FOUNTAIN HILLS","zip":"85268"}},{"arcs":[[316,-253,-269,-219,-316,317,-265]],"type":"Polygon","properties":{"state":"AZ","name":"SUPERIOR","zip":"85273"}},{"arcs":[[-120,-54,-301,-177,-184,318,-132]],"type":"Polygon","properties":{"state":"AZ","name":"TEMPE","zip":"85281"}},{"arcs":[[-129,-319,-183,319,-139]],"type":"Polygon","properties":{"state":"AZ","name":"TEMPE","zip":"85282"}},{"arcs":[[320,-145,-140,-320,-182,-234]],"type":"Polygon","properties":{"state":"AZ","name":"TEMPE","zip":"85283"}},{"arcs":[[-239,-146,-321,-233]],"type":"Polygon","properties":{"state":"AZ","name":"TEMPE","zip":"85284"}},{"arcs":[[321,322,-263,323,324,325]],"type":"Polygon","properties":{"state":"AZ","name":"WINKELMAN","zip":"85292"}},{"arcs":[[-256,-259,-262,326,-276,-238]],"type":"Polygon","properties":{"state":"AZ","name":"GILBERT","zip":"85296"}},{"arcs":[[-327,-261,-268,-277]],"type":"Polygon","properties":{"state":"AZ","name":"GILBERT","zip":"85297"}},{"arcs":[[327,328,329,-155,-81,-113,-119]],"type":"Polygon","properties":{"state":"AZ","name":"GLENDALE","zip":"85301"}},{"arcs":[[-330,330,331,-156]],"type":"Polygon","properties":{"state":"AZ","name":"GLENDALE","zip":"85302"}},{"arcs":[[332,333,-328,-118]],"type":"Polygon","properties":{"state":"AZ","name":"GLENDALE","zip":"85303"}},{"arcs":[[-332,334,335,336,337,-108,-157]],"type":"Polygon","properties":{"state":"AZ","name":"GLENDALE","zip":"85304"}},{"arcs":[[338,339,-333,-128]],"type":"Polygon","properties":{"state":"AZ","name":"GLENDALE","zip":"85305"}},{"arcs":[[340,-337,341,342,343,-158]],"type":"Polygon","properties":{"state":"AZ","name":"GLENDALE","zip":"85306"}},{"arcs":[[-127,344,345,346,347,-339]],"type":"Polygon","properties":{"state":"AZ","name":"GLENDALE","zip":"85307"}},{"arcs":[[-344,348,349,-101,-159]],"type":"Polygon","properties":{"state":"AZ","name":"GLENDALE","zip":"85308"}},{"arcs":[[350,351,-346]],"type":"Polygon","properties":{"state":"AZ","name":"LUKE AFB","zip":"85309"}},{"arcs":[[352,-164,-102,-350]],"type":"Polygon","properties":{"state":"AZ","name":"GLENDALE","zip":"85310"}},{"arcs":[[-341,-109,-338]],"type":"Polygon","properties":{"state":"AZ","name":"GLENDALE","zip":"85313"}},{"arcs":[[-19,353,-3]],"type":"Polygon","properties":{"state":"AZ","name":"AJO","zip":"85321"}},{"arcs":[[354,355]],"type":"Polygon","properties":{"state":"AZ","name":"ARLINGTON","zip":"85322"}},{"arcs":[[356,357,-125,358,-26]],"type":"Polygon","properties":{"state":"AZ","name":"AVONDALE","zip":"85323"}},{"arcs":[[-34,-172,359,360,361,362,-311]],"type":"Polygon","properties":{"state":"AZ","name":"BLACK CANYON CITY","zip":"85324"}},{"arcs":[[363,-24,364,-22,365,366,367,368,369,370,371,372,373,374],[-356,375]],"type":"Polygon","properties":{"state":"AZ","name":"BUCKEYE","zip":"85326"}},{"arcs":[[376,377,378]],"type":"Polygon","properties":{"state":"AZ","name":"CIBOLA","zip":"85328"}},{"arcs":[[-98,-163,-169,-173,-32,-310,-292,-162,-153]],"type":"Polygon","properties":{"state":"AZ","name":"CAVE CREEK","zip":"85331"}},{"arcs":[[-171,379,380,381,382,383,384,385,386,387,388,389,-360]],"type":"Polygon","properties":{"state":"AZ","name":"CONGRESS","zip":"85332"}},{"arcs":[[390,-366,-21]],"type":"Polygon","properties":{"state":"AZ","name":"DATELAND","zip":"85333"}},{"arcs":[[391,392,393,394,395,-347]],"type":"Polygon","properties":{"state":"AZ","name":"EL MIRAGE","zip":"85335"}},{"arcs":[[-365,-23]],"type":"Polygon","properties":{"state":"AZ","name":"GILA BEND","zip":"85337"}},{"arcs":[[-364,396,-357,-25]],"type":"Polygon","properties":{"state":"AZ","name":"GOODYEAR","zip":"85338"}},{"arcs":[[-147,-272,-28,397,-142,-135,-150]],"type":"Polygon","properties":{"state":"AZ","name":"LAVEEN","zip":"85339"}},{"arcs":[[-397,-375,398,-351,-345,-126,-358]],"type":"Polygon","properties":{"state":"AZ","name":"LITCHFIELD PARK","zip":"85340"}},{"arcs":[[399,400,401,-381,402]],"type":"Polygon","properties":{"state":"AZ","name":"MORRISTOWN","zip":"85342"}},{"arcs":[[403,404,405,-379,406]],"type":"Polygon","properties":{"state":"AZ","name":"PARKER","zip":"85344"}},{"arcs":[[-348,-396,407,408,-335,-331,-329,-334,-340]],"type":"Polygon","properties":{"state":"AZ","name":"PEORIA","zip":"85345"}},{"arcs":[[409,410,-367,-391,-20,-1,411]],"type":"Polygon","properties":{"state":"AZ","name":"ROLL","zip":"85347"}},{"arcs":[[412,-405,413,-383,414,-368,-411]],"type":"Polygon","properties":{"state":"AZ","name":"SALOME","zip":"85348"}},{"arcs":[[415,416]],"type":"Polygon","properties":{"state":"AZ","name":"SOMERTON","zip":"85350"}},{"arcs":[[417,418,419,420,-408,-395]],"type":"Polygon","properties":{"state":"AZ","name":"SUN CITY","zip":"85351"}},{"arcs":[[-359,-124,-141,-398,-27]],"type":"Polygon","properties":{"state":"AZ","name":"TOLLESON","zip":"85353"}},{"arcs":[[-355,-376]],"type":"Polygon","properties":{"state":"AZ","name":"TONOPAH","zip":"85354"}},{"arcs":[[421,-392,-352,-399,-374]],"type":"Polygon","properties":{"state":"AZ","name":"WADDELL","zip":"85355"}},{"arcs":[[[422,423,-377,-406,-413,-410,424,425,426]],[[427]]],"type":"MultiPolygon","properties":{"state":"AZ","name":"WELLTON","zip":"85356"}},{"arcs":[[428,-370,429,-401]],"type":"Polygon","properties":{"state":"AZ","name":"WITTMANN","zip":"85361"}},{"arcs":[[430,-387,431,432]],"type":"Polygon","properties":{"state":"AZ","name":"YARNELL","zip":"85362"}},{"arcs":[[-423,433,-426,434,-416,435]],"type":"Polygon","properties":{"state":"AZ","name":"YUMA","zip":"85365"}},{"arcs":[[-434,-427]],"type":"Polygon","properties":{"state":"AZ","name":"YUMA","zip":"85367"}},{"arcs":[[436,437,438,-403,-380,-170,439,440,-419]],"type":"Polygon","properties":{"state":"AZ","name":"SUN CITY","zip":"85373"}},{"arcs":[[441,-372,442,443,-437,-418,-394]],"type":"Polygon","properties":{"state":"AZ","name":"SURPRISE","zip":"85374"}},{"arcs":[[444,-438,-444]],"type":"Polygon","properties":{"state":"AZ","name":"SUN CITY WEST","zip":"85375"}},{"arcs":[[-373,-442,-393,-422]],"type":"Polygon","properties":{"state":"AZ","name":"SURPRISE","zip":"85379"}},{"arcs":[[445,-342,-336,-409,-421]],"type":"Polygon","properties":{"state":"AZ","name":"PEORIA","zip":"85381"}},{"arcs":[[-446,-420,-441,446,-349,-343]],"type":"Polygon","properties":{"state":"AZ","name":"PEORIA","zip":"85382"}},{"arcs":[[-447,-440,-174,-167,-165,-353]],"type":"Polygon","properties":{"state":"AZ","name":"PEORIA","zip":"85383"}},{"arcs":[[-400,-439,-445,-443,-371,-429]],"type":"Polygon","properties":{"state":"AZ","name":"SURPRISE","zip":"85387"}},{"arcs":[[-415,-382,-402,-430,-369]],"type":"Polygon","properties":{"state":"AZ","name":"WICKENBURG","zip":"85390"}},{"arcs":[[447,-325,448,449,450]],"type":"Polygon","properties":{"state":"AZ","name":"GLOBE","zip":"85501"}},{"arcs":[[451,-322,452,453,454]],"type":"Polygon","properties":{"state":"AZ","name":"BYLAS","zip":"85530"}},{"arcs":[[455,456,457,458,459,460,461]],"type":"Polygon","properties":{"state":"AZ","name":"CLIFTON","zip":"85533"}},{"arcs":[[462,463,464,-457,465]],"type":"Polygon","properties":{"state":"AZ","name":"DUNCAN","zip":"85534"}},{"arcs":[[-315,466,-449,-324,-266,-318]],"type":"Polygon","properties":{"state":"AZ","name":"MIAMI","zip":"85539"}},{"arcs":[[467,468,-458,-465]],"type":"Polygon","properties":{"state":"AZ","name":"MORENCI","zip":"85540"}},{"arcs":[[469,-451,470,-306,-363,471,472,473,474]],"type":"Polygon","properties":{"state":"AZ","name":"PAYSON","zip":"85541"}},{"arcs":[[-470,475,476,477,-453,-326,-448]],"type":"Polygon","properties":{"state":"AZ","name":"PERIDOT","zip":"85542"}},{"arcs":[[478,479,480,481,-455]],"type":"Polygon","properties":{"state":"AZ","name":"PIMA","zip":"85543"}},{"arcs":[[482,-474]],"type":"Polygon","properties":{"state":"AZ","name":"PINE","zip":"85544"}},{"arcs":[[-467,-314,-307,-471,-450]],"type":"Polygon","properties":{"state":"AZ","name":"ROOSEVELT","zip":"85545"}},{"arcs":[[483,484,-480,485,-468,-464,486]],"type":"Polygon","properties":{"state":"AZ","name":"SAFFORD","zip":"85546"}},{"arcs":[[-486,-479,-454,-478,487,-459,-469]],"type":"Polygon","properties":{"state":"AZ","name":"SAN CARLOS","zip":"85550"}},{"arcs":[[488,-481,-485]],"type":"Polygon","properties":{"state":"AZ","name":"THATCHER","zip":"85552"}},{"arcs":[[489,490,491,-14,492]],"type":"Polygon","properties":{"state":"AZ","name":"BENSON","zip":"85602"}},{"arcs":[[493,494,495,496,497,498,499]],"type":"Polygon","properties":{"state":"AZ","name":"BISBEE","zip":"85603"}},{"arcs":[[500,501,-490,502,503]],"type":"Polygon","properties":{"state":"AZ","name":"COCHISE","zip":"85606"}},{"arcs":[[504,505,506,-494]],"type":"Polygon","properties":{"state":"AZ","name":"DOUGLAS","zip":"85607"}},{"arcs":[[507,-499,508,509,510,511,-506]],"type":"Polygon","properties":{"state":"AZ","name":"ELFRIDA","zip":"85610"}},{"arcs":[[512,513,514,515,516,517]],"type":"Polygon","properties":{"state":"AZ","name":"ELGIN","zip":"85611"}},{"arcs":[[518,-513,519,520,521]],"type":"Polygon","properties":{"state":"AZ","name":"FORT HUACHUCA","zip":"85613"}},{"arcs":[[522,523,524,525,526]],"type":"Polygon","properties":{"state":"AZ","name":"GREEN VALLEY","zip":"85614"}},{"arcs":[[527,-514,-519,528,529,-496,530]],"type":"Polygon","properties":{"state":"AZ","name":"HEREFORD","zip":"85615"}},{"arcs":[[531,532,533,534,-520,-518]],"type":"Polygon","properties":{"state":"AZ","name":"HUACHUCA CITY","zip":"85616"}},{"arcs":[[-508,-505,-500]],"type":"Polygon","properties":{"state":"AZ","name":"MC NEAL","zip":"85617"}},{"arcs":[[535,536,537,538,539,540]],"type":"Polygon","properties":{"state":"AZ","name":"NOGALES","zip":"85621"}},{"arcs":[[541,-255,542,-11]],"type":"Polygon","properties":{"state":"AZ","name":"ORACLE","zip":"85623"}},{"arcs":[[-539,543,-515,-528,544]],"type":"Polygon","properties":{"state":"AZ","name":"PATAGONIA","zip":"85624"}},{"arcs":[[545,-504,546,547,-510]],"type":"Polygon","properties":{"state":"AZ","name":"PEARCE","zip":"85625"}},{"arcs":[[548,-526,549,550,551]],"type":"Polygon","properties":{"state":"AZ","name":"SAHUARITA","zip":"85629"}},{"arcs":[[552,-491,-502,553,-533]],"type":"Polygon","properties":{"state":"AZ","name":"SAINT DAVID","zip":"85630"}},{"arcs":[[554,-12,-543,-254,-317,-264,-323]],"type":"Polygon","properties":{"state":"AZ","name":"SAN MANUEL","zip":"85631"}},{"arcs":[[555,-487,-463,556,-511,-548]],"type":"Polygon","properties":{"state":"AZ","name":"SAN SIMON","zip":"85632"}},{"arcs":[[-354,-18,-226,557,558,559,560,561,-4]],"type":"Polygon","properties":{"state":"AZ","name":"SELLS","zip":"85634"}},{"arcs":[[-530,562,-521,-535,563,-497]],"type":"Polygon","properties":{"state":"AZ","name":"SIERRA VISTA","zip":"85635"}},{"arcs":[[564,565,-523,566,-516,-544,-538]],"type":"Polygon","properties":{"state":"AZ","name":"SONOITA","zip":"85637"}},{"arcs":[[-498,-564,-534,-554,-501,-546,-509]],"type":"Polygon","properties":{"state":"AZ","name":"TOMBSTONE","zip":"85638"}},{"arcs":[[567,568,-565,-537]],"type":"Polygon","properties":{"state":"AZ","name":"TUMACACORI","zip":"85640"}},{"arcs":[[-527,-549,569,570,571,-15,-492,-553,-532,-517,-567]],"type":"Polygon","properties":{"state":"AZ","name":"VAIL","zip":"85641"}},{"arcs":[[-13,-555,-452,-482,-489,-484,-556,-547,-503,-493]],"type":"Polygon","properties":{"state":"AZ","name":"WILLCOX","zip":"85643"}},{"arcs":[[572,573,-524,-566,-569]],"type":"Polygon","properties":{"state":"AZ","name":"AMADO","zip":"85645"}},{"arcs":[[574,-573,-568,-536]],"type":"Polygon","properties":{"state":"AZ","name":"RIO RICO","zip":"85648"}},{"arcs":[[-522,-563,-529]],"type":"Polygon","properties":{"state":"AZ","name":"SIERRA VISTA","zip":"85650"}},{"arcs":[[575,576,-558,-246,-250]],"type":"Polygon","properties":{"state":"AZ","name":"MARANA","zip":"85653"}},{"arcs":[[577,578,579,580]],"type":"Polygon","properties":{"state":"AZ","name":"TUCSON","zip":"85701"}},{"arcs":[[581,582,583,-8,584,585]],"type":"Polygon","properties":{"state":"AZ","name":"TUCSON","zip":"85704"}},{"arcs":[[586,587,588,-586,589,-580]],"type":"Polygon","properties":{"state":"AZ","name":"TUCSON","zip":"85705"}},{"arcs":[[-552,590,591,592,593,-570]],"type":"Polygon","properties":{"state":"AZ","name":"TUCSON","zip":"85706"}},{"arcs":[[594,595,-593,596,597,598,599]],"type":"Polygon","properties":{"state":"AZ","name":"TUCSON","zip":"85707"}},{"arcs":[[600,-600,601]],"type":"Polygon","properties":{"state":"AZ","name":"TUCSON","zip":"85708"}},{"arcs":[[602,603,604,605]],"type":"Polygon","properties":{"state":"AZ","name":"TUCSON","zip":"85710"}},{"arcs":[[-602,-599,606,607,608,-605]],"type":"Polygon","properties":{"state":"AZ","name":"TUCSON","zip":"85711"}},{"arcs":[[609,-609,610,611]],"type":"Polygon","properties":{"state":"AZ","name":"TUCSON","zip":"85712"}},{"arcs":[[612,613,614,615,616,-578,617,618,-607,-598]],"type":"Polygon","properties":{"state":"AZ","name":"TUCSON","zip":"85713"}},{"arcs":[[619,-613,-597,-592]],"type":"Polygon","properties":{"state":"AZ","name":"TUCSON","zip":"85714"}},{"arcs":[[620,621,-606,-610,622]],"type":"Polygon","properties":{"state":"AZ","name":"TUCSON","zip":"85715"}},{"arcs":[[623,624,-611,-608,-619]],"type":"Polygon","properties":{"state":"AZ","name":"TUCSON","zip":"85716"}},{"arcs":[[625,-585,-7,626,-612,-625]],"type":"Polygon","properties":{"state":"AZ","name":"TUCSON","zip":"85718"}},{"arcs":[[-618,-581,-590,-626,-624]],"type":"Polygon","properties":{"state":"AZ","name":"TUCSON","zip":"85719"}},{"arcs":[[-601,-604,627,628,-595]],"type":"Polygon","properties":{"state":"AZ","name":"TUCSON","zip":"85730"}},{"arcs":[[629,-615,630,631,-560]],"type":"Polygon","properties":{"state":"AZ","name":"TUCSON","zip":"85735"}},{"arcs":[[-541,632,-561,-632,633,-550,-525,-574,-575]],"type":"Polygon","properties":{"state":"AZ","name":"TUCSON","zip":"85736"}},{"arcs":[[634,-248,635,-9,-584]],"type":"Polygon","properties":{"state":"AZ","name":"TUCSON","zip":"85737"}},{"arcs":[[-636,-247,-542,-10]],"type":"Polygon","properties":{"state":"AZ","name":"TUCSON","zip":"85739"}},{"arcs":[[-589,636,637,-582]],"type":"Polygon","properties":{"state":"AZ","name":"TUCSON","zip":"85741"}},{"arcs":[[638,-576,-249,-635,-583,-638]],"type":"Polygon","properties":{"state":"AZ","name":"TUCSON","zip":"85742"}},{"arcs":[[-630,-559,-577,-639,-637,-588,639,-616]],"type":"Polygon","properties":{"state":"AZ","name":"TUCSON","zip":"85743"}},{"arcs":[[-617,-640,-587,-579]],"type":"Polygon","properties":{"state":"AZ","name":"TUCSON","zip":"85745"}},{"arcs":[[-551,-634,-631,-614,-620,-591]],"type":"Polygon","properties":{"state":"AZ","name":"TUCSON","zip":"85746"}},{"arcs":[[-629,640,-571,-594,-596]],"type":"Polygon","properties":{"state":"AZ","name":"TUCSON","zip":"85747"}},{"arcs":[[-628,-603,-622,641,-572,-641]],"type":"Polygon","properties":{"state":"AZ","name":"TUCSON","zip":"85748"}},{"arcs":[[-642,-621,642,-16]],"type":"Polygon","properties":{"state":"AZ","name":"TUCSON","zip":"85749"}},{"arcs":[[-627,-6,-643,-623]],"type":"Polygon","properties":{"state":"AZ","name":"TUCSON","zip":"85750"}},{"arcs":[[643,644,-488,-477,645,646,647,648,649,650,651,652,653]],"type":"Polygon","properties":{"state":"AZ","name":"SHOW LOW","zip":"85901"}},{"arcs":[[654,655,-461]],"type":"Polygon","properties":{"state":"AZ","name":"ALPINE","zip":"85920"}},{"arcs":[[656,657,-651,658,659]],"type":"Polygon","properties":{"state":"AZ","name":"CONCHO","zip":"85924"}},{"arcs":[[-645,660,661,-655,-460]],"type":"Polygon","properties":{"state":"AZ","name":"EAGAR","zip":"85925"}},{"arcs":[[662,663,-647]],"type":"Polygon","properties":{"state":"AZ","name":"HEBER","zip":"85928"}},{"arcs":[[664,-653,665]],"type":"Polygon","properties":{"state":"AZ","name":"LAKESIDE","zip":"85929"}},{"arcs":[[-665,666,-654]],"type":"Polygon","properties":{"state":"AZ","name":"PINETOP","zip":"85935"}},{"arcs":[[667,668,-657,669]],"type":"Polygon","properties":{"state":"AZ","name":"SAINT JOHNS","zip":"85936"}},{"arcs":[[-650,670,671,-659]],"type":"Polygon","properties":{"state":"AZ","name":"SNOWFLAKE","zip":"85937"}},{"arcs":[[672,-661,-644,-667,-666,-652,-658,-669]],"type":"Polygon","properties":{"state":"AZ","name":"SPRINGERVILLE","zip":"85938"}},{"arcs":[[673,674,675,676,677]],"type":"Polygon","properties":{"state":"AZ","name":"FLAGSTAFF","zip":"86001"}},{"arcs":[[678,679,680,-676,681,682]],"type":"Polygon","properties":{"state":"AZ","name":"FLAGSTAFF","zip":"86004"}},{"arcs":[[683,684,685,686]],"type":"Polygon","properties":{"state":"AZ","name":"COLORADO CITY","zip":"86021"}},{"arcs":[[[687,688,689,-686]],[[690,691,692,693]]],"type":"MultiPolygon","properties":{"state":"AZ","name":"FREDONIA","zip":"86022"}},{"arcs":[[694]],"type":"Polygon","properties":{"state":"AZ","name":"HAPPY JACK","zip":"86024"}},{"arcs":[[695,696,-671,-649]],"type":"Polygon","properties":{"state":"AZ","name":"HOLBROOK","zip":"86025"}},{"arcs":[[697,698,699,700]],"type":"Polygon","properties":{"state":"AZ","name":"HOTEVILLA","zip":"86030"}},{"arcs":[[701,702,703,704,705,-700]],"type":"Polygon","properties":{"state":"AZ","name":"KAYENTA","zip":"86033"}},{"arcs":[[706,707,708,709,710]],"type":"Polygon","properties":{"state":"AZ","name":"KEAMS CANYON","zip":"86034"}},{"arcs":[[711,-683,712,713]],"type":"Polygon","properties":{"state":"AZ","name":"LEUPP","zip":"86035"}},{"arcs":[[714,-689]],"type":"Polygon","properties":{"state":"AZ","name":"MARBLE CANYON","zip":"86036"}},{"arcs":[[715,-677,-681]],"type":"Polygon","properties":{"state":"AZ","name":"MORMON LAKE","zip":"86038"}},{"arcs":[[716,717,718,-708,719]],"type":"Polygon","properties":{"state":"AZ","name":"KYKOTSMOVI VILLAGE","zip":"86039"}},{"arcs":[[720,721,722]],"type":"Polygon","properties":{"state":"AZ","name":"PAGE","zip":"86040"}},{"arcs":[[723,724,-709,-719]],"type":"Polygon","properties":{"state":"AZ","name":"POLACCA","zip":"86042"}},{"arcs":[[725,-698,726,-724,-718]],"type":"Polygon","properties":{"state":"AZ","name":"SECOND MESA","zip":"86043"}},{"arcs":[[727,728,-699,-726,-717,-714]],"type":"Polygon","properties":{"state":"AZ","name":"TONALEA","zip":"86044"}},{"arcs":[[729,730,731,-728,-713,-682,-675]],"type":"Polygon","properties":{"state":"AZ","name":"TUBA CITY","zip":"86045"}},{"arcs":[[732,733,734,735,736,-693,737,-730,-674,738,739]],"type":"Polygon","properties":{"state":"AZ","name":"WILLIAMS","zip":"86046"}},{"arcs":[[-648,-664,740,-679,-712,-720,-707,741,-696]],"type":"Polygon","properties":{"state":"AZ","name":"WINSLOW","zip":"86047"}},{"arcs":[[-721,742,-702,-729,-732,743]],"type":"Polygon","properties":{"state":"AZ","name":"KAIBITO","zip":"86053"}},{"arcs":[[-743,-723,744,-703]],"type":"Polygon","properties":{"state":"AZ","name":"SHONTO","zip":"86054"}},{"arcs":[[745,746,747,748,749]],"type":"Polygon","properties":{"state":"AZ","name":"PRESCOTT","zip":"86301"}},{"arcs":[[750,-750,751,752,753,-388,-431]],"type":"Polygon","properties":{"state":"AZ","name":"PRESCOTT","zip":"86303"}},{"arcs":[[754,755,756,757,-746,-751,-433,758,-385]],"type":"Polygon","properties":{"state":"AZ","name":"PRESCOTT","zip":"86305"}},{"arcs":[[759,-752,-749,760,761,762,763]],"type":"Polygon","properties":{"state":"AZ","name":"PRESCOTT VALLEY","zip":"86314"}},{"arcs":[[764,765,766,-734]],"type":"Polygon","properties":{"state":"AZ","name":"ASH FORK","zip":"86320"}},{"arcs":[[767,768,-756]],"type":"Polygon","properties":{"state":"AZ","name":"BAGDAD","zip":"86321"}},{"arcs":[[769,770,771,772,773,774]],"type":"Polygon","properties":{"state":"AZ","name":"CAMP VERDE","zip":"86322"}},{"arcs":[[775,-747,-758,776,-766,777,-740,778,-762]],"type":"Polygon","properties":{"state":"AZ","name":"CHINO VALLEY","zip":"86323"}},{"arcs":[[-739,779,780,781,-763,-779]],"type":"Polygon","properties":{"state":"AZ","name":"CLARKDALE","zip":"86324"}},{"arcs":[[782,-771,783,-781,784,785]],"type":"Polygon","properties":{"state":"AZ","name":"CORNVILLE","zip":"86325"}},{"arcs":[[[786,-764,-782,-784,-770,787]],[[-761,-748,-776]]],"type":"MultiPolygon","properties":{"state":"AZ","name":"COTTONWOOD","zip":"86326"}},{"arcs":[[-760,-787,788,-753]],"type":"Polygon","properties":{"state":"AZ","name":"DEWEY","zip":"86327"}},{"arcs":[[-759,-432,-386]],"type":"Polygon","properties":{"state":"AZ","name":"KIRKLAND","zip":"86332"}},{"arcs":[[789,-389,-754,-789,-788,-775,790,-472,-362]],"type":"Polygon","properties":{"state":"AZ","name":"MAYER","zip":"86333"}},{"arcs":[[-765,-733,-778]],"type":"Polygon","properties":{"state":"AZ","name":"PAULDEN","zip":"86334"}},{"arcs":[[791,-773]],"type":"Polygon","properties":{"state":"AZ","name":"RIMROCK","zip":"86335"}},{"arcs":[[-473,-791,-774,-792,-772,-783,792,-785,-780,-678,-716,-680,-741,-663,-646,-476,-475,-483],[-695]],"type":"Polygon","properties":{"state":"AZ","name":"SEDONA","zip":"86336"}},{"arcs":[[793,794,795,-735,-767,-777,-757,-769]],"type":"Polygon","properties":{"state":"AZ","name":"SELIGMAN","zip":"86337"}},{"arcs":[[-790,-361,-390]],"type":"Polygon","properties":{"state":"AZ","name":"CROWN KING","zip":"86343"}},{"arcs":[[-793,-786]],"type":"Polygon","properties":{"state":"AZ","name":"SEDONA","zip":"86351"}},{"arcs":[[796,797,798,799,-795,800,801]],"type":"Polygon","properties":{"state":"AZ","name":"KINGMAN","zip":"86401"}},{"arcs":[[802,803,804]],"type":"Polygon","properties":{"state":"AZ","name":"LAKE HAVASU CITY","zip":"86403"}},{"arcs":[[805,-803,806,807,808]],"type":"Polygon","properties":{"state":"AZ","name":"LAKE HAVASU CITY","zip":"86404"}},{"arcs":[[-414,-404,809,-804,-806,810,-801,-794,-768,-755,-384]],"type":"Polygon","properties":{"state":"AZ","name":"LAKE HAVASU CITY","zip":"86406"}},{"arcs":[[811,812,813,814,-797]],"type":"Polygon","properties":{"state":"AZ","name":"GOLDEN VALLEY","zip":"86413"}},{"arcs":[[815,816,817]],"type":"Polygon","properties":{"state":"AZ","name":"FORT MOHAVE","zip":"86426"}},{"arcs":[[818,819,-813]],"type":"Polygon","properties":{"state":"AZ","name":"BULLHEAD CITY","zip":"86429"}},{"arcs":[[820,-684,821]],"type":"Polygon","properties":{"state":"AZ","name":"LITTLEFIELD","zip":"86432"}},{"arcs":[[-796,-800,822,-691,823,-736]],"type":"Polygon","properties":{"state":"AZ","name":"PEACH SPRINGS","zip":"86434"}},{"arcs":[[-824,-694,-737]],"type":"Polygon","properties":{"state":"AZ","name":"SUPAI","zip":"86435"}},{"arcs":[[824,825,-808,826]],"type":"Polygon","properties":{"state":"AZ","name":"TOPOCK","zip":"86436"}},{"arcs":[[-817,827,-825,828]],"type":"Polygon","properties":{"state":"AZ","name":"MOHAVE VALLEY","zip":"86440"}},{"arcs":[[829,-815,830]],"type":"Polygon","properties":{"state":"AZ","name":"DOLAN SPRINGS","zip":"86441"}},{"arcs":[[-809,-826,-828,-816,831,-819,-812,-802,-811]],"type":"Polygon","properties":{"state":"AZ","name":"BULLHEAD CITY","zip":"86442"}},{"arcs":[[-798,-830,832]],"type":"Polygon","properties":{"state":"AZ","name":"MEADVIEW","zip":"86444"}},{"arcs":[[-697,833,834,-670,-660,-672]],"type":"Polygon","properties":{"state":"AZ","name":"CHAMBERS","zip":"86502"}},{"arcs":[[835,836,837,838,839,840,841]],"type":"Polygon","properties":{"state":"AZ","name":"CHINLE","zip":"86503"}},{"arcs":[[-711,842,-837,843,-834,-742]],"type":"Polygon","properties":{"state":"AZ","name":"GANADO","zip":"86505"}},{"arcs":[[844,845,846]],"type":"Polygon","properties":{"state":"AZ","name":"LUKACHUKAI","zip":"86507"}},{"arcs":[[-727,-701,-706,847,-838,-843,-710,-725]],"type":"Polygon","properties":{"state":"AZ","name":"PINON","zip":"86510"}},{"arcs":[[848,-847,849,850,851,-842]],"type":"Polygon","properties":{"state":"AZ","name":"TEEC NOS POS","zip":"86514"}},{"arcs":[[-705,852,-851,853,-839,-848]],"type":"Polygon","properties":{"state":"AZ","name":"DENNEHOTSO","zip":"86535"}},{"arcs":[[854,-840,-854,-850,-846]],"type":"Polygon","properties":{"state":"AZ","name":"MANY FARMS","zip":"86538"}},{"arcs":[[-841,-855,-845,-849]],"type":"Polygon","properties":{"state":"AZ","name":"TSAILE","zip":"86556"}}]}},"arcs":[[[8885,7629],[0,480]],[[8885,8109],[347,0]],[[9232,8109],[-14,-315],[140,-25]],[[9358,7769],[90,-366]],[[9448,7403],[-171,68],[-36,15],[-356,143]],[[10849,7904],[-50,33]],[[10799,7937],[-68,17]],[[10731,7954],[0,13]],[[10731,7967],[55,56]],[[10786,8023],[54,94]],[[10840,8117],[108,0]],[[10948,8117],[184,0]],[[11132,8117],[-4,-61]],[[11128,8056],[-68,-112],[72,0],[-40,-244]],[[11092,7700],[0,132],[-131,0]],[[10961,7832],[-112,72]],[[9763,8287],[0,-178]],[[9763,8109],[-288,0]],[[9475,8109],[-243,0]],[[8885,8109],[0,270]],[[8885,8379],[0,193]],[[8885,8572],[230,135],[171,-71]],[[9286,8636],[121,-94],[-45,76]],[[9362,8618],[23,117],[248,20],[-27,145]],[[9606,8900],[18,0]],[[9624,8900],[63,-17],[0,114]],[[9687,8997],[9,5]],[[9696,9002],[67,-66]],[[9763,8936],[5,-231]],[[9768,8705],[-5,-418]],[[10151,9643],[-77,-120]],[[10074,9523],[-131,18]],[[9943,9541],[-72,0],[0,140]],[[9871,9681],[280,-38]],[[9867,9050],[-9,-5]],[[9858,9045],[0,64]],[[9858,9109],[9,0]],[[9867,9109],[0,-59]],[[9871,9078],[0,-30]],[[9871,9048],[-4,2]],[[9867,9109],[4,0]],[[9871,9109],[0,-31]],[[9898,9109],[0,-31]],[[9898,9078],[-27,0]],[[9871,9109],[14,0]],[[9885,9109],[13,0]],[[9858,9045],[-14,-7]],[[9844,9038],[0,71]],[[9844,9109],[9,0]],[[9853,9109],[5,0]],[[9898,9109],[14,0]],[[9912,9109],[40,0]],[[9952,9109],[18,-18]],[[9970,9091],[-18,-13]],[[9952,9078],[-54,0]],[[9844,9038],[-27,-5]],[[9817,9033],[-13,61]],[[9804,9094],[0,15]],[[9804,9109],[13,0]],[[9817,9109],[18,0]],[[9835,9109],[9,0]],[[9871,9167],[0,-58]],[[9867,9109],[0,58]],[[9867,9167],[4,0]],[[9853,9109],[0,58]],[[9853,9167],[14,0]],[[9885,9167],[0,-58]],[[9871,9167],[14,0]],[[9835,9109],[0,58]],[[9835,9167],[18,0]],[[9885,9167],[9,23]],[[9894,9190],[40,3]],[[9934,9193],[-22,-46]],[[9912,9147],[0,-38]],[[9817,9109],[0,58]],[[9817,9167],[18,0]],[[9957,9109],[-5,0]],[[9912,9147],[54,-8]],[[9966,9139],[-9,-30]],[[9804,9109],[0,30]],[[9804,9139],[0,28]],[[9804,9167],[13,0]],[[9867,9167],[0,46]],[[9867,9213],[4,15]],[[9871,9228],[23,0]],[[9894,9228],[0,-38]],[[9835,9167],[-4,46]],[[9831,9213],[36,0]],[[9898,9228],[-4,0]],[[9871,9228],[-4,11]],[[9867,9239],[0,48]],[[9867,9287],[31,0]],[[9898,9287],[0,-59]],[[9867,9239],[-36,5]],[[9831,9244],[4,43]],[[9835,9287],[32,0]],[[9867,9287],[22,66]],[[9889,9353],[27,8]],[[9916,9361],[-18,-74]],[[9835,9287],[-18,0]],[[9817,9287],[0,30]],[[9817,9317],[0,41]],[[9817,9358],[72,-5]],[[9939,9213],[-5,-20]],[[9898,9228],[41,0]],[[9939,9228],[0,-15]],[[9831,9213],[-27,3]],[[9804,9216],[0,20]],[[9804,9236],[0,8]],[[9804,9244],[27,0]],[[9804,9109],[-27,0]],[[9777,9109],[0,30]],[[9777,9139],[27,0]],[[9939,9289],[0,-61]],[[9898,9287],[41,2]],[[9777,9109],[-41,0]],[[9736,9109],[0,28]],[[9736,9137],[27,2]],[[9763,9139],[14,0]],[[9952,9078],[-13,-30]],[[9939,9048],[-68,0]],[[9804,9094],[-68,0]],[[9736,9094],[0,15]],[[9736,9094],[-27,0]],[[9709,9094],[-31,28]],[[9678,9122],[0,15]],[[9678,9137],[31,0]],[[9709,9137],[27,0]],[[9939,9038],[0,-18]],[[9939,9020],[-72,-3]],[[9867,9017],[0,33]],[[9939,9048],[0,-10]],[[9867,9017],[-14,-43]],[[9853,8974],[-22,-5]],[[9831,8969],[-27,61]],[[9804,9030],[13,3]],[[9939,9002],[-9,-2]],[[9930,9000],[-77,-26]],[[9939,9020],[0,-15]],[[9939,9005],[0,-3]],[[9741,9017],[-5,77]],[[9804,9030],[-63,-13]],[[9943,8951],[0,-23]],[[9943,8928],[-13,72]],[[9939,9002],[4,-28]],[[9943,8974],[0,-23]],[[9817,8913],[-9,15]],[[9808,8928],[54,-12]],[[9862,8916],[-45,-3]],[[9808,8928],[23,41]],[[9943,8928],[0,-12]],[[9943,8916],[-81,0]],[[9916,9361],[36,0]],[[9952,9361],[-13,-72]],[[9804,9167],[0,16]],[[9804,9183],[0,30]],[[9804,9213],[0,3]],[[9804,9244],[0,28]],[[9804,9272],[13,15]],[[9979,9361],[0,-87]],[[9979,9274],[-40,15]],[[9952,9361],[27,0]],[[9925,9437],[-36,-84]],[[9817,9358],[-54,5]],[[9763,9363],[-13,71]],[[9750,9434],[175,3]],[[9750,9434],[0,8]],[[9750,9442],[90,120],[76,-59]],[[9916,9503],[9,-66]],[[9705,9465],[4,56]],[[9709,9521],[54,91]],[[9763,9612],[108,69]],[[9943,9541],[-27,-38]],[[9750,9442],[-45,23]],[[10060,9043],[-27,0]],[[10033,9043],[-22,0]],[[10011,9043],[-5,23]],[[10006,9066],[41,23]],[[10047,9089],[13,-46]],[[10033,9043],[0,-61]],[[10033,8982],[-27,0]],[[10006,8982],[0,23]],[[10006,9005],[5,30]],[[10011,9035],[0,8]],[[10047,9089],[41,22]],[[10088,9111],[0,-68]],[[10088,9043],[-28,0]],[[10115,9005],[-27,0]],[[10088,9005],[-28,0]],[[10060,9005],[0,38]],[[10088,9043],[27,0]],[[10115,9043],[0,-38]],[[10115,9043],[0,38]],[[10115,9081],[54,-3]],[[10169,9078],[0,-35]],[[10169,9043],[-54,0]],[[10146,9005],[-31,0]],[[10169,9043],[-5,-38]],[[10164,9005],[-18,0]],[[10232,9094],[-9,-51]],[[10223,9043],[-54,0]],[[10169,9078],[0,44]],[[10169,9122],[63,-28]],[[10169,8992],[-5,13]],[[10223,9043],[9,-38]],[[10232,9005],[-63,-13]],[[10060,9005],[-13,-21]],[[10047,8984],[-14,-2]],[[10169,8913],[0,79]],[[10232,9005],[18,-18]],[[10250,8987],[-81,-74]],[[10088,9111],[22,0]],[[10110,9111],[5,-30]],[[10110,9111],[59,33]],[[10169,9144],[0,-22]],[[10439,8883],[-113,114]],[[10326,8997],[18,97]],[[10344,9094],[149,0]],[[10493,9094],[13,-199],[-67,-12]],[[10326,8997],[-40,8]],[[10286,9005],[-9,89]],[[10277,9094],[67,0]],[[10286,9005],[-36,-18]],[[10232,9094],[45,0]],[[10299,8463],[-171,-61],[-45,-293]],[[10083,8109],[-320,0]],[[9763,8287],[257,89],[-68,115],[27,76],[127,46]],[[10106,8613],[76,-31]],[[10182,8582],[9,-104],[108,-15]],[[10033,8982],[0,-66]],[[10033,8916],[-27,0]],[[10006,8916],[0,35]],[[10006,8951],[0,23]],[[10006,8974],[0,8]],[[10088,8916],[-41,0]],[[10047,8916],[-14,0]],[[10047,8984],[41,-46]],[[10088,8938],[0,-22]],[[9943,8951],[63,0]],[[10006,8916],[-9,-89]],[[9997,8827],[-67,0],[13,89]],[[10299,8633],[90,-33],[-49,-152]],[[10340,8448],[-41,15]],[[10182,8582],[117,51]],[[10340,8448],[90,-10],[36,-283]],[[10466,8155],[-383,-46]],[[10759,8130],[-5,-15]],[[10754,8115],[-45,0]],[[10709,8115],[-23,-3]],[[10686,8112],[-99,0],[117,81],[-139,51],[-99,-89]],[[10299,8633],[-4,105]],[[10295,8738],[139,111]],[[10434,8849],[-27,-178],[131,31]],[[10538,8702],[221,-252],[27,-170]],[[10786,8280],[-27,-150]],[[10088,8974],[0,-36]],[[10088,9005],[0,-31]],[[10146,9005],[-4,-28]],[[10142,8977],[-54,-3]],[[10169,8913],[0,-10]],[[10169,8903],[-27,28]],[[10142,8931],[0,46]],[[10745,8870],[126,-270]],[[10871,8600],[-239,133]],[[10632,8733],[108,147]],[[10740,8880],[5,-10]],[[9768,8705],[256,22],[82,-114]],[[10133,8842],[36,61]],[[10439,8883],[-5,-34]],[[10295,8738],[-167,89]],[[10128,8827],[5,15]],[[9763,8936],[54,-23]],[[9997,8827],[50,0]],[[10047,8827],[81,0]],[[10047,8916],[0,-89]],[[10088,8916],[40,-28]],[[10128,8888],[5,-46]],[[10006,9167],[0,-28]],[[10006,9139],[-27,0]],[[9979,9139],[0,31]],[[9979,9170],[27,-3]],[[9966,9139],[13,0]],[[10006,9139],[0,-30]],[[10006,9109],[-49,0]],[[9939,9213],[40,0]],[[9979,9213],[0,-43]],[[9979,9274],[0,-2]],[[9979,9272],[0,-59]],[[10160,9272],[-72,0]],[[10088,9272],[-55,0]],[[10033,9272],[-54,0]],[[9979,9361],[0,15]],[[9979,9376],[163,0]],[[10142,9376],[22,-51]],[[10164,9325],[-4,-53]],[[10006,9167],[36,33]],[[10042,9200],[59,-2]],[[10101,9198],[50,0]],[[10151,9198],[18,-54]],[[10006,9066],[0,43]],[[10006,9066],[-36,25]],[[9979,9213],[54,0]],[[10033,9213],[9,-13]],[[10088,9272],[13,-74]],[[10033,9213],[0,59]],[[10317,9643],[113,-277]],[[10430,9366],[9,-18]],[[10439,9348],[-194,33]],[[10245,9381],[-144,53],[41,-58]],[[9979,9376],[95,147]],[[10151,9643],[166,0]],[[10245,9381],[-81,-56]],[[10151,9198],[9,74]],[[10439,9348],[90,-112],[54,74]],[[10583,9310],[90,-216]],[[10673,9094],[-180,0]],[[10632,8733],[-94,-31]],[[10673,9094],[67,-214]],[[10011,9035],[-72,3]],[[10006,9005],[-67,0]],[[10006,8974],[-63,0]],[[11132,8816],[0,-213]],[[11132,8603],[-202,-153],[27,-68],[-86,218]],[[10745,8870],[63,23]],[[10808,8893],[99,-18]],[[10907,8875],[36,-178],[189,119]],[[10142,8931],[-14,-43]],[[9763,9139],[-13,44]],[[9750,9183],[9,7]],[[9759,9190],[45,-7]],[[9759,9190],[4,23]],[[9763,9213],[41,0]],[[9736,9137],[0,46]],[[9736,9183],[14,0]],[[9763,9213],[0,15]],[[9763,9228],[0,16]],[[9763,9244],[27,0]],[[9790,9244],[14,-8]],[[9709,9137],[0,46]],[[9709,9183],[27,0]],[[9804,9244],[-14,0]],[[9763,9244],[0,15]],[[9763,9259],[0,13]],[[9763,9272],[41,0]],[[9678,9137],[-32,25]],[[9646,9162],[-4,21]],[[9642,9183],[40,0]],[[9682,9183],[27,0]],[[9763,9272],[-13,43]],[[9750,9315],[67,2]],[[9646,9162],[-22,21]],[[9624,9183],[18,0]],[[9750,9315],[13,48]],[[9475,8109],[-117,-340]],[[9236,8936],[108,53]],[[9344,8989],[18,-15],[-22,-38],[-104,0]],[[9624,8900],[36,206]],[[9660,9106],[18,16]],[[9709,9094],[-22,-97]],[[9763,9612],[-31,161]],[[9732,9773],[36,73]],[[9768,9846],[374,-38]],[[10142,9808],[184,-15],[-9,-150]],[[9592,9094],[14,-194]],[[9362,8618],[-76,18]],[[8885,8572],[0,69]],[[8885,8641],[0,361]],[[8885,9002],[0,270]],[[8885,9272],[473,0]],[[9358,9272],[144,0]],[[9502,9272],[68,0]],[[9570,9272],[-5,-16]],[[9565,9256],[-9,-43]],[[9556,9213],[0,-35]],[[9556,9178],[36,-84]],[[9344,8989],[-67,204],[-315,-102],[4,-137],[270,-18]],[[8070,9183],[-198,-133]],[[7872,9050],[85,222]],[[7957,9272],[122,38],[-9,-127]],[[9709,9521],[-144,48]],[[9565,9569],[-139,46]],[[9426,9615],[22,104],[-563,-79]],[[8885,9640],[0,328]],[[8885,9968],[0,100]],[[8885,10068],[153,-51]],[[9038,10017],[257,38]],[[9295,10055],[306,-26]],[[9601,10029],[14,0]],[[9615,10029],[18,-20]],[[9633,10009],[-32,-231],[131,-5]],[[8885,8379],[-139,-3],[-23,166],[162,99]],[[9642,9183],[0,28]],[[9642,9211],[13,45]],[[9655,9256],[27,0]],[[9682,9256],[5,-17],[-9,-26],[4,-18]],[[9682,9195],[0,-12]],[[9592,9094],[68,12]],[[9696,9002],[45,15]],[[9556,9178],[68,5]],[[9601,9419],[-31,0]],[[9570,9419],[-140,31]],[[9430,9450],[-4,165]],[[9565,9569],[36,-150]],[[8304,9943],[221,-61]],[[8525,9882],[-63,-165],[108,-66],[-81,-84],[63,-565]],[[8552,9002],[-482,181]],[[7957,9272],[72,460],[275,211]],[[9682,9195],[36,31]],[[9718,9226],[45,2]],[[8534,7774],[94,213],[-36,168],[-216,221],[144,135],[36,491]],[[8556,9002],[329,0]],[[8885,7629],[-351,145]],[[8556,9002],[-4,0]],[[8525,9882],[360,86]],[[8885,9640],[0,-368]],[[7746,8171],[130,61],[9,-196]],[[7885,8036],[-153,61],[14,74]],[[9682,9256],[5,16]],[[9687,9272],[36,0]],[[9723,9272],[0,-16]],[[9723,9256],[-5,-30]],[[9556,9213],[86,-2]],[[8075,8326],[85,-11],[-140,67],[-58,262]],[[7962,8644],[-149,63],[59,343]],[[8534,7774],[-608,246]],[[7926,8020],[76,64],[-58,150],[76,0]],[[8020,8234],[91,-8],[-36,100]],[[7809,9012],[0,3],[-5,20],[14,0],[-9,-23]],[[9570,9419],[-68,-147]],[[9358,9272],[72,178]],[[9439,10167],[162,-138]],[[9295,10055],[67,89]],[[9362,10144],[77,23]],[[8075,8326],[-55,-92]],[[7926,8020],[-41,16]],[[7746,8171],[36,106],[103,59],[86,94],[9,5],[0,3],[-18,206]],[[9687,9272],[-18,0]],[[9669,9272],[-27,89]],[[9642,9361],[-41,58]],[[9705,9465],[-9,-150]],[[9696,9315],[27,-43]],[[9655,9256],[-90,0]],[[9570,9272],[36,48]],[[9606,9320],[63,-48]],[[9606,9320],[36,41]],[[9723,9256],[40,3]],[[9696,9315],[54,0]],[[10903,9333],[162,129],[-158,-587]],[[10808,8893],[-49,363]],[[10759,9256],[63,33]],[[10822,9289],[81,44]],[[11227,8616],[-95,-13]],[[11132,8816],[-4,87]],[[11128,8903],[311,-198]],[[11439,8705],[0,-212],[-212,123]],[[12227,8992],[0,-160],[0,-107]],[[12227,8725],[-126,-143]],[[12101,8582],[-127,181],[-49,-89],[-50,71]],[[11875,8745],[0,542]],[[11875,9287],[108,117]],[[11983,9404],[244,10]],[[12227,9414],[0,-61],[0,-104],[0,-257]],[[12222,8028],[-49,0]],[[12173,8028],[-176,435]],[[11997,8463],[104,119]],[[12227,8725],[0,-338],[-5,-359]],[[10583,9310],[176,-54]],[[11997,8463],[-122,234]],[[11875,8697],[0,48]],[[10871,9951],[32,-618]],[[10822,9289],[-140,232],[-72,-148],[-122,72],[-58,-79]],[[10142,9808],[36,148]],[[10178,9956],[36,91]],[[10214,10047],[207,-81],[85,140]],[[10506,10106],[365,-155]],[[10871,9951],[27,-39]],[[10898,9912],[14,-272],[572,-12],[0,-420]],[[11484,9208],[-14,-114],[-333,-84],[-9,-107]],[[11439,8705],[0,223],[292,-290]],[[11731,8638],[-67,-139]],[[11664,8499],[-153,-54]],[[11511,8445],[-271,28],[-13,143]],[[10214,10047],[81,104],[81,-122],[130,77]],[[11745,8028],[-54,290]],[[11691,8318],[-27,181]],[[11731,8638],[144,59]],[[12173,8028],[-428,0]],[[11484,9208],[184,-107],[207,186]],[[11691,8318],[-77,-94],[-135,114],[32,107]],[[11430,7748],[22,-129]],[[11452,7619],[-320,-112]],[[11132,7507],[-63,38],[45,97],[-99,5],[77,53]],[[11128,8056],[365,-28],[-113,-140],[50,-140]],[[11718,7006],[-72,-99]],[[11646,6907],[-244,0]],[[11402,6907],[68,2],[-72,104],[131,-45],[-68,119]],[[11461,7087],[14,31]],[[11475,7118],[85,86]],[[11560,7204],[59,-25]],[[11619,7179],[-5,-163],[104,-10]],[[11547,7461],[-45,-23]],[[11502,7438],[-50,181]],[[11430,7748],[198,46],[-50,-175],[140,-66]],[[11718,7553],[-171,28],[0,-120]],[[11718,7006],[144,163]],[[11862,7169],[360,-92]],[[12222,7077],[0,-173],[-576,3]],[[11862,7169],[-23,81],[-220,-71]],[[11560,7204],[-108,104],[158,3],[13,107]],[[11623,7418],[77,74],[139,-123],[131,204]],[[11970,7573],[162,-287],[90,109]],[[12222,7395],[0,-318]],[[11128,7212],[-5,-48]],[[11123,7164],[0,-148]],[[11123,7016],[-148,160]],[[10975,7176],[49,143]],[[11024,7319],[104,-5]],[[11128,7314],[0,-102]],[[11155,7074],[-32,90]],[[11128,7212],[94,-18]],[[11222,7194],[18,-58]],[[11240,7136],[-85,-62]],[[10831,7314],[-36,-6]],[[10795,7308],[-50,84],[-144,-84]],[[10601,7308],[22,209]],[[10623,7517],[190,-15]],[[10813,7502],[18,-188]],[[11123,6904],[0,112]],[[11155,7074],[243,-20]],[[11398,7054],[63,33]],[[11402,6907],[-279,-3]],[[11128,7314],[0,15]],[[11128,7329],[180,43]],[[11308,7372],[31,-97]],[[11339,7275],[-117,-81]],[[10520,7100],[139,-140],[145,71],[-59,110]],[[10745,7141],[45,33]],[[10790,7174],[50,-54]],[[10840,7120],[157,-216]],[[10997,6904],[-581,97]],[[10416,7001],[5,99],[99,0]],[[10840,8117],[-81,13]],[[10786,8280],[130,5],[32,-168]],[[10840,7120],[135,56]],[[11123,6904],[-126,0]],[[11623,7418],[-76,43]],[[11718,7553],[13,101],[225,-58]],[[11956,7596],[14,-23]],[[10813,7611],[0,-109]],[[10623,7517],[-76,74]],[[10547,7591],[184,0]],[[10731,7591],[82,20]],[[11128,7329],[4,178]],[[11502,7438],[-194,-66]],[[11132,8603],[0,-486]],[[11956,7596],[63,35],[-342,257],[68,140]],[[12222,8028],[0,-519],[0,-114]],[[10083,8109],[18,-134],[149,48],[85,-48],[0,-168],[149,10]],[[10484,7817],[0,-18]],[[10484,7799],[-122,-38],[-85,-224]],[[10277,7537],[-59,-452]],[[10218,7085],[-770,318]],[[11398,7054],[-158,82]],[[11339,7275],[136,-157]],[[10790,7174],[-86,112]],[[10704,7286],[91,22]],[[10831,7314],[81,99],[112,-94]],[[10745,7141],[-81,0]],[[10664,7141],[40,145]],[[10813,7611],[13,28]],[[10826,7639],[176,89],[-86,13]],[[10916,7741],[45,91]],[[10664,7141],[-122,-41]],[[10542,7100],[-18,145],[77,63]],[[10520,7100],[22,0]],[[10686,8112],[-85,-109]],[[10601,8003],[-117,-46],[0,-140]],[[10731,7802],[-13,0]],[[10718,7802],[0,23]],[[10718,7825],[13,-8]],[[10731,7817],[0,-15]],[[10695,7901],[-4,46]],[[10691,7947],[0,18]],[[10691,7965],[40,2]],[[10731,7954],[0,-68]],[[10731,7886],[-36,15]],[[10718,7825],[-54,81]],[[10664,7906],[4,8]],[[10668,7914],[27,-13]],[[10731,7886],[0,-69]],[[10731,7591],[-22,168]],[[10709,7759],[77,0]],[[10786,7759],[40,-21]],[[10826,7738],[0,-99]],[[10813,7776],[67,-20]],[[10880,7756],[-54,-18]],[[10786,7759],[-9,15]],[[10777,7774],[-5,18]],[[10772,7792],[27,-5]],[[10799,7787],[14,-11]],[[10813,7787],[0,-11]],[[10799,7787],[14,0]],[[10867,7832],[0,-45]],[[10867,7787],[-54,0]],[[10813,7787],[0,45]],[[10813,7832],[54,0]],[[10772,7792],[0,10]],[[10772,7802],[0,30]],[[10772,7832],[41,0]],[[10799,7865],[14,-33]],[[10772,7832],[0,36]],[[10772,7868],[27,-3]],[[10777,7774],[-68,-3]],[[10709,7771],[-63,-5]],[[10646,7766],[-23,46]],[[10623,7812],[0,5]],[[10623,7817],[95,-15]],[[10731,7802],[23,0]],[[10754,7802],[18,0]],[[10709,7759],[0,12]],[[10840,7858],[31,-26]],[[10871,7832],[-4,0]],[[10799,7865],[41,-7]],[[10754,7802],[-5,76]],[[10749,7878],[23,-10]],[[10749,7878],[-18,8]],[[10799,7937],[0,-72]],[[10867,7787],[40,-31]],[[10907,7756],[-27,0]],[[10484,7799],[139,13]],[[10646,7766],[-113,-68]],[[10533,7698],[-256,-161]],[[10416,7001],[-198,84]],[[10533,7698],[14,-107]],[[10691,7965],[18,150]],[[10754,8115],[32,-92]],[[10668,7914],[-36,45]],[[10632,7959],[59,-12]],[[10632,7959],[-31,44]],[[10664,7906],[-41,-89]],[[10907,7756],[0,-10],[5,0],[4,-5]],[[10871,7832],[90,0]],[[10840,7858],[9,46]],[[11592,9755],[148,40],[108,-152]],[[11848,9643],[27,-356]],[[10898,9912],[0,3]],[[10898,9915],[207,43],[-31,267]],[[11074,10225],[139,84]],[[11213,10309],[135,48]],[[11348,10357],[5,-254],[248,-58]],[[11601,10045],[0,-112]],[[11601,9933],[0,-69]],[[11601,9864],[-149,8],[45,-89]],[[11497,9783],[95,-28]],[[11983,9404],[90,104],[154,-61]],[[12227,9447],[0,-33]],[[11808,10302],[139,-377]],[[11947,9925],[50,-91],[-396,99]],[[11601,10045],[-5,279]],[[11596,10324],[212,-22]],[[11848,9643],[180,127],[14,-114],[185,33]],[[12227,9689],[0,-92],[0,-150]],[[10898,9915],[0,381]],[[10898,10296],[176,-71]],[[11601,9813],[-104,-30]],[[11601,9864],[0,-51]],[[11601,9813],[-9,-58]],[[12227,10535],[0,-300],[0,-422]],[[12227,9813],[-280,112]],[[11808,10302],[216,35],[203,198]],[[11348,10357],[32,97],[216,-97]],[[11596,10357],[0,-33]],[[12227,9813],[0,-124]],[[9916,10642],[77,183],[-14,435],[-148,374],[279,69]],[[10110,11703],[18,-346],[320,89],[45,-219]],[[10493,11227],[-275,-201],[-9,-203],[149,-127]],[[10358,10696],[-27,-46]],[[10331,10650],[-140,43],[-94,-140],[0,94],[-181,-5]],[[10898,10843],[0,-158]],[[10898,10685],[-441,-50]],[[10457,10635],[-99,61]],[[10493,11227],[18,-53]],[[10511,11174],[0,-346],[387,15]],[[9083,11898],[23,176],[-207,38],[-45,142],[85,123],[-58,343]],[[8881,12720],[342,0],[279,2]],[[9502,12722],[-67,-625]],[[9435,12097],[-352,-199]],[[9502,12722],[396,0]],[[9898,12722],[45,-338],[266,150]],[[10209,12534],[-176,-323],[45,-315],[-81,-153],[-427,155],[-59,67],[54,101],[-130,31]],[[9241,11855],[0,125]],[[9241,11980],[257,124],[72,-55],[-59,-82]],[[9511,11967],[-22,-13]],[[9489,11954],[36,105],[-284,-204]],[[10286,10225],[-14,148],[117,18],[-103,-166]],[[11213,10309],[99,529],[293,5]],[[11605,10843],[-9,-486]],[[11002,11738],[-104,-48]],[[10898,11690],[0,425]],[[10898,12115],[230,2]],[[11128,12117],[108,18],[-234,-397]],[[10898,12115],[0,33]],[[10898,12148],[252,203],[-31,369]],[[11119,12720],[225,0],[140,0]],[[11484,12720],[0,-555]],[[11484,12165],[-356,-48]],[[11484,11349],[-217,-79]],[[11267,11270],[-112,224]],[[11155,11494],[76,201]],[[11231,11695],[149,-5],[104,-155]],[[11484,11535],[0,-186]],[[10898,11181],[0,-338]],[[10511,11174],[189,68]],[[10700,11242],[198,-61]],[[9898,12722],[415,0],[-104,-188]],[[10457,10635],[-95,-112],[-81,61],[50,66]],[[10898,11181],[0,260]],[[10898,11441],[77,20]],[[10975,11461],[180,33]],[[11267,11270],[-369,-89]],[[10898,12453],[-63,35],[-58,-167],[-217,173],[-117,-117],[-166,109],[-68,-125],[0,173]],[[10209,12534],[194,166],[157,-123],[-139,145],[4,0],[32,0],[13,0],[36,0],[14,0],[72,0],[306,3]],[[10898,12725],[0,-272]],[[10975,11461],[85,249]],[[11060,11710],[63,87],[108,-102]],[[10898,11441],[0,249]],[[11002,11738],[58,-28]],[[10700,11242],[0,712]],[[10700,11954],[198,161]],[[10110,11703],[-32,188]],[[10078,11891],[-36,206]],[[10042,12097],[136,-74],[-36,-112],[256,-33],[-49,115],[117,96],[234,-135]],[[9664,10665],[-4,84]],[[9660,10749],[-81,181],[-334,86]],[[9245,11016],[-337,198]],[[8908,11214],[324,280],[9,356]],[[9241,11850],[216,-51],[72,-152],[72,188],[-112,119]],[[9511,11967],[455,-229],[112,153]],[[9916,10642],[-243,-2]],[[9673,10640],[-9,25]],[[10898,10296],[0,389]],[[11484,11349],[135,-18],[-14,-488]],[[10898,12453],[0,-305]],[[10042,12097],[167,437]],[[10898,12725],[221,-5]],[[9552,10200],[27,140]],[[9579,10340],[36,17]],[[9615,10357],[27,-68]],[[9642,10289],[-5,-61]],[[9637,10228],[-85,-28]],[[9439,10167],[113,33]],[[9637,10228],[32,0]],[[9669,10228],[13,-115]],[[9682,10113],[-67,-84]],[[8885,10068],[0,172]],[[8885,10240],[131,-38],[94,158],[-135,71]],[[8975,10431],[126,272],[198,-15]],[[9299,10688],[280,-348]],[[9362,10144],[45,122],[-207,-8],[-162,-241]],[[9718,10228],[-49,0]],[[9642,10289],[9,84]],[[9651,10373],[72,5]],[[9723,10378],[18,0]],[[9741,10378],[-23,-150]],[[9660,10749],[-203,-8]],[[9457,10741],[-99,21]],[[9358,10762],[-126,99],[13,155]],[[8885,10240],[0,212]],[[8885,10452],[90,-21]],[[10002,10223],[-32,104]],[[9970,10327],[50,8]],[[10020,10335],[45,-39]],[[10065,10296],[68,-45]],[[10133,10251],[-41,-127]],[[10092,10124],[-153,-64],[63,163]],[[9651,10373],[-36,-16]],[[9299,10688],[59,74]],[[9457,10741],[86,-193],[121,117]],[[9673,10640],[50,-262]],[[9916,10642],[-49,-127],[85,-41]],[[9952,10474],[-18,-89]],[[9934,10385],[-193,-7]],[[10065,10373],[-45,-38]],[[9970,10327],[-36,58]],[[9952,10474],[72,-12]],[[10024,10462],[41,-89]],[[9790,10205],[-72,23]],[[10002,10223],[-212,-18]],[[9790,10205],[45,-135],[-153,43]],[[9768,9846],[-27,161],[-108,2]],[[10092,10124],[86,-168]],[[10065,10296],[72,46],[-4,-91]],[[10065,10373],[90,94],[-131,-5]],[[8885,10452],[0,361]],[[8885,10813],[0,305]],[[8885,11118],[23,96]],[[8268,10736],[14,176],[-275,445]],[[8007,11357],[306,48],[-126,290]],[[8187,11695],[176,196],[274,-377]],[[8637,11514],[27,-109],[-103,-99],[112,-163],[-58,-28],[270,3]],[[8885,10813],[-261,-189]],[[8624,10624],[-356,112]],[[8084,10157],[49,-8]],[[8133,10149],[-22,-46]],[[8111,10103],[-27,54]],[[8403,10469],[32,-104],[-302,-216]],[[8084,10157],[-100,221]],[[7984,10378],[82,10]],[[8066,10388],[337,81]],[[8304,9943],[-193,160]],[[8403,10469],[248,-53],[-27,208]],[[8268,10736],[-139,-43],[-63,125]],[[8066,10818],[-145,53]],[[7921,10871],[-90,465]],[[7831,11336],[176,21]],[[7885,10721],[95,-46]],[[7980,10675],[-108,-43]],[[7872,10632],[13,89]],[[8066,10818],[-149,-10]],[[7917,10808],[4,63]],[[8327,11909],[0,554],[0,97],[0,160],[288,0],[162,0],[104,0]],[[9083,11898],[-189,-106],[9,-237],[-85,-117],[-176,76],[-279,443],[-36,-59],[0,11]],[[8637,11514],[208,-73],[49,351],[347,188]],[[9241,11855],[0,-5]],[[7917,10472],[103,74]],[[8020,10546],[46,-158]],[[7984,10378],[-67,94]],[[7980,10675],[40,-129]],[[7917,10472],[-45,160]],[[7989,11782],[18,-425]],[[7831,11336],[-31,430],[135,84],[54,-68]],[[7885,10721],[32,87]],[[7989,11782],[86,45],[112,-132]],[[11605,10843],[302,97],[320,-99]],[[12227,10841],[0,-214],[0,-92]],[[12227,11947],[0,-107]],[[12227,11840],[-221,-38],[76,-188],[-220,-135],[-378,234]],[[11484,11713],[0,450]],[[11484,12163],[45,-36]],[[11529,12127],[-18,-122],[445,-18]],[[11956,11987],[266,-35]],[[12222,11952],[5,-5]],[[11484,11535],[0,178]],[[12227,11840],[0,-142],[0,-278],[0,-73],[0,-499],[0,-7]],[[12182,12084],[-230,61]],[[11952,12145],[81,120]],[[12033,12265],[149,-181]],[[11484,12165],[0,-2]],[[12222,11952],[-40,132]],[[12033,12265],[45,109],[-72,43],[-257,-239],[-171,-10]],[[11578,12168],[189,239],[-49,313]],[[11718,12720],[509,0],[0,-773]],[[11484,12720],[225,0],[9,0]],[[11578,12168],[-49,-41]],[[11952,12145],[4,-127],[-67,10],[67,-41]]]}