{"type":"Topology","transform":{"scale":[0.0012831345112129487,0.0009745357309423489],"translate":[-124.73273099999999,24.60334863324381]},"objects":{"area":{"type":"GeometryCollection","geometries":[{"arcs":[[0,1,2,3,4,5,6,7,8]],"type":"Polygon","properties":{"state":"CO","name":"PIKE NTL FOREST","zip":"00027"}},{"arcs":[[9,10,11,12,13,14]],"type":"Polygon","properties":{"state":"CO","name":"ARVADA","zip":"80002"}},{"arcs":[[15,16,17,18,19,20,-14]],"type":"Polygon","properties":{"state":"CO","name":"ARVADA","zip":"80003"}},{"arcs":[[21,22,23,-16,-13]],"type":"Polygon","properties":{"state":"CO","name":"ARVADA","zip":"80004"}},{"arcs":[[24,25,-17,-24]],"type":"Polygon","properties":{"state":"CO","name":"ARVADA","zip":"80005"}},{"arcs":[[26,27,-25,-23]],"type":"Polygon","properties":{"state":"CO","name":"ARVADA","zip":"80007"}},{"arcs":[[28,29,30,31,32,33,34]],"type":"Polygon","properties":{"state":"CO","name":"AURORA","zip":"80010"}},{"arcs":[[35,36,37,38,-35,39,40,41]],"type":"Polygon","properties":{"state":"CO","name":"AURORA","zip":"80011"}},{"arcs":[[42,-29,-39,43,44]],"type":"Polygon","properties":{"state":"CO","name":"AURORA","zip":"80012"}},{"arcs":[[45,46,47,48,-37]],"type":"Polygon","properties":{"state":"CO","name":"AURORA","zip":"80013"}},{"arcs":[[49,50,51,-45,52,-48]],"type":"Polygon","properties":{"state":"CO","name":"AURORA","zip":"80014"}},{"arcs":[[53,-50,-47,54,55]],"type":"Polygon","properties":{"state":"CO","name":"AURORA","zip":"80015"}},{"arcs":[[56,57,58,-56,59,60,61]],"type":"Polygon","properties":{"state":"CO","name":"AURORA","zip":"80016"}},{"arcs":[[-49,-53,-44,-38]],"type":"Polygon","properties":{"state":"CO","name":"AURORA","zip":"80017"}},{"arcs":[[-36,62,63,-60,-55,-46]],"type":"Polygon","properties":{"state":"CO","name":"AURORA","zip":"80018"}},{"arcs":[[64,-63,-42,65]],"type":"Polygon","properties":{"state":"CO","name":"AURORA","zip":"80019"}},{"arcs":[[66,67,68,69,70,71,72,73]],"type":"Polygon","properties":{"state":"CO","name":"BROOMFIELD","zip":"80020"}},{"arcs":[[74,-18,-26,-28,75,76,77,-69]],"type":"Polygon","properties":{"state":"CO","name":"BROOMFIELD","zip":"80021"}},{"arcs":[[78,79,80,81,82,83,84,85]],"type":"Polygon","properties":{"state":"CO","name":"COMMERCE CITY","zip":"80022"}},{"arcs":[[86,87,88,89,-71,90]],"type":"Polygon","properties":{"state":"CO","name":"LAFAYETTE","zip":"80026"}},{"arcs":[[91,-91,-70,-78]],"type":"Polygon","properties":{"state":"CO","name":"LOUISVILLE","zip":"80027"}},{"arcs":[[92,93,-20]],"type":"Polygon","properties":{"state":"CO","name":"WESTMINSTER","zip":"80030"}},{"arcs":[[-75,-68,94,95,96,-93,-19]],"type":"Polygon","properties":{"state":"CO","name":"WESTMINSTER","zip":"80031"}},{"arcs":[[97,98,99,100,-11,101]],"type":"Polygon","properties":{"state":"CO","name":"WHEAT RIDGE","zip":"80033"}},{"arcs":[[102,103,104,105,106]],"type":"Polygon","properties":{"state":"CO","name":"AGATE","zip":"80101"}},{"arcs":[[107,108,109,110,111,112,113,114,115,116]],"type":"Polygon","properties":{"state":"CO","name":"BENNETT","zip":"80102"}},{"arcs":[[117,118]],"type":"Polygon","properties":{"state":"CO","name":"BYERS","zip":"80103"}},{"arcs":[[119,120,121,122,123]],"type":"Polygon","properties":{"state":"CO","name":"CASTLE ROCK","zip":"80104"}},{"arcs":[[124,-119,125,126,127,-104,128,-108]],"type":"Polygon","properties":{"state":"CO","name":"DEER TRAIL","zip":"80105"}},{"arcs":[[129,130,131,132,-110,133,134,135,136]],"type":"Polygon","properties":{"state":"CO","name":"ELBERT","zip":"80106"}},{"arcs":[[137,-132,138,139,140,141,-112]],"type":"Polygon","properties":{"state":"CO","name":"ELIZABETH","zip":"80107"}},{"arcs":[[142,143,144,145,146,147,148,149,150,151]],"type":"Polygon","properties":{"state":"CO","name":"ENGLEWOOD","zip":"80110"}},{"arcs":[[152,-149,153,154,-51,-54,-59,155]],"type":"Polygon","properties":{"state":"CO","name":"ENGLEWOOD","zip":"80111"}},{"arcs":[[156,157,-156,-58,158,159]],"type":"Polygon","properties":{"state":"CO","name":"ENGLEWOOD","zip":"80112"}},{"arcs":[[160,-120,161,-139,-131]],"type":"Polygon","properties":{"state":"CO","name":"FRANKTOWN","zip":"80116"}},{"arcs":[[-138,-111,-133]],"type":"Polygon","properties":{"state":"CO","name":"KIOWA","zip":"80117"}},{"arcs":[[162,163,164,165,-121,-161,-130,166]],"type":"Polygon","properties":{"state":"CO","name":"LARKSPUR","zip":"80118"}},{"arcs":[[167,168,169,170,171,-151,172]],"type":"Polygon","properties":{"state":"CO","name":"LITTLETON","zip":"80120"}},{"arcs":[[-150,-153,173,-173]],"type":"Polygon","properties":{"state":"CO","name":"LITTLETON","zip":"80121"}},{"arcs":[[174,-168,-174,-158]],"type":"Polygon","properties":{"state":"CO","name":"LITTLETON","zip":"80122"}},{"arcs":[[175,176,177,-152,-172,178]],"type":"Polygon","properties":{"state":"CO","name":"LITTLETON","zip":"80123"}},{"arcs":[[179,180,181,-160,182,-123,183]],"type":"Polygon","properties":{"state":"CO","name":"LITTLETON","zip":"80124"}},{"arcs":[[184,185,186,-170,187,188,-180]],"type":"Polygon","properties":{"state":"CO","name":"LITTLETON","zip":"80125"}},{"arcs":[[189,-181,-189,190,-175,-157]],"type":"Polygon","properties":{"state":"CO","name":"LITTLETON","zip":"80126"}},{"arcs":[[191,192,193,194,-176,195,-186]],"type":"Polygon","properties":{"state":"CO","name":"LITTLETON","zip":"80127"}},{"arcs":[[-196,-179,-171,-187]],"type":"Polygon","properties":{"state":"CO","name":"LITTLETON","zip":"80128"}},{"arcs":[[-169,-191,-188]],"type":"Polygon","properties":{"state":"CO","name":"LITTLETON","zip":"80129"}},{"type":null,"properties":{"state":"CO","name":"LITTLETON","zip":"80130"}},{"arcs":[[196,-163,197,198]],"type":"Polygon","properties":{"state":"CO","name":"MONUMENT","zip":"80132"}},{"arcs":[[199,-164,-197]],"type":"Polygon","properties":{"state":"CO","name":"PALMER LAKE","zip":"80133"}},{"arcs":[[-162,-124,-183,-159,-57,200,-140]],"type":"Polygon","properties":{"state":"CO","name":"PARKER","zip":"80134"}},{"arcs":[[201,202,203,204,205,206,207,-192,-185,-184,-122,-166]],"type":"Polygon","properties":{"state":"CO","name":"SEDALIA","zip":"80135"}},{"arcs":[[-125,-117,208,209,210,211,-126,-118]],"type":"Polygon","properties":{"state":"CO","name":"STRASBURG","zip":"80136"}},{"arcs":[[212,-61,-64,-65,213,-86,214,-113,-142]],"type":"Polygon","properties":{"state":"CO","name":"WATKINS","zip":"80137"}},{"arcs":[[-201,-62,-213,-141]],"type":"Polygon","properties":{"state":"CO","name":"PARKER","zip":"80138"}},{"arcs":[[215,216,217,218,219]],"type":"Polygon","properties":{"state":"CO","name":"DENVER","zip":"80202"}},{"arcs":[[220,221,-216,222,223,224]],"type":"Polygon","properties":{"state":"CO","name":"DENVER","zip":"80203"}},{"arcs":[[225,226,227,228,229,230,-217,-222]],"type":"Polygon","properties":{"state":"CO","name":"DENVER","zip":"80204"}},{"arcs":[[231,-223,-220,232,233,234,235]],"type":"Polygon","properties":{"state":"CO","name":"DENVER","zip":"80205"}},{"arcs":[[236,237,-236,238]],"type":"Polygon","properties":{"state":"CO","name":"DENVER","zip":"80206"}},{"arcs":[[239,240,-33,241,-234]],"type":"Polygon","properties":{"state":"CO","name":"DENVER","zip":"80207"}},{"arcs":[[242,-225,243,-237,244,245]],"type":"Polygon","properties":{"state":"CO","name":"DENVER","zip":"80209"}},{"arcs":[[246,-246,247,248,-146]],"type":"Polygon","properties":{"state":"CO","name":"DENVER","zip":"80210"}},{"arcs":[[249,250,251,-218,-231]],"type":"Polygon","properties":{"state":"CO","name":"DENVER","zip":"80211"}},{"arcs":[[-230,252,-102,-10,253,-250]],"type":"Polygon","properties":{"state":"CO","name":"DENVER","zip":"80212"}},{"arcs":[[254,-98,-253,-229,255]],"type":"Polygon","properties":{"state":"CO","name":"DENVER","zip":"80214"}},{"arcs":[[256,257,-99,-255,258]],"type":"Polygon","properties":{"state":"CO","name":"DENVER","zip":"80215"}},{"arcs":[[259,260,-81,261,-240,-233,-219,-252]],"type":"Polygon","properties":{"state":"CO","name":"DENVER","zip":"80216"}},{"arcs":[[-232,-238,-244,-224]],"type":"Polygon","properties":{"state":"CO","name":"DENVER","zip":"80218"}},{"arcs":[[262,263,264,-227,265,-144,266]],"type":"Polygon","properties":{"state":"CO","name":"DENVER","zip":"80219"}},{"arcs":[[-235,-242,-32,267,268,269,-239]],"type":"Polygon","properties":{"state":"CO","name":"DENVER","zip":"80220"}},{"arcs":[[-15,-21,-94,-97,270,271,-260,-251,-254]],"type":"Polygon","properties":{"state":"CO","name":"DENVER","zip":"80221"}},{"arcs":[[-249,272,273,274,-147]],"type":"Polygon","properties":{"state":"CO","name":"DENVER","zip":"80222"}},{"arcs":[[-226,-221,-243,-247,-145,-266]],"type":"Polygon","properties":{"state":"CO","name":"DENVER","zip":"80223"}},{"arcs":[[275,276,-274,277,-269,278]],"type":"Polygon","properties":{"state":"CO","name":"DENVER","zip":"80224"}},{"arcs":[[279,-257,280]],"type":"Polygon","properties":{"state":"CO","name":"DENVER","zip":"80225"}},{"arcs":[[281,282,-281,-259,-256,-228,-265]],"type":"Polygon","properties":{"state":"CO","name":"DENVER","zip":"80226"}},{"arcs":[[283,284,285,286,287,-263]],"type":"Polygon","properties":{"state":"CO","name":"DENVER","zip":"80227"}},{"arcs":[[288,-287,289,290,-280,-283]],"type":"Polygon","properties":{"state":"CO","name":"DENVER","zip":"80228"}},{"arcs":[[291,292,293,-82,-261,-272]],"type":"Polygon","properties":{"state":"CO","name":"DENVER","zip":"80229"}},{"arcs":[[294,-279,-268,-31]],"type":"Polygon","properties":{"state":"CO","name":"DENVER","zip":"80230"}},{"arcs":[[295,-276,-295,-30,-43,-52,-155]],"type":"Polygon","properties":{"state":"CO","name":"DENVER","zip":"80231"}},{"arcs":[[-282,-264,-288,-289]],"type":"Polygon","properties":{"state":"CO","name":"DENVER","zip":"80232"}},{"arcs":[[296,-293,297,298,299]],"type":"Polygon","properties":{"state":"CO","name":"DENVER","zip":"80233"}},{"arcs":[[-67,300,-298,301,-95]],"type":"Polygon","properties":{"state":"CO","name":"DENVER","zip":"80234"}},{"arcs":[[302,-285,303,-177,-195]],"type":"Polygon","properties":{"state":"CO","name":"DENVER","zip":"80235"}},{"arcs":[[-178,-304,-284,-267,-143]],"type":"Polygon","properties":{"state":"CO","name":"DENVER","zip":"80236"}},{"arcs":[[-275,-277,-296,-154,-148]],"type":"Polygon","properties":{"state":"CO","name":"DENVER","zip":"80237"}},{"arcs":[[-241,-262,-80,304,-40,-34]],"type":"Polygon","properties":{"state":"CO","name":"DENVER","zip":"80239"}},{"arcs":[[-74,305,-299,-301]],"type":"Polygon","properties":{"state":"CO","name":"DENVER","zip":"80241"}},{"arcs":[[-273,-248,-245,-270,-278]],"type":"Polygon","properties":{"state":"CO","name":"DENVER","zip":"80246"}},{"arcs":[[-41,-305,-79,-214,-66]],"type":"Polygon","properties":{"state":"CO","name":"DENVER","zip":"80249"}},{"arcs":[[-271,-96,-302,-292]],"type":"Polygon","properties":{"state":"CO","name":"DENVER","zip":"80260"}},{"arcs":[[306,307,308,-88]],"type":"Polygon","properties":{"state":"CO","name":"BOULDER","zip":"80301"}},{"arcs":[[309,310,311,312,313,314,315,316,-308,317]],"type":"Polygon","properties":{"state":"CO","name":"BOULDER","zip":"80302"}},{"arcs":[[-77,318,-312,319,320,-318,-307,-87,-92]],"type":"Polygon","properties":{"state":"CO","name":"BOULDER","zip":"80303"}},{"arcs":[[-311,321,-320]],"type":"Polygon","properties":{"state":"CO","name":"BOULDER","zip":"80305"}},{"arcs":[[-321,-322,-310]],"type":"Polygon","properties":{"state":"CO","name":"BOULDER","zip":"80309"}},{"arcs":[[322,323,324,-100,-258,-291]],"type":"Polygon","properties":{"state":"CO","name":"GOLDEN","zip":"80401"}},{"arcs":[[-325,325,326,327,328,-313,-319,-76,-27,-22,-12,-101]],"type":"Polygon","properties":{"state":"CO","name":"GOLDEN","zip":"80403"}},{"arcs":[[329,-206,330,331,332,333,334]],"type":"Polygon","properties":{"state":"CO","name":"BAILEY","zip":"80421"}},{"arcs":[[335,336,337,338,339,340,341]],"type":"Polygon","properties":{"state":"CO","name":"BOND","zip":"80423"}},{"arcs":[[342,343,344]],"type":"Polygon","properties":{"state":"CO","name":"BRECKENRIDGE","zip":"80424"}},{"arcs":[[345,346,347,348]],"type":"Polygon","properties":{"state":"CO","name":"CLARK","zip":"80428"}},{"arcs":[[349,350,351,-346]],"type":"Polygon","properties":{"state":"CO","name":"COALMONT","zip":"80430"}},{"arcs":[[352,353,354,-193,-208]],"type":"Polygon","properties":{"state":"CO","name":"CONIFER","zip":"80433"}},{"arcs":[[355,356,357,358,-333,359,-344,360]],"type":"Polygon","properties":{"state":"CO","name":"DILLON","zip":"80435"}},{"arcs":[[361,-354,362,-335,363,-326,-324]],"type":"Polygon","properties":{"state":"CO","name":"EVERGREEN","zip":"80439"}},{"arcs":[[364,365,366,367,368,-343,369,370]],"type":"Polygon","properties":{"state":"CO","name":"FAIRPLAY","zip":"80440"}},{"arcs":[[371,372,373,374,375,376,377,378,-328]],"type":"Polygon","properties":{"state":"CO","name":"GRANBY","zip":"80446"}},{"arcs":[[379,380,381,382,383,-376]],"type":"Polygon","properties":{"state":"CO","name":"GRAND LAKE","zip":"80447"}},{"arcs":[[384,385,-366]],"type":"Polygon","properties":{"state":"CO","name":"HARTSEL","zip":"80449"}},{"arcs":[[-334,-359,386,-372,-327,-364]],"type":"Polygon","properties":{"state":"CO","name":"IDAHO SPRINGS","zip":"80452"}},{"arcs":[[-345,-360,-332,387,-370]],"type":"Polygon","properties":{"state":"CO","name":"JEFFERSON","zip":"80456"}},{"arcs":[[388,389,390,-351,391,392,393,394,395,-339]],"type":"Polygon","properties":{"state":"CO","name":"KREMMLING","zip":"80459"}},{"arcs":[[396,397,398,399,-361,-369]],"type":"Polygon","properties":{"state":"CO","name":"LEADVILLE","zip":"80461"}},{"arcs":[[400,401,-337]],"type":"Polygon","properties":{"state":"CO","name":"MC COY","zip":"80463"}},{"arcs":[[-323,-290,-286,-303,-194,-355,-362]],"type":"Polygon","properties":{"state":"CO","name":"MORRISON","zip":"80465"}},{"arcs":[[402,-314,-329,-379]],"type":"Polygon","properties":{"state":"CO","name":"NEDERLAND","zip":"80466"}},{"arcs":[[403,404,405,406,-390]],"type":"Polygon","properties":{"state":"CO","name":"OAK CREEK","zip":"80467"}},{"arcs":[[[-393,407,-380,-375,408]],[[-358,409,-395,410,-373,-387]]],"type":"MultiPolygon","properties":{"state":"CO","name":"PARSHALL","zip":"80468"}},{"arcs":[[-363,-353,-207,-330]],"type":"Polygon","properties":{"state":"CO","name":"PINE","zip":"80470"}},{"arcs":[[411,412,-404,-389,-338,-402]],"type":"Polygon","properties":{"state":"CO","name":"TOPONAS","zip":"80479"}},{"arcs":[[-408,-392,-350,-349,413,414,415,416,-381]],"type":"Polygon","properties":{"state":"CO","name":"WALDEN","zip":"80480"}},{"arcs":[[-403,-378,417,-315]],"type":"Polygon","properties":{"state":"CO","name":"WARD","zip":"80481"}},{"arcs":[[-407,418,-347,-352,-391]],"type":"Polygon","properties":{"state":"CO","name":"STEAMBOAT SPRINGS","zip":"80487"}},{"arcs":[[419,-340,-396,-410,-357]],"type":"Polygon","properties":{"state":"CO","name":"SILVERTHORNE","zip":"80498"}},{"arcs":[[420,421]],"type":"Polygon","properties":{"state":"CO","name":"LONGMONT","zip":"80501"}},{"arcs":[[422,423,424,-422,425,-309,-317]],"type":"Polygon","properties":{"state":"CO","name":"LONGMONT","zip":"80503"}},{"arcs":[[426,427,-89,-426,-421,-425,428,429,430,431]],"type":"Polygon","properties":{"state":"CO","name":"LONGMONT","zip":"80504"}},{"arcs":[[432,433,-382,-417,434,435,436,437,438,439]],"type":"Polygon","properties":{"state":"CO","name":"BELLVUE","zip":"80512"}},{"arcs":[[440,441,442,443,-429,-424]],"type":"Polygon","properties":{"state":"CO","name":"BERTHOUD","zip":"80513"}},{"arcs":[[444,445,446]],"type":"Polygon","properties":{"state":"CO","name":"DACONO","zip":"80514"}},{"arcs":[[447,448,-433,449]],"type":"Polygon","properties":{"state":"CO","name":"DRAKE","zip":"80515"}},{"arcs":[[-90,-428,450,-445,451,452,453,-72]],"type":"Polygon","properties":{"state":"CO","name":"ERIE","zip":"80516"}},{"arcs":[[-434,-449,454,455,-383]],"type":"Polygon","properties":{"state":"CO","name":"ESTES PARK","zip":"80517"}},{"arcs":[[456,-438,457,458]],"type":"Polygon","properties":{"state":"CO","name":"FORT COLLINS","zip":"80521"}},{"arcs":[[459,460,461,462,463,464,465,-459]],"type":"Polygon","properties":{"state":"CO","name":"FORT COLLINS","zip":"80524"}},{"arcs":[[466,467,468,-466,469]],"type":"Polygon","properties":{"state":"CO","name":"FORT COLLINS","zip":"80525"}},{"arcs":[[470,-439,-457,-469]],"type":"Polygon","properties":{"state":"CO","name":"FORT COLLINS","zip":"80526"}},{"arcs":[[471,-467,472]],"type":"Polygon","properties":{"state":"CO","name":"FORT COLLINS","zip":"80528"}},{"arcs":[[473,-446,-451,-427]],"type":"Polygon","properties":{"state":"CO","name":"FREDERICK","zip":"80530"}},{"arcs":[[474,475,476,477,478,-443]],"type":"Polygon","properties":{"state":"CO","name":"JOHNSTOWN","zip":"80534"}},{"arcs":[[-458,-437,479,480,-460]],"type":"Polygon","properties":{"state":"CO","name":"LAPORTE","zip":"80535"}},{"arcs":[[-436,481,482,483,-480]],"type":"Polygon","properties":{"state":"CO","name":"LIVERMORE","zip":"80536"}},{"arcs":[[484,-455,-448,485,486,-475,-442]],"type":"Polygon","properties":{"state":"CO","name":"LOVELAND","zip":"80537"}},{"arcs":[[-440,-471,-468,-472,487,-486,-450]],"type":"Polygon","properties":{"state":"CO","name":"LOVELAND","zip":"80538"}},{"arcs":[[-384,-456,-485,-441,-423,-316,-418,-377]],"type":"Polygon","properties":{"state":"CO","name":"LYONS","zip":"80540"}},{"arcs":[[488,-430,-444,-479]],"type":"Polygon","properties":{"state":"CO","name":"MEAD","zip":"80542"}},{"arcs":[[489,490,491,492,-477]],"type":"Polygon","properties":{"state":"CO","name":"MILLIKEN","zip":"80543"}},{"arcs":[[493,-482,-435,-416]],"type":"Polygon","properties":{"state":"CO","name":"RED FEATHER LAKES","zip":"80545"}},{"arcs":[[-484,494,495,496,-461,-481]],"type":"Polygon","properties":{"state":"CO","name":"WELLINGTON","zip":"80549"}},{"arcs":[[-487,-488,-473,-470,-465,497,498,499,500,-490,-476]],"type":"Polygon","properties":{"state":"CO","name":"WINDSOR","zip":"80550"}},{"arcs":[[501,502,503]],"type":"Polygon","properties":{"state":"CO","name":"BRIGHTON","zip":"80601"}},{"arcs":[[-73,-454,504,-503,505,-300,-306]],"type":"Polygon","properties":{"state":"CO","name":"BRIGHTON","zip":"80602"}},{"arcs":[[-504,-505,-453,506,507,-84,508]],"type":"Polygon","properties":{"state":"CO","name":"BRIGHTON","zip":"80603"}},{"arcs":[[509,510,511,-498,-464,512,513,514]],"type":"Polygon","properties":{"state":"CO","name":"AULT","zip":"80610"}},{"arcs":[[515,516,517,-510,518,519,520]],"type":"Polygon","properties":{"state":"CO","name":"BRIGGSDALE","zip":"80611"}},{"arcs":[[521,-496,522]],"type":"Polygon","properties":{"state":"CO","name":"CARR","zip":"80612"}},{"arcs":[[523,524,-499,-512]],"type":"Polygon","properties":{"state":"CO","name":"EATON","zip":"80615"}},{"arcs":[[525,526,527]],"type":"Polygon","properties":{"state":"CO","name":"EVANS","zip":"80620"}},{"arcs":[[528,-507,-452,-447,-474,-432,529]],"type":"Polygon","properties":{"state":"CO","name":"FORT LUPTON","zip":"80621"}},{"arcs":[[530,531,-524,-511,-518]],"type":"Polygon","properties":{"state":"CO","name":"GILL","zip":"80624"}},{"arcs":[[532,-500,-525,-532,533,534,-527]],"type":"Polygon","properties":{"state":"CO","name":"GREELEY","zip":"80631"}},{"arcs":[[535,-491,-501,-533,-526]],"type":"Polygon","properties":{"state":"CO","name":"GREELEY","zip":"80634"}},{"arcs":[[-83,-294,-297,-506,-502,-509]],"type":"Polygon","properties":{"state":"CO","name":"HENDERSON","zip":"80640"}},{"arcs":[[-508,-529,536,537,538,-114,-215,-85]],"type":"Polygon","properties":{"state":"CO","name":"HUDSON","zip":"80642"}},{"arcs":[[-539,539,540,541,-115]],"type":"Polygon","properties":{"state":"CO","name":"KEENESBURG","zip":"80643"}},{"arcs":[[542,-534,-531,-517,543,544,-541]],"type":"Polygon","properties":{"state":"CO","name":"KERSEY","zip":"80644"}},{"arcs":[[545,-492,-536,-528,-535,-543,-540,-538]],"type":"Polygon","properties":{"state":"CO","name":"LA SALLE","zip":"80645"}},{"arcs":[[546,-462,-497,-522,547,548,-514]],"type":"Polygon","properties":{"state":"CO","name":"NUNN","zip":"80648"}},{"arcs":[[549,550,-544,-516,551]],"type":"Polygon","properties":{"state":"CO","name":"ORCHARD","zip":"80649"}},{"arcs":[[-463,-547,-513]],"type":"Polygon","properties":{"state":"CO","name":"PIERCE","zip":"80650"}},{"arcs":[[-530,-431,-489,-478,-493,-546,-537]],"type":"Polygon","properties":{"state":"CO","name":"PLATTEVILLE","zip":"80651"}},{"arcs":[[552,-209,-116,-542,-545,-551]],"type":"Polygon","properties":{"state":"CO","name":"ROGGEN","zip":"80652"}},{"arcs":[[553,-552,-521,554,555]],"type":"Polygon","properties":{"state":"CO","name":"WELDONA","zip":"80653"}},{"arcs":[[-553,-550,-554,556,-210]],"type":"Polygon","properties":{"state":"CO","name":"WIGGINS","zip":"80654"}},{"arcs":[[557,-211,-557,-556,558,559,560]],"type":"Polygon","properties":{"state":"CO","name":"FORT MORGAN","zip":"80701"}},{"arcs":[[561,562,563,564,565,566,567,568,569,570,571]],"type":"Polygon","properties":{"state":"CO","name":"AKRON","zip":"80720"}},{"arcs":[[572,573,574]],"type":"Polygon","properties":{"state":"CO","name":"AMHERST","zip":"80721"}},{"arcs":[[575,-561,576,577,-567]],"type":"Polygon","properties":{"state":"CO","name":"BRUSH","zip":"80723"}},{"arcs":[[578,579,580,581,582,583]],"type":"Polygon","properties":{"state":"CO","name":"CROOK","zip":"80726"}},{"arcs":[[584,585,586]],"type":"Polygon","properties":{"state":"CO","name":"ECKLEY","zip":"80727"}},{"arcs":[[587,588,589,590,-580]],"type":"Polygon","properties":{"state":"CO","name":"FLEMING","zip":"80728"}},{"arcs":[[591,-519,-515,-549,592]],"type":"Polygon","properties":{"state":"CO","name":"GROVER","zip":"80729"}},{"arcs":[[593,594,595,-588,-579,596,597,598]],"type":"Polygon","properties":{"state":"CO","name":"HAXTUN","zip":"80731"}},{"arcs":[[599,-568,-578]],"type":"Polygon","properties":{"state":"CO","name":"HILLROSE","zip":"80733"}},{"arcs":[[600,601,-599,602,603,-573]],"type":"Polygon","properties":{"state":"CO","name":"HOLYOKE","zip":"80734"}},{"arcs":[[604,605,606,607,608]],"type":"Polygon","properties":{"state":"CO","name":"IDALIA","zip":"80735"}},{"arcs":[[609,610,611,-581,-591]],"type":"Polygon","properties":{"state":"CO","name":"ILIFF","zip":"80736"}},{"arcs":[[-604,612,613,-574]],"type":"Polygon","properties":{"state":"CO","name":"JULESBURG","zip":"80737"}},{"arcs":[[614,615,616,-565]],"type":"Polygon","properties":{"state":"CO","name":"LINDON","zip":"80740"}},{"arcs":[[617,618,619,-570]],"type":"Polygon","properties":{"state":"CO","name":"MERINO","zip":"80741"}},{"arcs":[[-555,-520,-592,620,621,622,-559]],"type":"Polygon","properties":{"state":"CO","name":"NEW RAYMER","zip":"80742"}},{"arcs":[[623,-572,624,-589,-596]],"type":"Polygon","properties":{"state":"CO","name":"OTIS","zip":"80743"}},{"arcs":[[-603,-598,625,626,-613]],"type":"Polygon","properties":{"state":"CO","name":"OVID","zip":"80744"}},{"arcs":[[627,628,629,630,-611]],"type":"Polygon","properties":{"state":"CO","name":"PADRONI","zip":"80745"}},{"arcs":[[-631,631,-582,-612]],"type":"Polygon","properties":{"state":"CO","name":"PEETZ","zip":"80747"}},{"arcs":[[-597,-584,632,-626]],"type":"Polygon","properties":{"state":"CO","name":"SEDGWICK","zip":"80749"}},{"arcs":[[-577,-560,-623,633,-618,-569,-600]],"type":"Polygon","properties":{"state":"CO","name":"SNYDER","zip":"80750"}},{"arcs":[[-571,-620,634,-628,-610,-590,-625]],"type":"Polygon","properties":{"state":"CO","name":"STERLING","zip":"80751"}},{"arcs":[[-634,-622,635,-629,-635,-619]],"type":"Polygon","properties":{"state":"CO","name":"STONEHAM","zip":"80754"}},{"arcs":[[636,637,-587,638,-607]],"type":"Polygon","properties":{"state":"CO","name":"VERNON","zip":"80755"}},{"arcs":[[-212,-558,-576,-566,-617,639,640,-127]],"type":"Polygon","properties":{"state":"CO","name":"WOODROW","zip":"80757"}},{"arcs":[[-586,641,-594,-602,642,-608,-639]],"type":"Polygon","properties":{"state":"CO","name":"WRAY","zip":"80758"}},{"arcs":[[643,644,645,-562,-624,-595,-642,-585,-638]],"type":"Polygon","properties":{"state":"CO","name":"YUMA","zip":"80759"}},{"arcs":[[646,647,-615,-564]],"type":"Polygon","properties":{"state":"CO","name":"ANTON","zip":"80801"}},{"arcs":[[648,649,650,651]],"type":"Polygon","properties":{"state":"CO","name":"ARAPAHOE","zip":"80802"}},{"arcs":[[652,653,654]],"type":"Polygon","properties":{"state":"CO","name":"ARRIBA","zip":"80804"}},{"arcs":[[655,656,657]],"type":"Polygon","properties":{"state":"CO","name":"BETHUNE","zip":"80805"}},{"arcs":[[658,-657,659,-605,660,-652]],"type":"Polygon","properties":{"state":"CO","name":"BURLINGTON","zip":"80807"}},{"arcs":[[661,662,-135,663,664,665,666]],"type":"Polygon","properties":{"state":"CO","name":"CALHAN","zip":"80808"}},{"arcs":[[667,668,-3]],"type":"Polygon","properties":{"state":"CO","name":"CASCADE","zip":"80809"}},{"arcs":[[669,670,671,-658,-659,-651]],"type":"Polygon","properties":{"state":"CO","name":"CHEYENNE WELLS","zip":"80810"}},{"arcs":[[-563,-646,672,673,674,-647]],"type":"Polygon","properties":{"state":"CO","name":"COPE","zip":"80812"}},{"arcs":[[675,676,-204,677,-1]],"type":"Polygon","properties":{"state":"CO","name":"DIVIDE","zip":"80814"}},{"arcs":[[678,679,680,681,-655,682,-674,683,684,685,686]],"type":"Polygon","properties":{"state":"CO","name":"FLAGLER","zip":"80815"}},{"arcs":[[687,688,-676,-9,689,690,691,692,693]],"type":"Polygon","properties":{"state":"CO","name":"FLORISSANT","zip":"80816"}},{"arcs":[[694,695,696,697,698,699]],"type":"Polygon","properties":{"state":"CO","name":"FOUNTAIN","zip":"80817"}},{"arcs":[[700,701,-640,-616,-648,-675,-683,-654]],"type":"Polygon","properties":{"state":"CO","name":"GENOA","zip":"80818"}},{"arcs":[[702,-385,-365,703,-688,704,705,706]],"type":"Polygon","properties":{"state":"CO","name":"GUFFEY","zip":"80820"}},{"arcs":[[707,708,709,-701,-653,-682,710,711,712]],"type":"Polygon","properties":{"state":"CO","name":"HUGO","zip":"80821"}},{"arcs":[[713,-684,-673,-645,714]],"type":"Polygon","properties":{"state":"CO","name":"JOES","zip":"80822"}},{"arcs":[[715,716,717,718,719,-712,720]],"type":"Polygon","properties":{"state":"CO","name":"KARVAL","zip":"80823"}},{"arcs":[[721,722,-715,-644,-637,-606]],"type":"Polygon","properties":{"state":"CO","name":"KIRK","zip":"80824"}},{"arcs":[[723,724,725,-721,-711,-681,726,727,-671]],"type":"Polygon","properties":{"state":"CO","name":"KIT CARSON","zip":"80825"}},{"arcs":[[-689,-704,-371,-388,-331,-205,-677]],"type":"Polygon","properties":{"state":"CO","name":"LAKE GEORGE","zip":"80827"}},{"arcs":[[-710,728,-105,-128,-641,-702]],"type":"Polygon","properties":{"state":"CO","name":"LIMON","zip":"80828"}},{"arcs":[[-8,729,730,-690]],"type":"Polygon","properties":{"state":"CO","name":"MANITOU SPRINGS","zip":"80829"}},{"arcs":[[731,732,-106,-729,-709]],"type":"Polygon","properties":{"state":"CO","name":"MATHESON","zip":"80830"}},{"arcs":[[733,734,735,-136,-663,736]],"type":"Polygon","properties":{"state":"CO","name":"PEYTON","zip":"80831"}},{"arcs":[[-708,737,-664,-134,-109,-129,-103,738,-732]],"type":"Polygon","properties":{"state":"CO","name":"RAMAH","zip":"80832"}},{"arcs":[[739,740,741,-665,-738,-713,-720]],"type":"Polygon","properties":{"state":"CO","name":"RUSH","zip":"80833"}},{"arcs":[[[742,-686]],[[743,-679]]],"type":"MultiPolygon","properties":{"state":"CO","name":"SEIBERT","zip":"80834"}},{"arcs":[[-107,-733,-739]],"type":"Polygon","properties":{"state":"CO","name":"SIMLA","zip":"80835"}},{"arcs":[[-728,744,-722,-660,-656,-672]],"type":"Polygon","properties":{"state":"CO","name":"STRATTON","zip":"80836"}},{"arcs":[[745,-5,746,747]],"type":"Polygon","properties":{"state":"CO","name":"U S A F ACADEMY","zip":"80840"}},{"arcs":[[-727,-680,-744,-687,-743,-685,-714,-723,-745]],"type":"Polygon","properties":{"state":"CO","name":"VONA","zip":"80861"}},{"arcs":[[-678,-203,748,-668,-2]],"type":"Polygon","properties":{"state":"CO","name":"WOODLAND PARK","zip":"80863"}},{"arcs":[[749,750,-666,-742]],"type":"Polygon","properties":{"state":"CO","name":"YODER","zip":"80864"}},{"arcs":[[751,752,753,754,755]],"type":"Polygon","properties":{"state":"CO","name":"COLORADO SPRINGS","zip":"80903"}},{"arcs":[[-7,756,757,758,759,-730]],"type":"Polygon","properties":{"state":"CO","name":"COLORADO SPRINGS","zip":"80904"}},{"arcs":[[760,-759,761,-754]],"type":"Polygon","properties":{"state":"CO","name":"COLORADO SPRINGS","zip":"80905"}},{"arcs":[[762,763,-691,-731,-760,-761,-753,764,765,-698]],"type":"Polygon","properties":{"state":"CO","name":"COLORADO SPRINGS","zip":"80906"}},{"arcs":[[766,767,768,769,-755,-762,-758]],"type":"Polygon","properties":{"state":"CO","name":"COLORADO SPRINGS","zip":"80907"}},{"arcs":[[770,771,772,-198,-167,-137,-736,773]],"type":"Polygon","properties":{"state":"CO","name":"COLORADO SPRINGS","zip":"80908"}},{"arcs":[[-770,774,775,776,777,-756]],"type":"Polygon","properties":{"state":"CO","name":"COLORADO SPRINGS","zip":"80909"}},{"arcs":[[-752,-778,778,779,-765]],"type":"Polygon","properties":{"state":"CO","name":"COLORADO SPRINGS","zip":"80910"}},{"arcs":[[780,-699,-766,-780,781]],"type":"Polygon","properties":{"state":"CO","name":"COLORADO SPRINGS","zip":"80911"}},{"arcs":[[782,783,-763,-697,784,785]],"type":"Polygon","properties":{"state":"CO","name":"COLORADO SPRINGS","zip":"80913"}},{"arcs":[[786,787,-774,-735,788,789,-776]],"type":"Polygon","properties":{"state":"CO","name":"COLORADO SPRINGS","zip":"80915"}},{"arcs":[[790,791,-782,-779,-777,-790]],"type":"Polygon","properties":{"state":"CO","name":"COLORADO SPRINGS","zip":"80916"}},{"arcs":[[-769,792,793,-787,-775]],"type":"Polygon","properties":{"state":"CO","name":"COLORADO SPRINGS","zip":"80917"}},{"arcs":[[-768,794,795,796,-793]],"type":"Polygon","properties":{"state":"CO","name":"COLORADO SPRINGS","zip":"80918"}},{"arcs":[[-746,797,-795,-767,-757,-6]],"type":"Polygon","properties":{"state":"CO","name":"COLORADO SPRINGS","zip":"80919"}},{"arcs":[[798,-796,-798,-748,799,-772]],"type":"Polygon","properties":{"state":"CO","name":"COLORADO SPRINGS","zip":"80920"}},{"arcs":[[-747,-4,-669,-749,-202,-165,-200,-199,-773,-800]],"type":"Polygon","properties":{"state":"CO","name":"COLORADO SPRINGS","zip":"80921"}},{"arcs":[[-797,-799,-771,-788,-794]],"type":"Polygon","properties":{"state":"CO","name":"COLORADO SPRINGS","zip":"80922"}},{"arcs":[[800,-700,-781,-792,801]],"type":"Polygon","properties":{"state":"CO","name":"COLORADO SPRINGS","zip":"80925"}},{"arcs":[[802,-692,-764,-784]],"type":"Polygon","properties":{"state":"CO","name":"COLORADO SPRINGS","zip":"80926"}},{"arcs":[[803,804,-695,-801,805,806,-667,-751]],"type":"Polygon","properties":{"state":"CO","name":"COLORADO SPRINGS","zip":"80928"}},{"arcs":[[-791,-789,-734,807,-806,-802]],"type":"Polygon","properties":{"state":"CO","name":"COLORADO SPRINGS","zip":"80929"}},{"arcs":[[-808,-737,-662,-807]],"type":"Polygon","properties":{"state":"CO","name":"COLORADO SPRINGS","zip":"80930"}},{"arcs":[[808,809,810,811]],"type":"Polygon","properties":{"state":"CO","name":"PUEBLO","zip":"81001"}},{"arcs":[[812,813,814,815,-809,816]],"type":"Polygon","properties":{"state":"CO","name":"PUEBLO","zip":"81003"}},{"arcs":[[817,818,819,-813,820,821]],"type":"Polygon","properties":{"state":"CO","name":"PUEBLO","zip":"81004"}},{"arcs":[[822,823,824,-814,-820,825]],"type":"Polygon","properties":{"state":"CO","name":"PUEBLO","zip":"81005"}},{"arcs":[[-817,-812,826,827,-821]],"type":"Polygon","properties":{"state":"CO","name":"PUEBLO","zip":"81006"}},{"arcs":[[-825,828,-786,829,-815]],"type":"Polygon","properties":{"state":"CO","name":"PUEBLO","zip":"81007"}},{"arcs":[[-785,-696,-805,830,-810,-816,-830]],"type":"Polygon","properties":{"state":"CO","name":"PUEBLO","zip":"81008"}},{"arcs":[[831,832,833,834,835]],"type":"Polygon","properties":{"state":"CO","name":"AGUILAR","zip":"81020"}},{"arcs":[[836,837,-717,838,839]],"type":"Polygon","properties":{"state":"CO","name":"ARLINGTON","zip":"81021"}},{"arcs":[[840,-822,-828,841,842,843]],"type":"Polygon","properties":{"state":"CO","name":"AVONDALE","zip":"81022"}},{"arcs":[[844,845,-826,-819]],"type":"Polygon","properties":{"state":"CO","name":"BEULAH","zip":"81023"}},{"arcs":[[846,847,-842,-827,-811,-831,-804,-750]],"type":"Polygon","properties":{"state":"CO","name":"BOONE","zip":"81025"}},{"arcs":[[848,849,850,851]],"type":"Polygon","properties":{"state":"CO","name":"BRANSON","zip":"81027"}},{"arcs":[[852,853,854,855]],"type":"Polygon","properties":{"state":"CO","name":"CAMPO","zip":"81029"}},{"arcs":[[856,857,858,-725,859,860,861]],"type":"Polygon","properties":{"state":"CO","name":"EADS","zip":"81036"}},{"arcs":[[-848,862,863,864,865,-843]],"type":"Polygon","properties":{"state":"CO","name":"FOWLER","zip":"81039"}},{"arcs":[[866,867,868,869,870,871,872,873]],"type":"Polygon","properties":{"state":"CO","name":"GARDNER","zip":"81040"}},{"arcs":[[874,875,876]],"type":"Polygon","properties":{"state":"CO","name":"GRANADA","zip":"81041"}},{"arcs":[[877,878,879]],"type":"Polygon","properties":{"state":"CO","name":"HASTY","zip":"81044"}},{"arcs":[[880,881,-839,-716,-726,-859]],"type":"Polygon","properties":{"state":"CO","name":"HASWELL","zip":"81045"}},{"arcs":[[882,883,-877,884,-861,885]],"type":"Polygon","properties":{"state":"CO","name":"HOLLY","zip":"81047"}},{"arcs":[[886,887,-852,888,889,890]],"type":"Polygon","properties":{"state":"CO","name":"KIM","zip":"81049"}},{"arcs":[[891,-890,892,893,894,-837]],"type":"Polygon","properties":{"state":"CO","name":"LA JUNTA","zip":"81050"}},{"arcs":[[895,-880,896,897,-862,-885,-876,898,899]],"type":"Polygon","properties":{"state":"CO","name":"LAMAR","zip":"81052"}},{"arcs":[[900,901,-891,-892,-840,-882,902,-878,-896]],"type":"Polygon","properties":{"state":"CO","name":"LAS ANIMAS","zip":"81054"}},{"arcs":[[903,904,905,-872,906,-834]],"type":"Polygon","properties":{"state":"CO","name":"LA VETA","zip":"81055"}},{"arcs":[[907,-897,-879,-903,-881,-858]],"type":"Polygon","properties":{"state":"CO","name":"MC CLAVE","zip":"81057"}},{"arcs":[[908,909,-864,910,911]],"type":"Polygon","properties":{"state":"CO","name":"MANZANOLA","zip":"81058"}},{"arcs":[[912,-865,-910,913,-893,-889,-851,914,915,-836]],"type":"Polygon","properties":{"state":"CO","name":"MODEL","zip":"81059"}},{"arcs":[[-847,-741,916,-911,-863]],"type":"Polygon","properties":{"state":"CO","name":"OLNEY SPRINGS","zip":"81062"}},{"arcs":[[917,918,-912,-917,-740,-719]],"type":"Polygon","properties":{"state":"CO","name":"ORDWAY","zip":"81063"}},{"arcs":[[919,-887,-902,920,-855]],"type":"Polygon","properties":{"state":"CO","name":"PRITCHETT","zip":"81064"}},{"arcs":[[-914,-909,-919,921,-894]],"type":"Polygon","properties":{"state":"CO","name":"ROCKY FORD","zip":"81067"}},{"arcs":[[-841,922,923,-845,-818]],"type":"Polygon","properties":{"state":"CO","name":"RYE","zip":"81069"}},{"arcs":[[924,-886,-860,-724,-670,-650]],"type":"Polygon","properties":{"state":"CO","name":"SHERIDAN LAKE","zip":"81071"}},{"arcs":[[925,-856,-921,-901,-900,926,927,928,929]],"type":"Polygon","properties":{"state":"CO","name":"SPRINGFIELD","zip":"81073"}},{"arcs":[[-918,-718,-838,-895,-922]],"type":"Polygon","properties":{"state":"CO","name":"SUGAR CITY","zip":"81076"}},{"arcs":[[930,931,-915,-850]],"type":"Polygon","properties":{"state":"CO","name":"TRINCHERA","zip":"81081"}},{"arcs":[[932,933,-832,-916,-932]],"type":"Polygon","properties":{"state":"CO","name":"TRINIDAD","zip":"81082"}},{"arcs":[[934,-928]],"type":"Polygon","properties":{"state":"CO","name":"TWO BUTTES","zip":"81084"}},{"arcs":[[935,-930]],"type":"Polygon","properties":{"state":"CO","name":"VILAS","zip":"81087"}},{"arcs":[[-835,-907,-871,936,-923,-844,-866,-913]],"type":"Polygon","properties":{"state":"CO","name":"WALSENBURG","zip":"81089"}},{"arcs":[[-929,-935,-927,-899,-875,-884,937,-853,-926,-936]],"type":"Polygon","properties":{"state":"CO","name":"WALSH","zip":"81090"}},{"arcs":[[938,939,-904,-833,-934]],"type":"Polygon","properties":{"state":"CO","name":"WESTON","zip":"81091"}},{"arcs":[[-908,-857,-898]],"type":"Polygon","properties":{"state":"CO","name":"WILEY","zip":"81092"}},{"arcs":[[940,941,942,943,944,945,-874,946]],"type":"Polygon","properties":{"state":"CO","name":"ALAMOSA","zip":"81101"}},{"arcs":[[947,948,949,950,951,952,953]],"type":"Polygon","properties":{"state":"CO","name":"ANTONITO","zip":"81120"}},{"arcs":[[954,955,956,957,958]],"type":"Polygon","properties":{"state":"CO","name":"ARBOLES","zip":"81121"}},{"arcs":[[959,960,961,962,-956,963]],"type":"Polygon","properties":{"state":"CO","name":"BAYFIELD","zip":"81122"}},{"arcs":[[964,965,-941,966]],"type":"Polygon","properties":{"state":"CO","name":"BLANCA","zip":"81123"}},{"arcs":[[967,968,969,970,971,972,973,974,-945,975]],"type":"Polygon","properties":{"state":"CO","name":"CENTER","zip":"81125"}},{"arcs":[[976,977,-970,978,979,980]],"type":"Polygon","properties":{"state":"CO","name":"CREEDE","zip":"81130"}},{"arcs":[[981,-980,982,-968,983,-951]],"type":"Polygon","properties":{"state":"CO","name":"DEL NORTE","zip":"81132"}},{"arcs":[[984,-967,-947,-873,-906]],"type":"Polygon","properties":{"state":"CO","name":"FORT GARLAND","zip":"81133"}},{"arcs":[[985,-974]],"type":"Polygon","properties":{"state":"CO","name":"HOOPER","zip":"81136"}},{"arcs":[[986,987,-964,-955]],"type":"Polygon","properties":{"state":"CO","name":"IGNACIO","zip":"81137"}},{"arcs":[[988,-953,989,-943]],"type":"Polygon","properties":{"state":"CO","name":"LA JARA","zip":"81140"}},{"arcs":[[990,-972,991,992,993,994,-868]],"type":"Polygon","properties":{"state":"CO","name":"MOFFAT","zip":"81143"}},{"arcs":[[-990,-952,-984,-976,-944]],"type":"Polygon","properties":{"state":"CO","name":"MONTE VISTA","zip":"81144"}},{"arcs":[[-986,-973,-991,-867,-946,-975]],"type":"Polygon","properties":{"state":"CO","name":"MOSCA","zip":"81146"}},{"arcs":[[995,-981,-982,-950,996,-958]],"type":"Polygon","properties":{"state":"CO","name":"PAGOSA SPRINGS","zip":"81147"}},{"arcs":[[-971,-978,997,998,999,1000,-992]],"type":"Polygon","properties":{"state":"CO","name":"SAGUACHE","zip":"81149"}},{"arcs":[[1001,1002,-954,-989,-942,-966]],"type":"Polygon","properties":{"state":"CO","name":"SANFORD","zip":"81151"}},{"arcs":[[1003,-948,-1003,1004]],"type":"Polygon","properties":{"state":"CO","name":"SAN LUIS","zip":"81152"}},{"arcs":[[-1002,-965,-985,-905,-940,1005,-1005]],"type":"Polygon","properties":{"state":"CO","name":"SAN PABLO","zip":"81153"}},{"arcs":[[-979,-969,-983]],"type":"Polygon","properties":{"state":"CO","name":"SOUTH FORK","zip":"81154"}},{"arcs":[[-1001,1006,1007,-993]],"type":"Polygon","properties":{"state":"CO","name":"VILLA GROVE","zip":"81155"}},{"arcs":[[1008,-1007,1009,1010,1011,-707]],"type":"Polygon","properties":{"state":"CO","name":"SALIDA","zip":"81201"}},{"arcs":[[1012,1013,1014,1015,1016,1017,1018]],"type":"Polygon","properties":{"state":"CO","name":"ALMONT","zip":"81210"}},{"arcs":[[-1012,1019,-1016,1020,1021,1022,-367,-386,-703]],"type":"Polygon","properties":{"state":"CO","name":"BUENA VISTA","zip":"81211"}},{"arcs":[[1023,1024,-705,-694,1025,1026,1027]],"type":"Polygon","properties":{"state":"CO","name":"CANON CITY","zip":"81212"}},{"arcs":[[1028,1029,1030]],"type":"Polygon","properties":{"state":"CO","name":"CIMARRON","zip":"81220"}},{"arcs":[[1031,1032,-1024]],"type":"Polygon","properties":{"state":"CO","name":"COTOPAXI","zip":"81223"}},{"arcs":[[1033,1034,1035,1036,-1014]],"type":"Polygon","properties":{"state":"CO","name":"CRESTED BUTTE","zip":"81224"}},{"arcs":[[1037,1038,1039,-1027]],"type":"Polygon","properties":{"state":"CO","name":"FLORENCE","zip":"81226"}},{"arcs":[[-1023,1040,-397,-368]],"type":"Polygon","properties":{"state":"CO","name":"GRANITE","zip":"81228"}},{"arcs":[[1041,-1029,1042,1043,-1034,-1013,1044,-1018,1045,-1010,-1000,1046,1047,1048]],"type":"Polygon","properties":{"state":"CO","name":"GUNNISON","zip":"81230"}},{"arcs":[[1049,-994,-1008,-1009,-706,-1025,-1033]],"type":"Polygon","properties":{"state":"CO","name":"HOWARD","zip":"81233"}},{"arcs":[[-957,-963,1050,1051,-1048,1052,-998,-977,-996]],"type":"Polygon","properties":{"state":"CO","name":"LAKE CITY","zip":"81235"}},{"arcs":[[-1046,-1017,-1020,-1011]],"type":"Polygon","properties":{"state":"CO","name":"NATHROP","zip":"81236"}},{"arcs":[[-1019,-1045]],"type":"Polygon","properties":{"state":"CO","name":"PARLIN","zip":"81239"}},{"arcs":[[-1026,-693,-803,-783,-829,-824,1053,-1038]],"type":"Polygon","properties":{"state":"CO","name":"PENROSE","zip":"81240"}},{"arcs":[[-1047,-999,-1053]],"type":"Polygon","properties":{"state":"CO","name":"POWDERHORN","zip":"81243"}},{"arcs":[[1054,1055,-398,-1041,-1022]],"type":"Polygon","properties":{"state":"CO","name":"TWIN LAKES","zip":"81251"}},{"arcs":[[1056,-869,-995,-1050,-1032,-1028,-1040]],"type":"Polygon","properties":{"state":"CO","name":"WESTCLIFFE","zip":"81252"}},{"arcs":[[-937,-870,-1057,-1039,-1054,-823,-846,-924]],"type":"Polygon","properties":{"state":"CO","name":"WETMORE","zip":"81253"}},{"arcs":[[1057,1058,1059,1060,-961,1061]],"type":"Polygon","properties":{"state":"CO","name":"DURANGO","zip":"81301"}},{"arcs":[[1062,1063,-1062,-960,-988]],"type":"Polygon","properties":{"state":"CO","name":"DURANGO","zip":"81303"}},{"arcs":[[1064,1065,1066,1067,1068,1069,1070,1071]],"type":"Polygon","properties":{"state":"CO","name":"CAHONE","zip":"81320"}},{"arcs":[[1072,1073,1074,1075,1076,1077,1078]],"type":"Polygon","properties":{"state":"CO","name":"CORTEZ","zip":"81321"}},{"arcs":[[1079,1080,-1071,-1060,1081,-1079]],"type":"Polygon","properties":{"state":"CO","name":"DOLORES","zip":"81323"}},{"arcs":[[1082,1083,1084,-1065]],"type":"Polygon","properties":{"state":"CO","name":"DOVE CREEK","zip":"81324"}},{"arcs":[[1085,1086,1087,1088,-1066,-1085]],"type":"Polygon","properties":{"state":"CO","name":"EGNAR","zip":"81325"}},{"arcs":[[1089,1090,-1058,-1064,1091]],"type":"Polygon","properties":{"state":"CO","name":"HESPERUS","zip":"81326"}},{"arcs":[[-1078,1092,1093,-1080]],"type":"Polygon","properties":{"state":"CO","name":"LEWIS","zip":"81327"}},{"arcs":[[1094,-1073,-1082,-1059,-1091]],"type":"Polygon","properties":{"state":"CO","name":"MANCOS","zip":"81328"}},{"arcs":[[1095,-1076,1096,-1083,-1072,-1081,-1094]],"type":"Polygon","properties":{"state":"CO","name":"PLEASANT VIEW","zip":"81331"}},{"arcs":[[1097,-1074,-1095,-1090]],"type":"Polygon","properties":{"state":"CO","name":"TOWAOC","zip":"81334"}},{"arcs":[[-1093,-1077,-1096]],"type":"Polygon","properties":{"state":"CO","name":"YELLOW JACKET","zip":"81335"}},{"arcs":[[1098,1099,1100,1101,1102,-1030,-1042]],"type":"Polygon","properties":{"state":"CO","name":"MONTROSE","zip":"81401"}},{"arcs":[[1103,1104,1105]],"type":"Polygon","properties":{"state":"CO","name":"AUSTIN","zip":"81410"}},{"arcs":[[1106,1107,1108,-1087]],"type":"Polygon","properties":{"state":"CO","name":"BEDROCK","zip":"81411"}},{"arcs":[[1109,1110,1111,1112,1113]],"type":"Polygon","properties":{"state":"CO","name":"CEDAREDGE","zip":"81413"}},{"arcs":[[1114,1115,1116,1117,-1043,-1031,-1103]],"type":"Polygon","properties":{"state":"CO","name":"CRAWFORD","zip":"81415"}},{"arcs":[[1118,1119,1120,1121,-1104,1122,-1115,-1102]],"type":"Polygon","properties":{"state":"CO","name":"DELTA","zip":"81416"}},{"arcs":[[1123,-1111,1124,-1105,-1122]],"type":"Polygon","properties":{"state":"CO","name":"ECKERT","zip":"81418"}},{"arcs":[[1125,-1116,-1123,-1106,-1125,-1110]],"type":"Polygon","properties":{"state":"CO","name":"HOTCHKISS","zip":"81419"}},{"arcs":[[1126,1127,1128,1129,1130,-1088,-1109]],"type":"Polygon","properties":{"state":"CO","name":"NATURITA","zip":"81422"}},{"arcs":[[1131,-1067,-1089,-1131,1132]],"type":"Polygon","properties":{"state":"CO","name":"NORWOOD","zip":"81423"}},{"arcs":[[1133,1134,-1129]],"type":"Polygon","properties":{"state":"CO","name":"NUCLA","zip":"81424"}},{"arcs":[[1135,-1134,-1128,1136,-1119,-1101]],"type":"Polygon","properties":{"state":"CO","name":"OLATHE","zip":"81425"}},{"arcs":[[1137,-1069,1138,1139]],"type":"Polygon","properties":{"state":"CO","name":"OPHIR","zip":"81426"}},{"arcs":[[1140,1141,1142]],"type":"Polygon","properties":{"state":"CO","name":"OURAY","zip":"81427"}},{"arcs":[[-1126,-1114,1143,1144,-1117]],"type":"Polygon","properties":{"state":"CO","name":"PAONIA","zip":"81428"}},{"arcs":[[-1068,-1132,1145,1146,1147,-1139]],"type":"Polygon","properties":{"state":"CO","name":"PLACERVILLE","zip":"81430"}},{"arcs":[[-1130,-1135,-1136,-1100,1148,-1146,-1133]],"type":"Polygon","properties":{"state":"CO","name":"REDVALE","zip":"81431"}},{"arcs":[[1149,-1143,1150,-1147,-1149,-1099,-1049,-1052]],"type":"Polygon","properties":{"state":"CO","name":"RIDGWAY","zip":"81432"}},{"arcs":[[-1138,1151,-1141,-1150,-1051,-962,-1061,-1070]],"type":"Polygon","properties":{"state":"CO","name":"SILVERTON","zip":"81433"}},{"arcs":[[1152,1153,-1035,-1044,-1118,-1145]],"type":"Polygon","properties":{"state":"CO","name":"SOMERSET","zip":"81434"}},{"arcs":[[-1148,-1151,-1142,-1152,-1140]],"type":"Polygon","properties":{"state":"CO","name":"TELLURIDE","zip":"81435"}},{"arcs":[[1154,1155,1156,1157]],"type":"Polygon","properties":{"state":"CO","name":"GRAND JUNCTION","zip":"81501"}},{"arcs":[[1158,1159,1160,1161,1162]],"type":"Polygon","properties":{"state":"CO","name":"GRAND JUNCTION","zip":"81503"}},{"arcs":[[1163,1164,-1155,1165,1166,1167,1168]],"type":"Polygon","properties":{"state":"CO","name":"GRAND JUNCTION","zip":"81504"}},{"arcs":[[1169,1170,1171,-1157,1172]],"type":"Polygon","properties":{"state":"CO","name":"GRAND JUNCTION","zip":"81505"}},{"arcs":[[-1158,-1172,1173,-1166]],"type":"Polygon","properties":{"state":"CO","name":"GRAND JUNCTION","zip":"81506"}},{"arcs":[[1174,1175,1176,-1169]],"type":"Polygon","properties":{"state":"CO","name":"CLIFTON","zip":"81520"}},{"arcs":[[[1177,1178,-1170,1179]],[[1180,1181,-1161]]],"type":"MultiPolygon","properties":{"state":"CO","name":"FRUITA","zip":"81521"}},{"arcs":[[1182,-1181,-1160,1183,-1120,-1137,-1127,-1108]],"type":"Polygon","properties":{"state":"CO","name":"GATEWAY","zip":"81522"}},{"arcs":[[1184,1185,-1178,1186]],"type":"Polygon","properties":{"state":"CO","name":"LOMA","zip":"81524"}},{"arcs":[[1187,1188,-1185,1189]],"type":"Polygon","properties":{"state":"CO","name":"MACK","zip":"81525"}},{"arcs":[[[1190,1191,-1163,1192]],[[-1168,1193,1194,-1175]],[[-1164,-1177,1195]]],"type":"MultiPolygon","properties":{"state":"CO","name":"PALISADE","zip":"81526"}},{"arcs":[[-1184,-1159,-1192,1196,-1121]],"type":"Polygon","properties":{"state":"CO","name":"WHITEWATER","zip":"81527"}},{"arcs":[[1197,1198,1199,1200,1201,1202,1203]],"type":"Polygon","properties":{"state":"CO","name":"GLENWOOD SPRINGS","zip":"81601"}},{"arcs":[[1204,1205,1206,1207]],"type":"Polygon","properties":{"state":"CO","name":"DINOSAUR","zip":"81610"}},{"arcs":[[-1015,-1037,1208,1209,1210,-1055,-1021]],"type":"Polygon","properties":{"state":"CO","name":"ASPEN","zip":"81611"}},{"arcs":[[1211,1212,1213,1214,-1056,-1211,1215]],"type":"Polygon","properties":{"state":"CO","name":"BASALT","zip":"81621"}},{"arcs":[[-1036,-1154,1216,1217,-1199,1218,-1212,1219,-1209]],"type":"Polygon","properties":{"state":"CO","name":"CARBONDALE","zip":"81623"}},{"arcs":[[-1144,-1113,1220,1221,1222,1223,1224,1225,-1217,-1153]],"type":"Polygon","properties":{"state":"CO","name":"COLLBRAN","zip":"81624"}},{"arcs":[[1226,1227,1228,1229,1230,1231,1232]],"type":"Polygon","properties":{"state":"CO","name":"CRAIG","zip":"81625"}},{"arcs":[[[-1171,-1179,-1186,-1189,1233,1234,1235,1236,1237,-1194,-1167,-1174]],[[1238,1239,1240,-1222]]],"type":"MultiPolygon","properties":{"state":"CO","name":"DE BEQUE","zip":"81630"}},{"arcs":[[1241,-1214,1242,-342,1243]],"type":"Polygon","properties":{"state":"CO","name":"EAGLE","zip":"81631"}},{"arcs":[[1244,1245,-1205,1246,-1229]],"type":"Polygon","properties":{"state":"CO","name":"DINOSAUR","zip":"81633"}},{"arcs":[[[-1237,1247,1248]],[[1249,-1223,-1241,1250]]],"type":"MultiPolygon","properties":{"state":"CO","name":"PARACHUTE","zip":"81635"}},{"arcs":[[-1204,1251,-412,-401,-336,-1243,-1213,-1219,-1198,1252]],"type":"Polygon","properties":{"state":"CO","name":"GYPSUM","zip":"81637"}},{"arcs":[[1253,1254,-1227]],"type":"Polygon","properties":{"state":"CO","name":"HAMILTON","zip":"81638"}},{"arcs":[[1255,-1254,-1233,1256,1257,-414,-348,-419,-406]],"type":"Polygon","properties":{"state":"CO","name":"HAYDEN","zip":"81639"}},{"arcs":[[-1247,-1208,1258,-1230]],"type":"Polygon","properties":{"state":"CO","name":"MAYBELL","zip":"81640"}},{"arcs":[[-1203,1259,1260,1261,-1245,-1228,-1255,-1256,-405,-413,-1252]],"type":"Polygon","properties":{"state":"CO","name":"MEEKER","zip":"81641"}},{"arcs":[[-1215,-1242,1262,-399]],"type":"Polygon","properties":{"state":"CO","name":"MEREDITH","zip":"81642"}},{"arcs":[[-1124,-1197,-1191,1263,-1239,-1221,-1112]],"type":"Polygon","properties":{"state":"CO","name":"MESA","zip":"81643"}},{"arcs":[[[1264,1265,-1260,-1202,1266]],[[1267,1268,-1200,-1218,-1226]]],"type":"MultiPolygon","properties":{"state":"CO","name":"NEW CASTLE","zip":"81647"}},{"arcs":[[1269,-1235,1270,-1206,-1246,-1262]],"type":"Polygon","properties":{"state":"CO","name":"RANGELY","zip":"81648"}},{"arcs":[[[1271,1272,-1248,-1236,-1270,-1261,-1266]],[[1273,-1224,-1250,1274]]],"type":"MultiPolygon","properties":{"state":"CO","name":"RIFLE","zip":"81650"}},{"arcs":[[[-1272,-1265,1275]],[[-1225,-1274,1276,-1268]]],"type":"MultiPolygon","properties":{"state":"CO","name":"SILT","zip":"81652"}},{"arcs":[[1277,-1257,-1232]],"type":"Polygon","properties":{"state":"CO","name":"SLATER","zip":"81653"}},{"arcs":[[-1216,-1210,-1220]],"type":"Polygon","properties":{"state":"CO","name":"SNOWMASS","zip":"81654"}},{"arcs":[[-341,-420,-356,-400,-1263,-1244]],"type":"Polygon","properties":{"state":"CO","name":"VAIL","zip":"81657"}}]}},"arcs":[[[15320,14574],[5,58]],[[15325,14632],[31,8]],[[15356,14640],[27,94]],[[15383,14734],[77,10]],[[15460,14744],[0,-18]],[[15460,14726],[9,-58]],[[15469,14668],[-23,-31]],[[15446,14637],[-58,-71]],[[15388,14566],[-68,8]],[[15343,15591],[-14,-10]],[[15329,15581],[-72,0]],[[15257,15581],[-4,15]],[[15253,15596],[63,0]],[[15316,15596],[27,0]],[[15343,15596],[0,-5]],[[15316,15596],[0,25]],[[15316,15621],[0,31]],[[15316,15652],[4,0]],[[15320,15652],[18,-15]],[[15338,15637],[14,-26]],[[15352,15611],[-9,-15]],[[15253,15596],[0,10]],[[15253,15606],[-5,15]],[[15248,15621],[68,0]],[[15248,15621],[0,54]],[[15248,15675],[68,-23]],[[15253,15606],[-59,76]],[[15194,15682],[54,-7]],[[15492,15509],[-9,-7]],[[15483,15502],[-5,0]],[[15478,15502],[-9,23]],[[15469,15525],[0,15]],[[15469,15540],[23,20]],[[15492,15560],[4,0]],[[15496,15560],[-4,-51]],[[15586,15532],[14,-58]],[[15600,15474],[-32,0]],[[15568,15474],[-40,28]],[[15528,15502],[-36,7]],[[15496,15560],[59,11]],[[15555,15571],[31,-8]],[[15586,15563],[0,-31]],[[15483,15474],[0,28]],[[15528,15502],[0,-26]],[[15528,15476],[-45,-2]],[[15600,15474],[-14,-46]],[[15586,15428],[-58,0]],[[15528,15428],[0,46]],[[15528,15474],[40,0]],[[15528,15428],[-23,-8]],[[15505,15420],[-27,16]],[[15478,15436],[5,38]],[[15528,15476],[0,-2]],[[15519,15395],[-14,25]],[[15586,15428],[14,0]],[[15600,15428],[-81,-33]],[[15546,15354],[-5,0]],[[15541,15354],[-22,28]],[[15519,15382],[0,13]],[[15600,15428],[72,0]],[[15672,15428],[18,-74]],[[15690,15354],[-144,0]],[[15586,15532],[45,0]],[[15631,15532],[41,-104]],[[15640,15611],[-9,-79]],[[15586,15563],[54,48]],[[15388,15741],[-32,-31]],[[15356,15710],[-22,-43]],[[15334,15667],[-54,59]],[[15280,15726],[13,45]],[[15293,15771],[41,28]],[[15334,15799],[63,0]],[[15397,15799],[0,-58]],[[15397,15741],[-9,0]],[[15334,15667],[-14,-15]],[[15194,15682],[0,28]],[[15194,15710],[23,0]],[[15217,15710],[63,16]],[[15663,15621],[-122,-30]],[[15541,15591],[-72,0]],[[15469,15591],[-59,5]],[[15410,15596],[9,28]],[[15419,15624],[77,56]],[[15496,15680],[185,30]],[[15681,15710],[4,-12]],[[15685,15698],[-22,-77]],[[15262,15794],[9,21]],[[15271,15815],[4,58]],[[15275,15873],[45,-18]],[[15320,15855],[14,-56]],[[15293,15771],[-31,23]],[[15217,15710],[45,84]],[[15338,15637],[23,0]],[[15361,15637],[-9,-26]],[[15356,15710],[5,-30]],[[15361,15680],[4,-36]],[[15365,15644],[-4,-7]],[[15329,15555],[-9,0]],[[15320,15555],[-54,0]],[[15266,15555],[0,13]],[[15266,15568],[-9,13]],[[15329,15581],[0,-26]],[[16018,15054],[-31,133]],[[15987,15187],[158,167],[234,0]],[[16379,15354],[0,-198],[-99,-92]],[[16280,15064],[-104,-94],[-86,84]],[[16090,15054],[-72,0]],[[15933,15352],[0,-163]],[[15933,15189],[-23,-114]],[[15910,15075],[-49,25]],[[15861,15100],[27,148],[-72,0]],[[15816,15248],[-77,104]],[[15739,15352],[9,328]],[[15748,15680],[5,119]],[[15753,15799],[81,0]],[[15834,15799],[90,0]],[[15924,15799],[-90,-447],[99,0]],[[15960,15352],[-54,132],[94,165],[99,-12]],[[16099,15637],[113,-163],[-252,-122]],[[15564,15202],[-41,-176]],[[15523,15026],[-99,36]],[[15424,15062],[18,196]],[[15442,15258],[41,45]],[[15483,15303],[81,-101]],[[15933,15352],[27,0]],[[16099,15637],[289,-46]],[[16388,15591],[0,-237]],[[16388,15354],[-9,0]],[[15987,15187],[-54,2]],[[15631,14907],[-4,89]],[[15627,14996],[13,18]],[[15640,15014],[104,7]],[[15744,15021],[117,79]],[[15910,15075],[5,-82]],[[15915,14993],[-117,-86]],[[15798,14907],[-126,-135]],[[15672,14772],[-41,135]],[[15816,15248],[-72,-227]],[[15640,15014],[0,188]],[[15640,15202],[0,18]],[[15640,15220],[59,134]],[[15699,15354],[40,-2]],[[15352,15420],[13,39]],[[15365,15459],[0,10]],[[15365,15469],[23,-10]],[[15388,15459],[36,-16]],[[15424,15443],[9,0]],[[15433,15443],[9,-10]],[[15442,15433],[-5,-13]],[[15437,15420],[-49,-12]],[[15388,15408],[-23,5]],[[15365,15413],[-13,7]],[[15437,15382],[0,38]],[[15442,15433],[32,10]],[[15474,15443],[4,-7]],[[15519,15382],[-82,0]],[[15451,15354],[-14,0]],[[15437,15354],[0,28]],[[15541,15354],[-58,-30]],[[15483,15324],[-32,30]],[[15627,14996],[-104,30]],[[15564,15202],[76,0]],[[15559,14907],[-99,0]],[[15460,14907],[-23,0]],[[15437,14907],[-81,0]],[[15356,14907],[-18,165],[86,-10]],[[15631,14907],[-72,0]],[[15388,15382],[0,-28]],[[15388,15354],[-36,0]],[[15352,15354],[-5,0]],[[15347,15354],[9,28]],[[15356,15382],[9,31]],[[15388,15408],[0,-26]],[[15437,15382],[-49,0]],[[15437,15354],[-49,0]],[[15293,15385],[0,43]],[[15293,15428],[45,0]],[[15338,15428],[14,-8]],[[15356,15382],[-63,3]],[[15388,15258],[18,45]],[[15406,15303],[27,6]],[[15433,15309],[18,45]],[[15483,15324],[0,-21]],[[15442,15258],[-54,0]],[[15388,15258],[-104,-38]],[[15284,15220],[36,111]],[[15320,15331],[27,23]],[[15352,15354],[36,-40]],[[15388,15314],[18,-11]],[[15451,15354],[-18,-45]],[[15388,15314],[0,40]],[[15284,15220],[-4,-3]],[[15280,15217],[-90,81]],[[15190,15298],[90,130]],[[15280,15428],[13,0]],[[15293,15385],[27,-54]],[[15437,14884],[23,23]],[[15559,14907],[0,-31]],[[15559,14876],[-122,8]],[[15437,14884],[0,23]],[[15546,15354],[94,-134]],[[15356,14907],[-4,0]],[[15352,14907],[-135,-46]],[[15217,14861],[-23,-30]],[[15194,14831],[-126,76],[0,137]],[[15068,15044],[0,51]],[[15068,15095],[54,28]],[[15122,15123],[104,-36],[54,130]],[[15924,15799],[117,0]],[[16041,15799],[162,0]],[[16203,15799],[162,0]],[[16365,15799],[23,-208]],[[15699,15354],[-9,0]],[[15640,15611],[23,10]],[[15685,15698],[63,-18]],[[15388,15540],[0,-8]],[[15388,15532],[-18,16]],[[15370,15548],[9,7]],[[15379,15555],[4,-7]],[[15383,15548],[5,-8]],[[15388,15509],[0,6]],[[15388,15515],[0,17]],[[15388,15540],[9,0]],[[15397,15540],[0,-31]],[[15397,15509],[-9,0]],[[15388,15515],[-23,0]],[[15365,15515],[-27,0]],[[15338,15515],[0,2]],[[15338,15517],[0,20]],[[15338,15537],[9,3]],[[15347,15540],[23,8]],[[15406,15540],[-9,0]],[[15383,15548],[41,17]],[[15424,15565],[0,-25]],[[15424,15540],[0,-5]],[[15424,15535],[-18,5]],[[15424,15507],[-18,2]],[[15406,15509],[0,31]],[[15424,15535],[0,-10],[0,-3],[0,-15]],[[15424,15565],[45,-2]],[[15469,15563],[23,-3]],[[15469,15540],[-45,0]],[[15388,15487],[0,22]],[[15397,15509],[9,0]],[[15424,15507],[0,-20]],[[15424,15487],[-36,0]],[[15388,15459],[0,28]],[[15424,15487],[0,-3]],[[15424,15484],[0,-41]],[[15347,15540],[5,36]],[[15352,15576],[27,0]],[[15379,15576],[0,-21]],[[15338,15537],[-9,18]],[[15343,15591],[9,-15]],[[15320,15517],[0,38]],[[15338,15517],[-18,0]],[[15293,15515],[-18,2]],[[15275,15517],[-9,38]],[[15320,15517],[-27,-2]],[[15379,15576],[13,30]],[[15392,15606],[18,-10]],[[15469,15591],[0,-28]],[[15338,15459],[0,15]],[[15338,15474],[0,15]],[[15338,15489],[0,26]],[[15365,15515],[0,-46]],[[15365,15459],[-27,0]],[[15469,15525],[-23,-16]],[[15446,15509],[-9,-2]],[[15437,15507],[-13,0]],[[15365,15644],[23,0]],[[15388,15644],[4,-38]],[[15424,15484],[13,0]],[[15437,15484],[9,-41]],[[15446,15443],[-13,0]],[[15455,15502],[-4,-59]],[[15451,15443],[-5,0]],[[15437,15484],[0,23]],[[15446,15509],[9,-7]],[[15280,15502],[-5,15]],[[15293,15515],[-13,-13]],[[15338,15489],[-58,-2]],[[15280,15487],[0,15]],[[15338,15459],[0,-18]],[[15338,15441],[-63,-10]],[[15275,15431],[-27,17]],[[15248,15448],[32,26]],[[15280,15474],[58,0]],[[15280,15487],[0,-13]],[[15248,15448],[-4,31]],[[15244,15479],[31,38]],[[15388,15644],[0,38]],[[15388,15682],[54,0]],[[15442,15682],[-23,-58]],[[15478,15502],[-23,0]],[[15474,15443],[-23,0]],[[15455,15705],[-13,-23]],[[15388,15682],[0,28]],[[15388,15710],[49,0]],[[15437,15710],[18,-5]],[[15388,15741],[0,-31]],[[15388,15682],[-27,-2]],[[15280,15428],[-5,3]],[[15338,15441],[0,-13]],[[15541,15591],[14,-20]],[[15397,15741],[40,-31]],[[15271,15815],[-95,0]],[[15176,15815],[0,10],[-18,43],[36,13]],[[15194,15881],[81,-8]],[[15176,15807],[-4,-8]],[[15172,15799],[13,-33]],[[15185,15766],[-49,-35]],[[15136,15731],[-50,28]],[[15086,15759],[-112,73]],[[14974,15832],[0,13],[112,69],[41,-8]],[[15127,15906],[36,51]],[[15163,15957],[31,-76]],[[15176,15815],[0,-8]],[[15194,15710],[-58,21]],[[15185,15766],[-9,33]],[[15176,15799],[0,8]],[[15172,15799],[4,0]],[[15244,15479],[-86,-20]],[[15158,15459],[-27,71]],[[15131,15530],[135,38]],[[15131,15530],[-148,28]],[[14983,15558],[-144,89]],[[14839,15647],[13,84]],[[14852,15731],[234,28]],[[15032,15354],[36,-259]],[[15068,15044],[-216,94]],[[14852,15138],[-144,178]],[[14708,15316],[22,36]],[[14730,15352],[212,2]],[[14942,15354],[90,0]],[[13929,15532],[13,117]],[[13942,15649],[131,69]],[[14073,15718],[36,3]],[[14109,15721],[153,2]],[[14262,15723],[54,-178]],[[14316,15545],[-248,-23]],[[14068,15522],[-139,10]],[[14622,15194],[-130,-30]],[[14492,15164],[40,188],[171,-51]],[[14703,15301],[-81,-107]],[[14068,16463],[-13,-66]],[[14055,16397],[-311,79]],[[13744,16476],[63,218],[162,26]],[[13969,16720],[117,-46],[-18,-211]],[[14068,16463],[181,33],[36,-137],[81,76],[67,-124],[-283,-123]],[[14150,16188],[-59,69]],[[14091,16257],[-36,140]],[[15122,15123],[54,102],[-108,119]],[[15068,15344],[86,5]],[[15154,15349],[36,-51]],[[14438,15164],[-41,157],[63,77]],[[14460,15398],[117,84]],[[14577,15482],[81,7]],[[14658,15489],[108,-66],[-36,-71]],[[14708,15316],[-5,-15]],[[14492,15164],[-54,0]],[[15158,15459],[-4,-110]],[[15068,15344],[-36,10]],[[14942,15354],[95,135],[-54,69]],[[14821,14815],[-145,-94]],[[14676,14721],[-58,-41]],[[14618,14680],[-167,151]],[[14451,14831],[5,76]],[[14456,14907],[36,257]],[[14622,15194],[140,-231]],[[14762,14963],[59,-148]],[[14839,15647],[-154,-56]],[[14685,15591],[-189,262]],[[14496,15853],[-18,-3]],[[14478,15850],[81,168]],[[14559,16018],[298,-48]],[[14857,15970],[0,-5]],[[14857,15965],[13,-143]],[[14870,15822],[-18,-91]],[[14559,16018],[-67,122]],[[14492,16140],[220,158]],[[14712,16298],[27,-10]],[[14739,16288],[131,-222]],[[14870,16066],[-13,-96]],[[14676,14721],[36,-84],[-58,-5]],[[14654,14632],[-36,48]],[[14658,15489],[27,102]],[[14852,15138],[-90,-175]],[[14109,15721],[-5,239]],[[14104,15960],[0,48]],[[14104,16008],[-13,249]],[[14150,16188],[265,-55]],[[14415,16133],[-54,-278]],[[14361,15855],[-103,-17],[117,17]],[[14375,15855],[-5,-140]],[[14370,15715],[-108,8]],[[14456,14907],[-131,-26]],[[14325,14881],[-18,161],[-85,-8]],[[14222,15034],[45,109]],[[14267,15143],[171,21]],[[13942,15649],[-13,66]],[[13929,15715],[144,3]],[[14870,15822],[104,10]],[[14104,15960],[-315,71]],[[13789,16031],[-40,0]],[[13749,16031],[0,12]],[[13749,16043],[175,102],[180,-137]],[[14415,16133],[77,7]],[[14478,15850],[-117,5]],[[14577,15482],[-207,233]],[[14375,15855],[121,-2]],[[13929,15715],[-135,0],[-5,178]],[[13789,15893],[0,138]],[[13969,16720],[-40,109]],[[13929,16829],[419,-5],[103,-2]],[[14451,16822],[189,-387]],[[14640,16435],[72,-137]],[[14857,15965],[270,-59]],[[13749,16043],[-50,95],[153,96],[-171,33],[63,209]],[[14460,15398],[-144,147]],[[15275,16008],[59,-28],[-59,-43]],[[15275,15937],[0,71]],[[15163,15957],[31,112]],[[15194,16069],[81,-8]],[[15275,16061],[0,-53]],[[15275,15937],[0,-64]],[[15437,15911],[-13,-7]],[[15424,15904],[-104,-49]],[[15275,16061],[59,-7]],[[15334,16054],[58,-31]],[[15392,16023],[32,0],[22,-15],[5,-28]],[[15451,15980],[-14,-69]],[[15149,16374],[-171,-38]],[[14978,16336],[-239,-48]],[[14640,16435],[81,-10],[41,150],[239,-20]],[[15001,16555],[157,-11]],[[15158,16544],[81,3],[9,-102]],[[15248,16445],[5,-40]],[[15253,16405],[-27,-31]],[[15226,16374],[-77,0]],[[15194,16069],[-72,104]],[[15122,16173],[257,-15]],[[15379,16158],[0,-89]],[[15379,16069],[-45,-15]],[[15424,15873],[0,15]],[[15424,15888],[13,0]],[[15437,15888],[-13,-15]],[[15203,16232],[-94,-26]],[[15109,16206],[-131,130]],[[15149,16374],[54,-142]],[[15424,15904],[0,-16]],[[15424,15873],[0,-28]],[[15424,15845],[0,-46]],[[15424,15799],[-27,0]],[[15109,16206],[-54,-30]],[[15055,16176],[-41,-110],[-72,0],[-72,0]],[[15316,16382],[-63,23]],[[15248,16445],[23,-7]],[[15271,16438],[45,-46],[0,-5],[0,-5]],[[15271,16438],[31,134]],[[15302,16572],[122,-58]],[[15424,16514],[45,-13]],[[15469,16501],[-4,-61]],[[15465,16440],[-32,-58]],[[15433,16382],[-9,-3]],[[15424,16379],[-108,3]],[[15424,16336],[-77,-59]],[[15347,16277],[-45,0]],[[15302,16277],[14,105]],[[15424,16379],[0,-43]],[[15302,16277],[-76,97]],[[15410,16290],[-63,-13]],[[15424,16336],[-14,-46]],[[15437,15911],[0,-23]],[[15379,16158],[58,58]],[[15437,16216],[14,0]],[[15451,16216],[18,-147]],[[15469,16069],[-77,0]],[[15392,16069],[-13,0]],[[15158,16544],[54,69]],[[15212,16613],[90,-41]],[[15001,16555],[-95,112],[90,12],[-166,143]],[[14830,16822],[112,0],[221,2],[81,0]],[[15244,16824],[-32,-211]],[[15122,16173],[-67,3]],[[15203,16232],[221,-16]],[[15424,16216],[13,0]],[[15410,16290],[14,-74]],[[15392,16069],[0,-46]],[[15451,16216],[23,0]],[[15474,16216],[108,-48]],[[15582,16168],[-45,-38]],[[15537,16130],[-68,-61]],[[14451,16822],[86,0],[117,0],[176,0]],[[15244,16824],[180,0]],[[15424,16824],[0,-221]],[[15424,16603],[0,-89]],[[15433,16382],[45,-16]],[[15478,16366],[32,-45]],[[15510,16321],[0,-72]],[[15510,16249],[-36,-33]],[[15514,15710],[-45,13]],[[15469,15723],[36,76]],[[15505,15799],[95,0],[-86,-89]],[[15424,15799],[81,0]],[[15469,15723],[-14,-18]],[[15424,15845],[189,18]],[[15613,15863],[68,-153]],[[15496,15680],[0,10],[18,20]],[[15811,16486],[23,-150]],[[15834,16336],[-59,0]],[[15775,16336],[-297,30]],[[15465,16440],[171,-15],[-5,89]],[[15631,16514],[27,178]],[[15658,16692],[108,-15],[45,-191]],[[16131,16336],[-90,-43]],[[16041,16293],[-194,-3]],[[15847,16290],[-13,46]],[[15811,16486],[27,117],[149,46],[162,-196]],[[16149,16453],[9,-117]],[[16158,16336],[-27,0]],[[15555,16824],[0,-191],[-131,-30]],[[15424,16824],[131,0]],[[15775,16336],[-58,-46]],[[15717,16290],[-207,31]],[[15609,16171],[-18,23]],[[15591,16194],[40,-11]],[[15631,16183],[-22,-12]],[[15631,15993],[-18,-130]],[[15451,15980],[180,13]],[[15847,16290],[-85,-43]],[[15762,16247],[-45,43]],[[15591,16194],[-81,55]],[[15762,16247],[-59,-92]],[[15703,16155],[-72,28]],[[15609,16171],[-27,-3]],[[15631,15993],[14,15]],[[15645,16008],[45,0]],[[15690,16008],[63,-209]],[[15690,16008],[72,35]],[[15762,16043],[72,-22]],[[15834,16021],[67,-5],[-67,-217]],[[15762,16043],[-59,112]],[[16041,16293],[-72,-196]],[[15969,16097],[-135,36],[0,-112]],[[15645,16008],[-108,122]],[[15631,16514],[-162,-13]],[[15555,16824],[117,3]],[[15672,16827],[-14,-135]],[[16108,16153],[-67,-115]],[[16041,16038],[-72,59]],[[16131,16336],[-23,-183]],[[16041,16038],[0,-239]],[[16163,16079],[-55,74]],[[16158,16336],[36,0]],[[16194,16336],[81,-193],[-112,-64]],[[16163,16079],[40,-280]],[[16379,15876],[-14,-77]],[[16194,16336],[185,0]],[[16379,16336],[13,-239]],[[16392,16097],[-13,-221]],[[17090,15802],[5,-206]],[[17095,15596],[-108,-46]],[[16987,15550],[-248,43]],[[16739,15593],[-158,117]],[[16581,15710],[-76,46],[49,43]],[[16554,15799],[14,252]],[[16568,16051],[9,168]],[[16577,16219],[-5,28]],[[16572,16247],[189,0]],[[16761,16247],[50,0]],[[16811,16247],[140,-102],[-104,-188],[50,-158],[193,3]],[[17676,16430],[-135,0],[-18,137]],[[17523,16567],[153,0]],[[17676,16567],[0,-53],[0,-84]],[[16554,15799],[-175,77]],[[16392,16097],[81,33]],[[16473,16130],[95,-79]],[[17207,16687],[-117,-43]],[[17090,16644],[-63,-31]],[[17027,16613],[-58,117]],[[16969,16730],[58,97]],[[17027,16827],[41,0],[139,0]],[[17207,16827],[0,-140]],[[17351,15657],[-112,-8],[112,94],[-31,328]],[[17320,16071],[103,-139],[-40,-130]],[[17383,15802],[-32,-145]],[[17090,16644],[50,-372]],[[17140,16272],[-167,21]],[[16973,16293],[-13,119],[-158,26],[54,58]],[[16856,16496],[171,117]],[[16253,16827],[-104,-374]],[[15672,16827],[121,0],[270,0],[54,0],[136,0]],[[17405,16249],[-45,0]],[[17360,16249],[-207,0]],[[17153,16249],[-13,23]],[[17207,16687],[0,-120],[167,0]],[[17374,16567],[45,0]],[[17419,16567],[-14,-318]],[[16473,16130],[104,89]],[[17676,16430],[0,-181]],[[17676,16249],[-162,0],[-5,-89],[-104,89]],[[17419,16567],[59,0]],[[17478,16567],[45,0]],[[17676,15362],[-239,-3]],[[17437,15359],[-27,186]],[[17410,15545],[117,89]],[[17527,15634],[149,-168]],[[17676,15466],[0,-104]],[[16856,16496],[-54,127]],[[16802,16623],[0,31]],[[16802,16654],[167,76]],[[17478,16567],[9,260]],[[17487,16827],[27,0],[162,0],[0,-260]],[[16739,15593],[-59,-20],[45,-219]],[[16725,15354],[-175,59]],[[16550,15413],[31,297]],[[16572,16247],[-90,89]],[[16482,16336],[9,320]],[[16491,16656],[113,-292],[81,15],[67,-94],[9,-38]],[[16253,16827],[90,0],[58,0]],[[16401,16827],[-4,-491]],[[16397,16336],[-18,0]],[[17153,16249],[-103,-30],[40,-417]],[[16811,16247],[162,46]],[[17374,16567],[-18,260]],[[17356,16827],[131,0]],[[16802,16623],[-311,89]],[[16491,16712],[0,115]],[[16491,16827],[27,0],[32,0]],[[16550,16827],[252,-173]],[[16550,16827],[90,0],[387,0]],[[17207,16827],[27,2],[122,-2]],[[16397,16336],[85,0]],[[16491,16656],[0,56]],[[16401,16827],[90,0]],[[17410,15545],[-54,8]],[[17356,15553],[-5,104]],[[17383,15802],[144,-168]],[[16550,15413],[-90,-59]],[[16460,15354],[-72,0]],[[17320,16071],[40,178]],[[17676,16249],[0,-91],[0,-356],[0,-336]],[[17356,15553],[-99,-31]],[[17257,15522],[-167,-51]],[[17090,15471],[5,125]],[[16987,15550],[54,-89],[-244,74],[-31,-181]],[[16766,15354],[-41,0]],[[17680,14820],[0,-358],[0,-84]],[[17680,14378],[-216,0]],[[17464,14378],[23,442]],[[17487,14820],[193,0]],[[16811,14904],[-153,0],[-18,117]],[[16640,15021],[18,242],[158,15]],[[16816,15278],[-5,-374]],[[17351,14815],[-58,260],[103,185]],[[17396,15260],[0,-442]],[[17396,14818],[-45,-3]],[[17487,14820],[-91,-2]],[[17396,15260],[41,99]],[[17676,15362],[4,-5],[0,-448],[0,-89]],[[15829,14518],[-31,104]],[[15798,14622],[0,285]],[[15915,14993],[31,-175],[126,-61]],[[16072,14757],[-27,-31]],[[16045,14726],[-189,-208]],[[15856,14518],[-27,0]],[[15356,14640],[0,152]],[[15356,14792],[27,-58]],[[17464,14378],[-176,-3]],[[17288,14375],[50,440]],[[17338,14815],[13,0]],[[17090,15471],[0,-117]],[[17090,15354],[-274,0]],[[16816,15354],[-50,0]],[[15320,14574],[-171,145]],[[15149,14719],[45,112]],[[15217,14861],[108,-229]],[[17077,15024],[-117,-3],[0,-117],[81,-18]],[[17041,14886],[0,-73]],[[17041,14813],[-230,0]],[[16811,14813],[0,91]],[[16816,15278],[0,76]],[[17090,15354],[5,0]],[[17095,15354],[-14,-48]],[[17081,15306],[-90,0],[-13,-150],[103,-81]],[[17081,15075],[-4,-51]],[[15122,14462],[-94,188]],[[15028,14650],[121,69]],[[15388,14566],[36,-5]],[[15424,14561],[0,-99]],[[15424,14462],[0,-49]],[[15424,14413],[-131,-2]],[[15293,14411],[-171,51]],[[15649,14459],[77,-5],[-32,-114]],[[15694,14340],[-94,-3]],[[15600,14337],[-36,183]],[[15564,14520],[-5,10]],[[15559,14530],[63,-53]],[[15622,14477],[27,-18]],[[16640,15021],[-158,0]],[[16482,15021],[-22,333]],[[14622,14459],[32,173]],[[14821,14815],[207,-165]],[[15122,14462],[-247,-3]],[[14875,14459],[-212,0]],[[14663,14459],[-41,0]],[[16320,14635],[113,30],[-59,46]],[[16374,14711],[0,135]],[[16374,14846],[108,56],[0,119]],[[16811,14813],[0,-115]],[[16811,14698],[-230,41],[-18,-224],[-175,3]],[[16388,14518],[-68,117]],[[17225,15357],[-130,-3]],[[17257,15522],[-32,-165]],[[16811,14469],[-9,-183],[-86,-2]],[[16716,14284],[-171,-8]],[[16545,14276],[-130,140]],[[16415,14416],[-27,28]],[[16388,14444],[0,74]],[[16811,14698],[0,-229]],[[17437,15359],[-198,-2]],[[17239,15357],[-14,0]],[[17288,14375],[-27,0]],[[17261,14375],[-342,3]],[[16919,14378],[-108,91]],[[17041,14813],[171,0]],[[17212,14813],[126,2]],[[16374,14846],[-85,-3],[4,104],[86,97],[-99,20]],[[15446,14637],[23,-20]],[[15469,14617],[-45,-56]],[[16374,14711],[-229,104]],[[16145,14815],[-55,239]],[[15726,14637],[-63,3]],[[15663,14640],[18,66]],[[15681,14706],[-9,66]],[[15798,14622],[-72,15]],[[16320,14635],[-207,2],[-41,120]],[[16018,15054],[0,-150],[127,-89]],[[16388,14444],[-144,0],[9,-160]],[[16253,14284],[-136,0]],[[16117,14284],[0,132],[-85,3],[13,307]],[[17081,15306],[0,-231]],[[17077,15024],[-36,-138]],[[17212,14813],[-59,447],[86,97]],[[15523,14711],[-63,15]],[[15460,14744],[-9,71],[77,-63]],[[15528,14752],[-5,-41]],[[15352,14907],[4,-115]],[[16117,14284],[-103,0]],[[16014,14284],[-158,234]],[[15532,14602],[5,-26]],[[15537,14576],[-32,15]],[[15505,14591],[9,28]],[[15514,14619],[18,6]],[[15532,14625],[0,-23]],[[15469,14668],[5,-5]],[[15474,14663],[31,-41]],[[15505,14622],[-9,-28]],[[15496,14594],[-27,23]],[[15505,14591],[-9,3]],[[15505,14622],[9,-3]],[[15564,14520],[-36,0]],[[15528,14520],[-104,-58]],[[15537,14576],[22,-30]],[[15559,14546],[0,-16]],[[15474,14663],[40,12]],[[15514,14675],[36,-15]],[[15550,14660],[-4,-13]],[[15546,14647],[-14,-22]],[[15627,14708],[-14,3]],[[15613,14711],[-76,41]],[[15537,14752],[22,124]],[[15681,14706],[-54,2]],[[15546,14647],[31,-12]],[[15577,14635],[-4,-26]],[[15573,14609],[0,-7]],[[15573,14602],[-41,0]],[[15573,14602],[-5,-54]],[[15568,14548],[-9,-2]],[[15627,14548],[-5,-71]],[[15568,14548],[59,0]],[[15424,14279],[0,51]],[[15424,14330],[104,190]],[[15600,14337],[0,-58]],[[15600,14279],[-176,0]],[[15577,14635],[18,7]],[[15595,14642],[32,66]],[[15663,14640],[-36,-33]],[[15627,14607],[-54,2]],[[15627,14607],[18,-59]],[[15645,14548],[-18,0]],[[15550,14660],[45,33]],[[15595,14693],[0,-51]],[[15514,14675],[9,28]],[[15523,14703],[72,8]],[[15595,14711],[0,-18]],[[15523,14711],[0,-8]],[[15613,14711],[-18,0]],[[15528,14752],[9,0]],[[15685,14541],[-36,-82]],[[15645,14548],[40,-7]],[[15424,14330],[0,83]],[[16014,14284],[-297,-3]],[[15717,14281],[-23,59]],[[15685,14541],[72,-23]],[[15757,14518],[72,0]],[[15726,14637],[31,-119]],[[15699,14007],[-14,43]],[[15685,14050],[104,28]],[[15789,14078],[22,-49]],[[15811,14029],[-112,-22]],[[15685,14009],[-27,15]],[[15658,14024],[-45,-7]],[[15613,14017],[41,51]],[[15654,14068],[31,-18]],[[15699,14007],[-14,2]],[[15676,13686],[-126,10],[-85,-28],[-127,64]],[[15338,13732],[199,69]],[[15537,13801],[121,223]],[[15685,14009],[-9,-109]],[[15676,13900],[0,-214]],[[15343,13928],[-5,84]],[[15338,14012],[86,81]],[[15424,14093],[189,-76]],[[15537,13801],[-194,127]],[[15811,14029],[32,-5]],[[15843,14024],[-45,-139],[-122,15]],[[15424,14093],[0,186]],[[15600,14279],[85,-72],[-31,-139]],[[15717,14281],[72,-203]],[[15798,13150],[-194,-168]],[[15604,12982],[-243,96]],[[15361,13078],[76,49]],[[15437,13127],[199,101]],[[15636,13228],[162,-78]],[[16626,14019],[-81,0]],[[16545,14019],[0,257]],[[16716,14284],[59,-265]],[[16775,14019],[-149,0]],[[15640,13643],[36,43]],[[15843,14024],[72,-101]],[[15915,13923],[-185,-305]],[[15730,13618],[-90,25]],[[15338,13732],[0,2]],[[15338,13734],[5,194]],[[16117,14284],[-63,-333]],[[16054,13951],[-139,-28]],[[16604,12720],[-59,0],[-387,-3]],[[16158,12717],[9,257]],[[16167,12974],[270,318]],[[16437,13292],[50,-303],[-117,-150],[234,-119]],[[17297,12972],[316,-105],[-108,-152]],[[17505,12715],[-446,5]],[[17059,12720],[-5,213]],[[17054,12933],[243,39]],[[17207,14022],[-99,0]],[[17108,14022],[-189,-3]],[[16919,14019],[0,359]],[[17261,14375],[90,-353]],[[17351,14022],[-9,0]],[[17342,14022],[-135,0]],[[16054,13951],[145,-72]],[[16199,13879],[-86,-35],[72,-178]],[[16185,13666],[-77,-191],[-225,84]],[[15883,13559],[-153,59]],[[15001,13315],[22,178]],[[15023,13493],[-13,147]],[[15010,13640],[103,36]],[[15113,13676],[158,56]],[[15271,13732],[4,-326]],[[15275,13406],[-45,-50]],[[15230,13356],[-229,-44]],[[15001,13312],[0,3]],[[17518,13381],[-171,0]],[[17347,13381],[-50,135],[99,318]],[[17396,13834],[122,-33],[0,-420]],[[17140,13760],[-261,-15],[103,53],[-72,87]],[[16910,13885],[230,-39]],[[17140,13846],[0,-86]],[[16919,14019],[-9,0]],[[16910,14019],[-135,0]],[[17680,14037],[0,-20],[5,-539],[0,-97]],[[17685,13381],[-167,0]],[[17396,13834],[-54,188]],[[17351,14022],[329,15]],[[16879,13361],[-5,-265],[-86,0],[-31,-160],[113,-66],[0,-150]],[[16870,12720],[-266,0]],[[16437,13292],[63,89]],[[16500,13381],[122,0]],[[16622,13381],[144,-117],[0,117],[113,-20]],[[16626,14019],[-4,-638]],[[16500,13381],[-81,0],[-22,183]],[[16397,13564],[58,300]],[[16455,13864],[90,155]],[[17135,13381],[5,379]],[[17140,13846],[0,18]],[[17140,13864],[67,158]],[[17347,13381],[-95,0]],[[17252,13381],[-117,0]],[[17135,13381],[-184,-104]],[[16951,13277],[-72,84]],[[16910,14019],[0,-134]],[[15361,13078],[-104,-58]],[[15257,13020],[-9,0]],[[15248,13020],[-18,336]],[[15275,13406],[244,-99],[-82,-180]],[[17108,14022],[32,-158]],[[16311,13862],[-13,-237]],[[16298,13625],[-113,41]],[[16199,13879],[72,34]],[[16271,13913],[40,-51]],[[15636,13228],[121,168],[149,-5],[-95,104],[72,64]],[[16298,13625],[99,-61]],[[16167,12974],[-113,-58]],[[16054,12916],[-256,234]],[[16253,14284],[18,-371]],[[16415,14416],[-59,-552]],[[16356,13864],[-45,-2]],[[17059,12720],[-18,0],[-104,0],[-67,0]],[[16951,13277],[72,-41],[31,-303]],[[16356,13864],[99,0]],[[15640,13643],[-126,-76],[-176,94]],[[15338,13661],[0,73]],[[17680,14378],[0,-341]],[[17338,13053],[-41,-81]],[[17252,13381],[45,-46]],[[17297,13335],[108,-132]],[[17405,13203],[0,-89]],[[17405,13114],[-67,-61]],[[16158,12717],[-4,0],[-280,-2]],[[15874,12715],[-4,157],[184,44]],[[15874,12715],[-265,0]],[[15609,12715],[76,132],[-121,-3],[40,138]],[[17297,13335],[221,-28],[-113,-104]],[[17405,13114],[14,-86],[-81,25]],[[15271,13732],[67,-71]],[[17685,13381],[0,-262],[0,-404],[-167,0],[-13,0]],[[15609,12715],[-338,0],[-14,0]],[[15257,12715],[0,305]],[[14951,13254],[-153,-168]],[[14798,13086],[-131,-23]],[[14667,13063],[-99,69]],[[14568,13132],[0,180]],[[14568,13312],[86,21]],[[14654,13333],[140,-82],[207,64]],[[15001,13312],[-50,-58]],[[14789,12801],[32,-84]],[[14821,12717],[-226,-2],[-369,0]],[[14226,12715],[-158,252],[0,160]],[[14068,13127],[329,5]],[[14397,13132],[72,0]],[[14469,13132],[-31,-107],[130,-132]],[[14568,12893],[203,7],[18,-99]],[[13443,12720],[0,173]],[[13443,12893],[0,262]],[[13443,13155],[225,0]],[[13668,13155],[18,-158],[-144,-114],[148,2],[-67,-165]],[[13623,12720],[-131,0],[-49,0]],[[13321,12941],[-72,15]],[[13249,12956],[90,222],[-54,198]],[[13285,13376],[158,0]],[[13443,13376],[0,-221]],[[13443,12893],[-113,-54],[-9,102]],[[15041,13033],[5,-18]],[[15046,13015],[-248,71]],[[14951,13254],[95,-43],[-5,-178]],[[14424,13414],[0,74],[-238,0]],[[14186,13488],[-127,89]],[[14059,13577],[0,15]],[[14059,13592],[122,125],[225,-135],[167,84]],[[14573,13666],[-5,-89],[329,46],[95,-133]],[[14992,13490],[-135,3]],[[14857,13493],[-203,-48]],[[14654,13445],[0,-112]],[[14568,13312],[0,117],[-144,-15]],[[13722,13155],[-9,524],[108,22]],[[13821,13701],[238,-109]],[[14059,13577],[-13,-280]],[[14046,13297],[0,-170]],[[14046,13127],[-324,28]],[[14068,13127],[-22,0]],[[14046,13297],[99,-91],[68,89],[-27,193]],[[14424,13414],[-72,-71],[45,-211]],[[15248,13020],[-207,13]],[[14857,13493],[-14,-92],[-189,44]],[[13443,12720],[-230,0]],[[13213,12720],[-59,104],[167,117]],[[14667,13063],[-99,-170]],[[14469,13132],[99,0]],[[15023,13493],[-31,-3]],[[14573,13666],[-72,252]],[[14501,13918],[216,129]],[[14717,14047],[40,-28]],[[14757,14019],[253,-379]],[[13668,13155],[54,0]],[[14226,12715],[-333,5],[-270,0]],[[13821,13701],[0,196]],[[13821,13897],[0,272]],[[13821,14169],[585,11]],[[14406,14180],[95,-262]],[[15046,13015],[13,-143]],[[15059,12872],[-270,-71]],[[15010,12717],[-189,0]],[[15059,12872],[-49,-155]],[[15257,12715],[-49,0],[-198,2]],[[14406,14180],[185,25]],[[14591,14205],[126,-158]],[[14663,14459],[158,-163],[-230,-91]],[[14406,14180],[-85,175]],[[14321,14355],[270,79]],[[14591,14434],[31,25]],[[14086,14307],[-153,198]],[[13933,14505],[113,104],[-72,143]],[[13974,14752],[158,20]],[[14132,14772],[216,-94],[-86,-204]],[[14262,14474],[32,-68]],[[14294,14406],[-167,-104]],[[14127,14302],[-41,5]],[[14591,14434],[-63,107],[-266,-67]],[[14132,14772],[18,61]],[[14150,14833],[148,-2]],[[14298,14831],[153,0]],[[15091,14014],[36,153],[-239,249]],[[14888,14416],[-13,43]],[[15293,14411],[0,-160],[-76,7],[58,-58]],[[15275,14200],[-135,-188]],[[15140,14012],[-49,2]],[[13429,14205],[122,-74],[4,-150],[-112,163],[-118,-87]],[[13325,14057],[-31,234]],[[13294,14291],[135,-86]],[[15091,14014],[-212,5]],[[14879,14019],[9,397]],[[13933,14505],[-184,102]],[[13749,14607],[-9,157]],[[13740,14764],[81,44]],[[13821,14808],[153,-56]],[[15275,14200],[63,-158]],[[15338,14042],[-117,-30]],[[15221,14012],[-81,0]],[[14298,14831],[27,50]],[[13334,14032],[-9,25]],[[13429,14205],[0,247]],[[13429,14452],[234,33],[86,122]],[[14086,14307],[-81,-31],[122,26]],[[14294,14406],[27,-51]],[[13821,14169],[-18,89],[-72,-48],[18,-155],[-135,-69],[54,-89]],[[13668,13897],[-293,0]],[[13375,13897],[-41,135]],[[14879,14019],[-122,0]],[[13443,13376],[-68,336]],[[13375,13712],[0,185]],[[13668,13897],[153,0]],[[15338,14012],[0,30]],[[14150,14833],[13,99]],[[14163,14932],[59,102]],[[15221,14012],[-108,-336]],[[13019,13012],[-31,59]],[[12988,13071],[27,122]],[[13015,13193],[49,183]],[[13064,13376],[221,0]],[[13249,12956],[-230,56]],[[13213,12720],[-9,0],[-198,0]],[[13006,12720],[13,292]],[[12420,13368],[-18,257]],[[12402,13625],[374,13]],[[12776,13638],[108,-71]],[[12884,13567],[162,33]],[[13046,13600],[104,-84]],[[13150,13516],[-86,-140]],[[13064,13376],[-563,-8]],[[12501,13368],[-81,0]],[[12636,13117],[72,-77],[-99,-46]],[[12609,12994],[-99,-50],[0,106],[-166,6],[-117,-89]],[[12227,12967],[0,91]],[[12227,13058],[112,92]],[[12339,13150],[126,56]],[[12465,13206],[77,-31]],[[12542,13175],[94,-58]],[[12542,13175],[85,31],[-36,104]],[[12591,13310],[-90,58]],[[13015,13193],[-185,61],[-194,-137]],[[12420,13368],[-193,-150]],[[12227,13218],[0,407]],[[12227,13625],[175,0]],[[12227,13625],[0,277]],[[12227,13902],[243,3]],[[12470,13905],[63,-3]],[[12533,13902],[243,-264]],[[12744,12720],[68,221]],[[12812,12941],[176,130]],[[13006,12720],[-158,0],[-104,0]],[[12465,13206],[45,89]],[[12510,13295],[81,15]],[[12812,12941],[-194,-56],[-9,109]],[[12510,13295],[-171,-145]],[[12227,13058],[0,33],[0,127]],[[12744,12720],[-517,0],[0,247]],[[13334,14032],[-252,-114]],[[13082,13918],[-184,160]],[[12898,14078],[211,353]],[[13109,14431],[50,0]],[[13159,14431],[135,-140]],[[13091,14548],[-54,28]],[[13037,14576],[63,21]],[[13100,14597],[-9,-49]],[[12227,13902],[-14,356]],[[12213,14258],[131,0]],[[12344,14258],[72,-129],[-68,-64],[144,-81],[-22,-79]],[[13240,14731],[-104,-104]],[[13136,14627],[-171,125]],[[12965,14752],[171,94]],[[13136,14846],[108,-5]],[[13244,14841],[-4,-110]],[[13159,14431],[9,71]],[[13168,14502],[148,23]],[[13316,14525],[113,41]],[[13429,14566],[0,-114]],[[13109,14431],[-274,3],[-91,-155]],[[12744,14279],[0,320]],[[12744,14599],[118,48]],[[12862,14647],[121,28],[54,-99]],[[13091,14548],[77,-46]],[[12862,14647],[103,105]],[[13136,14627],[-36,-30]],[[13240,14731],[76,-206]],[[12344,14258],[243,3]],[[12587,14261],[4,-15]],[[12591,14246],[-27,-168],[-72,15],[153,-114]],[[12645,13979],[0,-74]],[[12645,13905],[-112,-3]],[[13019,13902],[-135,-335]],[[12645,13905],[374,-3]],[[12591,14246],[298,-171]],[[12889,14075],[-244,-96]],[[12898,14078],[-9,-3]],[[12587,14261],[157,18]],[[13208,13612],[-58,-96]],[[13046,13600],[0,71]],[[13046,13671],[162,-59]],[[13343,13712],[-99,-61]],[[13244,13651],[0,28]],[[13244,13679],[45,114],[54,-81]],[[13244,14841],[185,155]],[[13429,14996],[0,-430]],[[13019,13902],[50,0]],[[13069,13902],[63,-147]],[[13132,13755],[-86,-84]],[[13082,13918],[-13,-16]],[[13375,13712],[-32,0]],[[13244,13679],[-112,76]],[[13208,13612],[36,39]],[[13429,14996],[86,40]],[[13515,15036],[90,-231],[135,-41]],[[12641,14866],[0,-43]],[[12641,14823],[-45,10]],[[12596,14833],[0,33]],[[12596,14866],[45,0]],[[12713,14818],[-95,-23]],[[12618,14795],[-153,-28],[0,145]],[[12465,14912],[5,0]],[[12470,14912],[211,-84]],[[12681,14828],[32,-10]],[[12681,14838],[0,-7]],[[12681,14831],[-40,-8]],[[12641,14866],[40,74]],[[12681,14940],[54,-36]],[[12735,14904],[-22,-23]],[[12713,14881],[-32,-43]],[[12519,14892],[72,185]],[[12591,15077],[54,-66]],[[12645,15011],[-49,-145]],[[12596,14833],[-77,59]],[[12645,15011],[36,-71]],[[12713,14881],[0,-30]],[[12713,14851],[-18,-13]],[[12695,14838],[-14,0]],[[12452,14935],[13,213]],[[12465,15148],[144,0],[-18,-71]],[[12519,14892],[-67,43]],[[12465,14912],[-18,23]],[[12447,14935],[23,-23]],[[12213,14258],[9,537],[0,97],[99,96],[126,-53]],[[12618,14795],[126,-196]],[[12416,14953],[-59,45],[50,150]],[[12407,15148],[58,0]],[[12452,14935],[-36,18]],[[12222,14894],[0,254]],[[12222,15148],[185,0]],[[12416,14953],[-194,-59]],[[12799,14927],[40,-56]],[[12839,14871],[-126,-53]],[[12681,14828],[118,99]],[[12735,14904],[55,8]],[[12790,14912],[-77,-61]],[[12695,14838],[-14,-7]],[[12839,14871],[23,-224]],[[13731,15413],[0,-117]],[[13731,15296],[-243,-148]],[[13488,15148],[-9,214]],[[13479,15362],[-9,0]],[[13470,15362],[67,181],[-54,81]],[[13483,15624],[0,25]],[[13483,15649],[248,-104],[0,-132]],[[12645,16252],[-90,-224]],[[12555,16028],[-333,0]],[[12222,16028],[0,326]],[[12222,16354],[423,-102]],[[13821,14808],[9,38]],[[13830,14846],[76,211]],[[13906,15057],[257,-125]],[[13708,15011],[23,265]],[[13731,15276],[265,2]],[[13996,15278],[104,-135]],[[14100,15143],[122,-109]],[[13906,15057],[-117,84],[-81,-130]],[[13515,15036],[-32,112]],[[13483,15148],[5,0]],[[13731,15296],[0,-20]],[[13708,15011],[122,-165]],[[13136,14846],[-198,188]],[[12938,15034],[104,114]],[[13042,15148],[99,0]],[[13141,15148],[58,0]],[[13199,15148],[162,0]],[[13361,15148],[122,0]],[[13483,16252],[-216,-20],[-104,-204]],[[13163,16028],[-166,-2]],[[12997,16026],[-54,89]],[[12943,16115],[49,201],[158,104],[-126,13],[-95,162],[41,232]],[[12970,16827],[135,0],[175,0]],[[13280,16827],[-36,-135],[329,-59]],[[13573,16633],[-90,-381]],[[12222,15148],[0,135],[0,168]],[[12222,15451],[387,28]],[[12609,15479],[212,5]],[[12821,15484],[122,-117],[-18,-219]],[[12925,15148],[-135,-236]],[[12938,15034],[-117,-71]],[[12821,14963],[108,185]],[[12929,15148],[113,0]],[[14204,15143],[-104,0]],[[13996,15278],[-81,71],[14,183]],[[14068,15522],[136,-379]],[[12997,16026],[-126,0]],[[12871,16026],[-316,2]],[[12645,16252],[199,10],[99,-147]],[[12821,15484],[261,0],[45,-117],[-76,-109]],[[13051,15258],[-126,-110]],[[13100,15278],[41,-130]],[[12929,15148],[171,130]],[[13483,15649],[153,153],[-40,89],[193,2]],[[13731,15413],[90,165],[-90,-165]],[[13483,16252],[-4,-224]],[[13479,16028],[-316,0]],[[13749,16031],[-270,-3]],[[13573,16633],[0,196]],[[13573,16829],[9,0],[347,0]],[[12222,16354],[0,117],[0,356],[586,-3],[162,3]],[[13483,15624],[-140,0]],[[13343,15624],[-306,2],[-198,214]],[[12839,15840],[32,186]],[[14204,15143],[63,0]],[[12799,14927],[22,36]],[[13316,15329],[59,20],[-81,77]],[[13294,15426],[49,198]],[[13470,15362],[-154,-33]],[[13361,15148],[-45,178]],[[13316,15326],[163,36]],[[12839,15840],[-230,-5],[0,-356]],[[12222,15451],[0,577]],[[13294,15426],[-18,-92]],[[13276,15334],[-225,-76]],[[13262,15324],[-63,-176]],[[13100,15278],[162,46]],[[13316,15329],[-40,5]],[[13262,15324],[54,2]],[[13280,16827],[95,0],[72,2],[126,0]]]}