{"type":"Topology","transform":{"scale":[0.0012831345112129487,0.0009745357309423489],"translate":[-124.73273099999999,24.60334863324381]},"objects":{"area":{"type":"GeometryCollection","geometries":[{"arcs":[[0,1,2,3,4,5,6,7,8]],"type":"Polygon","properties":{"state":"CT","name":"AVON","zip":"06001"}},{"arcs":[[9,10,11,12,-6,13,14,15]],"type":"Polygon","properties":{"state":"CT","name":"BLOOMFIELD","zip":"06002"}},{"arcs":[[16,17,18,19,20,21,22]],"type":"Polygon","properties":{"state":"CT","name":"BRISTOL","zip":"06010"}},{"arcs":[[23,24,25,-1,26,-20,27]],"type":"Polygon","properties":{"state":"CT","name":"BURLINGTON","zip":"06013"}},{"arcs":[[28,29,30,31]],"type":"Polygon","properties":{"state":"CT","name":"BROAD BROOK","zip":"06016"}},{"arcs":[[32,33,34,35,36]],"type":"Polygon","properties":{"state":"CT","name":"CANAAN","zip":"06018"}},{"arcs":[[37,38,39,-3]],"type":"Polygon","properties":{"state":"CT","name":"CANTON","zip":"06019"}},{"arcs":[[40,41,42]],"type":"Polygon","properties":{"state":"CT","name":"COLEBROOK","zip":"06021"}},{"arcs":[[-26,43,44,45,-38,-2]],"type":"Polygon","properties":{"state":"CT","name":"COLLINSVILLE","zip":"06022"}},{"arcs":[[46,47,48]],"type":"Polygon","properties":{"state":"CT","name":"EAST BERLIN","zip":"06023"}},{"arcs":[[49,-33,50]],"type":"Polygon","properties":{"state":"CT","name":"EAST CANAAN","zip":"06024"}},{"arcs":[[51,52,53,54,55,56,57,-16]],"type":"Polygon","properties":{"state":"CT","name":"EAST GRANBY","zip":"06026"}},{"arcs":[[58,59,60,61,62,63,64]],"type":"Polygon","properties":{"state":"CT","name":"EAST HARTLAND","zip":"06027"}},{"arcs":[[65,66,67,68,69,70,-32]],"type":"Polygon","properties":{"state":"CT","name":"ELLINGTON","zip":"06029"}},{"arcs":[[71,72,73,-34,-50,74,75]],"type":"Polygon","properties":{"state":"CT","name":"FALLS VILLAGE","zip":"06031"}},{"arcs":[[76,77,78,-22,79,-8,80,81,82]],"type":"Polygon","properties":{"state":"CT","name":"FARMINGTON","zip":"06032"}},{"arcs":[[83,84,85,86,87,88,89]],"type":"Polygon","properties":{"state":"CT","name":"GLASTONBURY","zip":"06033"}},{"arcs":[[90,91,92,93,-54,94]],"type":"Polygon","properties":{"state":"CT","name":"GRANBY","zip":"06035"}},{"arcs":[[95,96,97,98,99,100,101,-48,102]],"type":"Polygon","properties":{"state":"CT","name":"BERLIN","zip":"06037"}},{"arcs":[[103,104,105,-73]],"type":"Polygon","properties":{"state":"CT","name":"LAKEVILLE","zip":"06039"}},{"arcs":[[106,-86,107,108,109,110]],"type":"Polygon","properties":{"state":"CT","name":"MANCHESTER","zip":"06040"}},{"arcs":[[111,112,-87,-107,113,114]],"type":"Polygon","properties":{"state":"CT","name":"BOLTON","zip":"06043"}},{"arcs":[[115,116,117,-100]],"type":"Polygon","properties":{"state":"CT","name":"NEW BRITAIN","zip":"06051"}},{"arcs":[[118,119,120,-116,-99]],"type":"Polygon","properties":{"state":"CT","name":"NEW BRITAIN","zip":"06052"}},{"arcs":[[121,-78,122,-117,-121]],"type":"Polygon","properties":{"state":"CT","name":"NEW BRITAIN","zip":"06053"}},{"arcs":[[123,124,125,-44,-25,126]],"type":"Polygon","properties":{"state":"CT","name":"NEW HARTFORD","zip":"06057"}},{"arcs":[[-51,-37,127,-42,128,129,130,-75]],"type":"Polygon","properties":{"state":"CT","name":"NORFOLK","zip":"06058"}},{"arcs":[[131,-59,132,133,-39,-46]],"type":"Polygon","properties":{"state":"CT","name":"NORTH CANTON","zip":"06059"}},{"arcs":[[134,-92,135,-64]],"type":"Polygon","properties":{"state":"CT","name":"NORTH GRANBY","zip":"06060"}},{"arcs":[[136,-23,-79,-122,-120]],"type":"Polygon","properties":{"state":"CT","name":"PLAINVILLE","zip":"06062"}},{"arcs":[[137,138,-60,-132,-45,-126]],"type":"Polygon","properties":{"state":"CT","name":"BARKHAMSTED","zip":"06063"}},{"arcs":[[139,-61,-139]],"type":"Polygon","properties":{"state":"CT","name":"RIVERTON","zip":"06065"}},{"arcs":[[140,-114,-111,141,-70,142]],"type":"Polygon","properties":{"state":"CT","name":"VERNON ROCKVILLE","zip":"06066"}},{"arcs":[[143,144,145,146,-102]],"type":"Polygon","properties":{"state":"CT","name":"ROCKY HILL","zip":"06067"}},{"arcs":[[147,-35,-74,-106]],"type":"Polygon","properties":{"state":"CT","name":"SALISBURY","zip":"06068"}},{"arcs":[[148,149,150,-104,151]],"type":"Polygon","properties":{"state":"CT","name":"SHARON","zip":"06069"}},{"arcs":[[152,153,-95,-53,154,-14,-5]],"type":"Polygon","properties":{"state":"CT","name":"SIMSBURY","zip":"06070"}},{"arcs":[[155,156,157,-67]],"type":"Polygon","properties":{"state":"CT","name":"SOMERS","zip":"06071"}},{"arcs":[[158,-90,159,160,161,162,-146]],"type":"Polygon","properties":{"state":"CT","name":"SOUTH GLASTONBURY","zip":"06073"}},{"arcs":[[163,164,165,166,-29,-71,-142,-110]],"type":"Polygon","properties":{"state":"CT","name":"SOUTH WINDSOR","zip":"06074"}},{"arcs":[[167,-68,-158,168,169,170,171,172]],"type":"Polygon","properties":{"state":"CT","name":"STAFFORD SPRINGS","zip":"06076"}},{"arcs":[[173,174,-56,175,176]],"type":"Polygon","properties":{"state":"CT","name":"SUFFIELD","zip":"06078"}},{"arcs":[[-52,-15,-155]],"type":"Polygon","properties":{"state":"CT","name":"TARIFFVILLE","zip":"06081"}},{"arcs":[[177,178,-174,179,-156,-66,-31]],"type":"Polygon","properties":{"state":"CT","name":"ENFIELD","zip":"06082"}},{"arcs":[[180,-143,-69,-168,181]],"type":"Polygon","properties":{"state":"CT","name":"TOLLAND","zip":"06084"}},{"arcs":[[-21,-27,-9,-80]],"type":"Polygon","properties":{"state":"CT","name":"UNIONVILLE","zip":"06085"}},{"arcs":[[-167,182,183,-178,-30]],"type":"Polygon","properties":{"state":"CT","name":"EAST WINDSOR","zip":"06088"}},{"arcs":[[184,-133,-65,-136,-91,-154]],"type":"Polygon","properties":{"state":"CT","name":"WEST GRANBY","zip":"06090"}},{"arcs":[[-40,-134,-185,-153,-4]],"type":"Polygon","properties":{"state":"CT","name":"WEST SIMSBURY","zip":"06092"}},{"arcs":[[-94,185,-176,-55]],"type":"Polygon","properties":{"state":"CT","name":"WEST SUFFIELD","zip":"06093"}},{"arcs":[[186,-10,-58,187,-183,-166]],"type":"Polygon","properties":{"state":"CT","name":"WINDSOR","zip":"06095"}},{"arcs":[[-188,-57,-175,-179,-184]],"type":"Polygon","properties":{"state":"CT","name":"WINDSOR LOCKS","zip":"06096"}},{"arcs":[[-41,188,-62,-140,-138,-125,189,-129]],"type":"Polygon","properties":{"state":"CT","name":"WINSTED","zip":"06098"}},{"arcs":[[190,191,192,193]],"type":"Polygon","properties":{"state":"CT","name":"HARTFORD","zip":"06103"}},{"arcs":[[194,195,196,197,198,-193]],"type":"Polygon","properties":{"state":"CT","name":"HARTFORD","zip":"06105"}},{"arcs":[[199,200,201,202,-195,-192,203,204]],"type":"Polygon","properties":{"state":"CT","name":"HARTFORD","zip":"06106"}},{"arcs":[[205,-82,206,207]],"type":"Polygon","properties":{"state":"CT","name":"W HARTFORD","zip":"06107"}},{"arcs":[[-191,208,-164,-109,209,210,-204]],"type":"Polygon","properties":{"state":"CT","name":"EAST HARTFORD","zip":"06108"}},{"arcs":[[211,-200,212,213,-84,-159,-145]],"type":"Polygon","properties":{"state":"CT","name":"WETHERSFIELD","zip":"06109"}},{"arcs":[[214,-83,-206,215,-202]],"type":"Polygon","properties":{"state":"CT","name":"W HARTFORD","zip":"06110"}},{"arcs":[[-101,-118,-123,-77,-215,-201,-212,-144]],"type":"Polygon","properties":{"state":"CT","name":"NEWINGTON","zip":"06111"}},{"arcs":[[216,-198,217,-12]],"type":"Polygon","properties":{"state":"CT","name":"HARTFORD","zip":"06112"}},{"arcs":[[-211,218,-213,-205]],"type":"Polygon","properties":{"state":"CT","name":"HARTFORD","zip":"06114"}},{"arcs":[[-13,-218,-197,219,-207,-81,-7]],"type":"Polygon","properties":{"state":"CT","name":"W HARTFORD","zip":"06117"}},{"arcs":[[-214,-219,-210,-108,-85]],"type":"Polygon","properties":{"state":"CT","name":"EAST HARTFORD","zip":"06118"}},{"arcs":[[-208,-220,-196,-203,-216]],"type":"Polygon","properties":{"state":"CT","name":"W HARTFORD","zip":"06119"}},{"arcs":[[-217,-11,-187,-165,-209,-194,-199]],"type":"Polygon","properties":{"state":"CT","name":"HARTFORD","zip":"06120"}},{"arcs":[[220,221,222,223,224,225,226]],"type":"Polygon","properties":{"state":"CT","name":"WILLIMANTIC","zip":"06226"}},{"arcs":[[227,228,229,230,231]],"type":"Polygon","properties":{"state":"CT","name":"AMSTON","zip":"06231"}},{"arcs":[[232,233,-112,234]],"type":"Polygon","properties":{"state":"CT","name":"ANDOVER","zip":"06232"}},{"arcs":[[235,236,237,238,239,240]],"type":"Polygon","properties":{"state":"CT","name":"BROOKLYN","zip":"06234"}},{"arcs":[[241,242,243,244,245]],"type":"Polygon","properties":{"state":"CT","name":"CHAPLIN","zip":"06235"}},{"arcs":[[246,-233,247,-224,248,-230]],"type":"Polygon","properties":{"state":"CT","name":"COLUMBIA","zip":"06237"}},{"arcs":[[249,-225,-248,-235,-115,-141,-181,250]],"type":"Polygon","properties":{"state":"CT","name":"COVENTRY","zip":"06238"}},{"arcs":[[251,252,253,254,255,-236]],"type":"Polygon","properties":{"state":"CT","name":"DANIELSON","zip":"06239"}},{"arcs":[[256,257,258,-252,-241]],"type":"Polygon","properties":{"state":"CT","name":"DAYVILLE","zip":"06241"}},{"arcs":[[259,260,-244,261,-171,262,263]],"type":"Polygon","properties":{"state":"CT","name":"EASTFORD","zip":"06242"}},{"arcs":[[264,265,266,267,-245,-261,268,-239,269]],"type":"Polygon","properties":{"state":"CT","name":"HAMPTON","zip":"06247"}},{"arcs":[[-229,270,-88,-113,-234,-247]],"type":"Polygon","properties":{"state":"CT","name":"HEBRON","zip":"06248"}},{"arcs":[[271,-231,-249,-223,272,273,274]],"type":"Polygon","properties":{"state":"CT","name":"LEBANON","zip":"06249"}},{"arcs":[[275,276,-242,277,-226,-250]],"type":"Polygon","properties":{"state":"CT","name":"MANSFIELD CENTER","zip":"06250"}},{"arcs":[[278,279,280,281,282,-274]],"type":"Polygon","properties":{"state":"CT","name":"NORTH FRANKLIN","zip":"06254"}},{"arcs":[[283,284,285,286]],"type":"Polygon","properties":{"state":"CT","name":"NORTH GROSVENORDALE","zip":"06255"}},{"arcs":[[-278,-246,-268,287,-227]],"type":"Polygon","properties":{"state":"CT","name":"NORTH WINDHAM","zip":"06256"}},{"arcs":[[288,289,-257,-240,-269,-260]],"type":"Polygon","properties":{"state":"CT","name":"POMFRET CENTER","zip":"06259"}},{"arcs":[[290,-258,-290,291,-285,292]],"type":"Polygon","properties":{"state":"CT","name":"PUTNAM","zip":"06260"}},{"arcs":[[293,-266,294]],"type":"Polygon","properties":{"state":"CT","name":"SCOTLAND","zip":"06264"}},{"arcs":[[-273,-222,295,-279]],"type":"Polygon","properties":{"state":"CT","name":"SOUTH WINDHAM","zip":"06266"}},{"arcs":[[296,297,-276,-251]],"type":"Polygon","properties":{"state":"CT","name":"STORRS MANSFIELD","zip":"06268"}},{"arcs":[[-284,298,-293]],"type":"Polygon","properties":{"state":"CT","name":"THOMPSON","zip":"06277"}},{"arcs":[[-298,299,-172,-262,-243,-277]],"type":"Polygon","properties":{"state":"CT","name":"ASHFORD","zip":"06278"}},{"arcs":[[-297,-182,-173,-300]],"type":"Polygon","properties":{"state":"CT","name":"WILLINGTON","zip":"06279"}},{"arcs":[[-221,-288,-267,-294,300,-280,-296]],"type":"Polygon","properties":{"state":"CT","name":"WINDHAM","zip":"06280"}},{"arcs":[[301,-170,302,-286,-292,-289,-264]],"type":"Polygon","properties":{"state":"CT","name":"WOODSTOCK","zip":"06281"}},{"arcs":[[-302,-263]],"type":"Polygon","properties":{"state":"CT","name":"WOODSTOCK VALLEY","zip":"06282"}},{"arcs":[[303,304,305,306]],"type":"Polygon","properties":{"state":"CT","name":"NEW LONDON","zip":"06320"}},{"arcs":[[-301,-295,-265,307,308,309,-281]],"type":"Polygon","properties":{"state":"CT","name":"BALTIC","zip":"06330"}},{"arcs":[[310,311,-308,-270,-238]],"type":"Polygon","properties":{"state":"CT","name":"CANTERBURY","zip":"06331"}},{"arcs":[[312,313,314,315,316]],"type":"Polygon","properties":{"state":"CT","name":"EAST LYME","zip":"06333"}},{"arcs":[[317,318,319,-275,-283,320,321]],"type":"Polygon","properties":{"state":"CT","name":"BOZRAH","zip":"06334"}},{"arcs":[[322,323,324,325,326,327]],"type":"Polygon","properties":{"state":"CT","name":"GALES FERRY","zip":"06335"}},{"arcs":[[328,329,330,331,332,-327]],"type":"Polygon","properties":{"state":"CT","name":"LEDYARD","zip":"06339"}},{"arcs":[[333,334,-306,335,-328,-333]],"type":"Polygon","properties":{"state":"CT","name":"GROTON","zip":"06340"}},{"arcs":[[336,-323,-336]],"type":"Polygon","properties":{"state":"CT","name":"GROTON","zip":"06349"}},{"arcs":[[337,338,339,-309,-312,340,341]],"type":"Polygon","properties":{"state":"CT","name":"JEWETT CITY","zip":"06351"}},{"arcs":[[342,-255,343,344,345,-342]],"type":"Polygon","properties":{"state":"CT","name":"MOOSUP","zip":"06354"}},{"arcs":[[-332,346,347,-334]],"type":"Polygon","properties":{"state":"CT","name":"MYSTIC","zip":"06355"}},{"arcs":[[348,-313,349,350]],"type":"Polygon","properties":{"state":"CT","name":"NIANTIC","zip":"06357"}},{"arcs":[[351,-330,352,353,354,355]],"type":"Polygon","properties":{"state":"CT","name":"NORTH STONINGTON","zip":"06359"}},{"arcs":[[-282,-310,-340,356,357,-321]],"type":"Polygon","properties":{"state":"CT","name":"NORWICH","zip":"06360"}},{"arcs":[[-326,358,-357,-339,359,-353,-329]],"type":"Polygon","properties":{"state":"CT","name":"PRESTON","zip":"06365"}},{"arcs":[[360,361,-316,362,-318,363]],"type":"Polygon","properties":{"state":"CT","name":"OAKDALE","zip":"06370"}},{"arcs":[[-349,364,365,366,367,368,369,370,-314]],"type":"Polygon","properties":{"state":"CT","name":"OLD LYME","zip":"06371"}},{"arcs":[[-237,-256,-343,-341,-311]],"type":"Polygon","properties":{"state":"CT","name":"PLAINFIELD","zip":"06374"}},{"arcs":[[-305,371,-361,372,-324,-337]],"type":"Polygon","properties":{"state":"CT","name":"QUAKER HILL","zip":"06375"}},{"arcs":[[-254,373,-344]],"type":"Polygon","properties":{"state":"CT","name":"STERLING","zip":"06377"}},{"arcs":[[-331,-352,374,375,-347]],"type":"Polygon","properties":{"state":"CT","name":"STONINGTON","zip":"06378"}},{"arcs":[[376,-375,-356]],"type":"Polygon","properties":{"state":"CT","name":"PAWCATUCK","zip":"06379"}},{"arcs":[[-373,-364,-322,-358,-359,-325]],"type":"Polygon","properties":{"state":"CT","name":"UNCASVILLE","zip":"06382"}},{"arcs":[[377,-354,-360,-338,-346]],"type":"Polygon","properties":{"state":"CT","name":"VOLUNTOWN","zip":"06384"}},{"arcs":[[-317,-362,-372,-304,378,-350]],"type":"Polygon","properties":{"state":"CT","name":"WATERFORD","zip":"06385"}},{"arcs":[[379,380,381]],"type":"Polygon","properties":{"state":"CT","name":"ANSONIA","zip":"06401"}},{"arcs":[[382,383,384,385]],"type":"Polygon","properties":{"state":"CT","name":"BEACON FALLS","zip":"06403"}},{"arcs":[[386,387,388,389]],"type":"Polygon","properties":{"state":"CT","name":"BRANFORD","zip":"06405"}},{"arcs":[[390,391,392,393,394,395,396,397,398]],"type":"Polygon","properties":{"state":"CT","name":"CHESHIRE","zip":"06410"}},{"arcs":[[399,400,401,402,403,-369]],"type":"Polygon","properties":{"state":"CT","name":"CHESTER","zip":"06412"}},{"arcs":[[404,405,406,407]],"type":"Polygon","properties":{"state":"CT","name":"CLINTON","zip":"06413"}},{"arcs":[[408,409,-232,-272,-320,410,411,412]],"type":"Polygon","properties":{"state":"CT","name":"COLCHESTER","zip":"06415"}},{"arcs":[[413,414,-49,-147,-163]],"type":"Polygon","properties":{"state":"CT","name":"CROMWELL","zip":"06416"}},{"arcs":[[415,-400,-368,416,417,418]],"type":"Polygon","properties":{"state":"CT","name":"DEEP RIVER","zip":"06417"}},{"arcs":[[419,420,421,-380,422]],"type":"Polygon","properties":{"state":"CT","name":"DERBY","zip":"06418"}},{"arcs":[[423,-408,424,425,426,-401,-416]],"type":"Polygon","properties":{"state":"CT","name":"KILLINGWORTH","zip":"06419"}},{"arcs":[[-371,427,-411,-319,-363,-315]],"type":"Polygon","properties":{"state":"CT","name":"SALEM","zip":"06420"}},{"arcs":[[428,429,430,431,432,433,-426,434]],"type":"Polygon","properties":{"state":"CT","name":"DURHAM","zip":"06422"}},{"arcs":[[435,436,437,-412,-428,-370,-404]],"type":"Polygon","properties":{"state":"CT","name":"EAST HADDAM","zip":"06423"}},{"arcs":[[438,-437,439,440,441,442,-161,443,-409]],"type":"Polygon","properties":{"state":"CT","name":"EAST HAMPTON","zip":"06424"}},{"arcs":[[444,-417,-367,445,446]],"type":"Polygon","properties":{"state":"CT","name":"ESSEX","zip":"06426"}},{"arcs":[[447,448,449,450,451,452,453]],"type":"Polygon","properties":{"state":"CT","name":"FAIRFIELD","zip":"06430"}},{"arcs":[[454,455,-454,456,457,458]],"type":"Polygon","properties":{"state":"CT","name":"FAIRFIELD","zip":"06432"}},{"arcs":[[459,460,-389,461,462,-429]],"type":"Polygon","properties":{"state":"CT","name":"GUILFORD","zip":"06437"}},{"arcs":[[463,-440,-436,-403]],"type":"Polygon","properties":{"state":"CT","name":"HADDAM","zip":"06438"}},{"arcs":[[-402,-427,-434,464,-441,-464]],"type":"Polygon","properties":{"state":"CT","name":"HIGGANUM","zip":"06441"}},{"arcs":[[465,-418,-445]],"type":"Polygon","properties":{"state":"CT","name":"IVORYTON","zip":"06442"}},{"arcs":[[-435,-425,-407,466,-460]],"type":"Polygon","properties":{"state":"CT","name":"MADISON","zip":"06443"}},{"arcs":[[-410,-444,-160,-89,-271,-228]],"type":"Polygon","properties":{"state":"CT","name":"MARLBOROUGH","zip":"06447"}},{"arcs":[[467,468,469,-96,470]],"type":"Polygon","properties":{"state":"CT","name":"MERIDEN","zip":"06450"}},{"arcs":[[471,-397,472,-97,-470]],"type":"Polygon","properties":{"state":"CT","name":"MERIDEN","zip":"06451"}},{"arcs":[[-432,473,-468,474]],"type":"Polygon","properties":{"state":"CT","name":"MIDDLEFIELD","zip":"06455"}},{"arcs":[[-465,-433,-475,-471,-103,-47,-415,475,-442]],"type":"Polygon","properties":{"state":"CT","name":"MIDDLETOWN","zip":"06457"}},{"arcs":[[476,477,478,479,480,481]],"type":"Polygon","properties":{"state":"CT","name":"MILFORD","zip":"06460"}},{"arcs":[[482,483,484,485,486,487]],"type":"Polygon","properties":{"state":"CT","name":"MONROE","zip":"06468"}},{"arcs":[[-439,-413,-438]],"type":"Polygon","properties":{"state":"CT","name":"MOODUS","zip":"06469"}},{"arcs":[[488,489,490,491,492,493,494,-486]],"type":"Polygon","properties":{"state":"CT","name":"NEWTOWN","zip":"06470"}},{"arcs":[[-388,495,496,497,-462]],"type":"Polygon","properties":{"state":"CT","name":"NORTH BRANFORD","zip":"06471"}},{"arcs":[[498,499,-430,-463,-498]],"type":"Polygon","properties":{"state":"CT","name":"NORTHFORD","zip":"06472"}},{"arcs":[[500,501,502,503,-499]],"type":"Polygon","properties":{"state":"CT","name":"NORTH HAVEN","zip":"06473"}},{"arcs":[[504,-446,-366,505]],"type":"Polygon","properties":{"state":"CT","name":"OLD SAYBROOK","zip":"06475"}},{"arcs":[[506,-420,507,508,509,-479]],"type":"Polygon","properties":{"state":"CT","name":"ORANGE","zip":"06477"}},{"arcs":[[510,511,512,513,-384,514,515,-488]],"type":"Polygon","properties":{"state":"CT","name":"OXFORD","zip":"06478"}},{"arcs":[[516,517,-395]],"type":"Polygon","properties":{"state":"CT","name":"PLANTSVILLE","zip":"06479"}},{"arcs":[[-476,-414,-162,-443]],"type":"Polygon","properties":{"state":"CT","name":"PORTLAND","zip":"06480"}},{"arcs":[[-495,518,-511,-487]],"type":"Polygon","properties":{"state":"CT","name":"SANDY HOOK","zip":"06482"}},{"arcs":[[-422,519,-515,-383,520,521,-381]],"type":"Polygon","properties":{"state":"CT","name":"SEYMOUR","zip":"06483"}},{"arcs":[[522,523,-483,-516,-520,-421,-507,-478]],"type":"Polygon","properties":{"state":"CT","name":"SHELTON","zip":"06484"}},{"arcs":[[524,525,526,527,-512,-519,-494]],"type":"Polygon","properties":{"state":"CT","name":"SOUTHBURY","zip":"06488"}},{"arcs":[[528,-17,-137,-119,-98,-473,-396,-518]],"type":"Polygon","properties":{"state":"CT","name":"SOUTHINGTON","zip":"06489"}},{"arcs":[[529,-450,530]],"type":"Polygon","properties":{"state":"CT","name":"SOUTHPORT","zip":"06490"}},{"arcs":[[-500,-504,531,-398,-472,-469,-474,-431]],"type":"Polygon","properties":{"state":"CT","name":"WALLINGFORD","zip":"06492"}},{"arcs":[[-405,-424,-419,-466,-447,-505,532]],"type":"Polygon","properties":{"state":"CT","name":"WESTBROOK","zip":"06498"}},{"arcs":[[533,534,535,536,537,538,539,540]],"type":"Polygon","properties":{"state":"CT","name":"NEW HAVEN","zip":"06511"}},{"arcs":[[-539,541,-496,-387,542]],"type":"Polygon","properties":{"state":"CT","name":"EAST HAVEN","zip":"06512"}},{"arcs":[[543,-501,-497,-542,-538]],"type":"Polygon","properties":{"state":"CT","name":"NEW HAVEN","zip":"06513"}},{"arcs":[[544,-536,545,546,547,548]],"type":"Polygon","properties":{"state":"CT","name":"HAMDEN","zip":"06514"}},{"arcs":[[549,-509,550,-546,-535]],"type":"Polygon","properties":{"state":"CT","name":"NEW HAVEN","zip":"06515"}},{"arcs":[[-550,-534,551,552,-480,-510]],"type":"Polygon","properties":{"state":"CT","name":"WEST HAVEN","zip":"06516"}},{"arcs":[[-537,-545,553,-502,-544]],"type":"Polygon","properties":{"state":"CT","name":"HAMDEN","zip":"06517"}},{"arcs":[[554,-399,-532,-503,-554,-549]],"type":"Polygon","properties":{"state":"CT","name":"HAMDEN","zip":"06518"}},{"arcs":[[-541,555,-552]],"type":"Polygon","properties":{"state":"CT","name":"NEW HAVEN","zip":"06519"}},{"arcs":[[-386,556,557,-391,-555,-548,558,-521]],"type":"Polygon","properties":{"state":"CT","name":"BETHANY","zip":"06524"}},{"arcs":[[-508,-423,-382,-522,-559,-547,-551]],"type":"Polygon","properties":{"state":"CT","name":"WOODBRIDGE","zip":"06525"}},{"arcs":[[559,-455,560,561,562]],"type":"Polygon","properties":{"state":"CT","name":"BRIDGEPORT","zip":"06604"}},{"arcs":[[-456,-560,563,-448]],"type":"Polygon","properties":{"state":"CT","name":"BRIDGEPORT","zip":"06605"}},{"arcs":[[564,565,566,-561,-459]],"type":"Polygon","properties":{"state":"CT","name":"BRIDGEPORT","zip":"06606"}},{"arcs":[[567,568,569]],"type":"Polygon","properties":{"state":"CT","name":"BRIDGEPORT","zip":"06607"}},{"arcs":[[-562,-567,570,571]],"type":"Polygon","properties":{"state":"CT","name":"BRIDGEPORT","zip":"06608"}},{"arcs":[[-566,572,573,574,-570,-571]],"type":"Polygon","properties":{"state":"CT","name":"BRIDGEPORT","zip":"06610"}},{"arcs":[[575,-484,-524,576,-573,-565,-458]],"type":"Polygon","properties":{"state":"CT","name":"TRUMBULL","zip":"06611"}},{"arcs":[[577,578,-489,-485,-576,-457,-453]],"type":"Polygon","properties":{"state":"CT","name":"EASTON","zip":"06612"}},{"arcs":[[579,-574,-577,-523,-477]],"type":"Polygon","properties":{"state":"CT","name":"STRATFORD","zip":"06614"}},{"arcs":[[-575,-580,-482,580,-568]],"type":"Polygon","properties":{"state":"CT","name":"STRATFORD","zip":"06615"}},{"arcs":[[581,582,583,584,585]],"type":"Polygon","properties":{"state":"CT","name":"WATERBURY","zip":"06702"}},{"arcs":[[586,587,588,589,590,591,592,-585]],"type":"Polygon","properties":{"state":"CT","name":"WATERBURY","zip":"06704"}},{"arcs":[[593,594,-586,-593,595,-393]],"type":"Polygon","properties":{"state":"CT","name":"WATERBURY","zip":"06705"}},{"arcs":[[596,597,-582,-595,598]],"type":"Polygon","properties":{"state":"CT","name":"WATERBURY","zip":"06706"}},{"arcs":[[599,600,601,602,-588,603,-583,-598]],"type":"Polygon","properties":{"state":"CT","name":"WATERBURY","zip":"06708"}},{"arcs":[[-604,-587,-584]],"type":"Polygon","properties":{"state":"CT","name":"WATERBURY","zip":"06710"}},{"arcs":[[-558,604,-599,-594,-392]],"type":"Polygon","properties":{"state":"CT","name":"PROSPECT","zip":"06712"}},{"arcs":[[-394,-596,-592,605,606,-18,-529,-517]],"type":"Polygon","properties":{"state":"CT","name":"WOLCOTT","zip":"06716"}},{"arcs":[[607,608,609,610,611,612]],"type":"Polygon","properties":{"state":"CT","name":"BANTAM","zip":"06750"}},{"arcs":[[613,614,615,616,617]],"type":"Polygon","properties":{"state":"CT","name":"BETHLEHEM","zip":"06751"}},{"arcs":[[-493,618,619,620,-525]],"type":"Polygon","properties":{"state":"CT","name":"BRIDGEWATER","zip":"06752"}},{"arcs":[[621,622,623,-149,624,625,-609,626]],"type":"Polygon","properties":{"state":"CT","name":"CORNWALL BRIDGE","zip":"06754"}},{"arcs":[[627,628,629,630,631]],"type":"Polygon","properties":{"state":"CT","name":"GAYLORDSVILLE","zip":"06755"}},{"arcs":[[632,633,634,-76,-131]],"type":"Polygon","properties":{"state":"CT","name":"GOSHEN","zip":"06756"}},{"arcs":[[[635,-150,-624,636,-630]],[[637,-622,638,639]]],"type":"MultiPolygon","properties":{"state":"CT","name":"KENT","zip":"06757"}},{"arcs":[[640,641,-612,642,-616]],"type":"Polygon","properties":{"state":"CT","name":"LAKESIDE","zip":"06758"}},{"arcs":[[643,644,645,-610,-626,646,-634,647,648]],"type":"Polygon","properties":{"state":"CT","name":"LITCHFIELD","zip":"06759"}},{"arcs":[[649,650,-601,651,-513,-528]],"type":"Polygon","properties":{"state":"CT","name":"MIDDLEBURY","zip":"06762"}},{"arcs":[[652,-617,-643,-611,-646]],"type":"Polygon","properties":{"state":"CT","name":"MORRIS","zip":"06763"}},{"arcs":[[-652,-600,-597,-605,-557,-385,-514]],"type":"Polygon","properties":{"state":"CT","name":"NAUGATUCK","zip":"06770"}},{"arcs":[[653,-632,654,-640,655,656,657,-620,658,659]],"type":"Polygon","properties":{"state":"CT","name":"NEW MILFORD","zip":"06776"}},{"arcs":[[660,-656,-639,-627,-608]],"type":"Polygon","properties":{"state":"CT","name":"NEW PRESTON MARBLE DALE","zip":"06777"}},{"arcs":[[661,-644,662]],"type":"Polygon","properties":{"state":"CT","name":"NORTHFIELD","zip":"06778"}},{"arcs":[[663,664,-589,-603]],"type":"Polygon","properties":{"state":"CT","name":"OAKVILLE","zip":"06779"}},{"arcs":[[665,666,-606,-591]],"type":"Polygon","properties":{"state":"CT","name":"PLYMOUTH","zip":"06782"}},{"arcs":[[667,-526,-621,-658,668,669]],"type":"Polygon","properties":{"state":"CT","name":"ROXBURY","zip":"06783"}},{"arcs":[[670,-628,-654,671]],"type":"Polygon","properties":{"state":"CT","name":"SHERMAN","zip":"06784"}},{"arcs":[[-631,-637,-623,-638,-655]],"type":"Polygon","properties":{"state":"CT","name":"SOUTH KENT","zip":"06785"}},{"arcs":[[-607,-667,672,673,-28,-19]],"type":"Polygon","properties":{"state":"CT","name":"TERRYVILLE","zip":"06786"}},{"arcs":[[-590,-665,674,-645,-662,675,-673,-666]],"type":"Polygon","properties":{"state":"CT","name":"THOMASTON","zip":"06787"}},{"arcs":[[-130,-190,-124,676,-648,-633]],"type":"Polygon","properties":{"state":"CT","name":"TORRINGTON","zip":"06790"}},{"arcs":[[-649,-677,-127,-24,-674,-676,-663]],"type":"Polygon","properties":{"state":"CT","name":"HARWINTON","zip":"06791"}},{"arcs":[[677,-641,-615,678,-670]],"type":"Polygon","properties":{"state":"CT","name":"WASHINGTON","zip":"06793"}},{"arcs":[[-669,-657,-661,-613,-642,-678]],"type":"Polygon","properties":{"state":"CT","name":"WASHINGTON DEPOT","zip":"06794"}},{"arcs":[[-651,679,-618,-653,-675,-664,-602]],"type":"Polygon","properties":{"state":"CT","name":"WATERTOWN","zip":"06795"}},{"arcs":[[-625,-152,-72,-635,-647]],"type":"Polygon","properties":{"state":"CT","name":"WEST CORNWALL","zip":"06796"}},{"arcs":[[-527,-668,-679,-614,-680,-650]],"type":"Polygon","properties":{"state":"CT","name":"WOODBURY","zip":"06798"}},{"arcs":[[680,681,682,-491]],"type":"Polygon","properties":{"state":"CT","name":"BETHEL","zip":"06801"}},{"arcs":[[683,684,685,-659,-619,-492,-683]],"type":"Polygon","properties":{"state":"CT","name":"BROOKFIELD","zip":"06804"}},{"arcs":[[686,687,688,689,690]],"type":"Polygon","properties":{"state":"CT","name":"COS COB","zip":"06807"}},{"arcs":[[691,692,693,694,-684,-682]],"type":"Polygon","properties":{"state":"CT","name":"DANBURY","zip":"06810"}},{"arcs":[[695,696,-685,-695]],"type":"Polygon","properties":{"state":"CT","name":"DANBURY","zip":"06811"}},{"arcs":[[697,-672,-660,-686,-697]],"type":"Polygon","properties":{"state":"CT","name":"NEW FAIRFIELD","zip":"06812"}},{"arcs":[[698,699,700,701,702,703,704,705]],"type":"Polygon","properties":{"state":"CT","name":"DARIEN","zip":"06820"}},{"arcs":[[706,707,708,-687,709]],"type":"Polygon","properties":{"state":"CT","name":"GREENWICH","zip":"06830"}},{"arcs":[[710,711,-707]],"type":"Polygon","properties":{"state":"CT","name":"GREENWICH","zip":"06831"}},{"arcs":[[712,-701,713,714,715,716]],"type":"Polygon","properties":{"state":"CT","name":"NEW CANAAN","zip":"06840"}},{"arcs":[[717,-702,-713,718,719]],"type":"Polygon","properties":{"state":"CT","name":"NORWALK","zip":"06850"}},{"arcs":[[720,-720,721,722]],"type":"Polygon","properties":{"state":"CT","name":"NORWALK","zip":"06851"}},{"arcs":[[-704,723,724]],"type":"Polygon","properties":{"state":"CT","name":"NORWALK","zip":"06853"}},{"arcs":[[-703,-718,725,726,-724]],"type":"Polygon","properties":{"state":"CT","name":"NORWALK","zip":"06854"}},{"arcs":[[-721,727,728,-726]],"type":"Polygon","properties":{"state":"CT","name":"NORWALK","zip":"06855"}},{"arcs":[[729,730,731,-689]],"type":"Polygon","properties":{"state":"CT","name":"OLD GREENWICH","zip":"06870"}},{"arcs":[[732,733,-693,734]],"type":"Polygon","properties":{"state":"CT","name":"RIDGEFIELD","zip":"06877"}},{"arcs":[[-690,-732,735]],"type":"Polygon","properties":{"state":"CT","name":"RIVERSIDE","zip":"06878"}},{"arcs":[[736,737,-451,-530,738,-728,-723]],"type":"Polygon","properties":{"state":"CT","name":"WESTPORT","zip":"06880"}},{"arcs":[[739,740,-578,-452,-738]],"type":"Polygon","properties":{"state":"CT","name":"WESTON","zip":"06883"}},{"arcs":[[-692,-681,-490,-579,-741,741,-735]],"type":"Polygon","properties":{"state":"CT","name":"REDDING","zip":"06896"}},{"arcs":[[-719,-717,742,-733,-742,-740,-737,-722]],"type":"Polygon","properties":{"state":"CT","name":"WILTON","zip":"06897"}},{"arcs":[[743,744,-706,745,-730,-688,-709,746]],"type":"Polygon","properties":{"state":"CT","name":"STAMFORD","zip":"06902"}},{"arcs":[[747,-715,748,749,-747,-708,-712]],"type":"Polygon","properties":{"state":"CT","name":"STAMFORD","zip":"06903"}},{"arcs":[[-750,750,751,-744]],"type":"Polygon","properties":{"state":"CT","name":"STAMFORD","zip":"06905"}},{"arcs":[[-745,-752,752,-699]],"type":"Polygon","properties":{"state":"CT","name":"STAMFORD","zip":"06906"}},{"arcs":[[-753,-751,-749,-714,-700]],"type":"Polygon","properties":{"state":"CT","name":"STAMFORD","zip":"06907"}}]}},"arcs":[[[40391,17623],[-14,30]],[[40377,17653],[5,0]],[[40382,17653],[36,10]],[[40418,17663],[4,0]],[[40422,17663],[18,3],[18,2],[27,3]],[[40485,17671],[5,-20]],[[40490,17651],[-14,-49]],[[40476,17602],[-54,5]],[[40422,17607],[-31,16]],[[40521,17740],[41,-92]],[[40562,17648],[0,-2]],[[40562,17646],[-23,7]],[[40539,17653],[-49,-2]],[[40485,17671],[14,74]],[[40499,17745],[4,10]],[[40503,17755],[18,-15]],[[40409,17490],[-45,-5]],[[40364,17485],[-32,-5]],[[40332,17480],[-14,77]],[[40318,17557],[77,10]],[[40395,17567],[5,-5]],[[40400,17562],[0,-23]],[[40400,17539],[9,-49]],[[40318,17559],[-13,84]],[[40305,17643],[50,10]],[[40355,17653],[22,0]],[[40391,17623],[4,-56]],[[40318,17557],[0,2]],[[40692,17717],[-54,0]],[[40638,17717],[23,74]],[[40661,17791],[36,5]],[[40697,17796],[-5,-79]],[[40129,17857],[-67,-5]],[[40062,17852],[-23,5]],[[40039,17857],[14,43]],[[40053,17900],[9,0],[27,0],[45,-3]],[[40134,17897],[-5,-40]],[[40382,17653],[18,89]],[[40400,17742],[13,-10]],[[40413,17732],[5,-69]],[[40255,17892],[-45,-33]],[[40210,17859],[9,36]],[[40219,17895],[36,-3]],[[40355,17653],[0,107]],[[40355,17760],[4,20]],[[40359,17780],[41,-38]],[[40539,17445],[-4,0]],[[40535,17445],[4,25]],[[40539,17470],[0,-25]],[[40129,17846],[-67,6]],[[40129,17857],[0,-11]],[[40503,17755],[-4,13]],[[40499,17768],[-14,0]],[[40485,17768],[18,68]],[[40503,17836],[50,-33]],[[40553,17803],[9,-5]],[[40562,17798],[-9,-25]],[[40553,17773],[-32,-33]],[[40404,17824],[-49,-3]],[[40355,17821],[-18,0]],[[40337,17821],[-9,51],[-28,-31]],[[40300,17841],[9,51]],[[40309,17892],[113,-2]],[[40422,17890],[-13,-49]],[[40409,17841],[-5,-17]],[[40697,17796],[18,2]],[[40715,17798],[63,10]],[[40778,17808],[63,-17]],[[40841,17791],[-77,-69]],[[40764,17722],[-54,-13]],[[40710,17709],[-18,8]],[[40111,17750],[-81,18]],[[40030,17768],[-31,58]],[[39999,17826],[40,31]],[[40129,17846],[-18,-81],[41,-18]],[[40152,17747],[-41,3]],[[40503,17562],[0,-3]],[[40503,17559],[-40,-28]],[[40463,17531],[-63,8]],[[40400,17562],[22,45]],[[40476,17602],[14,-10]],[[40490,17592],[13,-20]],[[40503,17572],[0,-10]],[[40625,17516],[-32,51]],[[40593,17567],[59,12]],[[40652,17579],[76,11]],[[40728,17590],[9,-18]],[[40737,17572],[9,-41]],[[40746,17531],[-40,-35]],[[40706,17496],[-81,20]],[[40454,17768],[-5,78]],[[40449,17846],[18,3]],[[40467,17849],[27,5]],[[40494,17854],[9,-18]],[[40485,17768],[-31,0]],[[40512,17419],[-22,-2]],[[40490,17417],[-50,-8]],[[40440,17409],[23,76]],[[40463,17485],[18,5]],[[40481,17490],[31,3]],[[40512,17493],[27,3]],[[40539,17496],[0,-26]],[[40535,17445],[-23,-26]],[[40030,17768],[-99,2]],[[39931,17770],[5,54]],[[39936,17824],[63,2]],[[40728,17643],[0,-53]],[[40652,17579],[-5,41]],[[40647,17620],[-4,26]],[[40643,17646],[58,20]],[[40701,17666],[27,-23]],[[40778,17610],[-9,-33]],[[40769,17577],[-32,-5]],[[40728,17643],[41,10]],[[40769,17653],[9,-43]],[[40481,17490],[4,21]],[[40485,17511],[23,20]],[[40508,17531],[4,-38]],[[40463,17485],[-5,13]],[[40458,17498],[-4,13]],[[40454,17511],[31,0]],[[40454,17511],[9,20]],[[40503,17559],[5,-28]],[[40255,17643],[18,71]],[[40273,17714],[55,49]],[[40328,17763],[27,-3]],[[40305,17643],[-50,0]],[[40134,17897],[49,-2],[36,0]],[[40210,17859],[-22,-96]],[[40188,17763],[-9,-46]],[[40179,17717],[-27,30]],[[40359,17780],[-4,41]],[[40404,17824],[9,-54]],[[40413,17770],[0,-38]],[[40422,17890],[32,0],[13,-41]],[[40449,17846],[-40,-5]],[[40458,17498],[-49,-8]],[[40328,17763],[-28,48]],[[40300,17811],[37,10]],[[40300,17811],[0,30]],[[40769,17674],[0,-21]],[[40701,17666],[9,43]],[[40764,17722],[5,-48]],[[40539,17496],[9,15]],[[40548,17511],[59,-3]],[[40607,17508],[0,-25]],[[40607,17483],[-68,-13]],[[39936,17824],[0,78],[40,0],[77,-2]],[[40021,17704],[-22,-71]],[[39999,17633],[-77,5]],[[39922,17638],[0,8],[5,94],[4,30]],[[40030,17768],[-9,-64]],[[40422,17663],[9,107]],[[40431,17770],[23,-2]],[[40499,17768],[0,-23]],[[40715,17798],[-14,89]],[[40701,17887],[41,0],[45,-2]],[[40787,17885],[27,-64],[-36,-13]],[[40607,17508],[18,8]],[[40706,17496],[-5,-8]],[[40701,17488],[-27,-3]],[[40674,17485],[-67,-10]],[[40607,17475],[0,8]],[[40643,17646],[-50,-3]],[[40593,17643],[0,10]],[[40593,17653],[23,64]],[[40616,17717],[22,0]],[[40859,17791],[-18,0]],[[40787,17885],[22,0],[77,0],[54,-3],[49,0],[28,-2]],[[41017,17880],[4,-64]],[[41021,17816],[-50,-8]],[[40971,17808],[-45,0]],[[40926,17808],[-67,-17]],[[40625,17877],[-5,-84]],[[40620,17793],[-58,5]],[[40553,17803],[13,84]],[[40566,17887],[18,0],[41,-5],[0,-5]],[[40661,17791],[-50,-6]],[[40611,17785],[9,8]],[[40625,17877],[63,10],[13,0]],[[40854,17684],[-85,-10]],[[40859,17791],[-5,-107]],[[40616,17717],[-5,35]],[[40611,17752],[0,33]],[[40431,17770],[-18,0]],[[40494,17854],[45,36],[27,-3]],[[40593,17653],[-31,-5]],[[40553,17773],[58,-21]],[[40255,17892],[23,0],[31,0]],[[40273,17714],[-85,49]],[[40580,17615],[0,-13]],[[40580,17602],[-14,11]],[[40566,17613],[0,2]],[[40566,17615],[14,0]],[[40566,17613],[-27,-11]],[[40539,17602],[0,21]],[[40539,17623],[0,15]],[[40539,17638],[23,-18]],[[40562,17620],[4,-5]],[[40557,17569],[-13,0]],[[40544,17569],[-5,-2]],[[40539,17567],[0,28]],[[40539,17595],[0,7]],[[40580,17602],[4,-2]],[[40584,17600],[-27,-31]],[[40526,17592],[-23,-20]],[[40490,17592],[31,33]],[[40521,17625],[5,-33]],[[40580,17615],[13,28]],[[40647,17620],[-58,-23]],[[40589,17597],[-5,3]],[[40548,17511],[-4,58]],[[40557,17569],[36,3]],[[40593,17572],[0,-5]],[[40539,17567],[-36,-5]],[[40526,17592],[13,3]],[[40562,17646],[0,-26]],[[40539,17638],[0,15]],[[40589,17597],[4,-25]],[[40539,17623],[-18,2]],[[40949,17559],[18,-36]],[[40967,17523],[-14,-5]],[[40953,17518],[-45,41]],[[40908,17559],[-4,8]],[[40904,17567],[-5,5]],[[40899,17572],[45,0]],[[40944,17572],[5,-13]],[[40778,17442],[-9,48]],[[40769,17490],[58,21]],[[40827,17511],[9,-26]],[[40836,17485],[14,-33]],[[40850,17452],[-72,-10]],[[40841,17582],[-23,-38]],[[40818,17544],[-49,33]],[[40778,17610],[63,-28]],[[41170,17674],[-5,-82]],[[41165,17592],[0,-7]],[[41165,17585],[-85,20]],[[41080,17605],[4,53]],[[41084,17658],[68,38]],[[41152,17696],[18,-22]],[[40976,17597],[23,84]],[[40999,17681],[18,-2]],[[41017,17679],[9,-13]],[[41026,17666],[0,-18]],[[41026,17648],[-50,-51]],[[40827,17511],[-9,33]],[[40841,17582],[63,-15]],[[40908,17559],[-72,-74]],[[40886,17607],[13,-35]],[[40854,17684],[32,-77]],[[41170,17674],[90,-23]],[[41260,17651],[0,-31]],[[41260,17620],[-36,-10]],[[41224,17610],[-45,-25]],[[41179,17585],[-14,7]],[[41152,17696],[9,21]],[[41161,17717],[94,35]],[[41255,17752],[0,-50],[0,-6],[0,-7],[5,-38]],[[41044,17752],[18,-73]],[[41062,17679],[-36,-13]],[[41017,17679],[-46,129]],[[41021,17816],[18,-59]],[[41039,17757],[5,-5]],[[41053,17544],[-18,-3]],[[41035,17541],[-27,0]],[[41008,17541],[-5,28]],[[41003,17569],[23,79]],[[41062,17679],[22,-21]],[[41080,17605],[-27,-61]],[[40769,17490],[-23,41]],[[40917,17386],[-67,66]],[[40953,17518],[23,-17]],[[40976,17501],[-32,-69]],[[40944,17432],[0,-8],[-4,-10],[-23,-28]],[[40886,17607],[54,3],[9,71]],[[40949,17681],[50,0]],[[40976,17597],[-32,-25]],[[40976,17501],[0,7]],[[40976,17508],[27,-5]],[[41003,17503],[14,-61]],[[41017,17442],[-18,-41]],[[40999,17401],[-55,31]],[[41219,17877],[-58,-97]],[[41161,17780],[-9,0]],[[41152,17780],[-14,97]],[[41138,17877],[5,0],[18,0],[22,0],[36,0]],[[41003,17569],[-54,-10]],[[41044,17752],[103,13]],[[41147,17765],[14,-48]],[[41255,17778],[0,-26]],[[41147,17765],[5,15]],[[41161,17780],[94,-2]],[[41030,17536],[-22,5]],[[41035,17541],[-5,-5]],[[40967,17523],[9,-15]],[[40854,17684],[72,-3]],[[40926,17681],[23,0]],[[41219,17877],[32,-3],[4,-15],[0,-51],[0,-30]],[[40926,17681],[0,127]],[[41030,17536],[-27,-33]],[[41039,17757],[36,61],[-54,-2]],[[41017,17880],[4,0],[81,0],[36,-3]],[[41017,17137],[-18,69]],[[40999,17206],[27,17]],[[41026,17223],[4,-66]],[[41030,17157],[-13,-20]],[[41053,17544],[31,-56]],[[41084,17488],[-22,-54]],[[41062,17434],[-45,8]],[[41165,17585],[-31,-107]],[[41134,17478],[-50,10]],[[40944,17203],[-45,-61]],[[40899,17142],[-18,135]],[[40881,17277],[23,2]],[[40904,17279],[22,-30]],[[40926,17249],[18,-46]],[[40985,17343],[-68,15]],[[40917,17358],[9,21]],[[40926,17379],[-9,7]],[[40999,17401],[-10,-58]],[[40989,17343],[-4,0]],[[41026,17236],[-5,0]],[[41021,17236],[0,26]],[[41021,17262],[23,38]],[[41044,17300],[9,18]],[[41053,17318],[18,-82]],[[41071,17236],[-45,0]],[[41053,17318],[76,7]],[[41129,17325],[14,-56]],[[41143,17269],[-9,-10]],[[41134,17259],[-50,-25]],[[41084,17234],[-13,2]],[[41084,17234],[23,-69]],[[41107,17165],[-77,-8]],[[41026,17223],[0,13]],[[41026,17223],[-5,13]],[[41210,17485],[-76,-84]],[[41134,17401],[-72,-5]],[[41062,17396],[0,11],[0,27]],[[41134,17478],[72,7]],[[41206,17485],[4,0]],[[41206,17485],[-27,100]],[[41224,17610],[-9,-74],[49,-28]],[[41264,17508],[0,-10],[0,-15]],[[41264,17483],[-54,2]],[[41134,17259],[0,-92]],[[41134,17167],[-27,-2]],[[40904,17132],[-5,10]],[[40944,17203],[14,-48]],[[40958,17155],[-54,-23]],[[41192,17251],[-49,18]],[[41129,17325],[-4,43],[49,-10]],[[41174,17358],[86,-15]],[[41260,17343],[0,-10],[-5,-18],[0,-61],[-36,-10]],[[41219,17244],[-27,7]],[[41062,17396],[-27,-66]],[[41035,17330],[-46,13]],[[41044,17300],[-9,30]],[[41134,17401],[40,-43]],[[40976,17256],[-14,-2]],[[40962,17254],[-36,-5]],[[40904,17279],[13,79]],[[40985,17343],[-36,-56],[27,-31]],[[40904,17132],[-81,13]],[[40823,17145],[-14,30]],[[40809,17175],[-9,43]],[[40800,17218],[-36,18]],[[40764,17236],[-4,23]],[[40760,17259],[99,13]],[[40859,17272],[22,5]],[[40999,17206],[-37,48]],[[40976,17256],[45,6]],[[41260,17620],[0,-51],[4,-61]],[[41192,17251],[-4,-71]],[[41188,17180],[-54,-13]],[[41219,17244],[-13,-89],[-18,25]],[[41264,17483],[-4,-46],[0,-53],[0,-41]],[[41017,17137],[-59,18]],[[40287,17160],[-50,28]],[[40237,17188],[45,7]],[[40282,17195],[5,-35]],[[40287,17256],[-36,-17]],[[40251,17239],[4,63]],[[40255,17302],[41,-5]],[[40296,17297],[-9,-41]],[[40431,17084],[23,68]],[[40454,17152],[63,-7]],[[40517,17145],[4,-51]],[[40521,17094],[-90,-10]],[[40359,17302],[-4,0]],[[40355,17302],[-14,66]],[[40341,17368],[14,28]],[[40355,17396],[4,0]],[[40359,17396],[59,0]],[[40418,17396],[13,-10]],[[40431,17386],[5,-30]],[[40436,17356],[-32,-72]],[[40404,17284],[-45,18]],[[40764,17236],[-76,-25]],[[40688,17211],[-9,45]],[[40679,17256],[4,3]],[[40683,17259],[63,10]],[[40746,17269],[14,-10]],[[40697,17175],[22,-71]],[[40719,17104],[-45,2]],[[40674,17106],[-36,39]],[[40638,17145],[59,30]],[[40760,17363],[-27,61]],[[40733,17424],[45,18]],[[40926,17379],[-81,-23],[9,-41]],[[40854,17315],[-72,51]],[[40782,17366],[-22,-3]],[[40607,17475],[-18,-61]],[[40589,17414],[-50,31]],[[40697,17180],[-9,31]],[[40800,17218],[-36,-17]],[[40764,17201],[-36,-31]],[[40728,17170],[-31,10]],[[40287,17147],[-23,-13]],[[40264,17134],[-45,46]],[[40219,17180],[18,8]],[[40287,17160],[0,-13]],[[40697,17180],[0,-5]],[[40638,17145],[-49,129]],[[40589,17274],[31,5]],[[40620,17279],[59,-23]],[[40859,17272],[-5,43]],[[40566,17269],[-31,-5]],[[40535,17264],[-18,-5]],[[40517,17259],[9,64]],[[40526,17323],[45,12]],[[40571,17335],[31,3]],[[40602,17338],[18,-59]],[[40589,17274],[-23,-5]],[[40746,17269],[-13,28]],[[40733,17297],[-9,26]],[[40724,17323],[58,43]],[[40760,17363],[-36,-40]],[[40733,17297],[-50,38]],[[40683,17335],[-18,16]],[[40665,17351],[-4,43]],[[40661,17394],[13,91]],[[40701,17488],[32,-64]],[[40764,17160],[9,10],[0,15],[-9,16]],[[40809,17175],[-45,-18]],[[40764,17157],[0,3]],[[40138,16989],[-4,-17]],[[40134,16972],[-41,-16]],[[40093,16956],[-13,26]],[[40080,16982],[-27,41]],[[40053,17023],[9,20]],[[40062,17043],[49,0]],[[40111,17043],[27,-54]],[[40147,17028],[-4,-21]],[[40143,17007],[-5,-18]],[[40111,17043],[14,20]],[[40125,17063],[4,-5]],[[40129,17058],[0,-2],[5,-5],[13,-23]],[[40566,17269],[14,-168]],[[40580,17101],[-59,-7]],[[40517,17145],[0,63]],[[40517,17208],[18,56]],[[40683,17259],[0,76]],[[40602,17338],[63,13]],[[40764,17160],[-36,10]],[[40674,17106],[-94,-5]],[[40512,17384],[5,-49]],[[40517,17335],[-50,10]],[[40467,17345],[23,72]],[[40512,17419],[0,-35]],[[40467,17345],[-31,11]],[[40431,17386],[9,23]],[[40526,17323],[-9,12]],[[40512,17384],[32,0],[18,-11],[9,-38]],[[40589,17414],[72,-20]],[[40233,17030],[18,56]],[[40251,17086],[0,23]],[[40251,17109],[72,-33]],[[40323,17076],[9,-13]],[[40332,17063],[-104,-63]],[[40228,17000],[5,30]],[[40197,17211],[-41,-79]],[[40156,17132],[-54,-5]],[[40102,17127],[-22,38]],[[40080,17165],[36,28]],[[40116,17193],[67,25]],[[40183,17218],[14,-7]],[[40080,17165],[-18,-10]],[[40062,17155],[-14,30]],[[40048,17185],[-27,74]],[[40021,17259],[36,51]],[[40057,17310],[18,-3]],[[40075,17307],[9,-20]],[[40084,17287],[32,-94]],[[40454,17152],[0,5]],[[40454,17157],[4,18]],[[40458,17175],[59,33]],[[40458,17175],[0,61]],[[40458,17236],[59,23]],[[40458,17175],[-54,-10]],[[40404,17165],[-13,41]],[[40391,17206],[45,66]],[[40436,17272],[22,-36]],[[40773,17112],[-9,45]],[[40823,17145],[4,-44],[-54,11]],[[40251,17109],[13,25]],[[40287,17147],[31,0]],[[40318,17147],[10,0]],[[40328,17147],[-5,-71]],[[40183,17218],[-27,38]],[[40156,17256],[50,72]],[[40206,17328],[31,0]],[[40237,17328],[18,-26]],[[40251,17239],[-50,-36]],[[40201,17203],[-4,8]],[[40359,17396],[9,44]],[[40368,17440],[50,-44]],[[40084,17287],[72,-31]],[[40219,17180],[-18,23]],[[40287,17256],[-5,-25]],[[40282,17231],[0,-36]],[[40251,17086],[-45,0]],[[40206,17086],[-50,46]],[[40075,17307],[-4,36]],[[40071,17343],[49,8]],[[40120,17351],[77,2]],[[40197,17353],[9,-25]],[[40368,17440],[-4,45]],[[40084,16954],[-4,28]],[[40093,16956],[-9,-2]],[[40436,17272],[-32,12]],[[40773,17112],[-54,-8]],[[40355,17129],[-5,16]],[[40350,17145],[9,20]],[[40359,17165],[9,5]],[[40368,17170],[32,-8]],[[40400,17162],[-9,-28]],[[40391,17134],[0,-2]],[[40391,17132],[-18,-15]],[[40373,17117],[4,17],[-9,3],[-13,-8]],[[40391,17134],[63,23]],[[40431,17084],[-40,48]],[[40400,17162],[4,3]],[[40386,17208],[-18,-38]],[[40359,17165],[-22,18]],[[40337,17183],[18,48]],[[40355,17231],[9,13]],[[40364,17244],[22,-36]],[[40350,17145],[-22,2]],[[40318,17147],[19,36]],[[40355,17129],[9,-15]],[[40364,17114],[-32,-51]],[[40386,17208],[5,-2]],[[40364,17244],[-5,58]],[[40373,17117],[-9,-3]],[[40296,17297],[22,10]],[[40318,17307],[37,-5]],[[40355,17231],[-73,0]],[[40156,16989],[-13,18]],[[40147,17028],[23,-3]],[[40170,17025],[0,-10]],[[40170,17015],[-14,-26]],[[40156,16989],[-22,-17]],[[40129,17058],[50,-5]],[[40179,17053],[-9,-20]],[[40170,17033],[0,-8]],[[40197,17015],[-5,-18]],[[40192,16997],[-9,18]],[[40183,17015],[14,0]],[[40170,17033],[13,-18]],[[40183,17015],[-13,0]],[[40179,17053],[18,8]],[[40197,17061],[0,-41]],[[40197,17020],[0,-5]],[[40125,17063],[-23,64]],[[40206,17086],[-9,-25]],[[40062,17043],[-32,63]],[[40030,17106],[32,49]],[[40233,17030],[-36,-10]],[[40228,17000],[-36,-3]],[[40296,17391],[-14,0]],[[40282,17391],[-9,16]],[[40273,17407],[18,-8]],[[40291,17399],[5,-5]],[[40296,17394],[0,-3]],[[40291,17399],[-13,28]],[[40278,17427],[-9,2]],[[40269,17429],[4,18]],[[40273,17447],[5,3]],[[40278,17450],[27,5]],[[40305,17455],[9,-41]],[[40314,17414],[-18,-20]],[[40341,17368],[-18,0]],[[40323,17368],[-27,23]],[[40314,17414],[41,-18]],[[40305,17358],[-32,-5]],[[40273,17353],[9,38]],[[40323,17368],[-18,-10]],[[40273,17353],[-9,0]],[[40264,17353],[-18,56]],[[40246,17409],[0,5]],[[40246,17414],[23,15]],[[40278,17427],[-5,-20]],[[40318,17307],[-13,51]],[[40305,17455],[9,15]],[[40314,17470],[18,10]],[[40102,17541],[-13,21]],[[40089,17562],[0,23]],[[40089,17585],[54,-31]],[[40143,17554],[-14,0]],[[40129,17554],[-27,-15]],[[40102,17539],[0,2]],[[40192,17455],[-72,-10]],[[40120,17445],[-4,63]],[[40116,17508],[27,0]],[[40143,17508],[40,3]],[[40183,17511],[9,-56]],[[40057,17310],[-40,43]],[[40017,17353],[31,54]],[[40048,17407],[23,-64]],[[40012,17572],[-4,10]],[[40008,17582],[0,10]],[[40008,17592],[-9,41]],[[40021,17704],[45,-36]],[[40066,17668],[23,-83]],[[40089,17562],[-77,10]],[[39936,17460],[-23,48]],[[39913,17508],[0,5]],[[39913,17513],[9,5]],[[39922,17518],[41,0]],[[39963,17518],[4,-84],[-31,26]],[[40179,17717],[-18,-82]],[[40161,17635],[-68,39]],[[40093,17674],[18,76]],[[39913,17513],[5,84],[4,41]],[[40008,17592],[-86,-74]],[[39990,17521],[18,61]],[[40012,17572],[9,-46]],[[40021,17526],[-31,-5]],[[40116,17508],[-5,23]],[[40111,17531],[-9,8]],[[40129,17554],[14,-46]],[[40228,17592],[-4,-63]],[[40224,17529],[-18,-13]],[[40206,17516],[-63,38]],[[40066,17668],[27,6]],[[40161,17635],[63,-12]],[[40224,17623],[4,-31]],[[40197,17353],[9,43]],[[40206,17396],[40,13]],[[40264,17353],[-27,-25]],[[40206,17516],[-23,-5]],[[39967,17373],[-31,87]],[[39963,17518],[27,3]],[[40021,17526],[5,-25]],[[40026,17501],[18,-64]],[[40044,17437],[4,-30]],[[40017,17353],[-45,-23]],[[39972,17330],[-5,43]],[[40102,17541],[-76,-40]],[[40264,17549],[-40,-20]],[[40228,17592],[36,-43]],[[40246,17414],[27,43]],[[40273,17457],[0,-10]],[[40278,17450],[-5,96]],[[40273,17546],[41,-76]],[[40107,17445],[13,-94]],[[40044,17437],[9,0]],[[40053,17437],[54,8]],[[39904,17345],[0,21],[9,94],[0,48]],[[39967,17373],[-63,-28]],[[40273,17546],[-4,0]],[[40269,17546],[49,13]],[[40273,17457],[-67,59]],[[40264,17549],[5,-3]],[[40255,17643],[-31,-20]],[[40053,17437],[58,94]],[[40120,17445],[-13,0]],[[40206,17396],[-14,59]],[[40048,17185],[-63,-15]],[[39985,17170],[18,94]],[[40003,17264],[18,-5]],[[40003,17264],[-13,-8]],[[39990,17256],[-5,46]],[[39985,17302],[-13,28]],[[39855,16857],[0,59]],[[39855,16916],[13,-18]],[[39868,16898],[0,-13]],[[39868,16885],[-9,-18]],[[39859,16867],[-4,-10]],[[39985,17170],[-36,-10]],[[39949,17160],[-54,51]],[[39895,17211],[0,15]],[[39895,17226],[95,30]],[[39895,17226],[5,51]],[[39900,17277],[85,25]],[[39900,17277],[4,51],[0,17]],[[39922,16895],[-9,8]],[[39913,16903],[14,38]],[[39927,16941],[22,3]],[[39949,16944],[14,-26]],[[39963,16918],[4,-7]],[[39967,16911],[0,-11]],[[39967,16900],[-45,-12]],[[39922,16888],[0,7]],[[39810,16837],[4,86],[36,3]],[[39850,16926],[5,-5]],[[39855,16921],[0,-5]],[[39855,16857],[-50,-43],[5,23]],[[39810,16837],[-32,48],[-9,15],[-9,16],[59,53],[13,8]],[[39832,16977],[18,-51]],[[39967,16982],[-18,-38]],[[39927,16941],[-18,5]],[[39909,16946],[-23,64]],[[39886,17010],[32,20],[22,13]],[[39940,17043],[27,-61]],[[39999,16936],[-36,-18]],[[39967,16982],[18,2]],[[39985,16984],[14,-48]],[[40021,16946],[-22,-10]],[[39985,16984],[32,16]],[[40017,17000],[4,-54]],[[39967,16911],[14,-13]],[[39981,16898],[-14,2]],[[39999,16936],[-5,-10]],[[39994,16926],[-13,-28]],[[40021,16946],[-4,-18]],[[40017,16928],[-23,-2]],[[39868,16898],[18,-46]],[[39886,16852],[-18,0]],[[39868,16852],[0,33]],[[39976,17096],[-49,-28]],[[39927,17068],[-36,66],[4,67],[0,10]],[[39949,17160],[27,-64]],[[39868,16852],[-9,15]],[[40017,17000],[4,15]],[[40021,17015],[32,8]],[[40084,16954],[-67,-26]],[[40021,17015],[-40,71]],[[39981,17086],[49,20]],[[39981,17086],[-5,10]],[[39940,17043],[-13,25]],[[39882,16931],[13,-41],[5,-2],[0,12]],[[39900,16900],[22,-5]],[[39922,16888],[-36,-36]],[[39855,16921],[27,10]],[[39832,16977],[9,5],[45,28]],[[39909,16946],[-9,-2]],[[39900,16944],[-18,-13]],[[39900,16944],[4,-31]],[[39904,16913],[-4,-13]],[[39904,16913],[9,-10]]]}