{"type":"Topology","transform":{"scale":[0.0012831345112129487,0.0009745357309423489],"translate":[-124.73273099999999,24.60334863324381]},"objects":{"area":{"type":"GeometryCollection","geometries":[{"arcs":[[0,1,2,3,4]],"type":"Polygon","properties":{"state":"DC","name":"WASHINGTON","zip":"20001"}},{"arcs":[[5,6,7,8,-4]],"type":"Polygon","properties":{"state":"DC","name":"WASHINGTON","zip":"20002"}},{"arcs":[[9,10,11,12,-9,13]],"type":"Polygon","properties":{"state":"DC","name":"WASHINGTON","zip":"20003"}},{"arcs":[[14,15,16,-5,-13,17,18]],"type":"Polygon","properties":{"state":"DC","name":"WASHINGTON","zip":"20004"}},{"arcs":[[19,20,21,-1,-17]],"type":"Polygon","properties":{"state":"DC","name":"WASHINGTON","zip":"20005"}},{"arcs":[[22,23,-20,-16]],"type":"Polygon","properties":{"state":"DC","name":"WASHINGTON","zip":"20006"}},{"arcs":[[24,25,26,27]],"type":"Polygon","properties":{"state":"DC","name":"WASHINGTON","zip":"20007"}},{"arcs":[[28,29,-28,30,31,32,33]],"type":"Polygon","properties":{"state":"DC","name":"WASHINGTON","zip":"20008"}},{"arcs":[[34,-29,35,-2,-22]],"type":"Polygon","properties":{"state":"DC","name":"WASHINGTON","zip":"20009"}},{"arcs":[[36,-3,-36,-34,37]],"type":"Polygon","properties":{"state":"DC","name":"WASHINGTON","zip":"20010"}},{"arcs":[[38,39,40,41,-38,-33]],"type":"Polygon","properties":{"state":"DC","name":"WASHINGTON","zip":"20011"}},{"arcs":[[42,43,-40]],"type":"Polygon","properties":{"state":"DC","name":"WASHINGTON","zip":"20012"}},{"arcs":[[-32,44,45,-43,-39]],"type":"Polygon","properties":{"state":"DC","name":"WASHINGTON","zip":"20015"}},{"arcs":[[46,-45,-31,-27,47]],"type":"Polygon","properties":{"state":"DC","name":"WASHINGTON","zip":"20016"}},{"arcs":[[-42,48,49,-6,-37]],"type":"Polygon","properties":{"state":"DC","name":"WASHINGTON","zip":"20017"}},{"arcs":[[50,-7,-50,51]],"type":"Polygon","properties":{"state":"DC","name":"WASHINGTON","zip":"20018"}},{"arcs":[[52,53,-14,-8,-51]],"type":"Polygon","properties":{"state":"DC","name":"WASHINGTON","zip":"20019"}},{"arcs":[[54,55,56,-10,-54]],"type":"Polygon","properties":{"state":"DC","name":"WASHINGTON","zip":"20020"}},{"arcs":[[57,58,-18,-12]],"type":"Polygon","properties":{"state":"DC","name":"WASHINGTON","zip":"20024"}},{"arcs":[[59,-56,60]],"type":"Polygon","properties":{"state":"DC","name":"WASHINGTON","zip":"20032"}},{"arcs":[[61,-35,-21,-24]],"type":"Polygon","properties":{"state":"DC","name":"WASHINGTON","zip":"20036"}},{"arcs":[[-15,62,-25,-30,-62,-23]],"type":"Polygon","properties":{"state":"DC","name":"WASHINGTON","zip":"20037"}},{"arcs":[[63,-58,-11,-57,-60]],"type":"Polygon","properties":{"state":"DC","name":"WASHINGTON","zip":"20332"}}]}},"arcs":[[[37180,14668],[0,12]],[[37180,14680],[0,21]],[[37180,14701],[13,-3]],[[37193,14698],[0,-35]],[[37193,14663],[-13,5]],[[37193,14698],[9,-5]],[[37202,14693],[41,-5]],[[37243,14688],[-14,-28]],[[37229,14660],[-36,3]],[[37220,14650],[-22,-13]],[[37198,14637],[-5,-5]],[[37193,14632],[0,26]],[[37193,14658],[0,5]],[[37229,14660],[-9,-10]],[[37171,14650],[-9,13]],[[37162,14663],[9,2]],[[37171,14665],[9,3]],[[37193,14658],[-22,-11]],[[37171,14647],[0,3]],[[37171,14665],[0,8]],[[37171,14673],[0,7]],[[37171,14680],[9,0]],[[37162,14663],[0,10]],[[37162,14673],[9,0]],[[37162,14680],[-5,-10]],[[37157,14670],[-36,21]],[[37121,14691],[27,7]],[[37148,14698],[14,-18]],[[37166,14698],[-4,-15]],[[37162,14683],[0,-3]],[[37148,14698],[-4,31]],[[37144,14729],[18,-8]],[[37162,14721],[0,-10]],[[37162,14711],[4,-13]],[[37171,14680],[-9,3]],[[37166,14698],[14,3]],[[37193,14703],[0,-5]],[[37162,14711],[31,-8]],[[37162,14721],[4,13]],[[37166,14734],[32,5]],[[37198,14739],[0,-3],[4,-2],[9,-8]],[[37211,14726],[-9,-15],[-9,-8]],[[37166,14734],[-9,25]],[[37157,14759],[9,5],[14,-7],[18,-18]],[[37144,14729],[-14,0]],[[37130,14729],[27,30]],[[37108,14706],[22,23]],[[37121,14691],[-13,15]],[[37211,14726],[5,-7]],[[37216,14719],[-14,-26]],[[37247,14688],[-4,0]],[[37216,14719],[18,-16],[13,-15]],[[37247,14688],[0,-51]],[[37247,14637],[-27,13]],[[37247,14637],[-4,-5],[-9,-7],[-14,-13]],[[37220,14612],[-22,18]],[[37198,14630],[0,7]],[[37193,14632],[-9,-7]],[[37184,14625],[-13,22]],[[37180,14597],[13,20],[5,13]],[[37220,14612],[-4,-8],[-27,-25],[-9,18]],[[37162,14673],[0,10]],[[37171,14650],[-14,20]],[[37180,14597],[4,28]]]}