{"type":"Topology","transform":{"scale":[0.0012831345112129487,0.0009745357309423489],"translate":[-124.73273099999999,24.60334863324381]},"objects":{"area":{"type":"GeometryCollection","geometries":[{"arcs":[[0,1,2,3,4,5,6,7,8,9,10,11,12,13,14,15,16]],"type":"Polygon","properties":{"state":"FL","name":"WEST BROWARD COUNTY","zip":"00041"}},{"arcs":[[17,18,19,20,21,22,23,24,25]],"type":"Polygon","properties":{"state":"FL","name":"SOUTHWEST BREVARD CNTY","zip":"00042"}},{"arcs":[[26,27,28,29,30,31,32,-6,33,34,35,36,37,38,39,40]],"type":"Polygon","properties":{"state":"FL","name":"EVERGLADES","zip":"00043"}},{"arcs":[[41,42,43,44,45,46]],"type":"Polygon","properties":{"state":"FL","name":"SOUTHEAST MARION CNTY","zip":"00045"}},{"arcs":[[47,48,-10,49,50,51,52,53,54,55,56,57]],"type":"Polygon","properties":{"state":"FL","name":"SOUTHWEST PALM BEACH CO","zip":"00053"}},{"arcs":[[58,59,60,61,-19,62]],"type":"Polygon","properties":{"state":"FL","name":"NW INDIAN RIVER COUNTY","zip":"00087"}},{"arcs":[[[63,64,65,-32]],[[66]]],"type":"MultiPolygon","properties":{"state":"FL","name":"EVERGLADES-MONROE COUNTY","zip":"00097"}},{"arcs":[[[-64,-31,67]],[[68]]],"type":"MultiPolygon","properties":{"state":"FL","name":"EVERGLADES-S MONROE CNTY","zip":"00098"}},{"arcs":[[69,70,71]],"type":"Polygon","properties":{"state":"FL","name":"ORANGE PARK","zip":"32003"}},{"arcs":[[72,73,74,75,76,77]],"type":"Polygon","properties":{"state":"FL","name":"BRANFORD","zip":"32008"}},{"arcs":[[78,79,80,81,82,83]],"type":"Polygon","properties":{"state":"FL","name":"BRYCEVILLE","zip":"32009"}},{"arcs":[[84,-81,85,86,87]],"type":"Polygon","properties":{"state":"FL","name":"CALLAHAN","zip":"32011"}},{"arcs":[[88,89,90,91,92]],"type":"Polygon","properties":{"state":"FL","name":"DAY","zip":"32013"}},{"arcs":[[93,94,95,96,97,98,99]],"type":"Polygon","properties":{"state":"FL","name":"LAKE CITY","zip":"32024"}},{"arcs":[[100,101,-99,102,103,104,105]],"type":"Polygon","properties":{"state":"FL","name":"LAKE CITY","zip":"32025"}},{"arcs":[[106,107,108,109,110]],"type":"Polygon","properties":{"state":"FL","name":"ELKTON","zip":"32033"}},{"arcs":[[111,112,113]],"type":"Polygon","properties":{"state":"FL","name":"FERNANDINA BEACH","zip":"32034"}},{"arcs":[[114,-94,115,-75]],"type":"Polygon","properties":{"state":"FL","name":"FORT WHITE","zip":"32038"}},{"arcs":[[116,117,118,119,120,121,122]],"type":"Polygon","properties":{"state":"FL","name":"GLEN SAINT MARY","zip":"32040"}},{"arcs":[[123,124,125,-70,126,127]],"type":"Polygon","properties":{"state":"FL","name":"GREEN COVE SPRINGS","zip":"32043"}},{"arcs":[[128,129,130,131,132]],"type":"Polygon","properties":{"state":"FL","name":"HAMPTON","zip":"32044"}},{"arcs":[[-80,133,134,-86]],"type":"Polygon","properties":{"state":"FL","name":"HILLIARD","zip":"32046"}},{"arcs":[[135,136,137,138,139,140]],"type":"Polygon","properties":{"state":"FL","name":"JASPER","zip":"32052"}},{"arcs":[[141,142,143,144,-137]],"type":"Polygon","properties":{"state":"FL","name":"JENNINGS","zip":"32053"}},{"arcs":[[145,-105,146,-118,147,148,149,-101]],"type":"Polygon","properties":{"state":"FL","name":"LAKE BUTLER","zip":"32054"}},{"arcs":[[150,-103,-98,151,152,-139,153]],"type":"Polygon","properties":{"state":"FL","name":"LAKE CITY","zip":"32055"}},{"arcs":[[154,155,156,-123]],"type":"Polygon","properties":{"state":"FL","name":"LAWTEY","zip":"32058"}},{"arcs":[[157,-142,-136,158,-93]],"type":"Polygon","properties":{"state":"FL","name":"LEE","zip":"32059"}},{"arcs":[[159,160,-89,-159,-141,161,162,163]],"type":"Polygon","properties":{"state":"FL","name":"LIVE OAK","zip":"32060"}},{"arcs":[[-146,-106]],"type":"Polygon","properties":{"state":"FL","name":"LULU","zip":"32061"}},{"arcs":[[164,-164,165,-96]],"type":"Polygon","properties":{"state":"FL","name":"MC ALPIN","zip":"32062"}},{"arcs":[[166,-121,167,-84]],"type":"Polygon","properties":{"state":"FL","name":"MACCLENNY","zip":"32063"}},{"arcs":[[168,169,170]],"type":"Polygon","properties":{"state":"FL","name":"ORANGE PARK","zip":"32065"}},{"arcs":[[171,172,173,-90,-161,174,-73]],"type":"Polygon","properties":{"state":"FL","name":"MAYO","zip":"32066"}},{"arcs":[[-126,175,176,177,178,179,180,-169,181,-71]],"type":"Polygon","properties":{"state":"FL","name":"MIDDLEBURG","zip":"32068"}},{"arcs":[[-160,-165,-95,-115,-74,-175]],"type":"Polygon","properties":{"state":"FL","name":"O BRIEN","zip":"32071"}},{"arcs":[[-170,-181,182,183,184,185]],"type":"Polygon","properties":{"state":"FL","name":"ORANGE PARK","zip":"32073"}},{"arcs":[[186,187,188]],"type":"Polygon","properties":{"state":"FL","name":"SAINT AUGUSTINE","zip":"32080"}},{"arcs":[[189,190,191,192,193,194,195]],"type":"Polygon","properties":{"state":"FL","name":"PONTE VEDRA BEACH","zip":"32082"}},{"arcs":[[196,-148,-117,-157,197]],"type":"Polygon","properties":{"state":"FL","name":"RAIFORD","zip":"32083"}},{"arcs":[[[-195,198]],[[199,-111,200,201,202]]],"type":"MultiPolygon","properties":{"state":"FL","name":"SAINT AUGUSTINE","zip":"32084"}},{"arcs":[[203,204,-107,-200,205,-187]],"type":"Polygon","properties":{"state":"FL","name":"SAINT AUGUSTINE","zip":"32086"}},{"arcs":[[-104,-151,206,-119,-147]],"type":"Polygon","properties":{"state":"FL","name":"SANDERSON","zip":"32087"}},{"arcs":[[207,-198,-156,208,-176,-125,209,210,-133]],"type":"Polygon","properties":{"state":"FL","name":"STARKE","zip":"32091"}},{"arcs":[[211,212,-201,-110,213]],"type":"Polygon","properties":{"state":"FL","name":"SAINT AUGUSTINE","zip":"32092"}},{"arcs":[[-163,214,-152,-97,-166]],"type":"Polygon","properties":{"state":"FL","name":"WELLBORN","zip":"32094"}},{"arcs":[[-202,-213,215,216,-190,217]],"type":"Polygon","properties":{"state":"FL","name":"SAINT AUGUSTINE","zip":"32095"}},{"arcs":[[-215,-162,-140,-153]],"type":"Polygon","properties":{"state":"FL","name":"WHITE SPRINGS","zip":"32096"}},{"arcs":[[-135,218,-114,219,220,-87]],"type":"Polygon","properties":{"state":"FL","name":"YULEE","zip":"32097"}},{"arcs":[[[221,222,-45,223,224]],[[225,226]]],"type":"MultiPolygon","properties":{"state":"FL","name":"ASTOR","zip":"32102"}},{"arcs":[[227,228,229,230,231,232,233,234,235,236]],"type":"Polygon","properties":{"state":"FL","name":"BUNNELL","zip":"32110"}},{"arcs":[[[237,238,239,240,241,242,243,-229]],[[244,245,246]]],"type":"MultiPolygon","properties":{"state":"FL","name":"CRESCENT CITY","zip":"32112"}},{"arcs":[[247,248,249,250,251,252]],"type":"Polygon","properties":{"state":"FL","name":"CITRA","zip":"32113"}},{"arcs":[[253,254,255,256,257,258]],"type":"Polygon","properties":{"state":"FL","name":"DAYTONA BEACH","zip":"32114"}},{"arcs":[[259,260,-256]],"type":"Polygon","properties":{"state":"FL","name":"DAYTONA BEACH","zip":"32117"}},{"arcs":[[261,262,263,264]],"type":"Polygon","properties":{"state":"FL","name":"DAYTONA BEACH","zip":"32118"}},{"arcs":[[265,266,-258,267]],"type":"Polygon","properties":{"state":"FL","name":"DAYTONA BEACH","zip":"32119"}},{"arcs":[[268,269,270,271,272,-236,273,-254]],"type":"Polygon","properties":{"state":"FL","name":"DAYTONA BEACH","zip":"32124"}},{"arcs":[[[-262,274]],[[275,276,277,278]]],"type":"MultiPolygon","properties":{"state":"FL","name":"DAYTONA BEACH","zip":"32127"}},{"arcs":[[279,-269,-259,-267,280,-277]],"type":"Polygon","properties":{"state":"FL","name":"DAYTONA BEACH","zip":"32128"}},{"arcs":[[-281,-266,281,-278]],"type":"Polygon","properties":{"state":"FL","name":"PORT ORANGE","zip":"32129"}},{"arcs":[[282,283,-272,284]],"type":"Polygon","properties":{"state":"FL","name":"DE LEON SPRINGS","zip":"32130"}},{"arcs":[[285,286,287,-231]],"type":"Polygon","properties":{"state":"FL","name":"EAST PALATKA","zip":"32131"}},{"arcs":[[288,289,290]],"type":"Polygon","properties":{"state":"FL","name":"EDGEWATER","zip":"32132"}},{"arcs":[[291,292,-253,293,294,-245,295,-224,-44]],"type":"Polygon","properties":{"state":"FL","name":"FORT MC COY","zip":"32134"}},{"arcs":[[296,297,298,299,300,301]],"type":"Polygon","properties":{"state":"FL","name":"FLAGLER BEACH","zip":"32136"}},{"arcs":[[302,-204,-189,303,-299,304,-233]],"type":"Polygon","properties":{"state":"FL","name":"PALM COAST","zip":"32137"}},{"arcs":[[-239,305,306]],"type":"Polygon","properties":{"state":"FL","name":"GEORGETOWN","zip":"32139"}},{"arcs":[[307,308,309,310]],"type":"Polygon","properties":{"state":"FL","name":"FLORAHOME","zip":"32140"}},{"arcs":[[311,-291,312,313]],"type":"Polygon","properties":{"state":"FL","name":"EDGEWATER","zip":"32141"}},{"arcs":[[-108,-205,-303,-232,-288,314]],"type":"Polygon","properties":{"state":"FL","name":"HASTINGS","zip":"32145"}},{"arcs":[[315,316,-309,317,318,-246,-295]],"type":"Polygon","properties":{"state":"FL","name":"INTERLACHEN","zip":"32148"}},{"arcs":[[319,320,321,322,323,324,325]],"type":"Polygon","properties":{"state":"FL","name":"LADY LAKE","zip":"32159"}},{"arcs":[[326,327,-322]],"type":"Polygon","properties":{"state":"FL","name":"LADY LAKE","zip":"32162"}},{"arcs":[[328,-234,-305,-298]],"type":"Polygon","properties":{"state":"FL","name":"PALM COAST","zip":"32164"}},{"arcs":[[329,330,-270,-280,-276,331,-289,332,333]],"type":"Polygon","properties":{"state":"FL","name":"NEW SMYRNA BEACH","zip":"32168"}},{"arcs":[[334,335]],"type":"Polygon","properties":{"state":"FL","name":"NEW SMYRNA BEACH","zip":"32169"}},{"arcs":[[-255,-274,-235,-329,-297,336,-260]],"type":"Polygon","properties":{"state":"FL","name":"ORMOND BEACH","zip":"32174"}},{"arcs":[[-301,337,-264,338]],"type":"Polygon","properties":{"state":"FL","name":"ORMOND BEACH","zip":"32176"}},{"arcs":[[-318,-308,-128,339]],"type":"Polygon","properties":{"state":"FL","name":"PALATKA","zip":"32177"}},{"arcs":[[340,341,342,343,-42,344,345]],"type":"Polygon","properties":{"state":"FL","name":"OCKLAWAHA","zip":"32179"}},{"arcs":[[346,347,-226,348,349,-237,-273,-284]],"type":"Polygon","properties":{"state":"FL","name":"PIERSON","zip":"32180"}},{"arcs":[[350,-242]],"type":"Polygon","properties":{"state":"FL","name":"POMONA PARK","zip":"32181"}},{"arcs":[[-244,351,352,-286,-230]],"type":"Polygon","properties":{"state":"FL","name":"SAN MATEO","zip":"32187"}},{"arcs":[[-352,-243,-351,-241,353]],"type":"Polygon","properties":{"state":"FL","name":"SATSUMA","zip":"32189"}},{"arcs":[[-306,-238,-228,-350,354]],"type":"Polygon","properties":{"state":"FL","name":"SEVILLE","zip":"32190"}},{"arcs":[[355,-346,356,-324]],"type":"Polygon","properties":{"state":"FL","name":"WEIRSDALE","zip":"32195"}},{"arcs":[[357,358,359,360]],"type":"Polygon","properties":{"state":"FL","name":"JACKSONVILLE","zip":"32202"}},{"arcs":[[361,362,363,-358,364]],"type":"Polygon","properties":{"state":"FL","name":"JACKSONVILLE","zip":"32204"}},{"arcs":[[365,366,367,-362,368]],"type":"Polygon","properties":{"state":"FL","name":"JACKSONVILLE","zip":"32205"}},{"arcs":[[-360,369,370,371]],"type":"Polygon","properties":{"state":"FL","name":"JACKSONVILLE","zip":"32206"}},{"arcs":[[372,373,374,375]],"type":"Polygon","properties":{"state":"FL","name":"JACKSONVILLE","zip":"32207"}},{"arcs":[[376,377,378,379,-371]],"type":"Polygon","properties":{"state":"FL","name":"JACKSONVILLE","zip":"32208"}},{"arcs":[[-364,380,381,-377,-370,-359]],"type":"Polygon","properties":{"state":"FL","name":"JACKSONVILLE","zip":"32209"}},{"arcs":[[382,383,384,385,-366,386]],"type":"Polygon","properties":{"state":"FL","name":"JACKSONVILLE","zip":"32210"}},{"arcs":[[387,388,389,-373,390]],"type":"Polygon","properties":{"state":"FL","name":"JACKSONVILLE","zip":"32211"}},{"arcs":[[-185,391,-383,392]],"type":"Polygon","properties":{"state":"FL","name":"JACKSONVILLE","zip":"32212"}},{"arcs":[[393,394,-179]],"type":"Polygon","properties":{"state":"FL","name":"JACKSONVILLE","zip":"32215"}},{"arcs":[[395,396,397,-374,-390,398]],"type":"Polygon","properties":{"state":"FL","name":"JACKSONVILLE","zip":"32216"}},{"arcs":[[-375,-398,399,400,401]],"type":"Polygon","properties":{"state":"FL","name":"JACKSONVILLE","zip":"32217"}},{"arcs":[[402,403,-379,404,-88,-221]],"type":"Polygon","properties":{"state":"FL","name":"JACKSONVILLE","zip":"32218"}},{"arcs":[[405,406,407,-82,-85,-405,-378,-382]],"type":"Polygon","properties":{"state":"FL","name":"JACKSONVILLE","zip":"32219"}},{"arcs":[[408,409,-407,410]],"type":"Polygon","properties":{"state":"FL","name":"JACKSONVILLE","zip":"32220"}},{"arcs":[[-178,411,-409,-367,-386,-394]],"type":"Polygon","properties":{"state":"FL","name":"JACKSONVILLE","zip":"32221"}},{"arcs":[[-395,-385,412,-183,-180]],"type":"Polygon","properties":{"state":"FL","name":"JACKSONVILLE","zip":"32222"}},{"arcs":[[413,414,415]],"type":"Polygon","properties":{"state":"FL","name":"JACKSONVILLE","zip":"32223"}},{"arcs":[[416,-192,417,418,419,420]],"type":"Polygon","properties":{"state":"FL","name":"JACKSONVILLE","zip":"32224"}},{"arcs":[[421,422,423,-420,424,-399,-389]],"type":"Polygon","properties":{"state":"FL","name":"JACKSONVILLE","zip":"32225"}},{"arcs":[[-220,-113,425,-403]],"type":"Polygon","properties":{"state":"FL","name":"JACKSONVILLE","zip":"32226"}},{"arcs":[[426,-424,427]],"type":"Polygon","properties":{"state":"FL","name":"ATLANTIC BEACH","zip":"32233"}},{"arcs":[[-122,-167,-83,-408,-410,-412,-177,-209,-155]],"type":"Polygon","properties":{"state":"FL","name":"JACKSONVILLE","zip":"32234"}},{"arcs":[[-384,-392,-184,-413]],"type":"Polygon","properties":{"state":"FL","name":"JACKSONVILLE","zip":"32244"}},{"arcs":[[428,-396,-425,-419]],"type":"Polygon","properties":{"state":"FL","name":"JACKSONVILLE","zip":"32246"}},{"arcs":[[429,430,-193,-417]],"type":"Polygon","properties":{"state":"FL","name":"JACKSONVILLE BEACH","zip":"32250"}},{"arcs":[[-406,-381,-363,-368,-411]],"type":"Polygon","properties":{"state":"FL","name":"JACKSONVILLE","zip":"32254"}},{"arcs":[[431,432,-400,-397,-429,-418,-191,-217]],"type":"Polygon","properties":{"state":"FL","name":"JACKSONVILLE","zip":"32256"}},{"arcs":[[-401,-433,433,-414,434]],"type":"Polygon","properties":{"state":"FL","name":"JACKSONVILLE","zip":"32257"}},{"arcs":[[435,436,-415,-434,-432]],"type":"Polygon","properties":{"state":"FL","name":"JACKSONVILLE","zip":"32258"}},{"arcs":[[-436,-216,-212,437]],"type":"Polygon","properties":{"state":"FL","name":"JACKSONVILLE","zip":"32259"}},{"arcs":[[-421,-427,438,-430]],"type":"Polygon","properties":{"state":"FL","name":"NEPTUNE BEACH","zip":"32266"}},{"arcs":[[-422,-388,439]],"type":"Polygon","properties":{"state":"FL","name":"JACKSONVILLE","zip":"32277"}},{"arcs":[[440,441,442,443,444,445,446]],"type":"Polygon","properties":{"state":"FL","name":"TALLAHASSEE","zip":"32301"}},{"arcs":[[447,448,449,450,451,-443]],"type":"Polygon","properties":{"state":"FL","name":"TALLAHASSEE","zip":"32303"}},{"arcs":[[452,453,454,-448,-442]],"type":"Polygon","properties":{"state":"FL","name":"TALLAHASSEE","zip":"32304"}},{"arcs":[[455,456,457,-447]],"type":"Polygon","properties":{"state":"FL","name":"TALLAHASSEE","zip":"32305"}},{"arcs":[[458,459,460,-444,-452]],"type":"Polygon","properties":{"state":"FL","name":"TALLAHASSEE","zip":"32308"}},{"arcs":[[461,-460,462,463,464]],"type":"Polygon","properties":{"state":"FL","name":"TALLAHASSEE","zip":"32309"}},{"arcs":[[465,466,467,468,-453,-441,-458]],"type":"Polygon","properties":{"state":"FL","name":"TALLAHASSEE","zip":"32310"}},{"arcs":[[-446,469,470,471,472,-456]],"type":"Polygon","properties":{"state":"FL","name":"TALLAHASSEE","zip":"32311"}},{"arcs":[[-451,473,474,-463,-459]],"type":"Polygon","properties":{"state":"FL","name":"TALLAHASSEE","zip":"32312"}},{"arcs":[[-445,-461,-462,475,-470]],"type":"Polygon","properties":{"state":"FL","name":"TALLAHASSEE","zip":"32317"}},{"arcs":[[[476,477,478]],[[479]]],"type":"MultiPolygon","properties":{"state":"FL","name":"APALACHICOLA","zip":"32320"}},{"arcs":[[480,481,482,483,484]],"type":"Polygon","properties":{"state":"FL","name":"BRISTOL","zip":"32321"}},{"arcs":[[485,486,487,488,489]],"type":"Polygon","properties":{"state":"FL","name":"CARRABELLE","zip":"32322"}},{"arcs":[[490,491,492,493]],"type":"Polygon","properties":{"state":"FL","name":"CHATTAHOOCHEE","zip":"32324"}},{"arcs":[[494,-466,-457,-473,495,496,497]],"type":"Polygon","properties":{"state":"FL","name":"CRAWFORDVILLE","zip":"32327"}},{"arcs":[[[-478,498,499,-481,500,-486,501]],[[502]]],"type":"MultiPolygon","properties":{"state":"FL","name":"EASTPOINT","zip":"32328"}},{"arcs":[[503,504,505,506,507]],"type":"Polygon","properties":{"state":"FL","name":"GREENVILLE","zip":"32331"}},{"arcs":[[508,509,510,511,-474,-450]],"type":"Polygon","properties":{"state":"FL","name":"HAVANA","zip":"32333"}},{"arcs":[[-485,512,-468,513,-487,-501]],"type":"Polygon","properties":{"state":"FL","name":"HOSFORD","zip":"32334"}},{"arcs":[[-472,514,-506,515,516,-496]],"type":"Polygon","properties":{"state":"FL","name":"LAMONT","zip":"32336"}},{"arcs":[[517,518,-143,-158,-92,519,-504]],"type":"Polygon","properties":{"state":"FL","name":"MADISON","zip":"32340"}},{"arcs":[[520,-509,-449,-455]],"type":"Polygon","properties":{"state":"FL","name":"MIDWAY","zip":"32343"}},{"arcs":[[-465,521,-507,-515,-471,-476]],"type":"Polygon","properties":{"state":"FL","name":"MONTICELLO","zip":"32344"}},{"arcs":[[522,-498,523,-489]],"type":"Polygon","properties":{"state":"FL","name":"PANACEA","zip":"32346"}},{"arcs":[[-505,-520,-91,524,525,-516]],"type":"Polygon","properties":{"state":"FL","name":"PERRY","zip":"32347"}},{"arcs":[[526,527,-525,-174,528]],"type":"Polygon","properties":{"state":"FL","name":"PERRY","zip":"32348"}},{"arcs":[[529,-144,-519]],"type":"Polygon","properties":{"state":"FL","name":"PINETTA","zip":"32350"}},{"arcs":[[-454,-469,-513,-484,530,-492,531,-510,-521]],"type":"Polygon","properties":{"state":"FL","name":"QUINCY","zip":"32351"}},{"arcs":[[-491,532,-511,-532]],"type":"Polygon","properties":{"state":"FL","name":"QUINCY","zip":"32352"}},{"arcs":[[-173,533,534,-529]],"type":"Polygon","properties":{"state":"FL","name":"SALEM","zip":"32356"}},{"arcs":[[-488,-514,-467,-495,-523]],"type":"Polygon","properties":{"state":"FL","name":"SOPCHOPPY","zip":"32358"}},{"arcs":[[535,536,-527,-535,537]],"type":"Polygon","properties":{"state":"FL","name":"STEINHATCHEE","zip":"32359"}},{"arcs":[[538,539,540]],"type":"Polygon","properties":{"state":"FL","name":"PANAMA CITY","zip":"32401"}},{"arcs":[[541,542]],"type":"Polygon","properties":{"state":"FL","name":"PANAMA CITY","zip":"32403"}},{"arcs":[[543,544,545,546,547,548,549,550,-539]],"type":"Polygon","properties":{"state":"FL","name":"PANAMA CITY","zip":"32404"}},{"arcs":[[-541,551,552,-544]],"type":"Polygon","properties":{"state":"FL","name":"PANAMA CITY","zip":"32405"}},{"arcs":[[553,554,555,556]],"type":"Polygon","properties":{"state":"FL","name":"PANAMA CITY BEACH","zip":"32407"}},{"arcs":[[-554,557]],"type":"Polygon","properties":{"state":"FL","name":"PANAMA CITY","zip":"32408"}},{"arcs":[[558,559,560,561,562,-547,563]],"type":"Polygon","properties":{"state":"FL","name":"PANAMA CITY","zip":"32409"}},{"arcs":[[-556,564,565,566,567,-559,568]],"type":"Polygon","properties":{"state":"FL","name":"PANAMA CITY BEACH","zip":"32413"}},{"arcs":[[569,570,571,572,573]],"type":"Polygon","properties":{"state":"FL","name":"ALFORD","zip":"32420"}},{"arcs":[[574,575,576,-571,577]],"type":"Polygon","properties":{"state":"FL","name":"ALTHA","zip":"32421"}},{"arcs":[[578,579,580,581]],"type":"Polygon","properties":{"state":"FL","name":"BASCOM","zip":"32423"}},{"arcs":[[582,583,-575,584,-483,585]],"type":"Polygon","properties":{"state":"FL","name":"BLOUNTSTOWN","zip":"32424"}},{"arcs":[[586,587,588,589,590,591]],"type":"Polygon","properties":{"state":"FL","name":"BONIFAY","zip":"32425"}},{"arcs":[[592,593,594,595]],"type":"Polygon","properties":{"state":"FL","name":"CAMPBELLTON","zip":"32426"}},{"arcs":[[596,597,598,-589]],"type":"Polygon","properties":{"state":"FL","name":"CARYVILLE","zip":"32427"}},{"arcs":[[599,-587,600,601,-573,602,603,-562]],"type":"Polygon","properties":{"state":"FL","name":"CHIPLEY","zip":"32428"}},{"arcs":[[604,605,606,-576,-584]],"type":"Polygon","properties":{"state":"FL","name":"CLARKSVILLE","zip":"32430"}},{"arcs":[[607,-574,-602,608,-593,609]],"type":"Polygon","properties":{"state":"FL","name":"COTTONDALE","zip":"32431"}},{"arcs":[[610,611,612,613,614,615,616]],"type":"Polygon","properties":{"state":"FL","name":"DEFUNIAK SPRINGS","zip":"32433"}},{"arcs":[[617,618,619,-616,620]],"type":"Polygon","properties":{"state":"FL","name":"DEFUNIAK SPRINGS","zip":"32435"}},{"arcs":[[621,622,623,-560,-568]],"type":"Polygon","properties":{"state":"FL","name":"EBRO","zip":"32437"}},{"arcs":[[624,-603,-572,-577,-607]],"type":"Polygon","properties":{"state":"FL","name":"FOUNTAIN","zip":"32438"}},{"arcs":[[625,-618,626,627,628]],"type":"Polygon","properties":{"state":"FL","name":"FREEPORT","zip":"32439"}},{"arcs":[[-592,629,-594,-609,-601]],"type":"Polygon","properties":{"state":"FL","name":"GRACEVILLE","zip":"32440"}},{"arcs":[[630,631,632,-531,-585]],"type":"Polygon","properties":{"state":"FL","name":"GRAND RIDGE","zip":"32442"}},{"arcs":[[633,634,635,-581]],"type":"Polygon","properties":{"state":"FL","name":"GREENWOOD","zip":"32443"}},{"arcs":[[-545,-553,636]],"type":"Polygon","properties":{"state":"FL","name":"LYNN HAVEN","zip":"32444"}},{"arcs":[[-636,637,638,-582]],"type":"Polygon","properties":{"state":"FL","name":"MALONE","zip":"32445"}},{"arcs":[[-596,639,-638,-635,-632,640,-610]],"type":"Polygon","properties":{"state":"FL","name":"MARIANNA","zip":"32446"}},{"arcs":[[-608,-641,-631,-578,-570]],"type":"Polygon","properties":{"state":"FL","name":"MARIANNA","zip":"32448"}},{"arcs":[[641,-549,-605,-583]],"type":"Polygon","properties":{"state":"FL","name":"KINARD","zip":"32449"}},{"arcs":[[642,-627,-621,-615,643,-598,644,-623]],"type":"Polygon","properties":{"state":"FL","name":"PONCE DE LEON","zip":"32455"}},{"arcs":[[-477,645,-542,646,647,-499]],"type":"Polygon","properties":{"state":"FL","name":"PORT SAINT JOE","zip":"32456"}},{"arcs":[[648,649,650,-566,651]],"type":"Polygon","properties":{"state":"FL","name":"SANTA ROSA BEACH","zip":"32459"}},{"arcs":[[-633,-634,-580,652,-493]],"type":"Polygon","properties":{"state":"FL","name":"SNEADS","zip":"32460"}},{"arcs":[[[-645,-597,-588,-600,-561,-624]],[[-628,-643,-622,-567,-651,653]]],"type":"MultiPolygon","properties":{"state":"FL","name":"VERNON","zip":"32462"}},{"arcs":[[-644,-614,654,-590,-599]],"type":"Polygon","properties":{"state":"FL","name":"WESTVILLE","zip":"32464"}},{"arcs":[[-500,-648,655,-550,-642,-586,-482]],"type":"Polygon","properties":{"state":"FL","name":"WEWAHITCHKA","zip":"32465"}},{"arcs":[[-604,-625,-606,-548,-563]],"type":"Polygon","properties":{"state":"FL","name":"YOUNGSTOWN","zip":"32466"}},{"arcs":[[656,657,658,659]],"type":"Polygon","properties":{"state":"FL","name":"PENSACOLA","zip":"32501"}},{"arcs":[[660,661,662,663,664,-659]],"type":"Polygon","properties":{"state":"FL","name":"PENSACOLA","zip":"32503"}},{"arcs":[[665,666,-664]],"type":"Polygon","properties":{"state":"FL","name":"PENSACOLA","zip":"32504"}},{"arcs":[[667,668,669,-661,-658,670]],"type":"Polygon","properties":{"state":"FL","name":"PENSACOLA","zip":"32505"}},{"arcs":[[671,-668,672,673]],"type":"Polygon","properties":{"state":"FL","name":"PENSACOLA","zip":"32506"}},{"arcs":[[[-671,-657,674,675,676,-673]],[[677]]],"type":"MultiPolygon","properties":{"state":"FL","name":"PENSACOLA","zip":"32507"}},{"arcs":[[-676,678]],"type":"Polygon","properties":{"state":"FL","name":"PENSACOLA","zip":"32508"}},{"arcs":[[679,680,681,682,-666,-663]],"type":"Polygon","properties":{"state":"FL","name":"PENSACOLA","zip":"32514"}},{"arcs":[[683,684,685,-669,-672,686]],"type":"Polygon","properties":{"state":"FL","name":"PENSACOLA","zip":"32526"}},{"arcs":[[687,688,689,690,691]],"type":"Polygon","properties":{"state":"FL","name":"BAKER","zip":"32531"}},{"arcs":[[692,-685,693,694,695,-681]],"type":"Polygon","properties":{"state":"FL","name":"CANTONMENT","zip":"32533"}},{"arcs":[[-686,-693,-680,-662,-670]],"type":"Polygon","properties":{"state":"FL","name":"PENSACOLA","zip":"32534"}},{"arcs":[[696,697,698]],"type":"Polygon","properties":{"state":"FL","name":"CENTURY","zip":"32535"}},{"arcs":[[699,-688,700,701,702]],"type":"Polygon","properties":{"state":"FL","name":"CRESTVIEW","zip":"32536"}},{"arcs":[[703,-611,704,-702]],"type":"Polygon","properties":{"state":"FL","name":"CRESTVIEW","zip":"32539"}},{"arcs":[[705,706]],"type":"Polygon","properties":{"state":"FL","name":"DESTIN","zip":"32541"}},{"arcs":[[707,708,-703,-705,-617,-620,709,710,711,712,713,714,715,716]],"type":"Polygon","properties":{"state":"FL","name":"EGLIN AFB","zip":"32542"}},{"arcs":[[717,-714,718,719,720,721]],"type":"Polygon","properties":{"state":"FL","name":"HURLBURT FIELD","zip":"32544"}},{"arcs":[[722,-719,-713,723]],"type":"Polygon","properties":{"state":"FL","name":"FORT WALTON BEACH","zip":"32547"}},{"arcs":[[[724,-720,-723,725]],[[726,727]]],"type":"MultiPolygon","properties":{"state":"FL","name":"FORT WALTON BEACH","zip":"32548"}},{"arcs":[[-706,728,-649,729]],"type":"Polygon","properties":{"state":"FL","name":"DESTIN","zip":"32550"}},{"arcs":[[[730,731]],[[732,733]]],"type":"MultiPolygon","properties":{"state":"FL","name":"GULF BREEZE","zip":"32561"}},{"arcs":[[-733,734,735,736]],"type":"Polygon","properties":{"state":"FL","name":"GULF BREEZE","zip":"32563"}},{"arcs":[[737,738,-689,-700,-709]],"type":"Polygon","properties":{"state":"FL","name":"HOLT","zip":"32564"}},{"arcs":[[739,740,-697,741,742,743]],"type":"Polygon","properties":{"state":"FL","name":"JAY","zip":"32565"}},{"arcs":[[[-736,744,-716,745,746]],[[-727,747,-731,748]]],"type":"MultiPolygon","properties":{"state":"FL","name":"NAVARRE","zip":"32566"}},{"arcs":[[-704,-701,-692,749,-612]],"type":"Polygon","properties":{"state":"FL","name":"LAUREL HILL","zip":"32567"}},{"arcs":[[750,751,-698,-741]],"type":"Polygon","properties":{"state":"FL","name":"MC DAVID","zip":"32568"}},{"arcs":[[[-715,-718,752,-746]],[[-721,-725,753]]],"type":"MultiPolygon","properties":{"state":"FL","name":"MARY ESTHER","zip":"32569"}},{"arcs":[[754,755,-743,756,-690,-739]],"type":"Polygon","properties":{"state":"FL","name":"MILTON","zip":"32570"}},{"arcs":[[757,-744,-756,758,759,-682,-696]],"type":"Polygon","properties":{"state":"FL","name":"MILTON","zip":"32571"}},{"arcs":[[760,-751,-740,-758,-695]],"type":"Polygon","properties":{"state":"FL","name":"MOLINO","zip":"32577"}},{"arcs":[[761,-710,-619,-626,762]],"type":"Polygon","properties":{"state":"FL","name":"NICEVILLE","zip":"32578"}},{"arcs":[[-711,-762,763]],"type":"Polygon","properties":{"state":"FL","name":"VALPARAISO","zip":"32580"}},{"arcs":[[-759,-755,-738,-708,764]],"type":"Polygon","properties":{"state":"FL","name":"MILTON","zip":"32583"}},{"arcs":[[765,766,767,768,769,770]],"type":"Polygon","properties":{"state":"FL","name":"GAINESVILLE","zip":"32601"}},{"arcs":[[771,772,-767,773]],"type":"Polygon","properties":{"state":"FL","name":"GAINESVILLE","zip":"32603"}},{"arcs":[[774,775,776,777,-768,-773]],"type":"Polygon","properties":{"state":"FL","name":"GAINESVILLE","zip":"32605"}},{"arcs":[[778,779,780,781,-776]],"type":"Polygon","properties":{"state":"FL","name":"GAINESVILLE","zip":"32606"}},{"arcs":[[782,-779,-775,-772,783,784]],"type":"Polygon","properties":{"state":"FL","name":"GAINESVILLE","zip":"32607"}},{"arcs":[[785,786,-784,787,-771]],"type":"Polygon","properties":{"state":"FL","name":"GAINESVILLE","zip":"32608"}},{"arcs":[[-778,788,789,790,-131,791,792,793,-769]],"type":"Polygon","properties":{"state":"FL","name":"GAINESVILLE","zip":"32609"}},{"arcs":[[-766,-788,-774]],"type":"Polygon","properties":{"state":"FL","name":"GAINESVILLE","zip":"32611"}},{"arcs":[[794,-781,795,796,-102,-150,797,-790]],"type":"Polygon","properties":{"state":"FL","name":"ALACHUA","zip":"32615"}},{"arcs":[[798,799,-248,-293]],"type":"Polygon","properties":{"state":"FL","name":"ANTHONY","zip":"32617"}},{"arcs":[[800,801,802,803,-785,-787]],"type":"Polygon","properties":{"state":"FL","name":"ARCHER","zip":"32618"}},{"arcs":[[804,-77,805,806]],"type":"Polygon","properties":{"state":"FL","name":"BELL","zip":"32619"}},{"arcs":[[807,808,-803,809,810,811]],"type":"Polygon","properties":{"state":"FL","name":"BRONSON","zip":"32621"}},{"arcs":[[-791,-798,-149,-197,-208,-132]],"type":"Polygon","properties":{"state":"FL","name":"BROOKER","zip":"32622"}},{"arcs":[[812,813,814]],"type":"Polygon","properties":{"state":"FL","name":"CEDAR KEY","zip":"32625"}},{"arcs":[[815,-813,816,817,818,819,-808]],"type":"Polygon","properties":{"state":"FL","name":"CHIEFLAND","zip":"32626"}},{"arcs":[[820,821]],"type":"Polygon","properties":{"state":"FL","name":"CROSS CITY","zip":"32628"}},{"arcs":[[822,823,824]],"type":"Polygon","properties":{"state":"FL","name":"EARLETON","zip":"32631"}},{"arcs":[[-252,825,826,827,-793,828,-823,829,-316,-294]],"type":"Polygon","properties":{"state":"FL","name":"HAWTHORNE","zip":"32640"}},{"arcs":[[830,-770,-794,-828]],"type":"Polygon","properties":{"state":"FL","name":"GAINESVILLE","zip":"32641"}},{"arcs":[[831,-806,-76,-116,-100,-797,832]],"type":"Polygon","properties":{"state":"FL","name":"HIGH SPRINGS","zip":"32643"}},{"arcs":[[833,834,-536,835,-822]],"type":"Polygon","properties":{"state":"FL","name":"HORSESHOE BEACH","zip":"32648"}},{"arcs":[[-782,-795,-789,-777]],"type":"Polygon","properties":{"state":"FL","name":"GAINESVILLE","zip":"32653"}},{"arcs":[[836,-210,-124,-311]],"type":"Polygon","properties":{"state":"FL","name":"KEYSTONE HEIGHTS","zip":"32656"}},{"arcs":[[-830,-825,837,-129,-211,-837,-310,-317]],"type":"Polygon","properties":{"state":"FL","name":"MELROSE","zip":"32666"}},{"arcs":[[838,-801,-786,-831,-827,839]],"type":"Polygon","properties":{"state":"FL","name":"MICANOPY","zip":"32667"}},{"arcs":[[840,841,842,-811,843,844,845]],"type":"Polygon","properties":{"state":"FL","name":"MORRISTON","zip":"32668"}},{"arcs":[[-809,-820,846,-833,-796,-780,-783,-804]],"type":"Polygon","properties":{"state":"FL","name":"NEWBERRY","zip":"32669"}},{"arcs":[[847,-818,848,-834,-821,-836,-538,-534,-172,-78,-805]],"type":"Polygon","properties":{"state":"FL","name":"OLD TOWN","zip":"32680"}},{"arcs":[[849,850,-845,851,-840,-826,-251]],"type":"Polygon","properties":{"state":"FL","name":"REDDICK","zip":"32686"}},{"arcs":[[-807,-832,-847,-819,-848]],"type":"Polygon","properties":{"state":"FL","name":"TRENTON","zip":"32693"}},{"arcs":[[-130,-838,-824,-829,-792]],"type":"Polygon","properties":{"state":"FL","name":"WALDO","zip":"32694"}},{"arcs":[[-802,-839,-852,-844,-810]],"type":"Polygon","properties":{"state":"FL","name":"WILLISTON","zip":"32696"}},{"arcs":[[852,853,854,855,856]],"type":"Polygon","properties":{"state":"FL","name":"ALTAMONTE SPRINGS","zip":"32701"}},{"arcs":[[857,858,-46,-223]],"type":"Polygon","properties":{"state":"FL","name":"ALTOONA","zip":"32702"}},{"arcs":[[859,860,861,862,863,864,865,866]],"type":"Polygon","properties":{"state":"FL","name":"APOPKA","zip":"32703"}},{"arcs":[[867,868,869,870,-855,871]],"type":"Polygon","properties":{"state":"FL","name":"CASSELBERRY","zip":"32707"}},{"arcs":[[872,873,-868,874,875]],"type":"Polygon","properties":{"state":"FL","name":"WINTER SPRINGS","zip":"32708"}},{"arcs":[[876,877,878,879,880,881,882]],"type":"Polygon","properties":{"state":"FL","name":"CHRISTMAS","zip":"32709"}},{"arcs":[[883,-862,884,885]],"type":"Polygon","properties":{"state":"FL","name":"APOPKA","zip":"32712"}},{"arcs":[[886,887,888]],"type":"Polygon","properties":{"state":"FL","name":"DEBARY","zip":"32713"}},{"arcs":[[889,890,-853,891,892,-864]],"type":"Polygon","properties":{"state":"FL","name":"ALTAMONTE SPRINGS","zip":"32714"}},{"arcs":[[[-347,-283,893,894,895]],[[896,897,898,899,900]]],"type":"MultiPolygon","properties":{"state":"FL","name":"DELAND","zip":"32720"}},{"arcs":[[-285,-271,-331,901,902,-894]],"type":"Polygon","properties":{"state":"FL","name":"DELAND","zip":"32724"}},{"arcs":[[903,904,905,-888,906,907]],"type":"Polygon","properties":{"state":"FL","name":"DELTONA","zip":"32725"}},{"arcs":[[908,909,910,911,912,913]],"type":"Polygon","properties":{"state":"FL","name":"EUSTIS","zip":"32726"}},{"arcs":[[914,-856,-871]],"type":"Polygon","properties":{"state":"FL","name":"CASSELBERRY","zip":"32730"}},{"arcs":[[915,916,917,918]],"type":"Polygon","properties":{"state":"FL","name":"GENEVA","zip":"32732"}},{"arcs":[[919,920,-913]],"type":"Polygon","properties":{"state":"FL","name":"GRAND ISLAND","zip":"32735"}},{"arcs":[[921,-909,922,923,-899,924]],"type":"Polygon","properties":{"state":"FL","name":"EUSTIS","zip":"32736"}},{"arcs":[[925,-334,926,-904]],"type":"Polygon","properties":{"state":"FL","name":"DELTONA","zip":"32738"}},{"arcs":[[927,-902,-330,-926,-908]],"type":"Polygon","properties":{"state":"FL","name":"LAKE HELEN","zip":"32744"}},{"arcs":[[928,929,930,931]],"type":"Polygon","properties":{"state":"FL","name":"LAKE MARY","zip":"32746"}},{"arcs":[[932,-930,933,-875,-872,-854,-891]],"type":"Polygon","properties":{"state":"FL","name":"LONGWOOD","zip":"32750"}},{"arcs":[[934,935,936,-892,-857,-915,-870]],"type":"Polygon","properties":{"state":"FL","name":"MAITLAND","zip":"32751"}},{"arcs":[[937,938,939,940,941]],"type":"Polygon","properties":{"state":"FL","name":"MIMS","zip":"32754"}},{"arcs":[[942,943,944,-910,-922,945,-885,-861,946]],"type":"Polygon","properties":{"state":"FL","name":"MOUNT DORA","zip":"32757"}},{"arcs":[[947,-314,948,949,950,-939]],"type":"Polygon","properties":{"state":"FL","name":"OAK HILL","zip":"32759"}},{"arcs":[[-895,-903,-928,-907,-887,951]],"type":"Polygon","properties":{"state":"FL","name":"ORANGE CITY","zip":"32763"}},{"arcs":[[-927,-333,-312,-948,-938,952,-905]],"type":"Polygon","properties":{"state":"FL","name":"OSTEEN","zip":"32764"}},{"arcs":[[953,-873,954,-916,955,956,957]],"type":"Polygon","properties":{"state":"FL","name":"OVIEDO","zip":"32765"}},{"arcs":[[-919,958,-881,959,-956]],"type":"Polygon","properties":{"state":"FL","name":"OVIEDO","zip":"32766"}},{"arcs":[[-222,960,-900,-924,961,-858]],"type":"Polygon","properties":{"state":"FL","name":"PAISLEY","zip":"32767"}},{"arcs":[[962,-932,963,964,-897,965]],"type":"Polygon","properties":{"state":"FL","name":"SANFORD","zip":"32771"}},{"arcs":[[-929,-963,966,-917,-955,-876,-934]],"type":"Polygon","properties":{"state":"FL","name":"SANFORD","zip":"32773"}},{"arcs":[[-925,-898,-965,967,-886,-946]],"type":"Polygon","properties":{"state":"FL","name":"SORRENTO","zip":"32776"}},{"arcs":[[968,969,970,-911,-945,971,972]],"type":"Polygon","properties":{"state":"FL","name":"TAVARES","zip":"32778"}},{"arcs":[[-968,-964,-931,-933,-890,-863,-884]],"type":"Polygon","properties":{"state":"FL","name":"LONGWOOD","zip":"32779"}},{"arcs":[[973,974,975,976,977]],"type":"Polygon","properties":{"state":"FL","name":"TITUSVILLE","zip":"32780"}},{"arcs":[[-923,-914,-921,978,-357,-345,-47,-859,-962]],"type":"Polygon","properties":{"state":"FL","name":"UMATILLA","zip":"32784"}},{"arcs":[[979,980,981,982,-936]],"type":"Polygon","properties":{"state":"FL","name":"WINTER PARK","zip":"32789"}},{"arcs":[[-935,-869,-874,-954,983,984,985,-980]],"type":"Polygon","properties":{"state":"FL","name":"WINTER PARK","zip":"32792"}},{"arcs":[[-977,986,-941,987,988]],"type":"Polygon","properties":{"state":"FL","name":"TITUSVILLE","zip":"32796"}},{"arcs":[[989,990,991,992]],"type":"Polygon","properties":{"state":"FL","name":"ORLANDO","zip":"32801"}},{"arcs":[[993,994,-992,995,-981,-986]],"type":"Polygon","properties":{"state":"FL","name":"ORLANDO","zip":"32803"}},{"arcs":[[996,997,998,-982,-996,-991]],"type":"Polygon","properties":{"state":"FL","name":"ORLANDO","zip":"32804"}},{"arcs":[[999,1000,1001,1002,-997,-990]],"type":"Polygon","properties":{"state":"FL","name":"ORLANDO","zip":"32805"}},{"arcs":[[1003,1004,1005,-1000,-993,-995,1006]],"type":"Polygon","properties":{"state":"FL","name":"ORLANDO","zip":"32806"}},{"arcs":[[-994,-985,1007,1008,1009,1010,-1007]],"type":"Polygon","properties":{"state":"FL","name":"ORLANDO","zip":"32807"}},{"arcs":[[1011,1012,1013,-998,-1003,1014]],"type":"Polygon","properties":{"state":"FL","name":"ORLANDO","zip":"32808"}},{"arcs":[[1015,1016,1017,1018,-1005,1019]],"type":"Polygon","properties":{"state":"FL","name":"ORLANDO","zip":"32809"}},{"arcs":[[-999,-1014,1020,-865,-893,-937,-983]],"type":"Polygon","properties":{"state":"FL","name":"ORLANDO","zip":"32810"}},{"arcs":[[1021,1022,1023,-1015,-1002]],"type":"Polygon","properties":{"state":"FL","name":"ORLANDO","zip":"32811"}},{"arcs":[[1024,-1020,-1004,-1011,1025]],"type":"Polygon","properties":{"state":"FL","name":"ORLANDO","zip":"32812"}},{"arcs":[[[-950,1026]],[[1027,-335,1028,1029,1030,1031,1032]]],"type":"MultiPolygon","properties":{"state":"FL","name":"ORLANDO","zip":"32815"}},{"arcs":[[1033,-1008,-984,-958,1034]],"type":"Polygon","properties":{"state":"FL","name":"ORLANDO","zip":"32817"}},{"arcs":[[1035,1036,-866,-1021,-1013,1037]],"type":"Polygon","properties":{"state":"FL","name":"ORLANDO","zip":"32818"}},{"arcs":[[1038,1039,1040,1041,1042,-1023,1043,-1018]],"type":"Polygon","properties":{"state":"FL","name":"ORLANDO","zip":"32819"}},{"arcs":[[1044,1045,-960,-880]],"type":"Polygon","properties":{"state":"FL","name":"ORLANDO","zip":"32820"}},{"arcs":[[1046,1047,1048,-1040,1049,1050]],"type":"Polygon","properties":{"state":"FL","name":"ORLANDO","zip":"32821"}},{"arcs":[[1051,1052,1053,-1026,-1010,1054]],"type":"Polygon","properties":{"state":"FL","name":"ORLANDO","zip":"32822"}},{"arcs":[[1055,-1017,1056,1057,1058,1059]],"type":"Polygon","properties":{"state":"FL","name":"ORLANDO","zip":"32824"}},{"arcs":[[-1009,-1034,1060,1061,1062,-1055]],"type":"Polygon","properties":{"state":"FL","name":"ORLANDO","zip":"32825"}},{"arcs":[[1063,-1035,-957,-1046]],"type":"Polygon","properties":{"state":"FL","name":"ORLANDO","zip":"32826"}},{"arcs":[[1064,-1057,-1016,-1025,-1054]],"type":"Polygon","properties":{"state":"FL","name":"ORLANDO","zip":"32827"}},{"arcs":[[1065,1066,-1061,-1064]],"type":"Polygon","properties":{"state":"FL","name":"ORLANDO","zip":"32828"}},{"arcs":[[-1063,1067,1068,-1052]],"type":"Polygon","properties":{"state":"FL","name":"ORLANDO","zip":"32829"}},{"arcs":[[1069,1070,1071,1072,-1048]],"type":"Polygon","properties":{"state":"FL","name":"ORLANDO","zip":"32830"}},{"arcs":[[1073,1074,-1068,-1062,-1067]],"type":"Polygon","properties":{"state":"FL","name":"ORLANDO","zip":"32831"}},{"arcs":[[1075,-1058,-1065,-1053,-1069,-1075,1076,-878]],"type":"Polygon","properties":{"state":"FL","name":"ORLANDO","zip":"32832"}},{"arcs":[[-1066,-1045,-879,-1077,-1074]],"type":"Polygon","properties":{"state":"FL","name":"ORLANDO","zip":"32833"}},{"arcs":[[-1043,1077,1078,-1038,-1012,-1024]],"type":"Polygon","properties":{"state":"FL","name":"ORLANDO","zip":"32835"}},{"arcs":[[1079,-1041,-1049,-1073]],"type":"Polygon","properties":{"state":"FL","name":"ORLANDO","zip":"32836"}},{"arcs":[[1080,1081,-1050,-1039,-1056,1082]],"type":"Polygon","properties":{"state":"FL","name":"ORLANDO","zip":"32837"}},{"arcs":[[-1044,-1022,-1001,-1006,-1019]],"type":"Polygon","properties":{"state":"FL","name":"ORLANDO","zip":"32839"}},{"arcs":[[1083,1084,1085,1086]],"type":"Polygon","properties":{"state":"FL","name":"MELBOURNE","zip":"32901"}},{"arcs":[[1087,1088,1089,1090]],"type":"Polygon","properties":{"state":"FL","name":"INDIALANTIC","zip":"32903"}},{"arcs":[[1091,-24,1092,-1084,1093]],"type":"Polygon","properties":{"state":"FL","name":"MELBOURNE","zip":"32904"}},{"arcs":[[1094,1095,-1094,-1087,1096]],"type":"Polygon","properties":{"state":"FL","name":"PALM BAY","zip":"32905"}},{"arcs":[[-1092,-1096,1097,1098,1099,-25]],"type":"Polygon","properties":{"state":"FL","name":"PALM BAY","zip":"32907"}},{"arcs":[[-1100,1100,-26]],"type":"Polygon","properties":{"state":"FL","name":"PALM BAY","zip":"32908"}},{"arcs":[[-1101,-1099,1101,1102,1103,1104,-18]],"type":"Polygon","properties":{"state":"FL","name":"PALM BAY","zip":"32909"}},{"arcs":[[[-1030,1105]],[[1106,1107]]],"type":"MultiPolygon","properties":{"state":"FL","name":"CAPE CANAVERAL","zip":"32920"}},{"arcs":[[1108,1109,1110]],"type":"Polygon","properties":{"state":"FL","name":"COCOA","zip":"32922"}},{"arcs":[[1111,1112,1113,1114]],"type":"Polygon","properties":{"state":"FL","name":"PATRICK AFB","zip":"32925"}},{"arcs":[[1115,1116,-975,1117,1118,-1109]],"type":"Polygon","properties":{"state":"FL","name":"COCOA","zip":"32926"}},{"arcs":[[-974,1119,-1118]],"type":"Polygon","properties":{"state":"FL","name":"COCOA","zip":"32927"}},{"arcs":[[-1114,1120,-1107,1121]],"type":"Polygon","properties":{"state":"FL","name":"COCOA BEACH","zip":"32931"}},{"arcs":[[1122,-1093,-23,1123,1124]],"type":"Polygon","properties":{"state":"FL","name":"MELBOURNE","zip":"32934"}},{"arcs":[[-1123,1125,1126,-1085]],"type":"Polygon","properties":{"state":"FL","name":"MELBOURNE","zip":"32935"}},{"arcs":[[-1112,1127,-1090,1128]],"type":"Polygon","properties":{"state":"FL","name":"SATELLITE BEACH","zip":"32937"}},{"arcs":[[1129,1130,-1126,-1125]],"type":"Polygon","properties":{"state":"FL","name":"MELBOURNE","zip":"32940"}},{"arcs":[[1131,-63,-1105,1132,1133]],"type":"Polygon","properties":{"state":"FL","name":"FELLSMERE","zip":"32948"}},{"arcs":[[1134,1135,1136,-1103]],"type":"Polygon","properties":{"state":"FL","name":"GRANT","zip":"32949"}},{"arcs":[[-1098,-1095,1137,-1135,-1102]],"type":"Polygon","properties":{"state":"FL","name":"MALABAR","zip":"32950"}},{"arcs":[[-1088,1138]],"type":"Polygon","properties":{"state":"FL","name":"MELBOURNE BEACH","zip":"32951"}},{"arcs":[[[1139,1140]],[[1141,1142]]],"type":"MultiPolygon","properties":{"state":"FL","name":"MERRITT ISLAND","zip":"32952"}},{"arcs":[[[-1032,1143]],[[-1140,1144,-1142,1145]]],"type":"MultiPolygon","properties":{"state":"FL","name":"MERRITT ISLAND","zip":"32953"}},{"arcs":[[-22,1146,1147,-1116,-1111,1148,-1130,-1124]],"type":"Polygon","properties":{"state":"FL","name":"ROCKLEDGE","zip":"32955"}},{"arcs":[[1149,-1134,1150,1151]],"type":"Polygon","properties":{"state":"FL","name":"SEBASTIAN","zip":"32958"}},{"arcs":[[1152,1153,1154,1155,1156]],"type":"Polygon","properties":{"state":"FL","name":"VERO BEACH","zip":"32960"}},{"arcs":[[1157,1158,-1157,1159,1160]],"type":"Polygon","properties":{"state":"FL","name":"VERO BEACH","zip":"32962"}},{"arcs":[[1161,1162]],"type":"Polygon","properties":{"state":"FL","name":"VERO BEACH","zip":"32963"}},{"arcs":[[1163,1164,1165,-60,1166,-1154]],"type":"Polygon","properties":{"state":"FL","name":"VERO BEACH","zip":"32966"}},{"arcs":[[-1155,-1167,-59,-1132,-1150,1167]],"type":"Polygon","properties":{"state":"FL","name":"VERO BEACH","zip":"32967"}},{"arcs":[[1168,1169,-1164,-1153,-1159]],"type":"Polygon","properties":{"state":"FL","name":"VERO BEACH","zip":"32968"}},{"arcs":[[-1133,-1104,-1137,1170,-1151]],"type":"Polygon","properties":{"state":"FL","name":"SEBASTIAN","zip":"32976"}},{"arcs":[[1171,1172,1173,1174,1175,1176]],"type":"Polygon","properties":{"state":"FL","name":"DANIA","zip":"33004"}},{"arcs":[[1177,1178,1179,1180,1181,1182,1183,1184]],"type":"Polygon","properties":{"state":"FL","name":"HALLANDALE","zip":"33009"}},{"arcs":[[1185,1186,1187,1188,1189]],"type":"Polygon","properties":{"state":"FL","name":"HIALEAH","zip":"33010"}},{"arcs":[[1190,-1188,1191,1192,1193,1194]],"type":"Polygon","properties":{"state":"FL","name":"HIALEAH","zip":"33012"}},{"arcs":[[1195,-1189,-1191,1196,1197]],"type":"Polygon","properties":{"state":"FL","name":"HIALEAH","zip":"33013"}},{"arcs":[[1198,1199,1200,1201,-1194]],"type":"Polygon","properties":{"state":"FL","name":"HIALEAH","zip":"33014"}},{"arcs":[[1202,-1200,1203,1204,1205,1206]],"type":"Polygon","properties":{"state":"FL","name":"HIALEAH","zip":"33015"}},{"arcs":[[1207,1208,-1204,-1199,-1193,1209]],"type":"Polygon","properties":{"state":"FL","name":"HIALEAH","zip":"33016"}},{"arcs":[[-5,1210,1211,-1205,-1209,1212,-34]],"type":"Polygon","properties":{"state":"FL","name":"HIALEAH","zip":"33018"}},{"arcs":[[-1183,1213,-1176,1214]],"type":"Polygon","properties":{"state":"FL","name":"HOLLYWOOD","zip":"33019"}},{"arcs":[[1215,-1177,-1214,-1182]],"type":"Polygon","properties":{"state":"FL","name":"HOLLYWOOD","zip":"33020"}},{"arcs":[[-1181,1216,1217,1218,1219,-1216]],"type":"Polygon","properties":{"state":"FL","name":"HOLLYWOOD","zip":"33021"}},{"arcs":[[1220,1221,1222,1223,-1217,-1180,1224]],"type":"Polygon","properties":{"state":"FL","name":"HOLLYWOOD","zip":"33023"}},{"arcs":[[1225,1226,1227,1228,-1218,-1224]],"type":"Polygon","properties":{"state":"FL","name":"HOLLYWOOD","zip":"33024"}},{"arcs":[[1229,-1207,1230,1231,-1226,-1223,1232]],"type":"Polygon","properties":{"state":"FL","name":"HOLLYWOOD","zip":"33025"}},{"arcs":[[1233,1234,1235,-1227,-1232]],"type":"Polygon","properties":{"state":"FL","name":"HOLLYWOOD","zip":"33026"}},{"arcs":[[-1212,1236,1237,-1231,-1206]],"type":"Polygon","properties":{"state":"FL","name":"HOLLYWOOD","zip":"33027"}},{"arcs":[[1238,1239,1240,-1234,-1238]],"type":"Polygon","properties":{"state":"FL","name":"HOLLYWOOD","zip":"33028"}},{"arcs":[[-1211,-4,1241,1242,-1239,-1237]],"type":"Polygon","properties":{"state":"FL","name":"HOLLYWOOD","zip":"33029"}},{"arcs":[[1243,-27,1244,1245]],"type":"Polygon","properties":{"state":"FL","name":"HOMESTEAD","zip":"33030"}},{"arcs":[[-41,1246,1247,1248,-1245]],"type":"Polygon","properties":{"state":"FL","name":"HOMESTEAD","zip":"33031"}},{"arcs":[[-1248,1249,1250,1251,1252]],"type":"Polygon","properties":{"state":"FL","name":"HOMESTEAD","zip":"33032"}},{"arcs":[[1253,-1246,-1249,-1253,1254]],"type":"Polygon","properties":{"state":"FL","name":"HOMESTEAD","zip":"33033"}},{"arcs":[[-1244,1255,-28]],"type":"Polygon","properties":{"state":"FL","name":"HOMESTEAD","zip":"33034"}},{"arcs":[[-1254,1256,1257,1258,-29,-1256]],"type":"Polygon","properties":{"state":"FL","name":"HOMESTEAD","zip":"33035"}},{"arcs":[[1259,1260,-1258,1261]],"type":"Polygon","properties":{"state":"FL","name":"KEY LARGO","zip":"33037"}},{"arcs":[[1262]],"type":"Polygon","properties":{"state":"FL","name":"SUMMERLAND KEY","zip":"33042"}},{"arcs":[[1263]],"type":"Polygon","properties":{"state":"FL","name":"MARATHON","zip":"33050"}},{"arcs":[[1264,-1197,-1195,-1202,1265,1266,1267]],"type":"Polygon","properties":{"state":"FL","name":"OPA LOCKA","zip":"33054"}},{"arcs":[[-1201,-1203,-1230,1268,-1266]],"type":"Polygon","properties":{"state":"FL","name":"OPA LOCKA","zip":"33055"}},{"arcs":[[-1269,-1233,-1222,1269,-1267]],"type":"Polygon","properties":{"state":"FL","name":"OPA LOCKA","zip":"33056"}},{"arcs":[[1270,1271,1272,1273,1274]],"type":"Polygon","properties":{"state":"FL","name":"POMPANO BEACH","zip":"33060"}},{"arcs":[[1275,-1275,1276,1277,1278]],"type":"Polygon","properties":{"state":"FL","name":"POMPANO BEACH","zip":"33062"}},{"arcs":[[1279,1280,1281,1282,1283,1284]],"type":"Polygon","properties":{"state":"FL","name":"POMPANO BEACH","zip":"33063"}},{"arcs":[[1285,1286,1287,1288,-1277,-1274]],"type":"Polygon","properties":{"state":"FL","name":"POMPANO BEACH","zip":"33064"}},{"arcs":[[1289,-13,1290,1291,-1283]],"type":"Polygon","properties":{"state":"FL","name":"POMPANO BEACH","zip":"33065"}},{"arcs":[[1292,1293,-1280,1294]],"type":"Polygon","properties":{"state":"FL","name":"POMPANO BEACH","zip":"33066"}},{"arcs":[[1295,-1284,-1292,1296,-11,-49,1297]],"type":"Polygon","properties":{"state":"FL","name":"POMPANO BEACH","zip":"33067"}},{"arcs":[[1298,1299,1300,1301,-1281,-1294,1302]],"type":"Polygon","properties":{"state":"FL","name":"POMPANO BEACH","zip":"33068"}},{"arcs":[[-1293,1303,-1286,-1273,1304,-1303]],"type":"Polygon","properties":{"state":"FL","name":"POMPANO BEACH","zip":"33069"}},{"arcs":[[-1260,1305]],"type":"Polygon","properties":{"state":"FL","name":"TAVERNIER","zip":"33070"}},{"arcs":[[-1290,-1282,-1302,1306,-14]],"type":"Polygon","properties":{"state":"FL","name":"POMPANO BEACH","zip":"33071"}},{"arcs":[[-1295,-1285,-1296,1307,1308,1309,-1287,-1304]],"type":"Polygon","properties":{"state":"FL","name":"POMPANO BEACH","zip":"33073"}},{"arcs":[[-12,-1297,-1291]],"type":"Polygon","properties":{"state":"FL","name":"POMPANO BEACH","zip":"33076"}},{"arcs":[[1310,1311,1312,1313]],"type":"Polygon","properties":{"state":"FL","name":"MIAMI","zip":"33122"}},{"arcs":[[1314,1315,1316,1317,1318]],"type":"Polygon","properties":{"state":"FL","name":"MIAMI","zip":"33125"}},{"arcs":[[1319,1320,1321,-1314,1322,-1316]],"type":"Polygon","properties":{"state":"FL","name":"MIAMI","zip":"33126"}},{"arcs":[[1323,1324,1325,1326]],"type":"Polygon","properties":{"state":"FL","name":"MIAMI","zip":"33127"}},{"arcs":[[1327,-1319,1328,1329]],"type":"Polygon","properties":{"state":"FL","name":"MIAMI","zip":"33128"}},{"arcs":[[1330,1331,1332,1333,1334,1335]],"type":"Polygon","properties":{"state":"FL","name":"MIAMI","zip":"33129"}},{"arcs":[[1336,-1333,1337,-1328]],"type":"Polygon","properties":{"state":"FL","name":"MIAMI","zip":"33130"}},{"arcs":[[-1337,1338,1339,-1334]],"type":"Polygon","properties":{"state":"FL","name":"MIAMI","zip":"33131"}},{"arcs":[[-1339,-1330,1340,1341,1342]],"type":"Polygon","properties":{"state":"FL","name":"MIAMI","zip":"33132"}},{"arcs":[[1343,1344,1345,1346,-1336,1347]],"type":"Polygon","properties":{"state":"FL","name":"MIAMI","zip":"33133"}},{"arcs":[[1348,1349,1350,-1320,1351,1352,-1346]],"type":"Polygon","properties":{"state":"FL","name":"MIAMI","zip":"33134"}},{"arcs":[[-1315,-1338,-1332,1353,-1352]],"type":"Polygon","properties":{"state":"FL","name":"MIAMI","zip":"33135"}},{"arcs":[[-1324,-1341,-1329,-1318]],"type":"Polygon","properties":{"state":"FL","name":"MIAMI","zip":"33136"}},{"arcs":[[1354,1355,-1342,-1327]],"type":"Polygon","properties":{"state":"FL","name":"MIAMI","zip":"33137"}},{"arcs":[[1356,1357,1358,-1355]],"type":"Polygon","properties":{"state":"FL","name":"MIAMI","zip":"33138"}},{"arcs":[[1359,1360]],"type":"Polygon","properties":{"state":"FL","name":"MIAMI BEACH","zip":"33140"}},{"arcs":[[-1360,1361]],"type":"Polygon","properties":{"state":"FL","name":"MIAMI BEACH","zip":"33141"}},{"arcs":[[-1186,1362,-1325,-1317,-1323,-1313]],"type":"Polygon","properties":{"state":"FL","name":"MIAMI","zip":"33142"}},{"arcs":[[1363,1364,1365,1366,-1344,1367]],"type":"Polygon","properties":{"state":"FL","name":"MIAMI","zip":"33143"}},{"arcs":[[1368,1369,-1321,-1351]],"type":"Polygon","properties":{"state":"FL","name":"MIAMI","zip":"33144"}},{"arcs":[[-1353,-1354,-1331,-1347]],"type":"Polygon","properties":{"state":"FL","name":"MIAMI","zip":"33145"}},{"arcs":[[-1367,1370,-1349,-1345]],"type":"Polygon","properties":{"state":"FL","name":"MIAMI","zip":"33146"}},{"arcs":[[-1196,1371,1372,-1363,-1190]],"type":"Polygon","properties":{"state":"FL","name":"MIAMI","zip":"33147"}},{"arcs":[[-1373,1373,1374,-1357,-1326]],"type":"Polygon","properties":{"state":"FL","name":"MIAMI","zip":"33150"}},{"arcs":[[1375,-1369,-1350,-1371,-1366]],"type":"Polygon","properties":{"state":"FL","name":"MIAMI","zip":"33155"}},{"arcs":[[1376,1377,-1364,1378]],"type":"Polygon","properties":{"state":"FL","name":"MIAMI","zip":"33156"}},{"arcs":[[1379,1380,1381,1382,1383]],"type":"Polygon","properties":{"state":"FL","name":"MIAMI","zip":"33157"}},{"arcs":[[1384,-1377,1385,-1383]],"type":"Polygon","properties":{"state":"FL","name":"MIAMI","zip":"33158"}},{"arcs":[[1386,1387,1388,-1185,1389,1390]],"type":"Polygon","properties":{"state":"FL","name":"NORTH MIAMI BEACH","zip":"33160"}},{"arcs":[[1391,1392,1393,1394,-1358]],"type":"Polygon","properties":{"state":"FL","name":"MIAMI","zip":"33161"}},{"arcs":[[1395,1396,-1387,1397,-1393]],"type":"Polygon","properties":{"state":"FL","name":"MIAMI","zip":"33162"}},{"arcs":[[1398,1399,1400,1401,-1376]],"type":"Polygon","properties":{"state":"FL","name":"MIAMI","zip":"33165"}},{"arcs":[[-1312,1402,-1210,-1192,-1187]],"type":"Polygon","properties":{"state":"FL","name":"MIAMI","zip":"33166"}},{"arcs":[[-1265,1403,1404,-1374,-1372,-1198]],"type":"Polygon","properties":{"state":"FL","name":"MIAMI","zip":"33167"}},{"arcs":[[1405,-1392,-1375,-1405]],"type":"Polygon","properties":{"state":"FL","name":"MIAMI","zip":"33168"}},{"arcs":[[-1406,-1404,-1268,-1270,-1221,1406,-1396]],"type":"Polygon","properties":{"state":"FL","name":"MIAMI","zip":"33169"}},{"arcs":[[-1247,-40,1407,1408,1409,1410,-1250]],"type":"Polygon","properties":{"state":"FL","name":"MIAMI","zip":"33170"}},{"arcs":[[1411,1412,1413,-1311,-1322]],"type":"Polygon","properties":{"state":"FL","name":"MIAMI","zip":"33172"}},{"arcs":[[1414,1415,-1399,-1365]],"type":"Polygon","properties":{"state":"FL","name":"MIAMI","zip":"33173"}},{"arcs":[[1416,1417,-1412,-1370,-1402]],"type":"Polygon","properties":{"state":"FL","name":"MIAMI","zip":"33174"}},{"arcs":[[1418,1419,1420,-1400]],"type":"Polygon","properties":{"state":"FL","name":"MIAMI","zip":"33175"}},{"arcs":[[-1382,1421,-1415,-1378,-1385]],"type":"Polygon","properties":{"state":"FL","name":"MIAMI","zip":"33176"}},{"arcs":[[1422,1423,-1381,1424,-1409]],"type":"Polygon","properties":{"state":"FL","name":"MIAMI","zip":"33177"}},{"arcs":[[1425,-35,-1213,-1208,-1403,-1414]],"type":"Polygon","properties":{"state":"FL","name":"MIAMI","zip":"33178"}},{"arcs":[[-1397,-1407,-1225,-1179,1426,-1388]],"type":"Polygon","properties":{"state":"FL","name":"MIAMI","zip":"33179"}},{"arcs":[[-1427,-1178,-1389]],"type":"Polygon","properties":{"state":"FL","name":"MIAMI","zip":"33180"}},{"arcs":[[-1394,-1398,-1391,1427]],"type":"Polygon","properties":{"state":"FL","name":"MIAMI","zip":"33181"}},{"arcs":[[1428,-36,-1426,-1413,1429]],"type":"Polygon","properties":{"state":"FL","name":"MIAMI","zip":"33182"}},{"arcs":[[1430,1431,-1419,-1416]],"type":"Polygon","properties":{"state":"FL","name":"MIAMI","zip":"33183"}},{"arcs":[[1432,-1430,-1418,1433,-1421]],"type":"Polygon","properties":{"state":"FL","name":"MIAMI","zip":"33184"}},{"arcs":[[1434,1435,-37,-1429,-1433,-1420]],"type":"Polygon","properties":{"state":"FL","name":"MIAMI","zip":"33185"}},{"arcs":[[1436,-1431,-1422,-1424]],"type":"Polygon","properties":{"state":"FL","name":"MIAMI","zip":"33186"}},{"arcs":[[-39,1437,-1423,-1408]],"type":"Polygon","properties":{"state":"FL","name":"MIAMI","zip":"33187"}},{"arcs":[[1438,-1410,-1425,-1380,1439]],"type":"Polygon","properties":{"state":"FL","name":"MIAMI","zip":"33189"}},{"arcs":[[-1439,1440,-1251,-1411]],"type":"Polygon","properties":{"state":"FL","name":"MIAMI","zip":"33190"}},{"arcs":[[-1432,1441,-1435]],"type":"Polygon","properties":{"state":"FL","name":"MIAMI","zip":"33193"}},{"arcs":[[-38,-1436,-1442,-1437,-1438]],"type":"Polygon","properties":{"state":"FL","name":"MIAMI","zip":"33196"}},{"arcs":[[-1434,-1417,-1401]],"type":"Polygon","properties":{"state":"FL","name":"MIAMI","zip":"33199"}},{"arcs":[[1442,1443,1444,1445,1446,1447]],"type":"Polygon","properties":{"state":"FL","name":"FORT LAUDERDALE","zip":"33301"}},{"arcs":[[-1446,1448,1449,1450]],"type":"Polygon","properties":{"state":"FL","name":"FORT LAUDERDALE","zip":"33304"}},{"arcs":[[1451,1452,1453,1454,1455,-1450]],"type":"Polygon","properties":{"state":"FL","name":"FORT LAUDERDALE","zip":"33305"}},{"arcs":[[1456,1457,-1454]],"type":"Polygon","properties":{"state":"FL","name":"FORT LAUDERDALE","zip":"33306"}},{"arcs":[[1458,-1271,-1276,1459,-1455,-1458]],"type":"Polygon","properties":{"state":"FL","name":"FORT LAUDERDALE","zip":"33308"}},{"arcs":[[1460,1461,-1299,-1305,1462]],"type":"Polygon","properties":{"state":"FL","name":"FORT LAUDERDALE","zip":"33309"}},{"arcs":[[1463,1464,1465,-1461,1466,-1452,-1449,-1445]],"type":"Polygon","properties":{"state":"FL","name":"FORT LAUDERDALE","zip":"33311"}},{"arcs":[[-1220,1467,1468,-1464,-1444,1469,-1172]],"type":"Polygon","properties":{"state":"FL","name":"FORT LAUDERDALE","zip":"33312"}},{"arcs":[[1470,1471,-1466,1472]],"type":"Polygon","properties":{"state":"FL","name":"FORT LAUDERDALE","zip":"33313"}},{"arcs":[[-1229,1473,1474,1475,-1468,-1219]],"type":"Polygon","properties":{"state":"FL","name":"FORT LAUDERDALE","zip":"33314"}},{"arcs":[[-1470,-1443,1476,-1173]],"type":"Polygon","properties":{"state":"FL","name":"FORT LAUDERDALE","zip":"33315"}},{"arcs":[[-1174,-1477,-1448,1477]],"type":"Polygon","properties":{"state":"FL","name":"FORT LAUDERDALE","zip":"33316"}},{"arcs":[[1478,1479,-1473,-1465,-1469,-1476]],"type":"Polygon","properties":{"state":"FL","name":"FORT LAUDERDALE","zip":"33317"}},{"arcs":[[1480,1481,1482,-1300,-1462,-1472]],"type":"Polygon","properties":{"state":"FL","name":"FORT LAUDERDALE","zip":"33319"}},{"arcs":[[1483,-15,-1307,-1301,-1483]],"type":"Polygon","properties":{"state":"FL","name":"FORT LAUDERDALE","zip":"33321"}},{"arcs":[[1484,1485,-1481,-1471,-1480,1486,1487]],"type":"Polygon","properties":{"state":"FL","name":"FORT LAUDERDALE","zip":"33322"}},{"arcs":[[1488,1489,-17,1490,-1485]],"type":"Polygon","properties":{"state":"FL","name":"FORT LAUDERDALE","zip":"33323"}},{"arcs":[[1491,1492,-1487,-1479,-1475]],"type":"Polygon","properties":{"state":"FL","name":"FORT LAUDERDALE","zip":"33324"}},{"arcs":[[1493,-1489,-1488,-1493,1494]],"type":"Polygon","properties":{"state":"FL","name":"FORT LAUDERDALE","zip":"33325"}},{"arcs":[[1495,1496,-1,-1490,-1494,1497]],"type":"Polygon","properties":{"state":"FL","name":"FORT LAUDERDALE","zip":"33326"}},{"arcs":[[1498,-2,-1497]],"type":"Polygon","properties":{"state":"FL","name":"FORT LAUDERDALE","zip":"33327"}},{"arcs":[[-1236,1499,-1492,-1474,-1228]],"type":"Polygon","properties":{"state":"FL","name":"FORT LAUDERDALE","zip":"33328"}},{"arcs":[[-1241,1500,-1495,-1500,-1235]],"type":"Polygon","properties":{"state":"FL","name":"FORT LAUDERDALE","zip":"33330"}},{"arcs":[[-1243,1501,-1498,-1501,-1240]],"type":"Polygon","properties":{"state":"FL","name":"FORT LAUDERDALE","zip":"33331"}},{"arcs":[[-3,-1499,-1496,-1502,-1242]],"type":"Polygon","properties":{"state":"FL","name":"FORT LAUDERDALE","zip":"33332"}},{"arcs":[[-1453,-1467,-1463,-1272,-1459,-1457]],"type":"Polygon","properties":{"state":"FL","name":"FORT LAUDERDALE","zip":"33334"}},{"arcs":[[-1491,-16,-1484,-1482,-1486]],"type":"Polygon","properties":{"state":"FL","name":"FORT LAUDERDALE","zip":"33351"}},{"arcs":[[1502,1503,1504,1505]],"type":"Polygon","properties":{"state":"FL","name":"WEST PALM BEACH","zip":"33401"}},{"arcs":[[1506,1507,1508,1509]],"type":"Polygon","properties":{"state":"FL","name":"WEST PALM BEACH","zip":"33403"}},{"arcs":[[[1510,1511]],[[1512,1513,1514,-1507,1515]]],"type":"MultiPolygon","properties":{"state":"FL","name":"WEST PALM BEACH","zip":"33404"}},{"arcs":[[1516,1517,-1503,1518]],"type":"Polygon","properties":{"state":"FL","name":"WEST PALM BEACH","zip":"33405"}},{"arcs":[[1519,1520,-1518,1521,1522]],"type":"Polygon","properties":{"state":"FL","name":"WEST PALM BEACH","zip":"33406"}},{"arcs":[[1523,1524,1525,1526,-1513,1527,-1505]],"type":"Polygon","properties":{"state":"FL","name":"WEST PALM BEACH","zip":"33407"}},{"arcs":[[1528,1529,1530,-1511,1531,-1509]],"type":"Polygon","properties":{"state":"FL","name":"NORTH PALM BEACH","zip":"33408"}},{"arcs":[[-1521,1532,-1524,-1504]],"type":"Polygon","properties":{"state":"FL","name":"WEST PALM BEACH","zip":"33409"}},{"arcs":[[-1515,1533,1534,1535,-1529,-1508]],"type":"Polygon","properties":{"state":"FL","name":"WEST PALM BEACH","zip":"33410"}},{"arcs":[[1536,1537,1538,1539,1540,1541]],"type":"Polygon","properties":{"state":"FL","name":"WEST PALM BEACH","zip":"33411"}},{"arcs":[[1542,-1539,1543,1544,1545,-1526]],"type":"Polygon","properties":{"state":"FL","name":"WEST PALM BEACH","zip":"33412"}},{"arcs":[[1546,1547,1548,-1541]],"type":"Polygon","properties":{"state":"FL","name":"WEST PALM BEACH","zip":"33413"}},{"arcs":[[1549,-54,1550,-1537]],"type":"Polygon","properties":{"state":"FL","name":"WEST PALM BEACH","zip":"33414"}},{"arcs":[[1551,1552,-1548,1553,-1520]],"type":"Polygon","properties":{"state":"FL","name":"WEST PALM BEACH","zip":"33415"}},{"arcs":[[-1543,-1525,-1533,-1554,-1547,-1540]],"type":"Polygon","properties":{"state":"FL","name":"WEST PALM BEACH","zip":"33417"}},{"arcs":[[1554,1555,-1534,-1514,-1527,-1546]],"type":"Polygon","properties":{"state":"FL","name":"WEST PALM BEACH","zip":"33418"}},{"arcs":[[1556,1557,1558,1559]],"type":"Polygon","properties":{"state":"FL","name":"BOYNTON BEACH","zip":"33426"}},{"arcs":[[1560,-1308,-1298,-48,1561,1562]],"type":"Polygon","properties":{"state":"FL","name":"BOCA RATON","zip":"33428"}},{"arcs":[[1563,1564,1565,1566,-52]],"type":"Polygon","properties":{"state":"FL","name":"BELLE GLADE","zip":"33430"}},{"arcs":[[1567,1568,1569,1570,1571,1572,1573]],"type":"Polygon","properties":{"state":"FL","name":"BOCA RATON","zip":"33431"}},{"arcs":[[1574,1575,-1568,1576]],"type":"Polygon","properties":{"state":"FL","name":"BOCA RATON","zip":"33432"}},{"arcs":[[1577,1578,-1309,-1561,1579,-1570]],"type":"Polygon","properties":{"state":"FL","name":"BOCA RATON","zip":"33433"}},{"arcs":[[1580,1581,-1571,-1580,-1563]],"type":"Polygon","properties":{"state":"FL","name":"BOCA RATON","zip":"33434"}},{"arcs":[[1582,1583,-1560,1584,1585,1586,1587]],"type":"Polygon","properties":{"state":"FL","name":"BOYNTON BEACH","zip":"33435"}},{"arcs":[[1588,1589,1590,1591,-1558,1592]],"type":"Polygon","properties":{"state":"FL","name":"BOYNTON BEACH","zip":"33436"}},{"arcs":[[1593,1594,-56,1595,1596,-1590]],"type":"Polygon","properties":{"state":"FL","name":"BOYNTON BEACH","zip":"33437"}},{"arcs":[[1597,1598,1599,1600]],"type":"Polygon","properties":{"state":"FL","name":"CANAL POINT","zip":"33438"}},{"arcs":[[-9,1601,1602,1603,1604,1605,-50]],"type":"Polygon","properties":{"state":"FL","name":"CLEWISTON","zip":"33440"}},{"arcs":[[1606,1607,-1575,1608,-1278,-1289]],"type":"Polygon","properties":{"state":"FL","name":"DEERFIELD BEACH","zip":"33441"}},{"arcs":[[-1310,-1579,1609,-1607,-1288]],"type":"Polygon","properties":{"state":"FL","name":"DEERFIELD BEACH","zip":"33442"}},{"arcs":[[1610,1611,1612,-1584]],"type":"Polygon","properties":{"state":"FL","name":"DELRAY BEACH","zip":"33444"}},{"arcs":[[1613,-1593,-1557,-1613,1614]],"type":"Polygon","properties":{"state":"FL","name":"DELRAY BEACH","zip":"33445"}},{"arcs":[[1615,1616,-57,-1595,1617]],"type":"Polygon","properties":{"state":"FL","name":"DELRAY BEACH","zip":"33446"}},{"arcs":[[1618,1619,1620,1621,1622,1623]],"type":"Polygon","properties":{"state":"FL","name":"HOBE SOUND","zip":"33455"}},{"arcs":[[1624,-1535,-1556,1625,-1620,1626]],"type":"Polygon","properties":{"state":"FL","name":"JUPITER","zip":"33458"}},{"arcs":[[1627,1628,-1522,-1517,1629]],"type":"Polygon","properties":{"state":"FL","name":"LAKE WORTH","zip":"33460"}},{"arcs":[[1630,1631,-1552,-1523,-1629]],"type":"Polygon","properties":{"state":"FL","name":"LAKE WORTH","zip":"33461"}},{"arcs":[[[1632,-1631,-1628,1633,-1585,-1559,-1592]],[[1634,1635,-1587,1636]]],"type":"MultiPolygon","properties":{"state":"FL","name":"LAKE WORTH","zip":"33462"}},{"arcs":[[-1591,-1597,1637,-1553,-1632,-1633]],"type":"Polygon","properties":{"state":"FL","name":"LAKE WORTH","zip":"33463"}},{"arcs":[[-1596,-55,-1550,-1542,-1549,-1638]],"type":"Polygon","properties":{"state":"FL","name":"LAKE WORTH","zip":"33467"}},{"arcs":[[1638,-1627,-1619,1639]],"type":"Polygon","properties":{"state":"FL","name":"JUPITER","zip":"33469"}},{"arcs":[[-1551,-53,-1567,1640,-1598,1641,1642,1643,-1544,-1538]],"type":"Polygon","properties":{"state":"FL","name":"LOXAHATCHEE","zip":"33470"}},{"arcs":[[1644,1645,1646,1647,1648,1649,-1604]],"type":"Polygon","properties":{"state":"FL","name":"MOORE HAVEN","zip":"33471"}},{"arcs":[[-1599,-1641,-1566,1650]],"type":"Polygon","properties":{"state":"FL","name":"PAHOKEE","zip":"33476"}},{"arcs":[[-1625,-1639,1651,-1530,-1536]],"type":"Polygon","properties":{"state":"FL","name":"JUPITER","zip":"33477"}},{"arcs":[[1652,-1621,-1626,-1555,-1545,-1644]],"type":"Polygon","properties":{"state":"FL","name":"JUPITER","zip":"33478"}},{"arcs":[[-1635,1653]],"type":"Polygon","properties":{"state":"FL","name":"PALM BEACH","zip":"33480"}},{"arcs":[[-1583,1654,1655,-1611]],"type":"Polygon","properties":{"state":"FL","name":"DELRAY BEACH","zip":"33483"}},{"arcs":[[-1594,-1589,-1614,1656,-1618]],"type":"Polygon","properties":{"state":"FL","name":"DELRAY BEACH","zip":"33484"}},{"arcs":[[-1608,-1610,-1578,-1569,-1576]],"type":"Polygon","properties":{"state":"FL","name":"BOCA RATON","zip":"33486"}},{"arcs":[[1657,-1615,-1612,-1656,1658,-1573]],"type":"Polygon","properties":{"state":"FL","name":"BOCA RATON","zip":"33487"}},{"arcs":[[-1606,1659,-1564,-51]],"type":"Polygon","properties":{"state":"FL","name":"SOUTH BAY","zip":"33493"}},{"arcs":[[-1582,1660,-1616,-1657,-1658,-1572]],"type":"Polygon","properties":{"state":"FL","name":"BOCA RATON","zip":"33496"}},{"arcs":[[-1617,-1661,-1581,-1562,-58]],"type":"Polygon","properties":{"state":"FL","name":"BOCA RATON","zip":"33498"}},{"arcs":[[1661,1662,1663,1664]],"type":"Polygon","properties":{"state":"FL","name":"BRANDON","zip":"33510"}},{"arcs":[[1665,1666,1667,-1663]],"type":"Polygon","properties":{"state":"FL","name":"BRANDON","zip":"33511"}},{"arcs":[[1668,1669,1670,1671,1672,1673,1674,1675]],"type":"Polygon","properties":{"state":"FL","name":"BUSHNELL","zip":"33513"}},{"arcs":[[1676,1677,-1669,1678]],"type":"Polygon","properties":{"state":"FL","name":"CENTER HILL","zip":"33514"}},{"arcs":[[1679,1680,1681,1682,1683]],"type":"Polygon","properties":{"state":"FL","name":"DADE CITY","zip":"33523"}},{"arcs":[[1684,1685,1686,1687,1688,-1684,1689,1690,1691]],"type":"Polygon","properties":{"state":"FL","name":"DADE CITY","zip":"33525"}},{"arcs":[[1692,1693,1694,1695,1696]],"type":"Polygon","properties":{"state":"FL","name":"DOVER","zip":"33527"}},{"arcs":[[1697,1698,1699,1700,1701]],"type":"Polygon","properties":{"state":"FL","name":"GIBSONTON","zip":"33534"}},{"arcs":[[1702,1703,1704,1705,1706,1707,1708,-1674]],"type":"Polygon","properties":{"state":"FL","name":"LAKE PANASOFFKEE","zip":"33538"}},{"arcs":[[1709,-1692,1710,1711]],"type":"Polygon","properties":{"state":"FL","name":"ZEPHYRHILLS","zip":"33540"}},{"arcs":[[1712,1713,1714,-1685,-1710]],"type":"Polygon","properties":{"state":"FL","name":"ZEPHYRHILLS","zip":"33541"}},{"arcs":[[1715,1716,-1714,1717,1718]],"type":"Polygon","properties":{"state":"FL","name":"ZEPHYRHILLS","zip":"33543"}},{"arcs":[[1719,1720,-1686,-1715,-1717,1721]],"type":"Polygon","properties":{"state":"FL","name":"ZEPHYRHILLS","zip":"33544"}},{"arcs":[[1722,1723,1724,1725,1726,1727,1728]],"type":"Polygon","properties":{"state":"FL","name":"LITHIA","zip":"33547"}},{"arcs":[[1729,1730,1731,1732]],"type":"Polygon","properties":{"state":"FL","name":"LUTZ","zip":"33548"}},{"arcs":[[-1733,1733,1734,1735,1736]],"type":"Polygon","properties":{"state":"FL","name":"LUTZ","zip":"33549"}},{"arcs":[[1737,1738,1739,1740,1741,1742,1743]],"type":"Polygon","properties":{"state":"FL","name":"ODESSA","zip":"33556"}},{"arcs":[[1744,-1734,-1732,1745,1746,1747,-1742]],"type":"Polygon","properties":{"state":"FL","name":"LUTZ","zip":"33558"}},{"arcs":[[1748,1749,-1736,1750,-1722,-1716]],"type":"Polygon","properties":{"state":"FL","name":"LUTZ","zip":"33559"}},{"arcs":[[1751,-1712,1752,1753,1754,1755,1756,-1696]],"type":"Polygon","properties":{"state":"FL","name":"PLANT CITY","zip":"33565"}},{"arcs":[[1757,1758,-1756,1759]],"type":"Polygon","properties":{"state":"FL","name":"PLANT CITY","zip":"33566"}},{"arcs":[[-1757,-1759,1760,1761,-1727,1762,-1697]],"type":"Polygon","properties":{"state":"FL","name":"PLANT CITY","zip":"33567"}},{"arcs":[[1763,-1702,1764,-1667,1765,-1725,1766]],"type":"Polygon","properties":{"state":"FL","name":"RIVERVIEW","zip":"33569"}},{"arcs":[[1767,1768,1769,1770,-1698,1771]],"type":"Polygon","properties":{"state":"FL","name":"RUSKIN","zip":"33570"}},{"arcs":[[-1699,-1771,1772]],"type":"Polygon","properties":{"state":"FL","name":"APOLLO BEACH","zip":"33572"}},{"arcs":[[-1764,1773,-1772]],"type":"Polygon","properties":{"state":"FL","name":"SUN CITY CENTER","zip":"33573"}},{"arcs":[[1774,-1687,-1721]],"type":"Polygon","properties":{"state":"FL","name":"SAN ANTONIO","zip":"33576"}},{"arcs":[[1775,-1665,1776,1777,1778,-1694]],"type":"Polygon","properties":{"state":"FL","name":"SEFFNER","zip":"33584"}},{"arcs":[[1779,1780,1781,-1679,-1676]],"type":"Polygon","properties":{"state":"FL","name":"SUMTERVILLE","zip":"33585"}},{"arcs":[[-1779,1782,1783,-1718,-1713,-1752,-1695]],"type":"Polygon","properties":{"state":"FL","name":"THONOTOSASSA","zip":"33592"}},{"arcs":[[-1662,-1776,-1693,-1763,-1726,-1766,-1666]],"type":"Polygon","properties":{"state":"FL","name":"VALRICO","zip":"33594"}},{"arcs":[[-1683,1784,-1670,-1678,1785,1786,1787,-1690]],"type":"Polygon","properties":{"state":"FL","name":"WEBSTER","zip":"33597"}},{"arcs":[[-1768,-1774,-1767,-1724,1788]],"type":"Polygon","properties":{"state":"FL","name":"WIMAUMA","zip":"33598"}},{"arcs":[[1789,1790,1791,1792]],"type":"Polygon","properties":{"state":"FL","name":"TAMPA","zip":"33602"}},{"arcs":[[1793,1794,1795,1796,1797,-1793]],"type":"Polygon","properties":{"state":"FL","name":"TAMPA","zip":"33603"}},{"arcs":[[1798,-1796,1799,1800,1801]],"type":"Polygon","properties":{"state":"FL","name":"TAMPA","zip":"33604"}},{"arcs":[[-1798,1802,1803,1804,1805,-1790]],"type":"Polygon","properties":{"state":"FL","name":"TAMPA","zip":"33605"}},{"arcs":[[1806,1807,1808,-1791,-1806,1809,1810]],"type":"Polygon","properties":{"state":"FL","name":"TAMPA","zip":"33606"}},{"arcs":[[1811,1812,1813,1814,-1794,-1792,-1809]],"type":"Polygon","properties":{"state":"FL","name":"TAMPA","zip":"33607"}},{"arcs":[[-1812,-1808,1815,1816]],"type":"Polygon","properties":{"state":"FL","name":"TAMPA","zip":"33609"}},{"arcs":[[1817,-1803,-1797,-1799,1818,1819,-1777]],"type":"Polygon","properties":{"state":"FL","name":"TAMPA","zip":"33610"}},{"arcs":[[1820,1821,1822,-1811,1823,1824]],"type":"Polygon","properties":{"state":"FL","name":"TAMPA","zip":"33611"}},{"arcs":[[1825,-1801,1826,1827]],"type":"Polygon","properties":{"state":"FL","name":"TAMPA","zip":"33612"}},{"arcs":[[1828,-1828,1829,-1730,-1737,-1750,1830]],"type":"Polygon","properties":{"state":"FL","name":"TAMPA","zip":"33613"}},{"arcs":[[1831,1832,1833,-1800,-1795,-1815]],"type":"Polygon","properties":{"state":"FL","name":"TAMPA","zip":"33614"}},{"arcs":[[1834,1835,1836,1837]],"type":"Polygon","properties":{"state":"FL","name":"TAMPA","zip":"33615"}},{"arcs":[[-1821,1838,1839]],"type":"Polygon","properties":{"state":"FL","name":"TAMPA","zip":"33616"}},{"arcs":[[1840,-1819,-1802,-1826,-1829,1841,1842]],"type":"Polygon","properties":{"state":"FL","name":"TAMPA","zip":"33617"}},{"arcs":[[1843,-1746,-1731,-1830,-1827,-1834]],"type":"Polygon","properties":{"state":"FL","name":"TAMPA","zip":"33618"}},{"arcs":[[-1701,1844,-1804,-1818,-1664,-1668,-1765]],"type":"Polygon","properties":{"state":"FL","name":"TAMPA","zip":"33619"}},{"type":null,"properties":{"state":"FL","name":"TAMPA","zip":"33620"}},{"arcs":[[-1839,-1825,1845]],"type":"Polygon","properties":{"state":"FL","name":"TAMPA","zip":"33621"}},{"arcs":[[-1833,1846,1847,-1747,-1844]],"type":"Polygon","properties":{"state":"FL","name":"TAMPA","zip":"33624"}},{"arcs":[[1848,-1743,-1748,-1848,1849,-1838,1850]],"type":"Polygon","properties":{"state":"FL","name":"TAMPA","zip":"33625"}},{"arcs":[[1851,1852,1853,-1744,-1849]],"type":"Polygon","properties":{"state":"FL","name":"TAMPA","zip":"33626"}},{"arcs":[[-1816,-1807,-1823,1854]],"type":"Polygon","properties":{"state":"FL","name":"TAMPA","zip":"33629"}},{"arcs":[[-1850,-1847,-1832,-1814,1855,-1835]],"type":"Polygon","properties":{"state":"FL","name":"TAMPA","zip":"33634"}},{"arcs":[[1856,-1852,-1851,-1837,1857]],"type":"Polygon","properties":{"state":"FL","name":"TAMPA","zip":"33635"}},{"arcs":[[-1820,-1841,1858,1859,-1783,-1778]],"type":"Polygon","properties":{"state":"FL","name":"TAMPA","zip":"33637"}},{"arcs":[[-1842,-1831,-1749,-1719,-1784,-1860]],"type":"Polygon","properties":{"state":"FL","name":"TAMPA","zip":"33647"}},{"arcs":[[1860,1861,1862]],"type":"Polygon","properties":{"state":"FL","name":"SAINT PETERSBURG","zip":"33701"}},{"arcs":[[1863,1864,1865,1866,1867,1868]],"type":"Polygon","properties":{"state":"FL","name":"SAINT PETERSBURG","zip":"33702"}},{"arcs":[[1869,1870,-1869,1871]],"type":"Polygon","properties":{"state":"FL","name":"SAINT PETERSBURG","zip":"33703"}},{"arcs":[[1872,-1870,1873,-1862,1874]],"type":"Polygon","properties":{"state":"FL","name":"SAINT PETERSBURG","zip":"33704"}},{"arcs":[[1875,1876,-1875,-1861,1877]],"type":"Polygon","properties":{"state":"FL","name":"SAINT PETERSBURG","zip":"33705"}},{"arcs":[[1878,1879,1880]],"type":"Polygon","properties":{"state":"FL","name":"SAINT PETERSBURG","zip":"33707"}},{"arcs":[[1881,1882]],"type":"Polygon","properties":{"state":"FL","name":"SAINT PETERSBURG","zip":"33708"}},{"arcs":[[1883,1884,1885,1886]],"type":"Polygon","properties":{"state":"FL","name":"SAINT PETERSBURG","zip":"33709"}},{"arcs":[[-1886,1887,-1881,1888]],"type":"Polygon","properties":{"state":"FL","name":"SAINT PETERSBURG","zip":"33710"}},{"arcs":[[1889,1890,-1879,1891]],"type":"Polygon","properties":{"state":"FL","name":"SAINT PETERSBURG","zip":"33711"}},{"arcs":[[-1890,1892,-1876,1893]],"type":"Polygon","properties":{"state":"FL","name":"SAINT PETERSBURG","zip":"33712"}},{"arcs":[[1894,-1873,-1877,-1893,-1892,-1888]],"type":"Polygon","properties":{"state":"FL","name":"SAINT PETERSBURG","zip":"33713"}},{"arcs":[[-1895,-1885,1895,-1864,-1871]],"type":"Polygon","properties":{"state":"FL","name":"SAINT PETERSBURG","zip":"33714"}},{"arcs":[[1896,1897,1898,-1867]],"type":"Polygon","properties":{"state":"FL","name":"SAINT PETERSBURG","zip":"33716"}},{"arcs":[[1899,1900,1901,1902,1903]],"type":"Polygon","properties":{"state":"FL","name":"CLEARWATER","zip":"33755"}},{"arcs":[[1904,1905,1906,-1901,1907]],"type":"Polygon","properties":{"state":"FL","name":"CLEARWATER","zip":"33756"}},{"arcs":[[1908,1909,1910,1911,1912,1913]],"type":"Polygon","properties":{"state":"FL","name":"CLEARWATER","zip":"33759"}},{"arcs":[[1914,1915,1916,1917,1918,1919]],"type":"Polygon","properties":{"state":"FL","name":"CLEARWATER","zip":"33760"}},{"arcs":[[1920,-1911,1921,1922,1923]],"type":"Polygon","properties":{"state":"FL","name":"CLEARWATER","zip":"33761"}},{"arcs":[[-1898,1924,-1919,1925]],"type":"Polygon","properties":{"state":"FL","name":"CLEARWATER","zip":"33762"}},{"arcs":[[1926,-1904,1927,1928,-1922,-1910]],"type":"Polygon","properties":{"state":"FL","name":"CLEARWATER","zip":"33763"}},{"arcs":[[1929,-1914,1930,-1917,1931,-1908]],"type":"Polygon","properties":{"state":"FL","name":"CLEARWATER","zip":"33764"}},{"arcs":[[-1900,-1927,-1909,-1930]],"type":"Polygon","properties":{"state":"FL","name":"CLEARWATER","zip":"33765"}},{"arcs":[[1932,1933,1934,-1906,1935]],"type":"Polygon","properties":{"state":"FL","name":"LARGO","zip":"33770"}},{"arcs":[[1936,-1936,-1905,-1932,-1916,1937]],"type":"Polygon","properties":{"state":"FL","name":"LARGO","zip":"33771"}},{"arcs":[[1938,1939,1940,1941,1942]],"type":"Polygon","properties":{"state":"FL","name":"SEMINOLE","zip":"33772"}},{"arcs":[[1943,-1941,1944,-1938,-1915,1945]],"type":"Polygon","properties":{"state":"FL","name":"LARGO","zip":"33773"}},{"arcs":[[1946,1947,-1934,1948]],"type":"Polygon","properties":{"state":"FL","name":"LARGO","zip":"33774"}},{"arcs":[[-1947,1949,-1939,1950]],"type":"Polygon","properties":{"state":"FL","name":"SEMINOLE","zip":"33776"}},{"arcs":[[1951,1952,-1942,-1944,1953]],"type":"Polygon","properties":{"state":"FL","name":"SEMINOLE","zip":"33777"}},{"arcs":[[-1949,-1933,-1937,-1945,-1940,-1950]],"type":"Polygon","properties":{"state":"FL","name":"LARGO","zip":"33778"}},{"arcs":[[-1896,-1884,1954,-1952,1955,-1865]],"type":"Polygon","properties":{"state":"FL","name":"PINELLAS PARK","zip":"33781"}},{"arcs":[[-1946,-1920,-1925,-1897,-1866,-1956,-1954]],"type":"Polygon","properties":{"state":"FL","name":"PINELLAS PARK","zip":"33782"}},{"arcs":[[-1882,1956,1957,1958]],"type":"Polygon","properties":{"state":"FL","name":"INDIAN ROCKS BEACH","zip":"33785"}},{"arcs":[[-1958,1959]],"type":"Polygon","properties":{"state":"FL","name":"BELLEAIR BEACH","zip":"33786"}},{"arcs":[[1960,1961,1962,1963,1964]],"type":"Polygon","properties":{"state":"FL","name":"LAKELAND","zip":"33801"}},{"arcs":[[1965,1966,-1962,1967,1968]],"type":"Polygon","properties":{"state":"FL","name":"LAKELAND","zip":"33803"}},{"arcs":[[1969,1970,1971,1972,-1964]],"type":"Polygon","properties":{"state":"FL","name":"LAKELAND","zip":"33805"}},{"arcs":[[1973,-1972,1974,1975,-1691,-1788]],"type":"Polygon","properties":{"state":"FL","name":"LAKELAND","zip":"33809"}},{"arcs":[[1976,-1975,-1971,1977,-1754]],"type":"Polygon","properties":{"state":"FL","name":"LAKELAND","zip":"33810"}},{"arcs":[[1978,1979,-1761,-1758,1980,-1966]],"type":"Polygon","properties":{"state":"FL","name":"LAKELAND","zip":"33811"}},{"arcs":[[1981,1982,-1979,-1969,1983]],"type":"Polygon","properties":{"state":"FL","name":"LAKELAND","zip":"33813"}},{"arcs":[[-1981,-1760,-1755,-1978,-1970,-1963,-1967]],"type":"Polygon","properties":{"state":"FL","name":"LAKELAND","zip":"33815"}},{"arcs":[[1984,1985,-1965,-1973,1986]],"type":"Polygon","properties":{"state":"FL","name":"AUBURNDALE","zip":"33823"}},{"arcs":[[1987,1988,1989,1990,1991,1992,1993,1994]],"type":"Polygon","properties":{"state":"FL","name":"AVON PARK","zip":"33825"}},{"arcs":[[1995,1996,1997]],"type":"Polygon","properties":{"state":"FL","name":"BABSON PARK","zip":"33827"}},{"arcs":[[1998,1999,2000,-1982,2001]],"type":"Polygon","properties":{"state":"FL","name":"BARTOW","zip":"33830"}},{"arcs":[[2002,-1729,2003,2004,2005,2006]],"type":"Polygon","properties":{"state":"FL","name":"BOWLING GREEN","zip":"33834"}},{"arcs":[[2007,2008,2009,2010,2011,2012]],"type":"Polygon","properties":{"state":"FL","name":"DAVENPORT","zip":"33837"}},{"arcs":[[2013,2014,2015,2016]],"type":"Polygon","properties":{"state":"FL","name":"DUNDEE","zip":"33838"}},{"arcs":[[2017,-2005,2018,-2000,2019,2020,-1994]],"type":"Polygon","properties":{"state":"FL","name":"FORT MEADE","zip":"33841"}},{"arcs":[[2021,-1998,2022,2023,-1995,-2021]],"type":"Polygon","properties":{"state":"FL","name":"FROSTPROOF","zip":"33843"}},{"arcs":[[2024,2025,-2017,2026,2027,2028,-2010]],"type":"Polygon","properties":{"state":"FL","name":"HAINES CITY","zip":"33844"}},{"arcs":[[-1753,-1711,-1976,-1977]],"type":"Polygon","properties":{"state":"FL","name":"KATHLEEN","zip":"33849"}},{"arcs":[[2027,2029,2030]],"type":"Polygon","properties":{"state":"FL","name":"LAKE ALFRED","zip":"33850"}},{"arcs":[[2031,2032,2033,2034,2035,2036,2037]],"type":"Polygon","properties":{"state":"FL","name":"LAKE PLACID","zip":"33852"}},{"arcs":[[2038,2039,-2036,2040,2041,-1989]],"type":"Polygon","properties":{"state":"FL","name":"LORIDA","zip":"33857"}},{"arcs":[[-1999,2042,-2015,2043,-1996,-2022,-2020]],"type":"Polygon","properties":{"state":"FL","name":"LAKE WALES","zip":"33859"}},{"arcs":[[-1762,-1980,-1983,-2001,-2019,-2004,-1728]],"type":"Polygon","properties":{"state":"FL","name":"MULBERRY","zip":"33860"}},{"arcs":[[2044,2045,2046,2047]],"type":"Polygon","properties":{"state":"FL","name":"ONA","zip":"33865"}},{"arcs":[[-1974,-1787,2048,2049,2050,-2011,-2029,2029,2051,-1987]],"type":"Polygon","properties":{"state":"FL","name":"POLK CITY","zip":"33868"}},{"arcs":[[2052,2053,-1990,-2042,2054]],"type":"Polygon","properties":{"state":"FL","name":"SEBRING","zip":"33870"}},{"arcs":[[2055,2056,-1991,-2054]],"type":"Polygon","properties":{"state":"FL","name":"SEBRING","zip":"33872"}},{"arcs":[[2057,-2046,-2006,-2018,-1993]],"type":"Polygon","properties":{"state":"FL","name":"WAUCHULA","zip":"33873"}},{"arcs":[[2058,-2034,2059,-2056,-2053]],"type":"Polygon","properties":{"state":"FL","name":"SEBRING","zip":"33875"}},{"arcs":[[-2059,-2055,-2041,-2035]],"type":"Polygon","properties":{"state":"FL","name":"SEBRING","zip":"33876"}},{"arcs":[[-1984,-1968,-1961,-1986,2060,2061,-2002]],"type":"Polygon","properties":{"state":"FL","name":"WINTER HAVEN","zip":"33880"}},{"arcs":[[-2052,2030,-2027,2062,-2061,-1985]],"type":"Polygon","properties":{"state":"FL","name":"WINTER HAVEN","zip":"33881"}},{"arcs":[[-2063,-2016,-2043,-2062]],"type":"Polygon","properties":{"state":"FL","name":"WINTER HAVEN","zip":"33884"}},{"arcs":[[2063,-2047,-2058,-1992,-2057,-2060,-2033]],"type":"Polygon","properties":{"state":"FL","name":"ZOLFO SPRINGS","zip":"33890"}},{"arcs":[[2064,2065,2066,2067,-2013]],"type":"Polygon","properties":{"state":"FL","name":"DAVENPORT","zip":"33896"}},{"arcs":[[-2051,2068,2069,-2065,-2012]],"type":"Polygon","properties":{"state":"FL","name":"DAVENPORT","zip":"33897"}},{"arcs":[[-2044,-2014,-2026,2070,2071,-2023,-1997]],"type":"Polygon","properties":{"state":"FL","name":"LAKE WALES","zip":"33898"}},{"arcs":[[2072,2073,2074,2075]],"type":"Polygon","properties":{"state":"FL","name":"FORT MYERS","zip":"33901"}},{"arcs":[[2076,2077,2078,2079,2080,2081]],"type":"Polygon","properties":{"state":"FL","name":"NORTH FORT MYERS","zip":"33903"}},{"arcs":[[2082,2083,2084]],"type":"Polygon","properties":{"state":"FL","name":"CAPE CORAL","zip":"33904"}},{"arcs":[[2085,2086,2087,2088,2089,2090,2091]],"type":"Polygon","properties":{"state":"FL","name":"FORT MYERS","zip":"33905"}},{"arcs":[[2092,2093,-2074,2094,2095]],"type":"Polygon","properties":{"state":"FL","name":"FORT MYERS","zip":"33907"}},{"arcs":[[2096,2097,2098,2099,-2093,2100]],"type":"Polygon","properties":{"state":"FL","name":"FORT MYERS","zip":"33908"}},{"arcs":[[2101,2102,2103,-2077]],"type":"Polygon","properties":{"state":"FL","name":"CAPE CORAL","zip":"33909"}},{"arcs":[[2104,2105,-2101,-2096,2106,-2087]],"type":"Polygon","properties":{"state":"FL","name":"FORT MYERS","zip":"33912"}},{"arcs":[[-2086,2107,2108,2109,2110,2111,-2105]],"type":"Polygon","properties":{"state":"FL","name":"FORT MYERS","zip":"33913"}},{"arcs":[[2112,-2083,2113]],"type":"Polygon","properties":{"state":"FL","name":"CAPE CORAL","zip":"33914"}},{"arcs":[[-2095,-2073,2114,-2088,-2107]],"type":"Polygon","properties":{"state":"FL","name":"FORT MYERS","zip":"33916"}},{"arcs":[[-2080,2115,2116,2117,-2090,2118]],"type":"Polygon","properties":{"state":"FL","name":"NORTH FORT MYERS","zip":"33917"}},{"arcs":[[-2100,2119,-2075,-2094]],"type":"Polygon","properties":{"state":"FL","name":"FORT MYERS","zip":"33919"}},{"arcs":[[2120,-2091,-2118,2121,-1646,2122,2123]],"type":"Polygon","properties":{"state":"FL","name":"ALVA","zip":"33920"}},{"arcs":[[2124]],"type":"Polygon","properties":{"state":"FL","name":"BOCA GRANDE","zip":"33921"}},{"arcs":[[2125,2126,2127]],"type":"Polygon","properties":{"state":"FL","name":"BOKEELIA","zip":"33922"}},{"type":null,"properties":{"state":"FL","name":"EL JOBEAN","zip":"33927"}},{"arcs":[[2128,-2097,-2106,-2112,2129,2130,2131]],"type":"Polygon","properties":{"state":"FL","name":"ESTERO","zip":"33928"}},{"arcs":[[2132,2133,-2123,-1645,-1603,2134,-2110]],"type":"Polygon","properties":{"state":"FL","name":"LABELLE","zip":"33935"}},{"arcs":[[-2109,2135,2136,-2133]],"type":"Polygon","properties":{"state":"FL","name":"LEHIGH ACRES","zip":"33936"}},{"arcs":[[2137,2138,2139,2140]],"type":"Polygon","properties":{"state":"FL","name":"PLACIDA","zip":"33946"}},{"arcs":[[2141,2142,2143,2144,-2138]],"type":"Polygon","properties":{"state":"FL","name":"ROTONDA WEST","zip":"33947"}},{"arcs":[[2145,2146,2147,2148]],"type":"Polygon","properties":{"state":"FL","name":"PORT CHARLOTTE","zip":"33948"}},{"arcs":[[2149,2150,2151,2152]],"type":"Polygon","properties":{"state":"FL","name":"PUNTA GORDA","zip":"33950"}},{"arcs":[[2153,2154,2155,-2146]],"type":"Polygon","properties":{"state":"FL","name":"PORT CHARLOTTE","zip":"33952"}},{"arcs":[[2156,2157,2158,2159,-2148,2160]],"type":"Polygon","properties":{"state":"FL","name":"PORT CHARLOTTE","zip":"33953"}},{"arcs":[[2161,-2154,-2149,-2160,2162,2163,2164,2165,2166]],"type":"Polygon","properties":{"state":"FL","name":"PORT CHARLOTTE","zip":"33954"}},{"arcs":[[-2079,2167,2168,-2151,2169,-2116]],"type":"Polygon","properties":{"state":"FL","name":"PUNTA GORDA","zip":"33955"}},{"arcs":[[-2126,2170,2171]],"type":"Polygon","properties":{"state":"FL","name":"SAINT JAMES CITY","zip":"33956"}},{"arcs":[[2172]],"type":"Polygon","properties":{"state":"FL","name":"SANIBEL","zip":"33957"}},{"arcs":[[2173,-2038,2174,-1648]],"type":"Polygon","properties":{"state":"FL","name":"VENUS","zip":"33960"}},{"arcs":[[-2108,-2092,-2121,2175,-2136]],"type":"Polygon","properties":{"state":"FL","name":"LEHIGH ACRES","zip":"33971"}},{"arcs":[[-2137,-2176,-2124,-2134]],"type":"Polygon","properties":{"state":"FL","name":"LEHIGH ACRES","zip":"33972"}},{"arcs":[[-2155,-2162,2176,-2153,2177]],"type":"Polygon","properties":{"state":"FL","name":"PORT CHARLOTTE","zip":"33980"}},{"arcs":[[-2139,-2145,2178,-2157,2179]],"type":"Polygon","properties":{"state":"FL","name":"PORT CHARLOTTE","zip":"33981"}},{"arcs":[[-2122,-2117,-2170,-2150,2180,2181,2182,-1647]],"type":"Polygon","properties":{"state":"FL","name":"PUNTA GORDA","zip":"33982"}},{"arcs":[[-2177,-2167,2183,-2181]],"type":"Polygon","properties":{"state":"FL","name":"PUNTA GORDA","zip":"33983"}},{"arcs":[[2184,-2102,-2082,2185,-2084]],"type":"Polygon","properties":{"state":"FL","name":"CAPE CORAL","zip":"33990"}},{"arcs":[[-2113,2186,2187,-2103,-2185]],"type":"Polygon","properties":{"state":"FL","name":"CAPE CORAL","zip":"33991"}},{"arcs":[[[-2168,-2078,-2104,-2188,2188]],[[-2171,-2128,2189]]],"type":"MultiPolygon","properties":{"state":"FL","name":"CAPE CORAL","zip":"33993"}},{"arcs":[[2190,2191,2192,2193,2194]],"type":"Polygon","properties":{"state":"FL","name":"NAPLES","zip":"34102"}},{"arcs":[[2195,-2191,2196,2197]],"type":"Polygon","properties":{"state":"FL","name":"NAPLES","zip":"34103"}},{"arcs":[[2198,2199,-2193,2200,2201,2202]],"type":"Polygon","properties":{"state":"FL","name":"NAPLES","zip":"34104"}},{"arcs":[[-2196,2203,2204,-2201,-2192]],"type":"Polygon","properties":{"state":"FL","name":"NAPLES","zip":"34105"}},{"arcs":[[2205,2206,-2198,2207]],"type":"Polygon","properties":{"state":"FL","name":"NAPLES","zip":"34108"}},{"arcs":[[-2207,2208,2209,-2204]],"type":"Polygon","properties":{"state":"FL","name":"NAPLES","zip":"34109"}},{"arcs":[[-2206,2210,2211,2212,2213,-2209]],"type":"Polygon","properties":{"state":"FL","name":"NAPLES","zip":"34110"}},{"arcs":[[-2194,-2200,2214,2215,2216]],"type":"Polygon","properties":{"state":"FL","name":"NAPLES","zip":"34112"}},{"arcs":[[-2216,2217,2218]],"type":"Polygon","properties":{"state":"FL","name":"NAPLES","zip":"34113"}},{"arcs":[[2219,2220,2221,-2218,-2215,-2199]],"type":"Polygon","properties":{"state":"FL","name":"NAPLES","zip":"34114"}},{"arcs":[[2222,-2202,-2205,2223]],"type":"Polygon","properties":{"state":"FL","name":"NAPLES","zip":"34116"}},{"arcs":[[2224,2225,-2220,-2203,-2223,2226,2227]],"type":"Polygon","properties":{"state":"FL","name":"NAPLES","zip":"34117"}},{"arcs":[[-2224,-2210,-2214,2228,2229,-2227]],"type":"Polygon","properties":{"state":"FL","name":"NAPLES","zip":"34119"}},{"arcs":[[2230,-2131,2231,-2228,-2230]],"type":"Polygon","properties":{"state":"FL","name":"NAPLES","zip":"34120"}},{"arcs":[[-2098,-2129,2232,-2212,2233]],"type":"Polygon","properties":{"state":"FL","name":"BONITA SPRINGS","zip":"34134"}},{"arcs":[[-2132,-2231,-2229,-2213,-2233]],"type":"Polygon","properties":{"state":"FL","name":"BONITA SPRINGS","zip":"34135"}},{"arcs":[[-2221,-2226,2234,-7,-33,-66,2235]],"type":"Polygon","properties":{"state":"FL","name":"OCHOPEE","zip":"34141"}},{"arcs":[[-2235,-2225,-2232,-2130,-2111,-2135,-1602,-8]],"type":"Polygon","properties":{"state":"FL","name":"IMMOKALEE","zip":"34142"}},{"arcs":[[2236]],"type":"Polygon","properties":{"state":"FL","name":"MARCO ISLAND","zip":"34145"}},{"arcs":[[2237,2238,2239,2240]],"type":"Polygon","properties":{"state":"FL","name":"BRADENTON","zip":"34201"}},{"arcs":[[2241,2242,-2241,2243,2244]],"type":"Polygon","properties":{"state":"FL","name":"BRADENTON","zip":"34202"}},{"arcs":[[2245,2246,2247,2248,-2244,-2240]],"type":"Polygon","properties":{"state":"FL","name":"BRADENTON","zip":"34203"}},{"arcs":[[2249,2250,2251,2252,2253]],"type":"Polygon","properties":{"state":"FL","name":"BRADENTON","zip":"34205"}},{"arcs":[[2254,2255,2256,-2251,-2247]],"type":"Polygon","properties":{"state":"FL","name":"BRADENTON","zip":"34207"}},{"arcs":[[2257,-2248,-2250,2258,2259,2260]],"type":"Polygon","properties":{"state":"FL","name":"BRADENTON","zip":"34208"}},{"arcs":[[2261,2262,2263,-2253]],"type":"Polygon","properties":{"state":"FL","name":"BRADENTON","zip":"34209"}},{"arcs":[[-2252,-2257,2264,-2262]],"type":"Polygon","properties":{"state":"FL","name":"BRADENTON","zip":"34210"}},{"arcs":[[2265,-2245,-2249,-2258,2266]],"type":"Polygon","properties":{"state":"FL","name":"BRADENTON","zip":"34211"}},{"arcs":[[2267,-2267,-2261,2268,2269]],"type":"Polygon","properties":{"state":"FL","name":"BRADENTON","zip":"34212"}},{"arcs":[[2270,-2270,2271,2272,-1789,-1723,-2003]],"type":"Polygon","properties":{"state":"FL","name":"PARRISH","zip":"34219"}},{"arcs":[[2273,-2259,-2254,-2264,2274,-1769,-2273]],"type":"Polygon","properties":{"state":"FL","name":"PALMETTO","zip":"34221"}},{"arcs":[[-2274,-2272,-2269,-2260]],"type":"Polygon","properties":{"state":"FL","name":"ELLENTON","zip":"34222"}},{"arcs":[[2275,2276,2277,2278]],"type":"Polygon","properties":{"state":"FL","name":"ENGLEWOOD","zip":"34223"}},{"arcs":[[[-2144,2279,-2276,2280,2281,-2158,-2179]],[[-2142,-2141,2282]]],"type":"MultiPolygon","properties":{"state":"FL","name":"ENGLEWOOD","zip":"34224"}},{"arcs":[[2283,2284,2285,2286]],"type":"Polygon","properties":{"state":"FL","name":"OSPREY","zip":"34229"}},{"arcs":[[2287,2288,2289,-2284,2290]],"type":"Polygon","properties":{"state":"FL","name":"SARASOTA","zip":"34231"}},{"arcs":[[2291,2292,2293,2294,2295]],"type":"Polygon","properties":{"state":"FL","name":"SARASOTA","zip":"34232"}},{"arcs":[[-2292,2296,2297,-2289]],"type":"Polygon","properties":{"state":"FL","name":"SARASOTA","zip":"34233"}},{"arcs":[[2298,2299,2300,2301,2302]],"type":"Polygon","properties":{"state":"FL","name":"SARASOTA","zip":"34234"}},{"arcs":[[2303,-2238,2304,-2295,2305,-2303]],"type":"Polygon","properties":{"state":"FL","name":"SARASOTA","zip":"34235"}},{"arcs":[[2306,2307,2308,-2300]],"type":"Polygon","properties":{"state":"FL","name":"SARASOTA","zip":"34236"}},{"arcs":[[2309,-2307,-2299,-2306,-2294]],"type":"Polygon","properties":{"state":"FL","name":"SARASOTA","zip":"34237"}},{"arcs":[[-2290,-2298,2310,2311,-2285]],"type":"Polygon","properties":{"state":"FL","name":"SARASOTA","zip":"34238"}},{"arcs":[[-2288,2312,-2308,-2310,-2293]],"type":"Polygon","properties":{"state":"FL","name":"SARASOTA","zip":"34239"}},{"arcs":[[-2305,-2243,2313,2314,-2296]],"type":"Polygon","properties":{"state":"FL","name":"SARASOTA","zip":"34240"}},{"arcs":[[2315,2316,2317,2318,-2311,-2297,-2315,2319]],"type":"Polygon","properties":{"state":"FL","name":"SARASOTA","zip":"34241"}},{"arcs":[[-2255,-2246,-2239,-2304,-2302,2320]],"type":"Polygon","properties":{"state":"FL","name":"SARASOTA","zip":"34243"}},{"arcs":[[-2242,-2266,-2268,-2271,-2007,-2045,2321,-2320,-2314]],"type":"Polygon","properties":{"state":"FL","name":"MYAKKA CITY","zip":"34251"}},{"arcs":[[2322,2323,-2316,-2322,-2048,-2064,-2032,-2174,-2183]],"type":"Polygon","properties":{"state":"FL","name":"ARCADIA","zip":"34266"}},{"arcs":[[2324,-2323,-2182,-2184,-2166]],"type":"Polygon","properties":{"state":"FL","name":"ARCADIA","zip":"34269"}},{"arcs":[[2325,2326,-2286,-2312,-2319]],"type":"Polygon","properties":{"state":"FL","name":"NOKOMIS","zip":"34275"}},{"arcs":[[2327,-2278,2328,2329]],"type":"Polygon","properties":{"state":"FL","name":"VENICE","zip":"34285"}},{"arcs":[[2330,-2163,2331,2332,-2317,-2324,-2325,-2165]],"type":"Polygon","properties":{"state":"FL","name":"NORTH PORT","zip":"34286"}},{"arcs":[[-2282,2333,2334,-2332,-2159]],"type":"Polygon","properties":{"state":"FL","name":"NORTH PORT","zip":"34287"}},{"arcs":[[-2331,-2164]],"type":"Polygon","properties":{"state":"FL","name":"NORTH PORT","zip":"34288"}},{"arcs":[[-2326,-2318,-2333,-2335,2335,-2330,2336]],"type":"Polygon","properties":{"state":"FL","name":"VENICE","zip":"34292"}},{"arcs":[[-2281,-2279,-2328,-2336,-2334]],"type":"Polygon","properties":{"state":"FL","name":"VENICE","zip":"34293"}},{"arcs":[[2337,2338,2339,-342,2340]],"type":"Polygon","properties":{"state":"FL","name":"BELLEVIEW","zip":"34420"}},{"arcs":[[2341,2342,2343,2344,2345]],"type":"Polygon","properties":{"state":"FL","name":"CRYSTAL RIVER","zip":"34428"}},{"arcs":[[[2346,2347,2348,-2343,2349]],[[2350]]],"type":"MultiPolygon","properties":{"state":"FL","name":"CRYSTAL RIVER","zip":"34429"}},{"arcs":[[2351,2352,2353,-842]],"type":"Polygon","properties":{"state":"FL","name":"DUNNELLON","zip":"34431"}},{"arcs":[[2354,2355,-2352,-841,2356,2357,2358,2359,-1706]],"type":"Polygon","properties":{"state":"FL","name":"DUNNELLON","zip":"34432"}},{"arcs":[[2360,-2346,2361,-2353,2362]],"type":"Polygon","properties":{"state":"FL","name":"DUNNELLON","zip":"34433"}},{"arcs":[[-2356,2363,2364,-2363]],"type":"Polygon","properties":{"state":"FL","name":"DUNNELLON","zip":"34434"}},{"arcs":[[2365,2366,2367,-1672]],"type":"Polygon","properties":{"state":"FL","name":"FLORAL CITY","zip":"34436"}},{"arcs":[[2368,2369,2370,-2364,-2355,-1705]],"type":"Polygon","properties":{"state":"FL","name":"HERNANDO","zip":"34442"}},{"arcs":[[2371,2372,2373,2374]],"type":"Polygon","properties":{"state":"FL","name":"HOMOSASSA","zip":"34446"}},{"arcs":[[2375,2376,-2348,2377,-2373]],"type":"Polygon","properties":{"state":"FL","name":"HOMOSASSA","zip":"34448"}},{"arcs":[[-814,-816,-812,-843,-2354,-2362,-2345,2378,2379,2380]],"type":"Polygon","properties":{"state":"FL","name":"INGLIS","zip":"34449"}},{"arcs":[[-2368,2381,2382,-1703,-1673]],"type":"Polygon","properties":{"state":"FL","name":"INVERNESS","zip":"34450"}},{"arcs":[[2383,2384,-2382,-2367,2385,-2375]],"type":"Polygon","properties":{"state":"FL","name":"INVERNESS","zip":"34452"}},{"arcs":[[-2385,2386,-2369,-1704,-2383]],"type":"Polygon","properties":{"state":"FL","name":"INVERNESS","zip":"34453"}},{"arcs":[[-2347,2387,-2370,-2387,-2384,-2374,-2378]],"type":"Polygon","properties":{"state":"FL","name":"LECANTO","zip":"34461"}},{"arcs":[[-2350,-2342,-2361,-2365,-2371,-2388]],"type":"Polygon","properties":{"state":"FL","name":"BEVERLY HILLS","zip":"34465"}},{"arcs":[[2388,2389,2390,2391,2392]],"type":"Polygon","properties":{"state":"FL","name":"OCALA","zip":"34470"}},{"arcs":[[2393,2394,2395,-2391]],"type":"Polygon","properties":{"state":"FL","name":"OCALA","zip":"34471"}},{"arcs":[[2396,-2394,-2390,-343,-2340]],"type":"Polygon","properties":{"state":"FL","name":"OCALA","zip":"34472"}},{"arcs":[[2397,2398,-2338,2399,2400,-1707,-2360]],"type":"Polygon","properties":{"state":"FL","name":"OCALA","zip":"34473"}},{"arcs":[[2401,2402,2403,2404,2405,-2396]],"type":"Polygon","properties":{"state":"FL","name":"OCALA","zip":"34474"}},{"arcs":[[-2406,2406,-850,-250,2407,-2392]],"type":"Polygon","properties":{"state":"FL","name":"OCALA","zip":"34475"}},{"arcs":[[2408,-2403,2409,-2398,-2359]],"type":"Polygon","properties":{"state":"FL","name":"OCALA","zip":"34476"}},{"arcs":[[-249,-800,2410,-2393,-2408]],"type":"Polygon","properties":{"state":"FL","name":"OCALA","zip":"34479"}},{"arcs":[[-2402,-2395,-2397,-2339,-2399,-2410]],"type":"Polygon","properties":{"state":"FL","name":"OCALA","zip":"34480"}},{"arcs":[[-2358,2411,-2404,-2409]],"type":"Polygon","properties":{"state":"FL","name":"OCALA","zip":"34481"}},{"arcs":[[-2405,-2412,-2357,-846,-851,-2407]],"type":"Polygon","properties":{"state":"FL","name":"OCALA","zip":"34482"}},{"arcs":[[2412,-1708,-2401,2413,-327,-321]],"type":"Polygon","properties":{"state":"FL","name":"OXFORD","zip":"34484"}},{"arcs":[[-43,-344,-2389,-2411,-799,-292]],"type":"Polygon","properties":{"state":"FL","name":"SILVER SPRINGS","zip":"34488"}},{"arcs":[[-2400,-2341,-341,-356,-323,-328,-2414]],"type":"Polygon","properties":{"state":"FL","name":"SUMMERFIELD","zip":"34491"}},{"arcs":[[-2380,2414]],"type":"Polygon","properties":{"state":"FL","name":"YANKEETOWN","zip":"34498"}},{"arcs":[[2415,2416,-2386,-2366,-1671,2417,2418]],"type":"Polygon","properties":{"state":"FL","name":"BROOKSVILLE","zip":"34601"}},{"arcs":[[2419,-2418,-1785,-1682]],"type":"Polygon","properties":{"state":"FL","name":"BROOKSVILLE","zip":"34602"}},{"arcs":[[2420,2421,2422,-2419,-2420,-1681]],"type":"Polygon","properties":{"state":"FL","name":"BROOKSVILLE","zip":"34604"}},{"arcs":[[2423,2424,2425,2426]],"type":"Polygon","properties":{"state":"FL","name":"SPRING HILL","zip":"34606"}},{"arcs":[[2427,2428,2429,2430,-2424]],"type":"Polygon","properties":{"state":"FL","name":"SPRING HILL","zip":"34607"}},{"arcs":[[2431,2432,2433,-2426,2434]],"type":"Polygon","properties":{"state":"FL","name":"SPRING HILL","zip":"34608"}},{"arcs":[[2435,-2432,2436,-2422]],"type":"Polygon","properties":{"state":"FL","name":"SPRING HILL","zip":"34609"}},{"arcs":[[2437,2438,-2433,-2436,-2421,-1680,-1689,2439]],"type":"Polygon","properties":{"state":"FL","name":"SPRING HILL","zip":"34610"}},{"arcs":[[-2425,-2431,2440,-2416,-2423,-2437,-2435]],"type":"Polygon","properties":{"state":"FL","name":"BROOKSVILLE","zip":"34613"}},{"arcs":[[-2376,-2372,-2417,-2441,-2430,2441]],"type":"Polygon","properties":{"state":"FL","name":"BROOKSVILLE","zip":"34614"}},{"arcs":[[-1741,2442,2443,-2440,-1688,-1775,-1720,-1751,-1735,-1745]],"type":"Polygon","properties":{"state":"FL","name":"LAND O LAKES","zip":"34639"}},{"arcs":[[2444,2445,2446,2447,2448]],"type":"Polygon","properties":{"state":"FL","name":"NEW PORT RICHEY","zip":"34652"}},{"arcs":[[2449,2450,-2448,2451,2452]],"type":"Polygon","properties":{"state":"FL","name":"NEW PORT RICHEY","zip":"34653"}},{"arcs":[[2453,2454,-2444,2455,-2453]],"type":"Polygon","properties":{"state":"FL","name":"NEW PORT RICHEY","zip":"34654"}},{"arcs":[[2456,2457,-2450,-2456,-2443,-1740]],"type":"Polygon","properties":{"state":"FL","name":"NEW PORT RICHEY","zip":"34655"}},{"arcs":[[-2428,-2427,-2434,-2439,2458,2459,2460]],"type":"Polygon","properties":{"state":"FL","name":"HUDSON","zip":"34667"}},{"arcs":[[-2460,-2454,-2452,-2447,2461]],"type":"Polygon","properties":{"state":"FL","name":"PORT RICHEY","zip":"34668"}},{"arcs":[[-2455,-2459,-2438]],"type":"Polygon","properties":{"state":"FL","name":"HUDSON","zip":"34669"}},{"arcs":[[2462,2463,2464,-1853,-1857,2465]],"type":"Polygon","properties":{"state":"FL","name":"OLDSMAR","zip":"34677"}},{"arcs":[[-1929,2466,2467,2468,2469,-1923]],"type":"Polygon","properties":{"state":"FL","name":"PALM HARBOR","zip":"34683"}},{"arcs":[[-1924,-2470,2470,2471,-2464]],"type":"Polygon","properties":{"state":"FL","name":"PALM HARBOR","zip":"34684"}},{"arcs":[[2472,2473,-1738,-1854,-2465,-2472]],"type":"Polygon","properties":{"state":"FL","name":"PALM HARBOR","zip":"34685"}},{"arcs":[[-2474,2474,2475,-2457,-1739]],"type":"Polygon","properties":{"state":"FL","name":"TARPON SPRINGS","zip":"34688"}},{"arcs":[[2476,2477,-2475,-2473,-2471,-2469,2478]],"type":"Polygon","properties":{"state":"FL","name":"TARPON SPRINGS","zip":"34689"}},{"arcs":[[-2478,2479,-2449,-2451,-2458,-2476]],"type":"Polygon","properties":{"state":"FL","name":"HOLIDAY","zip":"34690"}},{"arcs":[[-2445,-2480,-2477,2480]],"type":"Polygon","properties":{"state":"FL","name":"HOLIDAY","zip":"34691"}},{"arcs":[[-1912,-1921,-2463,2481]],"type":"Polygon","properties":{"state":"FL","name":"SAFETY HARBOR","zip":"34695"}},{"arcs":[[-2467,-1928,-1903,2482]],"type":"Polygon","properties":{"state":"FL","name":"DUNEDIN","zip":"34698"}},{"arcs":[[2483,2484,-972,-944]],"type":"Polygon","properties":{"state":"FL","name":"ASTATULA","zip":"34705"}},{"arcs":[[-2050,2485,2486,-2484,-943,2487,2488,2489,-2069]],"type":"Polygon","properties":{"state":"FL","name":"CLERMONT","zip":"34711"}},{"arcs":[[2490,2491,2492,-326]],"type":"Polygon","properties":{"state":"FL","name":"FRUITLAND PARK","zip":"34731"}},{"arcs":[[2493,2494,-1036,-1079,2495]],"type":"Polygon","properties":{"state":"FL","name":"GOTHA","zip":"34734"}},{"arcs":[[-2049,-1786,-1677,-1782,2496,2497,2498,-2486]],"type":"Polygon","properties":{"state":"FL","name":"GROVELAND","zip":"34736"}},{"arcs":[[-2487,-2499,2499,2500,-973,-2485]],"type":"Polygon","properties":{"state":"FL","name":"HOWEY IN THE HILLS","zip":"34737"}},{"arcs":[[2501,-2024,-2072,2502,2503,2504,-20,-62]],"type":"Polygon","properties":{"state":"FL","name":"KENANSVILLE","zip":"34739"}},{"arcs":[[2505,-1081,2506]],"type":"Polygon","properties":{"state":"FL","name":"KISSIMMEE","zip":"34741"}},{"arcs":[[2507,-1060]],"type":"Polygon","properties":{"state":"FL","name":"KISSIMMEE","zip":"34743"}},{"arcs":[[2508,2509,2510,-2507,-1083,-2508,-1059,2511]],"type":"Polygon","properties":{"state":"FL","name":"KISSIMMEE","zip":"34744"}},{"arcs":[[2512,-2067,2513,-1051,-1082,-2506,-2511,2514,2515]],"type":"Polygon","properties":{"state":"FL","name":"KISSIMMEE","zip":"34746"}},{"arcs":[[-2066,-2070,2516,-1070,-1047,-2514]],"type":"Polygon","properties":{"state":"FL","name":"KISSIMMEE","zip":"34747"}},{"arcs":[[-2500,-2498,2517,2518,-2492,2519,-970,2520]],"type":"Polygon","properties":{"state":"FL","name":"LEESBURG","zip":"34748"}},{"arcs":[[2521,-2489]],"type":"Polygon","properties":{"state":"FL","name":"MONTVERDE","zip":"34756"}},{"arcs":[[-2068,-2513,2522,-2008]],"type":"Polygon","properties":{"state":"FL","name":"KISSIMMEE","zip":"34758"}},{"arcs":[[-2071,-2025,-2009,-2523,-2516,2523,-2503]],"type":"Polygon","properties":{"state":"FL","name":"KISSIMMEE","zip":"34759"}},{"arcs":[[2524,-867,-1037,-2495]],"type":"Polygon","properties":{"state":"FL","name":"OCOEE","zip":"34761"}},{"arcs":[[2525,-2518,-2497,-1781]],"type":"Polygon","properties":{"state":"FL","name":"OKAHUMPKA","zip":"34762"}},{"arcs":[[2526,-2509,2527]],"type":"Polygon","properties":{"state":"FL","name":"SAINT CLOUD","zip":"34769"}},{"arcs":[[-2512,-1076,-877,2528,2529,-2528]],"type":"Polygon","properties":{"state":"FL","name":"SAINT CLOUD","zip":"34771"}},{"arcs":[[-2515,-2510,-2527,-2530,2530,-2504,-2524]],"type":"Polygon","properties":{"state":"FL","name":"SAINT CLOUD","zip":"34772"}},{"arcs":[[-2529,-883,2531,-1147,-21,-2505,-2531]],"type":"Polygon","properties":{"state":"FL","name":"SAINT CLOUD","zip":"34773"}},{"arcs":[[-2413,-320,-2493,-2519,-2526,-1780,-1675,-1709]],"type":"Polygon","properties":{"state":"FL","name":"WILDWOOD","zip":"34785"}},{"arcs":[[2532,-2496,-1078,-1042,-1080,-1072]],"type":"Polygon","properties":{"state":"FL","name":"WINDERMERE","zip":"34786"}},{"arcs":[[-1071,-2517,-2490,-2522,-2488,-947,-860,-2525,-2494,-2533]],"type":"Polygon","properties":{"state":"FL","name":"WINTER GARDEN","zip":"34787"}},{"arcs":[[-971,-2520,-2491,-325,-979,-920,-912]],"type":"Polygon","properties":{"state":"FL","name":"LEESBURG","zip":"34788"}},{"arcs":[[-2521,-969,-2501]],"type":"Polygon","properties":{"state":"FL","name":"YALAHA","zip":"34797"}},{"arcs":[[2533,2534,2535,-1165,-1170,2536,2537,2538]],"type":"Polygon","properties":{"state":"FL","name":"FORT PIERCE","zip":"34945"}},{"arcs":[[2539,2540,2541,-1161,2542]],"type":"Polygon","properties":{"state":"FL","name":"FORT PIERCE","zip":"34946"}},{"arcs":[[2543,-2538,2544,-2541,2545]],"type":"Polygon","properties":{"state":"FL","name":"FORT PIERCE","zip":"34947"}},{"arcs":[[[-1162,2546]],[[2547,2548]]],"type":"MultiPolygon","properties":{"state":"FL","name":"FORT PIERCE","zip":"34949"}},{"arcs":[[2549,-2546,-2540,2550]],"type":"Polygon","properties":{"state":"FL","name":"FORT PIERCE","zip":"34950"}},{"arcs":[[-2545,-2537,-1169,-1158,-2542]],"type":"Polygon","properties":{"state":"FL","name":"FORT PIERCE","zip":"34951"}},{"arcs":[[2551,2552,2553,2554,2555,2556,2557]],"type":"Polygon","properties":{"state":"FL","name":"PORT SAINT LUCIE","zip":"34952"}},{"arcs":[[2558,2559,2560,2561,2562]],"type":"Polygon","properties":{"state":"FL","name":"PORT SAINT LUCIE","zip":"34953"}},{"arcs":[[2563,-1642,-1601,2564,2565,2566,2567,-2561]],"type":"Polygon","properties":{"state":"FL","name":"INDIANTOWN","zip":"34956"}},{"arcs":[[[-2548,2568,2569,2570]],[[2571,2572,2573,-2552,2574,2575]]],"type":"MultiPolygon","properties":{"state":"FL","name":"JENSEN BEACH","zip":"34957"}},{"arcs":[[2576,-2039,-1988,-2502,-61,-1166,-2536,2577,-2567]],"type":"Polygon","properties":{"state":"FL","name":"OKEECHOBEE","zip":"34972"}},{"arcs":[[-2037,-2040,-2577,-2566,2578,-1649,-2175]],"type":"Polygon","properties":{"state":"FL","name":"OKEECHOBEE","zip":"34974"}},{"arcs":[[2579,-2557,2580,2581,2582,-2539,-2544]],"type":"Polygon","properties":{"state":"FL","name":"FORT PIERCE","zip":"34981"}},{"arcs":[[-2575,-2558,-2580,-2550,2583]],"type":"Polygon","properties":{"state":"FL","name":"FORT PIERCE","zip":"34982"}},{"arcs":[[2584,2585,-2581,-2556]],"type":"Polygon","properties":{"state":"FL","name":"PORT SAINT LUCIE","zip":"34983"}},{"arcs":[[2586,-2559,2587,-2585,-2555,2588]],"type":"Polygon","properties":{"state":"FL","name":"PORT SAINT LUCIE","zip":"34984"}},{"arcs":[[-2563,2589,-2582,-2586,-2588]],"type":"Polygon","properties":{"state":"FL","name":"PORT SAINT LUCIE","zip":"34986"}},{"arcs":[[-2568,2590,-2534,-2583,-2590,-2562]],"type":"Polygon","properties":{"state":"FL","name":"PORT SAINT LUCIE","zip":"34987"}},{"arcs":[[-2578,-2535,-2591]],"type":"Polygon","properties":{"state":"FL","name":"PORT SAINT LUCIE","zip":"34988"}},{"arcs":[[-2560,-2587,2591,2592,2593,-1622,-1653,-1643,-2564]],"type":"Polygon","properties":{"state":"FL","name":"PALM CITY","zip":"34990"}},{"arcs":[[[-2553,-2574,2594]],[[2595,-2593,2596,2597]]],"type":"MultiPolygon","properties":{"state":"FL","name":"STUART","zip":"34994"}},{"arcs":[[[-2570,2598]],[[-2572,2599]],[[2600,-2598,2601]]],"type":"MultiPolygon","properties":{"state":"FL","name":"STUART","zip":"34996"}},{"arcs":[[-2594,-2596,-2601,2602,-1623]],"type":"Polygon","properties":{"state":"FL","name":"STUART","zip":"34997"}}]}},"arcs":[[[34577,1564],[-27,8]],[[34550,1572],[-18,7]],[[34532,1579],[-14,-117]],[[34518,1462],[5,-74]],[[34523,1388],[-5,0]],[[34518,1388],[-338,23]],[[34180,1411],[-4,199]],[[34176,1610],[0,89]],[[34176,1699],[0,76]],[[34176,1775],[455,3]],[[34631,1778],[0,-8]],[[34631,1770],[0,-41]],[[34631,1729],[0,-30]],[[34631,1699],[0,-31]],[[34631,1668],[0,-20]],[[34631,1648],[0,-18]],[[34631,1630],[-54,-66]],[[34338,3392],[0,-89]],[[34338,3303],[-153,0]],[[34185,3303],[0,112]],[[34185,3415],[4,323]],[[34189,3738],[95,-18]],[[34284,3720],[-4,-119]],[[34280,3601],[-46,63],[73,-134]],[[34307,3530],[0,-46]],[[34307,3484],[-5,-92],[36,0]],[[34424,926],[0,-23]],[[34424,903],[-50,-23],[9,-84],[131,-92]],[[34514,704],[9,-50]],[[34523,654],[-41,-28],[50,-87],[-36,87],[-153,-69],[-149,30]],[[34194,587],[-14,283]],[[34180,870],[0,363]],[[34180,1233],[0,178]],[[34518,1388],[41,-55]],[[34559,1333],[-50,-107]],[[34509,1226],[5,-38]],[[34514,1188],[-41,0]],[[34473,1188],[-135,0],[0,-219],[77,79]],[[34415,1048],[22,-61]],[[34437,987],[-9,-16]],[[34428,971],[-4,-45]],[[33446,4557],[-18,122]],[[33428,4679],[9,13]],[[33437,4692],[144,-8]],[[33581,4684],[0,-25]],[[33581,4659],[-13,-171]],[[33568,4488],[-122,69]],[[34667,1808],[18,-30]],[[34685,1778],[-54,0]],[[34176,1775],[-5,282]],[[34171,2057],[136,3]],[[34307,2060],[112,20]],[[34419,2080],[95,-33],[63,87],[49,-72]],[[34626,2062],[23,-20]],[[34649,2042],[31,-53]],[[34680,1989],[9,-56]],[[34689,1933],[-9,-59]],[[34680,1874],[-13,-66]],[[34442,3184],[4,-21]],[[34446,3163],[-108,-25],[-81,79],[-18,-92],[-59,33]],[[34180,3158],[0,51]],[[34180,3209],[5,94]],[[34338,3303],[0,-119],[104,0]],[[34180,870],[-171,-5],[45,71],[-94,43]],[[33960,979],[-50,-3],[-49,130],[81,28],[-90,97]],[[33852,1231],[328,2]],[[33852,1124],[-54,84],[63,15],[-9,-99]],[[34194,587],[-185,-56],[-40,46],[0,166],[103,-112],[81,15],[-58,117],[-131,43],[50,43],[-95,69],[41,61]],[[34086,628],[-41,23],[41,46],[0,-69]],[[33541,5617],[-41,3]],[[33500,5620],[5,10]],[[33505,5630],[31,59],[5,-72]],[[32523,5358],[5,109],[49,26],[-27,40]],[[32550,5533],[158,-10]],[[32708,5523],[-27,-56],[40,-63]],[[32721,5404],[-9,-13]],[[32712,5391],[-126,-33]],[[32586,5358],[-63,0]],[[33266,5910],[23,163]],[[33289,6073],[45,0]],[[33334,6073],[99,-59]],[[33433,6014],[-36,-41]],[[33397,5973],[-131,-94]],[[33266,5879],[0,31]],[[33487,6070],[-54,-56]],[[33334,6073],[31,150],[131,5]],[[33496,6228],[72,-115]],[[33568,6113],[-81,-43]],[[32330,5806],[18,-150],[45,-16]],[[32393,5640],[-158,28]],[[32235,5668],[4,138]],[[32239,5806],[64,0]],[[32303,5806],[27,0]],[[32816,5470],[-41,119],[-27,-61],[-63,28]],[[32685,5556],[-67,72]],[[32618,5628],[13,0]],[[32631,5628],[54,-16],[0,135]],[[32685,5747],[86,-25]],[[32771,5722],[99,-262]],[[32870,5460],[-54,10]],[[32865,5554],[27,-76]],[[32892,5478],[-22,-18]],[[32771,5722],[176,23]],[[32947,5745],[0,-67]],[[32947,5678],[-14,-43]],[[32933,5635],[-72,0],[4,-81]],[[33798,5371],[13,-92]],[[33811,5279],[-139,13]],[[33672,5292],[-5,35]],[[33667,5327],[108,69]],[[33775,5396],[23,-25]],[[33640,6276],[54,5],[54,-25],[-18,-183]],[[33730,6073],[-76,22]],[[33654,6095],[27,133],[-41,48]],[[32708,5523],[-23,33]],[[32816,5470],[-68,-13],[54,-96],[-81,43]],[[33194,5684],[-36,0]],[[33158,5684],[-99,0]],[[33059,5684],[-4,122],[63,114],[-32,53],[54,-2]],[[33140,5971],[59,-61]],[[33199,5910],[-9,-92],[-90,-71],[166,-10]],[[33266,5737],[0,-53]],[[33266,5684],[-72,0]],[[33460,5371],[-9,101],[-68,33]],[[33383,5505],[0,11]],[[33383,5516],[45,94],[72,10]],[[33541,5617],[81,-277]],[[33622,5340],[-162,31]],[[33248,5322],[-18,-10]],[[33230,5312],[-54,61]],[[33176,5373],[-58,13]],[[33118,5386],[18,61]],[[33136,5447],[112,-125]],[[33289,6073],[0,277],[90,38],[148,-84]],[[33527,6304],[-31,-76]],[[32388,5933],[-22,30]],[[32366,5963],[18,74],[112,43],[-13,94]],[[32483,6174],[22,-2],[261,-21]],[[32766,6151],[-27,-71],[41,-86]],[[32780,5994],[-54,-82],[-117,23]],[[32609,5935],[-149,56],[-72,-58]],[[32366,5963],[-18,54]],[[32348,6017],[-27,132]],[[32321,6149],[-14,38]],[[32307,6187],[18,-3],[158,-10]],[[32865,5554],[68,81]],[[32947,5678],[112,6]],[[33158,5684],[-58,-117]],[[33100,5567],[-122,-107]],[[32978,5460],[-86,18]],[[32947,6136],[0,-391]],[[32685,5747],[0,92]],[[32685,5839],[81,40],[14,115]],[[32766,6151],[81,-7],[100,-8]],[[33266,5684],[0,-90]],[[33266,5594],[-76,-40],[-32,53]],[[33158,5607],[36,77]],[[32303,5806],[-46,132],[91,79]],[[32388,5933],[-58,-127]],[[32456,5656],[-27,-13]],[[32429,5643],[-36,-3]],[[32609,5935],[54,-73]],[[32663,5862],[-72,-176]],[[32591,5686],[-171,31],[36,-61]],[[32618,5628],[-162,28]],[[32591,5686],[67,-20],[-27,-38]],[[33266,5879],[0,-142]],[[33199,5910],[67,0]],[[33487,5653],[-32,25]],[[33455,5678],[45,3]],[[33500,5681],[-13,-28]],[[32523,5358],[-247,-3]],[[32276,5355],[-41,82]],[[32235,5437],[0,231]],[[32429,5643],[121,-110]],[[33383,5516],[-67,78]],[[33316,5594],[49,135]],[[33365,5729],[14,0]],[[33379,5729],[27,3]],[[33406,5732],[13,0]],[[33419,5732],[36,-54]],[[33487,5653],[18,-23]],[[33419,5732],[18,0]],[[33437,5732],[95,7]],[[33532,5739],[13,-2]],[[33545,5737],[-45,-56]],[[33910,5200],[-9,31]],[[33901,5231],[14,-31]],[[33915,5200],[-5,0]],[[33793,5605],[-9,66],[-36,-23]],[[33748,5648],[-4,147]],[[33744,5795],[4,0]],[[33748,5795],[36,3]],[[33784,5798],[63,-310]],[[33847,5488],[-18,20]],[[33829,5508],[-36,97]],[[33131,5577],[-31,-10]],[[33158,5607],[-27,-30]],[[33847,5488],[9,-44],[-27,64]],[[33843,5401],[-45,-30]],[[33775,5396],[-22,74]],[[33753,5470],[85,2]],[[33838,5472],[5,-71]],[[33910,5200],[-49,-15]],[[33861,5185],[-50,94]],[[33843,5401],[58,-170]],[[32947,6136],[31,-2],[158,-13],[4,-150]],[[33136,5447],[-5,130]],[[33266,5594],[50,0]],[[33383,5505],[0,-48],[-117,-13],[0,-127]],[[33266,5317],[-18,5]],[[33563,5594],[41,-48],[90,59]],[[33694,5605],[59,-135]],[[33667,5327],[-45,120],[27,58],[-86,89]],[[32663,5862],[22,-23]],[[33694,5605],[14,40]],[[33708,5645],[40,3]],[[33793,5605],[45,-133]],[[33527,6304],[45,-3],[68,-25]],[[33654,6095],[-45,44]],[[33609,6139],[-41,-26]],[[33694,4600],[-27,-5]],[[33667,4595],[-27,74],[-59,-10]],[[33581,4684],[5,104]],[[33586,4788],[108,-188]],[[33658,4702],[63,-15],[-31,-46]],[[33690,4641],[-32,61]],[[33757,4842],[-13,79]],[[33744,4921],[-68,104]],[[33676,5025],[0,97]],[[33676,5122],[0,27]],[[33676,5149],[27,-5]],[[33703,5144],[171,-139]],[[33874,5005],[72,-79]],[[33946,4926],[-76,-145]],[[33870,4781],[-45,0]],[[33825,4781],[-68,0],[0,61]],[[33744,4921],[-95,-46]],[[33649,4875],[-72,58]],[[33577,4933],[-23,79]],[[33554,5012],[27,3]],[[33581,5015],[28,-44],[31,59]],[[33640,5030],[9,3]],[[33649,5033],[27,-8]],[[33563,4893],[-58,0],[27,58],[-54,54]],[[33478,5005],[67,-13]],[[33545,4992],[18,-99]],[[33266,4872],[-63,-25]],[[33203,4847],[-4,-8]],[[33199,4839],[-23,13]],[[33176,4852],[-40,104]],[[33136,4956],[90,-15],[54,76]],[[33280,5017],[-14,-145]],[[34018,4684],[-18,54]],[[34000,4738],[14,7]],[[34014,4745],[49,3]],[[34063,4748],[18,-46]],[[34081,4702],[-58,-31]],[[34023,4671],[-5,13]],[[34014,4745],[36,36]],[[34050,4781],[13,-33]],[[34108,4666],[-4,-2]],[[34104,4664],[-50,119]],[[34054,4783],[9,3]],[[34063,4786],[45,-120]],[[34090,4664],[-45,-21]],[[34045,4643],[-22,28]],[[34081,4702],[9,-38]],[[34018,4684],[0,-109]],[[34018,4575],[-36,-38]],[[33982,4537],[-27,142],[-72,-25]],[[33883,4654],[-40,81]],[[33843,4735],[-18,46]],[[33870,4781],[22,-84],[108,41]],[[34108,4666],[32,-76],[-36,74]],[[34108,4600],[-40,5]],[[34068,4605],[-5,23]],[[34063,4628],[32,31]],[[34095,4659],[13,-59]],[[34068,4605],[9,-43],[-59,13]],[[34045,4643],[18,-15]],[[34090,4664],[5,-5]],[[33816,4621],[-50,12]],[[33766,4633],[36,21],[-40,40],[81,41]],[[33883,4654],[-67,-33]],[[33676,5122],[-54,33]],[[33622,5155],[-32,68],[82,64]],[[33672,5287],[4,-138]],[[34122,4460],[31,59]],[[34153,4519],[14,-36]],[[34167,4483],[-45,-23]],[[33437,4692],[-45,117],[-117,-8]],[[33275,4801],[-9,71]],[[33280,5017],[72,21]],[[33352,5038],[126,-33]],[[33563,4893],[23,-105]],[[34005,4928],[-45,-2]],[[33960,4926],[-18,73]],[[33942,4999],[22,61]],[[33964,5060],[41,-109]],[[34005,4951],[0,-20]],[[34005,4931],[0,-3]],[[33703,5144],[158,41]],[[33915,5200],[49,-140]],[[33942,4999],[-32,82],[-36,-76]],[[33649,4875],[-13,-5]],[[33636,4870],[-59,63]],[[33460,5371],[-14,-120]],[[33446,5251],[-81,8]],[[33365,5259],[-4,53]],[[33361,5312],[99,59]],[[34144,4376],[-22,84]],[[34167,4483],[27,-71]],[[34194,4412],[-50,-36]],[[33672,5287],[0,5]],[[33352,5038],[-32,114],[54,38],[-45,33]],[[33329,5223],[36,36]],[[33446,5251],[81,-46],[-22,-119],[31,13]],[[33536,5099],[9,-107]],[[33338,4422],[-36,15]],[[33302,4437],[0,21]],[[33302,4458],[14,13]],[[33316,4471],[36,0]],[[33352,4471],[76,0]],[[33428,4471],[0,-69]],[[33428,4402],[-90,20]],[[33302,4458],[-13,13]],[[33289,4471],[27,0]],[[33960,4926],[-14,0]],[[33942,4488],[-9,21]],[[33933,4509],[49,28]],[[34108,4600],[32,-30],[4,-31],[9,-20]],[[34122,4460],[-23,-84],[-72,49],[-13,-69],[-36,53]],[[33978,4409],[-36,79]],[[34243,4389],[-4,0]],[[34239,4389],[-95,198],[99,-198]],[[34005,4928],[45,-147]],[[34005,4951],[58,-165]],[[34054,4783],[-49,148]],[[33622,5340],[9,-89],[-59,-23],[46,-91],[-82,-38]],[[33338,4509],[-22,33]],[[33316,4542],[13,28]],[[33329,4570],[32,43],[-54,86]],[[33307,4699],[121,-20]],[[33446,4557],[-13,-53]],[[33433,4504],[-95,5]],[[33766,4633],[-18,-5]],[[33748,4628],[-58,13]],[[33658,4702],[14,114]],[[33672,4816],[85,26]],[[33581,5015],[59,15]],[[33649,5033],[-36,91]],[[33613,5124],[9,31]],[[33554,5012],[-4,107],[63,5]],[[33672,4816],[-36,54]],[[33352,4471],[-14,38]],[[33433,4504],[-5,-33]],[[33559,5867],[4,15]],[[33563,5882],[5,7]],[[33568,5889],[27,-10]],[[33595,5879],[-36,-12]],[[33545,5851],[-4,16]],[[33541,5867],[0,12]],[[33541,5879],[22,3]],[[33559,5867],[-14,-16]],[[33532,5834],[-50,10]],[[33482,5844],[0,18]],[[33482,5862],[59,5]],[[33545,5851],[-13,-17]],[[33568,5889],[-9,31]],[[33559,5920],[27,0]],[[33586,5920],[9,-41]],[[33604,5867],[14,-8]],[[33618,5859],[-19,-48]],[[33599,5811],[-22,-5]],[[33577,5806],[-14,56],[41,5]],[[33559,5920],[-45,20]],[[33514,5940],[-5,28]],[[33509,5968],[81,-30]],[[33590,5938],[-4,-18]],[[33541,5879],[-23,38]],[[33518,5917],[-4,23]],[[33550,5790],[0,-2]],[[33550,5788],[-90,5]],[[33460,5793],[-36,-3]],[[33424,5790],[58,54]],[[33532,5834],[18,-44]],[[33609,5892],[45,8]],[[33654,5900],[-5,-36]],[[33649,5864],[-31,-5]],[[33604,5867],[5,25]],[[33532,5739],[18,49]],[[33550,5790],[-5,-53]],[[33379,5729],[45,61]],[[33424,5790],[-18,-58]],[[33649,5862],[5,-67]],[[33654,5795],[-41,-10]],[[33613,5785],[-14,26]],[[33649,5864],[0,-2]],[[33613,5785],[9,-20]],[[33622,5765],[-23,-5]],[[33599,5760],[-22,46]],[[33609,6139],[22,-178]],[[33631,5961],[-41,-23]],[[33509,5968],[-22,102]],[[33518,5917],[-27,-2]],[[33491,5915],[-90,5]],[[33401,5920],[-4,53]],[[33482,5862],[-76,-8]],[[33406,5854],[-77,-8],[72,74]],[[33491,5915],[-9,-53]],[[33365,5729],[41,125]],[[33460,5793],[-23,-61]],[[33581,5729],[32,-18]],[[33613,5711],[5,-38]],[[33618,5673],[-59,13],[22,43]],[[33753,5854],[-5,-59]],[[33744,5795],[-63,3]],[[33681,5798],[45,69]],[[33726,5867],[18,2]],[[33744,5869],[9,-15]],[[33654,5900],[0,12]],[[33654,5912],[72,16]],[[33726,5928],[18,-59]],[[33726,5867],[-77,-5]],[[33730,6073],[41,-122],[-140,10]],[[33775,5872],[-31,-3]],[[33726,5928],[22,17],[27,-15],[0,-58]],[[33681,5798],[-27,-3]],[[33753,5854],[22,0]],[[33775,5854],[9,-56]],[[33708,5645],[-63,84]],[[33645,5729],[-23,36]],[[33645,5729],[-32,-18]],[[33581,5729],[18,31]],[[33708,5645],[-95,26]],[[33613,5671],[5,2]],[[33563,5594],[50,77]],[[33775,5872],[0,-18]],[[33609,5892],[-10,46],[55,-26]],[[31519,5961],[0,10],[0,7],[0,6]],[[31519,5984],[0,15]],[[31519,5999],[9,-3]],[[31528,5996],[40,8]],[[31568,6004],[0,-5]],[[31568,5999],[-31,-46]],[[31537,5953],[-18,8]],[[31519,5999],[-86,35]],[[31433,6034],[9,69]],[[31442,6103],[41,46]],[[31483,6149],[58,-125]],[[31541,6024],[-13,-28]],[[31519,5984],[-95,38]],[[31424,6022],[5,2]],[[31429,6024],[4,10]],[[31537,5953],[95,-135]],[[31632,5818],[-217,31]],[[31415,5849],[-27,25],[131,87]],[[31541,6024],[5,28]],[[31546,6052],[63,-23]],[[31609,6029],[-41,-25]],[[31753,6073],[-144,-44]],[[31546,6052],[126,181]],[[31672,6233],[68,-5]],[[31740,6228],[13,-155]],[[31415,5849],[-81,-3]],[[31334,5846],[-144,0]],[[31190,5846],[50,89]],[[31240,5935],[184,87]],[[31568,5999],[118,-38]],[[31686,5961],[0,-44]],[[31686,5917],[0,-99]],[[31686,5818],[-54,0]],[[31483,6149],[40,91]],[[31523,6240],[149,-7]],[[31753,6073],[-67,-112]],[[30794,5223],[153,132]],[[30947,5355],[45,-83]],[[30992,5272],[-198,-49]],[[30866,5157],[-72,51],[117,-5],[-45,-46]],[[30983,5551],[-36,-43]],[[30947,5508],[-86,74],[14,160]],[[30875,5742],[144,417]],[[31019,6159],[117,-92]],[[31136,6067],[-135,-111],[9,-56],[54,2],[-13,-129],[-72,-89],[4,-133]],[[31150,5322],[-50,28],[77,79],[-27,120]],[[31150,5549],[171,0]],[[31321,5549],[31,-23]],[[31352,5526],[-4,-74]],[[31348,5452],[-198,-130]],[[31181,6261],[18,-87]],[[31199,6174],[-157,13]],[[31042,6187],[31,81]],[[31073,6268],[108,-7]],[[31420,5589],[4,135],[-58,-15],[-32,137]],[[31686,5818],[0,-180]],[[31686,5638],[-221,-51]],[[31465,5587],[-45,2]],[[30947,5355],[5,133]],[[30952,5488],[-5,20]],[[30983,5551],[167,-2]],[[31150,5322],[-99,-68],[27,91],[-32,-5],[-54,-68]],[[30929,5114],[275,188],[-207,-158],[-109,8],[41,-38]],[[32118,6202],[31,-193],[-81,-160],[90,-43]],[[32158,5806],[-279,30]],[[31879,5836],[81,155]],[[31960,5991],[0,221]],[[31960,6212],[63,-5],[95,-5]],[[31442,6103],[-85,-41]],[[31357,6062],[-9,61]],[[31348,6123],[31,125]],[[31379,6248],[68,-3],[76,-5]],[[31136,6067],[104,-132]],[[31190,5846],[45,-208],[86,-89]],[[31686,5917],[81,-15],[63,122],[130,-33]],[[31879,5836],[-126,-208]],[[31753,5628],[-67,10]],[[32118,6202],[103,-7]],[[32221,6195],[0,-79],[55,25],[0,-53],[45,61]],[[32239,5806],[-81,0]],[[31429,6024],[-72,38]],[[31740,6228],[99,-8],[103,-8],[18,0]],[[31352,5526],[68,63]],[[31465,5587],[-27,-56],[40,-23],[-81,-8],[86,-17],[-5,-49],[-130,18]],[[32235,5668],[-230,-43],[59,-33],[-32,-186]],[[32032,5406],[-279,222]],[[32203,5233],[-4,-33]],[[32199,5200],[-99,56],[-68,150]],[[32235,5437],[-59,-8],[27,-196]],[[32221,6195],[23,-3],[63,-5]],[[31019,6159],[23,28]],[[31199,6174],[14,-2],[22,-13],[113,-36]],[[31181,6261],[149,-8],[49,-5]],[[32276,5355],[-5,-48]],[[32271,5307],[-68,-74]],[[32298,5236],[32,-137],[-73,-87]],[[32257,5012],[-58,188]],[[32271,5307],[27,-71]],[[30492,5717],[-4,-41]],[[30488,5676],[-99,53]],[[30389,5729],[103,-12]],[[30659,5564],[4,-104]],[[30663,5460],[-229,208],[225,-104]],[[30492,5717],[0,66]],[[30492,5783],[-4,17]],[[30488,5800],[4,13]],[[30492,5813],[18,36]],[[30510,5849],[153,46]],[[30663,5895],[0,-150]],[[30663,5745],[-4,-171]],[[30659,5574],[-171,102]],[[30389,5729],[45,41]],[[30434,5770],[58,13]],[[30380,5714],[-45,5]],[[30335,5719],[-32,23]],[[30303,5742],[5,31]],[[30308,5773],[63,12],[9,-71]],[[30380,5714],[13,-53],[-58,58]],[[30335,5836],[-50,132]],[[30285,5968],[32,23]],[[30317,5991],[90,-2]],[[30407,5989],[40,0]],[[30447,5989],[45,-16],[-36,-35],[54,-89]],[[30492,5813],[-85,-33],[-72,56]],[[30303,5742],[-171,99]],[[30132,5841],[-23,74]],[[30109,5915],[81,-59],[0,49]],[[30190,5905],[95,63]],[[30335,5836],[-27,-63]],[[30713,6256],[36,-110],[-50,-28]],[[30699,6118],[-31,0]],[[30668,6118],[-41,3]],[[30627,6121],[-22,107]],[[30605,6228],[108,28]],[[30943,6159],[-14,-107],[-72,0],[-27,-71]],[[30830,5981],[-167,31]],[[30663,6012],[5,106]],[[30699,6118],[244,41]],[[30852,6563],[113,0],[59,-165]],[[31024,6398],[-50,99],[23,-66],[-59,10]],[[30938,6441],[-104,54]],[[30834,6495],[18,68]],[[30816,5745],[32,101]],[[30848,5846],[-18,135]],[[30943,6159],[76,0]],[[30875,5742],[-59,3]],[[30497,6390],[-36,-155]],[[30461,6235],[-72,-12]],[[30389,6223],[4,96],[-67,31]],[[30326,6350],[-50,71],[41,137]],[[30317,6558],[49,0],[36,0],[63,0],[50,3]],[[30515,6561],[-18,-171]],[[30677,6449],[-27,58]],[[30650,6507],[-32,54]],[[30618,6561],[32,0],[58,2]],[[30708,6563],[27,-66],[-58,-48]],[[30389,6223],[-104,2]],[[30285,6225],[23,33]],[[30308,6258],[18,92]],[[30407,5989],[54,246]],[[30497,6390],[94,-15]],[[30591,6375],[18,-46],[-49,-15],[45,-86]],[[30627,6121],[-40,-3],[0,-106]],[[30587,6012],[-140,-23]],[[30848,5846],[-185,49]],[[30663,5895],[0,89]],[[30663,5984],[0,28]],[[30699,6345],[14,-89]],[[30591,6375],[59,132]],[[30677,6449],[-27,-53],[40,17],[9,-68]],[[29880,6263],[54,51],[-14,74]],[[29920,6388],[36,170]],[[29956,6558],[86,0],[63,-2]],[[30105,6556],[40,-115]],[[30145,6441],[-31,-35],[45,-127]],[[30159,6279],[-194,30],[-85,-99]],[[29880,6210],[0,53]],[[30186,6116],[-68,40],[-162,-78]],[[29956,6078],[-76,-13],[0,71]],[[29880,6136],[0,74]],[[30159,6279],[49,-18],[-13,-92],[-59,3],[50,-56]],[[30190,5905],[0,48]],[[30190,5953],[95,74]],[[30285,6027],[32,-36]],[[30663,5984],[-76,28]],[[29911,6017],[45,61]],[[30186,6116],[31,-97],[-40,-76]],[[30177,5943],[-86,0]],[[30091,5943],[-63,112],[-117,-38]],[[30515,6561],[103,0]],[[30943,6159],[-41,120]],[[30902,6279],[23,104]],[[30925,6383],[40,15],[77,-211]],[[30938,6441],[-13,-58]],[[30925,6383],[-59,-33],[18,53],[-86,13],[14,107]],[[30812,6523],[22,-28]],[[30434,5770],[54,30]],[[30812,6523],[-27,43]],[[30785,6566],[67,-3]],[[30708,6563],[72,3],[5,0]],[[30902,6279],[-203,66]],[[30816,5745],[-153,0]],[[30190,5953],[-13,-10]],[[30145,6441],[14,51],[45,-71],[-23,-53],[41,28],[86,-138]],[[30285,6225],[-31,-33],[31,-165]],[[30794,5223],[-117,-10],[-32,181],[36,-186],[50,122],[-68,130]],[[30659,5564],[0,3]],[[30659,5567],[135,-153],[54,130],[104,-56]],[[29934,5915],[4,48]],[[29938,5963],[158,-30]],[[30096,5933],[13,-18]],[[30132,5841],[-198,74]],[[31024,6398],[49,-130]],[[30096,5933],[-5,10]],[[30105,6556],[108,0],[104,2]],[[30659,5567],[0,7]],[[29218,5948],[-14,10]],[[29204,5958],[27,41]],[[29231,5999],[27,-31]],[[29258,5968],[-40,-20]],[[29231,5999],[-31,56]],[[29200,6055],[9,0]],[[29209,6055],[13,0]],[[29222,6055],[54,-51]],[[29276,6004],[-18,-36]],[[29222,6055],[59,2]],[[29281,6057],[-5,-53]],[[29204,5963],[-22,36]],[[29182,5999],[4,58]],[[29186,6057],[14,-2]],[[29204,5958],[0,5]],[[29141,5978],[41,21]],[[29204,5963],[-135,-81]],[[29069,5882],[5,69],[67,27]],[[29218,5948],[-63,-36]],[[29155,5912],[-14,-33]],[[29141,5879],[-121,-17],[49,20]],[[29002,5826],[0,2],[162,44],[-162,-46]],[[29155,5912],[45,-20],[-59,-13]],[[29209,6055],[-5,66]],[[29204,6121],[32,-3]],[[29236,6118],[18,-17]],[[29254,6101],[27,-44]],[[29069,6050],[18,76]],[[29087,6126],[59,-41]],[[29146,6085],[40,-28]],[[29141,5978],[-72,72]],[[29736,6434],[-72,-140]],[[29664,6294],[-95,79]],[[29569,6373],[5,188]],[[29574,6561],[189,-3]],[[29763,6558],[-27,-124]],[[29204,6121],[-58,-36]],[[29087,6126],[5,99]],[[29092,6225],[103,26]],[[29195,6251],[41,-133]],[[29281,6563],[-99,-91]],[[29182,6472],[-153,20],[-5,69]],[[29024,6561],[99,0],[158,2]],[[29677,6238],[-13,56]],[[29736,6434],[40,-21]],[[29776,6413],[-36,-162]],[[29740,6251],[-63,-13]],[[29776,6413],[50,56],[94,-81]],[[29880,6263],[-140,-12]],[[29875,5945],[0,-20]],[[29875,5925],[-90,20],[90,0]],[[29411,6111],[149,76]],[[29560,6187],[117,51]],[[29880,6136],[-90,-51]],[[29790,6085],[4,-33]],[[29794,6052],[14,-18],[-45,-38],[-36,26],[-5,2]],[[29722,6024],[-58,33],[-14,-73]],[[29650,5984],[-22,-21]],[[29628,5963],[-64,18]],[[29564,5981],[-112,33]],[[29452,6014],[-59,41],[18,56]],[[29628,5956],[0,7]],[[29650,5984],[14,-6]],[[29664,5978],[0,-15]],[[29664,5963],[-9,-7]],[[29655,5956],[-27,0]],[[29686,5981],[-22,-3]],[[29722,6024],[-36,-43]],[[29686,5953],[-22,10]],[[29686,5981],[41,-25],[-41,-3]],[[29564,5935],[0,5]],[[29564,5940],[221,-5],[-221,0]],[[29875,5945],[63,18]],[[29934,5915],[-59,10]],[[29474,5923],[27,2]],[[29501,5925],[-328,-48],[301,46]],[[29285,5915],[27,0]],[[29312,5915],[-63,-8],[36,8]],[[29285,5915],[144,58]],[[29429,5973],[14,-30]],[[29443,5943],[-131,-28]],[[29560,6187],[-5,64],[-108,-18]],[[29447,6233],[45,20],[0,115],[77,5]],[[29173,6324],[-9,5]],[[29164,6329],[18,143]],[[29281,6563],[193,-2]],[[29474,6561],[-36,-115],[-117,-2],[14,-107],[-72,0]],[[29263,6337],[-90,-13]],[[29429,5973],[77,16],[-54,25]],[[29564,5981],[0,-25]],[[29564,5956],[-121,-13]],[[29564,5935],[-63,-10]],[[29474,5923],[90,17]],[[29763,6558],[193,0]],[[29164,6329],[-171,-22]],[[28993,6307],[-81,119],[31,114],[0,21],[81,0]],[[29628,5956],[-64,0]],[[29686,5953],[-31,3]],[[29447,6233],[-108,-69]],[[29339,6164],[-76,173]],[[29474,6561],[63,0],[37,0]],[[29195,6251],[-22,73]],[[29339,6164],[-49,-43]],[[29290,6121],[-36,-20]],[[29092,6225],[-99,74],[0,8]],[[29799,6070],[-9,15]],[[29911,6017],[-112,53]],[[29799,6070],[-5,-18]],[[29411,6111],[-76,-122],[-45,132]],[[33041,5170],[0,10]],[[33041,5180],[0,8]],[[33041,5188],[0,7]],[[33041,5195],[27,0]],[[33068,5195],[-27,-53]],[[33041,5142],[0,28]],[[33014,5165],[14,23]],[[33028,5188],[13,0]],[[33041,5180],[-27,-15]],[[33028,5188],[-50,0]],[[32978,5188],[27,45]],[[33005,5233],[32,-2]],[[33037,5231],[4,-36]],[[32978,5188],[-40,0]],[[32938,5188],[-37,40]],[[32901,5228],[14,10]],[[32915,5238],[90,-5]],[[32933,5157],[5,31]],[[33014,5165],[-81,-21]],[[32933,5144],[0,13]],[[33041,5142],[-54,-87]],[[32987,5055],[-54,16],[0,73]],[[33014,5165],[27,5]],[[33037,5231],[-27,130]],[[33010,5361],[0,12]],[[33010,5373],[108,13]],[[33176,5373],[-22,-109]],[[33154,5264],[9,-33]],[[33163,5231],[-95,-36]],[[33010,5361],[-95,-123]],[[32901,5228],[-72,16]],[[32829,5244],[5,89],[58,20],[-22,107]],[[32978,5460],[32,-87]],[[33275,4801],[-27,-23]],[[33248,4778],[-45,69]],[[32987,5055],[-4,-45]],[[32983,5010],[-145,-13]],[[32838,4997],[-22,66]],[[32816,5063],[117,94]],[[32555,5200],[31,158]],[[32712,5391],[14,-81]],[[32726,5310],[-81,-41],[27,-117],[-117,48]],[[32703,4852],[90,208]],[[32793,5060],[23,3]],[[32838,4997],[50,-31],[-54,-112]],[[32834,4854],[-95,-76]],[[32739,4778],[-36,74]],[[32465,4778],[144,38]],[[32609,4816],[4,-137]],[[32613,4679],[-130,13],[-18,86]],[[32703,4852],[-94,-36]],[[32465,4778],[-32,59]],[[32433,4837],[108,221]],[[32541,5058],[239,33]],[[32780,5091],[13,-31]],[[32388,5183],[86,10],[27,-74],[-113,43]],[[32388,5162],[0,21]],[[33244,5218],[-50,71]],[[33194,5289],[41,3]],[[33235,5292],[9,-74]],[[33136,4956],[13,23]],[[33149,4979],[-54,54],[63,20],[0,66]],[[33158,5119],[5,112]],[[33154,5264],[40,25]],[[33244,5218],[85,5]],[[33158,5119],[-27,-41],[-90,64]],[[32789,5256],[-63,54]],[[32829,5244],[-40,12]],[[32388,5162],[-27,-241]],[[32361,4921],[-104,91]],[[32298,5236],[90,-53]],[[33361,5312],[-95,5]],[[33235,5292],[-5,20]],[[32987,5010],[-4,0]],[[33149,4979],[-162,31]],[[33014,4760],[-54,-28]],[[32960,4732],[-122,-7]],[[32838,4725],[-31,-43],[-68,96]],[[32834,4854],[167,8]],[[33001,4862],[18,-25]],[[33019,4837],[-5,-77]],[[32780,5091],[9,165]],[[32555,5200],[-14,-142]],[[32433,4837],[-72,84]],[[33176,4852],[-22,-10]],[[33154,4842],[-135,-5]],[[33001,4862],[45,28],[-59,20],[0,100]],[[33780,4150],[0,36]],[[33780,4186],[31,0]],[[33811,4186],[5,-21]],[[33816,4165],[-14,-15]],[[33802,4150],[-22,0]],[[33667,4595],[-36,-122]],[[33631,4473],[-63,15]],[[33654,4102],[-18,7]],[[33636,4109],[-18,117]],[[33618,4226],[108,-33]],[[33726,4193],[9,-10]],[[33735,4183],[4,-41]],[[33739,4142],[-22,-7]],[[33717,4135],[-45,-38]],[[33672,4097],[-18,5]],[[33829,4201],[36,-59]],[[33865,4142],[-31,-12]],[[33834,4130],[-9,18]],[[33825,4148],[-9,17]],[[33811,4186],[18,15]],[[33888,4214],[-18,-72]],[[33870,4142],[-5,0]],[[33829,4201],[32,18]],[[33861,4219],[27,-5]],[[34140,3842],[-131,0]],[[34009,3842],[0,54]],[[34009,3896],[99,2],[-90,143]],[[34018,4041],[45,10],[-63,64]],[[34000,4115],[86,0]],[[34086,4115],[90,-112],[4,-161]],[[34180,3842],[-40,0]],[[33762,4293],[-36,-100]],[[33618,4226],[4,67]],[[33622,4293],[140,0]],[[33811,4430],[59,-13]],[[33870,4417],[-5,-41]],[[33865,4376],[-63,-20],[9,74]],[[33735,4183],[45,10]],[[33780,4193],[0,-7]],[[33780,4150],[-9,-8]],[[33771,4142],[-32,0]],[[33816,4621],[36,-135]],[[33852,4486],[-32,10]],[[33820,4496],[-126,117],[54,15]],[[33798,4384],[-9,-13]],[[33789,4371],[-41,-7]],[[33748,4364],[23,96],[-54,44]],[[33717,4504],[58,28]],[[33775,4532],[23,-148]],[[33933,4509],[-50,-44]],[[33883,4465],[-31,21]],[[33910,4468],[14,-112]],[[33924,4356],[-5,-43]],[[33919,4313],[-54,63]],[[33870,4417],[9,41]],[[33879,4458],[31,10]],[[33563,4392],[18,-54]],[[33581,4338],[-36,-10]],[[33545,4328],[-45,15]],[[33500,4343],[5,36]],[[33505,4379],[22,28]],[[33527,4407],[36,-15]],[[33825,4148],[-23,2]],[[33951,4178],[18,64],[-36,5]],[[33933,4247],[9,40]],[[33942,4287],[81,39],[36,-117]],[[34059,4209],[-108,-31]],[[33505,4379],[-14,66]],[[33491,4445],[36,-38]],[[33627,4338],[-46,0]],[[33563,4392],[100,48]],[[33663,4440],[54,64]],[[33748,4364],[-121,-26]],[[33910,4468],[32,20]],[[33978,4409],[-54,-53]],[[33879,4458],[4,7]],[[33834,4293],[9,-56]],[[33843,4237],[-50,0]],[[33793,4237],[-13,61]],[[33780,4298],[54,-5]],[[33780,4193],[13,44]],[[33843,4237],[18,-18]],[[33834,4130],[-5,-3]],[[33829,4127],[-49,-15]],[[33780,4112],[-9,30]],[[34063,4295],[90,46]],[[34153,4341],[45,-43]],[[34198,4298],[23,-135]],[[34221,4163],[-113,-48]],[[34108,4115],[-45,180]],[[33572,4109],[-22,54]],[[33550,4163],[-5,89]],[[33545,4252],[32,41],[-32,35]],[[33627,4338],[-5,-45]],[[33636,4109],[-64,0]],[[34153,4341],[-9,35]],[[34194,4412],[54,-114]],[[34248,4298],[-41,0]],[[34207,4298],[-9,0]],[[33811,4430],[9,66]],[[34063,4295],[-144,18]],[[33874,4112],[-4,30]],[[33888,4214],[45,33]],[[33951,4178],[9,-63]],[[33960,4115],[-41,0]],[[33919,4115],[-45,-3]],[[34059,4209],[27,-94]],[[34000,4115],[-40,0]],[[33694,4600],[81,-68]],[[33663,4440],[-32,33]],[[33942,4293],[-108,0]],[[33780,4298],[-18,2]],[[33762,4300],[27,71]],[[33798,4384],[144,-91]],[[33942,4293],[0,-6]],[[33762,4300],[0,-7]],[[33487,4244],[-32,46]],[[33455,4290],[18,36]],[[33473,4326],[27,17]],[[33545,4252],[-54,-23]],[[33491,4229],[-4,15]],[[34257,3990],[-59,-5]],[[34198,3985],[-18,2]],[[34180,3987],[-45,56]],[[34135,4043],[99,66]],[[34234,4109],[23,-119]],[[33491,4445],[-63,26]],[[33829,4127],[0,-51]],[[33829,4076],[-36,8]],[[33793,4084],[-13,23]],[[33780,4107],[0,5]],[[33874,4112],[-9,-28]],[[33865,4084],[-27,-8]],[[33838,4076],[-9,0]],[[34135,4043],[-27,72]],[[34221,4163],[13,-10]],[[34234,4153],[0,-44]],[[33784,4031],[-4,22]],[[33780,4053],[9,8]],[[33789,4061],[18,-30]],[[33807,4031],[-23,0]],[[33838,4076],[-13,-40]],[[33825,4036],[-18,-5]],[[33789,4061],[4,23]],[[33780,4053],[-18,0]],[[33762,4053],[-5,46]],[[33757,4099],[23,8]],[[33784,4031],[0,-26]],[[33784,4005],[-36,0]],[[33748,4005],[0,43]],[[33748,4048],[14,5]],[[33825,4031],[-5,-39]],[[33820,3992],[-27,-7]],[[33793,3985],[-9,20]],[[33825,4036],[0,-5]],[[33865,4084],[0,-15]],[[33865,4069],[-4,-31]],[[33861,4038],[-23,-15]],[[33838,4023],[-13,8]],[[33726,4048],[-9,0]],[[33717,4048],[0,64]],[[33717,4112],[40,-13]],[[33748,4048],[-22,0]],[[33820,3949],[-22,-7]],[[33798,3942],[-32,-13]],[[33766,3929],[-31,41]],[[33735,3970],[58,15]],[[33820,3992],[0,-43]],[[33717,4112],[0,23]],[[33748,4005],[-13,-28]],[[33735,3977],[-9,15]],[[33726,3992],[0,56]],[[33843,3949],[-23,0]],[[33838,4023],[5,-74]],[[34248,4298],[18,-64],[-59,64]],[[34234,4153],[46,94],[85,-87],[-126,229]],[[34243,4389],[154,-277]],[[34397,4112],[4,-137]],[[34401,3975],[0,101],[-36,-76]],[[34365,4000],[-72,15]],[[34293,4015],[0,94],[-59,44]],[[33919,4066],[-54,3]],[[33919,4115],[0,-49]],[[33685,4051],[-9,0]],[[33676,4051],[-4,46]],[[33717,4048],[-32,3]],[[33766,3929],[-13,-10]],[[33753,3919],[-41,-13]],[[33712,3906],[-36,30]],[[33676,3936],[9,56]],[[33685,3992],[41,0]],[[33735,3977],[0,-7]],[[34018,4041],[-54,25]],[[33964,4066],[-4,49]],[[33681,3842],[-14,0]],[[33667,3842],[23,31]],[[33690,3873],[22,33]],[[33753,3919],[-50,-77]],[[33703,3842],[-22,0]],[[33870,4008],[4,-61]],[[33874,3947],[5,0]],[[33879,3947],[-36,2]],[[33861,4038],[9,-30]],[[33784,3842],[-18,87]],[[33798,3942],[54,-74],[40,30]],[[33892,3898],[9,-56]],[[33901,3842],[-67,0]],[[33834,3842],[-50,0]],[[33919,4066],[32,-56]],[[33951,4010],[-5,-25]],[[33946,3985],[-76,23]],[[33964,4066],[-45,0]],[[33879,3947],[13,-49]],[[33964,4066],[9,-58]],[[33973,4008],[-22,2]],[[33946,3985],[5,-36]],[[33951,3949],[-77,-2]],[[33667,3842],[-49,18]],[[33618,3860],[13,69]],[[33631,3929],[9,-3]],[[33640,3926],[50,-53]],[[33973,4008],[14,-59]],[[33987,3949],[-36,0]],[[34009,3842],[-108,0]],[[33987,3949],[22,-53]],[[33685,3992],[0,39]],[[33685,4031],[0,20]],[[33640,3926],[36,10]],[[33766,3842],[-31,0]],[[33735,3842],[-32,0]],[[33784,3842],[-18,0]],[[34365,3522],[-27,71]],[[34338,3593],[45,3]],[[34383,3596],[18,-46]],[[34401,3550],[-36,-28]],[[34424,3565],[-9,0]],[[34415,3565],[-23,59]],[[34392,3624],[18,5]],[[34410,3629],[14,-64]],[[34352,3522],[-45,8]],[[34280,3601],[58,-8]],[[34365,3522],[-13,0]],[[34419,3497],[-27,2]],[[34392,3499],[-40,23]],[[34401,3550],[18,-53]],[[34392,3499],[-9,-15]],[[34383,3484],[-45,0]],[[34338,3484],[-31,0]],[[34338,3484],[0,-92]],[[34383,3484],[9,-76]],[[34392,3408],[9,-39]],[[34401,3369],[-13,-66]],[[34388,3303],[-50,0]],[[34397,4112],[58,-160],[-90,-46],[36,69]],[[34392,3875],[-4,-7]],[[34388,3868],[-27,33],[31,-26]],[[34275,3840],[5,58]],[[34280,3898],[18,-53]],[[34298,3845],[-23,-5]],[[34397,3705],[-18,-2]],[[34379,3703],[9,63]],[[34388,3766],[4,0]],[[34392,3766],[5,-61]],[[34275,3840],[-18,-18]],[[34257,3822],[-86,59],[9,106]],[[34198,3985],[0,-61],[77,5]],[[34275,3929],[5,-31]],[[34257,3990],[18,-61]],[[34388,3766],[0,102]],[[34392,3875],[0,-109]],[[34338,3677],[0,-84]],[[34284,3720],[14,0]],[[34298,3720],[40,-43]],[[34338,3677],[14,3]],[[34352,3680],[31,-84]],[[34397,3705],[13,-76]],[[34392,3624],[-13,79]],[[34298,3720],[-14,51],[54,-48]],[[34338,3723],[14,-43]],[[34433,3250],[9,-66]],[[34388,3303],[76,0]],[[34464,3303],[-31,-53]],[[34392,3408],[59,12]],[[34451,3420],[9,-28]],[[34460,3392],[-59,-23]],[[34419,3497],[32,-77]],[[34424,3565],[85,-226],[-94,226]],[[34320,3901],[5,2]],[[34325,3903],[27,-109],[-32,107]],[[34311,3853],[23,0]],[[34334,3853],[58,-222],[-81,222]],[[34365,4000],[-63,-97],[-9,112]],[[34320,3901],[14,-48]],[[34311,3853],[14,50]],[[34189,3738],[0,99]],[[34189,3837],[68,-15]],[[34298,3845],[40,-122]],[[34527,3232],[-94,18]],[[34464,3303],[18,31]],[[34482,3334],[45,-102]],[[34541,3092],[-14,0]],[[34527,3092],[0,54]],[[34527,3146],[36,5]],[[34563,3151],[5,-49]],[[34568,3102],[-27,-10]],[[34572,3031],[-31,0]],[[34541,3031],[0,61]],[[34568,3102],[18,-71]],[[34586,3031],[-14,0]],[[34613,3026],[-5,5]],[[34608,3031],[-94,310],[99,-315]],[[34527,3092],[-139,0],[0,-58]],[[34388,3034],[-54,-3]],[[34334,3031],[-86,8],[9,81],[-77,38]],[[34446,3163],[81,-17]],[[34527,3232],[36,-81]],[[34541,3031],[-54,0]],[[34487,3031],[-99,3]],[[34460,3392],[22,-58]],[[34730,1483],[4,15]],[[34734,1498],[18,20]],[[34752,1518],[23,5]],[[34775,1523],[0,-35]],[[34775,1488],[-18,-21]],[[34757,1467],[-27,16]],[[34766,1406],[-27,0]],[[34739,1406],[-14,0]],[[34725,1406],[-4,23]],[[34721,1429],[9,0]],[[34730,1429],[27,0]],[[34757,1429],[13,-10]],[[34770,1419],[0,-10]],[[34770,1409],[-4,-3]],[[34662,1259],[-4,-23]],[[34658,1236],[-41,41]],[[34617,1277],[27,0]],[[34644,1277],[18,-8]],[[34662,1269],[0,-10]],[[34640,1312],[4,-35]],[[34617,1277],[-4,7]],[[34613,1284],[0,31]],[[34613,1315],[27,0]],[[34640,1315],[0,-3]],[[34658,1299],[4,-30]],[[34640,1312],[13,0]],[[34653,1312],[5,-13]],[[34613,1315],[-5,33]],[[34608,1348],[27,7]],[[34635,1355],[9,0]],[[34644,1355],[-4,-40]],[[34631,1388],[4,-33]],[[34608,1348],[-13,10]],[[34595,1358],[13,30]],[[34608,1388],[14,0]],[[34622,1388],[9,0]],[[34604,1292],[-9,5]],[[34595,1297],[0,61]],[[34613,1284],[-9,8]],[[34523,1388],[45,0]],[[34568,1388],[40,0]],[[34595,1297],[-36,36]],[[34757,1429],[0,38]],[[34775,1488],[-5,-69]],[[34730,1429],[0,54]],[[34721,1429],[-23,15]],[[34698,1444],[-4,36]],[[34694,1480],[13,0]],[[34707,1480],[23,3]],[[34703,1406],[-23,-2]],[[34680,1404],[-9,0]],[[34671,1404],[-4,38]],[[34667,1442],[31,2]],[[34725,1406],[-22,0]],[[34667,1442],[-23,0]],[[34644,1442],[0,38]],[[34644,1480],[27,0]],[[34671,1480],[23,0]],[[34658,1404],[-27,-16]],[[34622,1388],[-5,54]],[[34617,1442],[27,0]],[[34671,1404],[-13,0]],[[34617,1442],[0,20]],[[34617,1462],[14,15]],[[34631,1477],[13,3]],[[34568,1388],[0,54]],[[34568,1442],[49,0]],[[34568,1442],[0,20]],[[34568,1462],[27,3]],[[34595,1465],[22,-3]],[[34518,1462],[36,0]],[[34554,1462],[14,0]],[[34505,882],[-77,-30],[-4,51]],[[34424,926],[81,0]],[[34505,926],[0,-44]],[[34428,971],[86,0]],[[34514,971],[0,-43]],[[34514,928],[-9,-2]],[[34514,971],[67,3]],[[34581,974],[41,0]],[[34622,974],[-27,-61]],[[34595,913],[-23,0],[-22,15],[-36,0]],[[34599,882],[-94,0]],[[34595,913],[4,-31]],[[34505,882],[9,-178]],[[34599,882],[27,-78],[-99,-156]],[[34527,648],[-4,0]],[[34523,648],[0,6]],[[34482,450],[-9,-2]],[[34473,448],[90,132],[-40,68]],[[34527,648],[59,-33],[-9,84],[85,49],[-180,-298]],[[33640,0],[-9,69],[50,-44],[-32,67],[36,-64],[-45,-28]],[[34023,89],[-36,18],[76,28],[-40,-46]],[[34689,1345],[-36,-33]],[[34644,1355],[14,0]],[[34658,1355],[27,3]],[[34685,1358],[4,-13]],[[34658,1404],[0,-49]],[[34680,1404],[5,-46]],[[34779,1648],[-13,0]],[[34766,1648],[-14,0]],[[34752,1648],[5,53]],[[34757,1701],[27,-2]],[[34784,1699],[-5,-51]],[[34788,1643],[-9,5]],[[34784,1699],[13,38]],[[34797,1737],[5,10]],[[34802,1747],[-14,-104]],[[34716,1714],[-4,-43]],[[34712,1671],[-32,0]],[[34680,1671],[0,25]],[[34680,1696],[9,15]],[[34689,1711],[14,3]],[[34703,1714],[13,0]],[[34757,1701],[-14,13]],[[34743,1714],[0,18]],[[34743,1732],[23,7]],[[34766,1739],[31,-2]],[[34680,1696],[-49,3]],[[34631,1729],[36,-2]],[[34667,1727],[22,-16]],[[34730,1714],[-5,-43]],[[34725,1671],[-13,0]],[[34716,1714],[14,0]],[[34703,1770],[0,-56]],[[34667,1727],[-36,43]],[[34685,1778],[18,-8]],[[34707,1648],[-4,-10]],[[34703,1638],[-23,-3]],[[34680,1635],[-9,33]],[[34671,1668],[9,3]],[[34725,1671],[-18,-23]],[[34730,1714],[13,0]],[[34752,1648],[-45,0]],[[34482,450],[-49,-66],[-5,-3],[45,67]],[[34671,1668],[-40,0]],[[34703,1770],[13,0]],[[34716,1770],[14,0]],[[34730,1770],[13,-38]],[[34599,1221],[0,17]],[[34599,1238],[59,-2]],[[34658,1236],[-5,-13]],[[34653,1223],[-54,-2]],[[34694,1200],[-32,0]],[[34662,1200],[0,21]],[[34662,1221],[32,2]],[[34694,1223],[0,-18]],[[34694,1205],[0,-5]],[[34662,1200],[-22,-2]],[[34640,1198],[-41,0]],[[34599,1198],[0,23]],[[34653,1223],[9,-2]],[[34712,1223],[-18,0]],[[34694,1223],[0,38]],[[34694,1261],[13,0]],[[34707,1261],[5,-38]],[[34712,1200],[-18,0]],[[34694,1205],[18,0]],[[34712,1205],[0,-5]],[[34698,1175],[-4,13]],[[34694,1188],[0,2]],[[34694,1190],[18,-5]],[[34712,1185],[0,-3]],[[34712,1182],[-14,-15]],[[34698,1167],[0,8]],[[34712,1200],[0,-15]],[[34694,1190],[0,10]],[[34712,1200],[4,0]],[[34716,1200],[-4,-18]],[[34712,1205],[0,18]],[[34712,1223],[4,3]],[[34716,1226],[0,-26]],[[34671,1129],[-13,3]],[[34658,1132],[4,30]],[[34662,1162],[0,8]],[[34662,1170],[36,5]],[[34698,1167],[-27,-38]],[[34662,1162],[-22,-2]],[[34640,1160],[0,22]],[[34640,1182],[0,16]],[[34662,1200],[0,-12]],[[34662,1188],[0,-18]],[[34694,1188],[-32,0]],[[34707,1261],[14,0]],[[34721,1261],[-5,-35]],[[34707,1261],[0,41]],[[34707,1302],[27,3]],[[34734,1305],[-13,-44]],[[34766,1274],[4,5]],[[34770,1279],[-9,-53],[-9,-3],[9,54],[5,-3]],[[34766,1274],[0,28],[4,0],[0,-23]],[[34662,1259],[32,2]],[[34667,1116],[-63,-2]],[[34604,1114],[-5,28]],[[34599,1142],[41,2]],[[34640,1144],[18,-12]],[[34671,1129],[-4,-13]],[[34640,1182],[-41,0]],[[34599,1182],[0,16]],[[34640,1144],[0,16]],[[34658,1299],[36,0]],[[34694,1299],[0,-38]],[[34694,1299],[0,3]],[[34694,1302],[13,0]],[[34599,1142],[0,40]],[[34640,1058],[-36,10]],[[34604,1068],[0,46]],[[34667,1116],[-27,-58]],[[34622,1007],[-54,-5]],[[34568,1002],[0,48]],[[34568,1050],[36,3]],[[34604,1053],[27,0]],[[34631,1053],[-9,-46]],[[34604,1053],[0,15]],[[34640,1058],[-9,-5]],[[34739,1345],[0,31]],[[34739,1376],[0,2]],[[34739,1378],[27,28]],[[34770,1409],[-4,-56],[-9,-10]],[[34757,1343],[-18,2]],[[34707,1302],[0,43]],[[34707,1345],[23,0]],[[34730,1345],[4,-38]],[[34734,1307],[0,-2]],[[34707,1345],[0,28]],[[34707,1373],[32,3]],[[34739,1345],[-9,0]],[[34599,1142],[-36,-3]],[[34563,1139],[0,41]],[[34563,1180],[14,0]],[[34577,1180],[22,2]],[[34599,1238],[5,54]],[[34689,1345],[0,-2]],[[34689,1343],[5,-41]],[[34689,1343],[18,2]],[[34703,1406],[4,-33]],[[34437,987],[90,0]],[[34527,987],[36,2]],[[34563,989],[14,0]],[[34577,989],[4,-15]],[[34599,1198],[-36,-3]],[[34563,1195],[0,31]],[[34563,1226],[36,12]],[[34604,1114],[-41,-3]],[[34563,1111],[0,28]],[[34577,1180],[-14,8]],[[34563,1188],[0,7]],[[34563,1139],[-36,0]],[[34527,1139],[0,38]],[[34527,1177],[36,3]],[[34568,1050],[-5,61]],[[34527,987],[0,63]],[[34527,1050],[41,0]],[[34568,1002],[-5,-13]],[[34563,1226],[-54,0]],[[34739,1406],[0,-28]],[[34757,1343],[-23,-36]],[[34518,1188],[-4,0]],[[34563,1195],[-45,-7]],[[34563,1111],[-36,-2]],[[34527,1109],[0,30]],[[34527,1177],[-9,11]],[[34563,1188],[0,-8]],[[34527,1139],[-27,-30]],[[34500,1109],[-27,79]],[[34527,1050],[0,59]],[[34415,1048],[112,2]],[[34622,982],[-45,7]],[[34622,1007],[0,-25]],[[34622,982],[0,-8]],[[34527,1109],[-27,0]],[[34752,1549],[-4,7]],[[34748,1556],[0,3]],[[34748,1559],[0,7]],[[34748,1566],[18,0]],[[34766,1566],[4,-15]],[[34770,1551],[-18,-2]],[[34748,1566],[0,18]],[[34748,1584],[36,-10]],[[34784,1574],[-5,-15],[-13,7]],[[34748,1584],[0,13]],[[34748,1597],[18,0]],[[34766,1597],[13,0]],[[34779,1597],[5,0]],[[34784,1597],[0,-23]],[[34766,1597],[0,10]],[[34766,1607],[13,-10]],[[34766,1607],[0,41]],[[34788,1643],[-4,-46]],[[34748,1605],[-45,-3]],[[34703,1602],[0,36]],[[34752,1648],[-4,-43]],[[34748,1559],[-45,-3]],[[34703,1556],[0,16]],[[34703,1572],[0,30]],[[34748,1605],[0,-8]],[[34707,1480],[-4,43]],[[34703,1523],[0,33]],[[34748,1556],[-14,-58]],[[34671,1572],[0,30]],[[34671,1602],[32,0]],[[34703,1572],[-32,0]],[[34671,1480],[-4,41]],[[34667,1521],[4,5]],[[34671,1526],[32,-3]],[[34752,1549],[0,-31]],[[34770,1551],[5,-28]],[[34671,1526],[-4,46]],[[34667,1572],[4,0]],[[34671,1602],[-9,0]],[[34662,1602],[5,31]],[[34667,1633],[13,2]],[[34667,1633],[-36,15]],[[34631,1572],[0,30]],[[34631,1602],[31,0]],[[34667,1572],[-36,-3]],[[34631,1569],[0,3]],[[34631,1572],[-41,-16]],[[34590,1556],[-13,8]],[[34631,1630],[0,-28]],[[34667,1521],[-36,2]],[[34631,1523],[0,46]],[[34590,1523],[0,33]],[[34631,1523],[-41,0]],[[34563,1531],[-9,2]],[[34554,1533],[-4,39]],[[34590,1523],[-27,8]],[[34554,1533],[-22,46]],[[34631,1477],[0,46]],[[34595,1465],[-5,58]],[[34554,1462],[9,69]],[[34824,2141],[-18,0]],[[34806,2141],[-13,64]],[[34793,2205],[31,-26]],[[34824,2179],[0,-38]],[[34820,2245],[-36,11]],[[34784,2256],[13,15]],[[34797,2271],[27,-13]],[[34824,2258],[-4,-13]],[[34824,2291],[5,0]],[[34829,2291],[9,-63],[-14,63]],[[34824,2215],[-45,18]],[[34779,2233],[0,7]],[[34779,2240],[5,16]],[[34820,2245],[4,-30]],[[34824,2095],[-18,0]],[[34806,2095],[0,46]],[[34824,2141],[0,-46]],[[34775,2088],[0,56]],[[34775,2144],[31,-3]],[[34806,2095],[0,-10]],[[34806,2085],[-31,3]],[[34793,2205],[-18,-3]],[[34775,2202],[-18,10]],[[34757,2212],[13,28]],[[34770,2240],[9,-7]],[[34824,2215],[0,-36]],[[34797,2271],[9,76]],[[34806,2347],[9,3]],[[34815,2350],[14,-59]],[[34824,2291],[0,-33]],[[34775,2144],[0,58]],[[34779,2240],[0,100]],[[34779,2340],[9,10]],[[34788,2350],[18,-3]],[[34703,2090],[-32,44]],[[34671,2134],[-9,86]],[[34662,2220],[95,-15]],[[34757,2205],[-18,-61]],[[34739,2144],[-14,-61]],[[34725,2083],[-22,7]],[[34757,2212],[0,-7]],[[34662,2220],[-27,140]],[[34635,2360],[9,-10]],[[34644,2350],[126,-110]],[[34739,2144],[22,0]],[[34761,2144],[-13,-59]],[[34748,2085],[-23,-2]],[[34703,2090],[-54,-48]],[[34626,2062],[45,72]],[[34775,2088],[0,-5]],[[34775,2083],[-27,2]],[[34761,2144],[14,0]],[[34644,2350],[104,35]],[[34748,2385],[31,-45]],[[34797,1930],[-4,0]],[[34793,1930],[0,81]],[[34793,2011],[13,-2]],[[34806,2009],[-9,-79]],[[34716,1811],[0,-41]],[[34667,1808],[36,3]],[[34703,1811],[13,0]],[[34307,2060],[9,74],[-36,0]],[[34280,2134],[40,99]],[[34320,2233],[63,20]],[[34383,2253],[36,-173]],[[34811,1805],[-27,0]],[[34784,1805],[-27,0]],[[34757,1805],[0,6]],[[34757,1811],[0,28]],[[34757,1839],[9,0]],[[34766,1839],[45,-6]],[[34811,1833],[0,-28]],[[34802,1762],[-18,5]],[[34784,1767],[0,38]],[[34811,1805],[-9,-43]],[[34757,1805],[4,-35]],[[34761,1770],[-31,0]],[[34716,1811],[41,0]],[[34703,1811],[0,25]],[[34703,1836],[54,3]],[[34820,1950],[-9,-12]],[[34811,1938],[-14,-8]],[[34806,2009],[14,-8]],[[34820,2001],[4,-7]],[[34824,1994],[5,0]],[[34829,1994],[-9,-44]],[[34766,1930],[-5,0]],[[34761,1930],[5,74]],[[34766,2004],[4,0]],[[34770,2004],[23,7]],[[34793,1930],[-27,0]],[[34761,1930],[-13,0]],[[34748,1930],[-59,3]],[[34680,1989],[68,17]],[[34748,2006],[18,-2]],[[34424,2416],[-14,-120]],[[34410,2296],[-49,13]],[[34361,2309],[22,135]],[[34383,2444],[41,-28]],[[34176,1699],[-176,-3],[-18,178]],[[33982,1874],[0,349]],[[33982,2223],[149,30]],[[34131,2253],[40,-56]],[[34171,2197],[0,-140]],[[34766,1739],[4,31]],[[34770,1770],[14,-3]],[[34802,1762],[0,-15]],[[34761,1770],[9,0]],[[34811,1938],[-9,-71]],[[34802,1867],[-9,5]],[[34793,1872],[4,58]],[[34766,1869],[0,61]],[[34793,1872],[-27,-3]],[[34748,1869],[-45,-18]],[[34703,1851],[-23,23]],[[34748,1930],[0,-61]],[[34784,2495],[-32,-51]],[[34752,2444],[-31,-10]],[[34721,2434],[-32,40]],[[34689,2474],[-22,59]],[[34667,2533],[72,71]],[[34739,2604],[45,-109]],[[34793,2406],[-5,-56]],[[34748,2385],[-27,49]],[[34752,2444],[41,-38]],[[34824,2042],[-18,3]],[[34806,2045],[0,40]],[[34824,2095],[0,-53]],[[34806,2045],[-31,7]],[[34775,2052],[0,31]],[[34770,2004],[5,48]],[[34824,2042],[-4,-41]],[[34829,2042],[4,-8]],[[34833,2034],[-4,-40]],[[34824,1994],[5,48]],[[34748,2006],[0,79]],[[34806,2403],[-13,3]],[[34784,2495],[22,-92]],[[34383,2253],[27,43]],[[34424,2416],[139,0]],[[34563,2416],[77,0]],[[34640,2416],[-5,-56]],[[33982,2223],[-216,0],[-81,61],[-18,-64]],[[33667,2220],[-27,3]],[[33640,2223],[5,272]],[[33645,2495],[229,33]],[[33874,2528],[63,-94],[95,10]],[[34032,2444],[-45,-28],[27,-125],[117,-38]],[[34320,2233],[41,76]],[[34806,2403],[9,-53]],[[34640,2416],[49,58]],[[34829,2042],[9,183],[-5,-191]],[[34820,1950],[-5,-78]],[[34815,1872],[-13,-5]],[[34766,1869],[-18,0]],[[34766,1839],[0,30]],[[34815,1872],[-4,-39]],[[34171,2197],[109,-63]],[[34703,1836],[0,15]],[[33095,3443],[5,-20]],[[33100,3423],[-54,2]],[[33046,3425],[9,33]],[[33055,3458],[40,-15]],[[33100,3423],[-5,-84]],[[33095,3339],[-49,69]],[[33046,3408],[0,17]],[[33262,4201],[0,-48]],[[33262,4153],[-131,-61]],[[33131,4092],[-31,78]],[[33100,4170],[58,115]],[[33158,4285],[9,10]],[[33167,4295],[63,-28]],[[33230,4267],[0,-2]],[[33230,4265],[32,-64]],[[33338,4201],[0,-120]],[[33338,4081],[-76,72]],[[33262,4201],[76,0]],[[33005,3881],[-13,50]],[[32992,3931],[22,0]],[[33014,3931],[90,0],[41,92]],[[33145,4023],[27,-81],[90,15],[0,-64]],[[33262,3893],[-257,-12]],[[33158,3781],[-40,-17]],[[33118,3764],[-27,40]],[[33091,3804],[18,41],[-86,-25]],[[33023,3820],[-45,-3]],[[32978,3817],[27,64]],[[33262,3893],[0,-89]],[[33262,3804],[-18,-53]],[[33244,3751],[-86,30]],[[33154,3377],[-54,74]],[[33100,3451],[0,76]],[[33100,3527],[13,10]],[[33113,3537],[32,-23]],[[33145,3514],[9,-137]],[[33028,3273],[-14,0]],[[33014,3273],[-22,0]],[[32992,3273],[0,61]],[[32992,3334],[13,7]],[[33005,3341],[23,-68]],[[33167,4295],[-63,99]],[[33104,4394],[-18,21]],[[33086,4415],[-27,56]],[[33059,4471],[68,0]],[[33127,4471],[58,0]],[[33185,4471],[9,-44]],[[33194,4427],[36,-160]],[[33136,3654],[22,127]],[[33244,3751],[-23,-89]],[[33221,3662],[-85,-8]],[[33136,3654],[-36,8]],[[33100,3662],[13,48]],[[33113,3710],[5,54]],[[32996,3662],[32,66]],[[33028,3728],[85,-18]],[[33100,3662],[-23,0]],[[33077,3662],[-81,0]],[[33014,3728],[-9,61]],[[33005,3789],[86,15]],[[33028,3728],[-14,0]],[[33127,3128],[-32,-5]],[[33095,3123],[-22,63],[72,-5],[-41,61]],[[33104,3242],[9,92]],[[33113,3334],[41,35]],[[33154,3369],[108,21]],[[33262,3390],[0,-209]],[[33262,3181],[0,-58],[-135,5]],[[32942,3606],[-14,-5]],[[32928,3601],[-18,7]],[[32910,3608],[32,67]],[[32942,3675],[0,-69]],[[32942,3675],[0,7]],[[32942,3682],[27,-5]],[[32969,3677],[0,-109]],[[32969,3568],[-27,18],[5,12],[-5,8]],[[32798,3586],[0,25]],[[32798,3611],[0,53]],[[32798,3664],[36,21]],[[32834,3685],[45,-5]],[[32879,3680],[-5,-84]],[[32874,3596],[-22,-23]],[[32852,3573],[-54,13]],[[32879,3680],[63,2]],[[32910,3608],[0,-5]],[[32910,3603],[-31,-10]],[[32879,3593],[-5,3]],[[32996,3662],[-13,-84]],[[32983,3578],[-14,-10]],[[32969,3677],[45,51]],[[33113,3537],[23,117]],[[33221,3662],[41,0]],[[33262,3662],[-5,-54],[-45,18],[50,-101]],[[33262,3525],[0,-3]],[[33262,3522],[-77,-8]],[[33185,3514],[-40,0]],[[33262,3512],[0,-54]],[[33262,3458],[-77,56]],[[33262,3522],[0,-10]],[[33262,3458],[0,-35]],[[33262,3423],[0,-33]],[[33154,3369],[0,8]],[[33041,3250],[-13,23]],[[33005,3341],[41,67]],[[33095,3339],[18,-5]],[[33104,3242],[-63,8]],[[33001,3151],[-50,-28]],[[32951,3123],[-77,0]],[[32874,3123],[91,117]],[[32965,3240],[49,33]],[[33028,3273],[-27,-122]],[[32965,3240],[27,33]],[[33041,3250],[-40,-99]],[[33005,3789],[18,31]],[[33100,3451],[-5,-8]],[[33055,3458],[-18,59]],[[33037,3517],[0,5]],[[33037,3522],[63,5]],[[33230,4265],[108,10]],[[33338,4275],[0,-71]],[[33338,4204],[0,-3]],[[33037,3522],[-9,53]],[[33028,3575],[49,87]],[[33145,4023],[-14,69]],[[33338,4081],[0,-241]],[[33338,3840],[0,-38]],[[33338,3802],[-76,2]],[[33095,3123],[-144,0]],[[32951,3456],[5,-48]],[[32956,3408],[-14,30]],[[32942,3438],[-14,23]],[[32928,3461],[23,-5]],[[32928,3461],[-4,5]],[[32924,3466],[0,20]],[[32924,3486],[36,-5]],[[32960,3481],[0,-17]],[[32960,3464],[-9,-8]],[[32978,3497],[-18,-16]],[[32924,3486],[0,33]],[[32924,3519],[54,0]],[[32978,3519],[0,-22]],[[32960,3464],[32,2]],[[32992,3466],[-9,-38]],[[32983,3428],[-27,-28]],[[32956,3400],[0,8]],[[32919,3392],[9,26]],[[32928,3418],[0,18]],[[32928,3436],[14,2]],[[32956,3400],[-32,-8]],[[32924,3392],[-5,0]],[[32928,3436],[-49,-3]],[[32879,3433],[-59,23],[41,0]],[[32861,3456],[31,15]],[[32892,3471],[32,-5]],[[32928,3418],[-36,0]],[[32892,3418],[-13,15]],[[33055,3458],[-63,8]],[[32978,3497],[36,7]],[[33014,3504],[23,13]],[[32910,3349],[-27,20]],[[32883,3369],[5,23]],[[32888,3392],[31,0]],[[32924,3392],[0,-45]],[[32924,3347],[-14,2]],[[32992,3558],[-14,-39]],[[32924,3519],[0,34]],[[32924,3553],[68,5]],[[32996,3563],[-4,-5]],[[32924,3553],[4,48]],[[32983,3578],[13,-15]],[[32892,3471],[0,54]],[[32892,3525],[18,-3]],[[32910,3522],[14,-3]],[[32861,3527],[0,-69]],[[32861,3458],[-45,21]],[[32816,3479],[40,48]],[[32856,3527],[5,0]],[[32910,3349],[-27,-25]],[[32883,3324],[0,45]],[[33010,3558],[4,-54]],[[32996,3563],[9,0]],[[33005,3563],[5,-5]],[[32910,3522],[0,81]],[[32992,3334],[-9,94]],[[32924,3347],[9,-46],[-50,23]],[[32892,3525],[-18,0]],[[32874,3525],[5,68]],[[32847,3527],[5,46]],[[32874,3525],[-13,2]],[[32856,3527],[-9,0]],[[32847,3527],[-49,-2]],[[32798,3525],[0,10]],[[32798,3535],[0,51]],[[32888,3392],[4,26]],[[32861,3456],[0,2]],[[32798,3504],[0,21]],[[32816,3479],[-18,25]],[[33010,3558],[-5,5]],[[33005,3563],[23,12]],[[32811,3232],[-13,33]],[[32798,3265],[22,5]],[[32820,3270],[-9,-38]],[[32793,3308],[-18,0]],[[32775,3308],[0,18]],[[32775,3326],[5,5]],[[32780,3331],[67,31]],[[32847,3362],[-18,-51]],[[32829,3311],[-36,-3]],[[32829,3280],[-36,8]],[[32793,3288],[0,20]],[[32829,3311],[0,-31]],[[32793,3265],[0,23]],[[32829,3280],[-9,-10]],[[32798,3265],[-5,0]],[[32793,3179],[0,71]],[[32793,3250],[0,15]],[[32811,3232],[-18,-53]],[[32757,3250],[0,-33]],[[32757,3217],[-31,33]],[[32726,3250],[31,0]],[[32649,3319],[5,0]],[[32654,3319],[40,-56],[-45,56]],[[32717,3316],[40,-8]],[[32757,3308],[0,-23]],[[32757,3285],[-45,0]],[[32712,3285],[5,31]],[[32757,3285],[0,-35]],[[32726,3250],[-14,35]],[[32775,3250],[0,-69]],[[32775,3181],[-18,36]],[[32757,3250],[18,0]],[[32775,3250],[18,0]],[[32793,3179],[-18,2]],[[32757,3285],[36,3]],[[32757,3308],[18,0]],[[32780,3331],[-5,16]],[[32775,3347],[27,33]],[[32802,3380],[45,-18]],[[32708,3476],[0,-30]],[[32708,3446],[-32,7]],[[32676,3453],[9,31]],[[32685,3484],[23,-3]],[[32708,3481],[0,-5]],[[32708,3410],[-9,0]],[[32699,3410],[-36,-2]],[[32663,3408],[13,45]],[[32708,3446],[0,-36]],[[32735,3446],[0,30]],[[32735,3476],[0,21]],[[32735,3497],[18,0]],[[32753,3497],[9,-33]],[[32762,3464],[-23,-26]],[[32739,3438],[-4,8]],[[32748,3364],[-9,13]],[[32739,3377],[-4,8]],[[32735,3385],[0,35]],[[32735,3420],[22,-12]],[[32757,3408],[0,-61]],[[32757,3347],[-9,17]],[[32753,3535],[0,-38]],[[32735,3497],[-9,15]],[[32726,3512],[0,5],[0,2],[0,16]],[[32726,3535],[27,0]],[[32775,3347],[-18,0]],[[32757,3408],[45,-28]],[[32735,3476],[-27,0]],[[32708,3481],[13,28]],[[32721,3509],[5,3]],[[32708,3446],[27,0]],[[32739,3438],[-4,-18]],[[32735,3385],[-27,25]],[[32690,3382],[-14,3]],[[32676,3385],[-22,-3]],[[32654,3382],[9,26]],[[32699,3410],[-9,-28]],[[32690,3377],[0,5]],[[32739,3377],[-49,0]],[[32672,3313],[0,34]],[[32672,3347],[18,0]],[[32690,3347],[4,0]],[[32694,3347],[0,-26]],[[32694,3321],[0,-5],[-18,-18],[-4,15]],[[32735,3354],[-41,-7]],[[32690,3347],[0,30]],[[32748,3364],[-13,-10]],[[32667,3347],[-22,-3]],[[32645,3344],[9,38]],[[32676,3385],[-9,-38]],[[32667,3347],[5,0]],[[32672,3313],[-27,31]],[[32721,3331],[-4,-10]],[[32717,3321],[-23,0]],[[32735,3354],[-14,-23]],[[32717,3316],[0,5]],[[32721,3331],[54,-5]],[[32649,3319],[-4,89]],[[32645,3408],[0,-16]],[[32645,3392],[9,-73]],[[32645,3408],[4,12],[-4,-28]],[[33415,3527],[4,-30]],[[33419,3497],[-81,22]],[[33338,3519],[0,23]],[[33338,3542],[63,18]],[[33401,3560],[14,-33]],[[33316,3481],[-27,38]],[[33289,3519],[49,0]],[[33419,3497],[0,-11]],[[33419,3486],[-103,-5]],[[33338,3542],[-45,-2]],[[33293,3540],[32,30]],[[33325,3570],[58,59]],[[33383,3629],[18,-69]],[[33338,3802],[45,-173]],[[33325,3570],[-41,140]],[[33284,3710],[-40,41]],[[33262,3662],[22,48]],[[33293,3540],[-31,-15]],[[33316,3481],[4,-58]],[[33320,3423],[-58,0]],[[33262,3512],[27,7]],[[33415,3446],[-50,-69]],[[33365,3377],[-45,46]],[[33419,3486],[-4,-40]],[[33491,3603],[-13,-86]],[[33478,3517],[-63,10]],[[33383,3629],[108,-26]],[[33973,3120],[-49,-104]],[[33924,3016],[-77,2]],[[33847,3018],[-162,6]],[[33685,3024],[-40,5]],[[33645,3029],[0,23]],[[33645,3052],[-55,71]],[[33590,3123],[28,0]],[[33618,3123],[355,-3]],[[33645,3270],[-5,54]],[[33640,3324],[27,30],[27,-66]],[[33694,3288],[-49,-18]],[[33554,3408],[5,-115]],[[33559,3293],[-158,-51],[-49,41]],[[33352,3283],[-23,84],[36,10]],[[33415,3446],[67,10],[5,0],[-14,-48],[81,0]],[[33154,2950],[54,114],[-77,-2],[-4,66]],[[33262,3181],[76,-18]],[[33338,3163],[117,-40]],[[33455,3123],[-13,-56],[-180,2],[0,-124]],[[33262,2945],[-108,5]],[[33654,3741],[22,-110]],[[33676,3631],[-13,-7]],[[33663,3624],[-113,25]],[[33550,3649],[-45,23],[63,43]],[[33568,3715],[9,8]],[[33577,3723],[77,18]],[[33618,3497],[0,-36]],[[33618,3461],[-28,3]],[[33590,3464],[-9,55]],[[33581,3519],[37,-22]],[[33590,3123],[-135,0]],[[33338,3163],[14,120]],[[33559,3293],[27,-5]],[[33586,3288],[-18,-104],[50,-61]],[[33586,3288],[59,-18]],[[33694,3288],[-4,-48],[148,45],[108,-58]],[[33946,3227],[27,-107]],[[33663,3624],[27,-112],[36,15]],[[33726,3527],[-9,-84],[-99,54]],[[33581,3519],[-45,72]],[[33536,3591],[-9,0]],[[33527,3591],[23,58]],[[33527,3591],[-13,10]],[[33514,3601],[22,-10]],[[33645,2675],[0,135]],[[33645,2810],[0,33]],[[33645,2843],[126,0]],[[33771,2843],[90,23]],[[33861,2866],[81,13],[-27,-128],[94,-76]],[[34009,2675],[-58,0],[0,-81]],[[33951,2594],[-68,81],[-72,0],[-4,-91],[-162,91]],[[33924,3016],[171,-310]],[[34095,2706],[-54,38],[-32,-69]],[[33861,2866],[13,56]],[[33874,2922],[-27,96]],[[33554,3408],[36,56]],[[33618,3461],[0,-53],[0,-46],[22,-38]],[[33262,2807],[0,138]],[[33262,2945],[135,10],[-27,-31],[49,-50]],[[33419,2874],[18,-67]],[[33437,2807],[-175,0]],[[33338,3840],[27,0]],[[33365,3840],[99,0]],[[33464,3840],[104,-125]],[[33514,3601],[-23,2]],[[33757,2917],[-45,30]],[[33712,2947],[-27,77]],[[33874,2922],[-117,-5]],[[33712,2947],[-67,5]],[[33645,2952],[0,77]],[[33645,3052],[-181,-64],[-45,-114]],[[33757,2917],[14,-74]],[[33645,2843],[0,109]],[[33478,3517],[54,-8]],[[33532,3509],[22,-101]],[[33581,3519],[-49,-10]],[[33645,2810],[-208,-3]],[[33577,3723],[-5,43]],[[33572,3766],[91,15]],[[33663,3781],[18,-20]],[[33681,3761],[-27,-20]],[[33464,3840],[108,2]],[[33572,3842],[0,-76]],[[33726,3527],[63,-10]],[[33789,3517],[157,-290]],[[33410,2100],[5,-53]],[[33415,2047],[-23,-2]],[[33392,2045],[-9,0]],[[33383,2045],[27,55]],[[33365,2103],[9,74],[-49,-8]],[[33325,2169],[-23,54]],[[33302,2223],[54,2]],[[33356,2225],[45,-114]],[[33401,2111],[-31,-38]],[[33370,2073],[-5,30]],[[33325,1991],[0,66]],[[33325,2057],[45,0]],[[33370,2057],[-45,-66]],[[33478,2075],[-23,-13]],[[33455,2062],[-4,0]],[[33451,2062],[-14,66]],[[33437,2128],[41,26]],[[33478,2154],[13,15]],[[33491,2169],[77,-30]],[[33568,2139],[-90,-64]],[[33406,1976],[-18,-8]],[[33388,1968],[4,77]],[[33415,2047],[4,0]],[[33419,2047],[-13,-71]],[[33442,1897],[-14,-15]],[[33428,1882],[-13,-8]],[[33415,1874],[-68,46],[-54,10],[68,61]],[[33361,1991],[27,-23]],[[33406,1976],[36,-79]],[[33365,2103],[-40,-3]],[[33325,2100],[0,3]],[[33325,2103],[0,66]],[[33455,2062],[14,-160]],[[33469,1902],[-27,-5]],[[33419,2047],[32,15]],[[33478,2075],[90,-69]],[[33568,2006],[77,-40]],[[33645,1966],[0,-5]],[[33645,1961],[0,-64]],[[33645,1897],[-176,5]],[[33266,2057],[59,0]],[[33325,1991],[-50,-15],[-9,81]],[[33410,2100],[27,28]],[[33356,2225],[45,-2]],[[33401,2223],[90,0]],[[33491,2223],[0,-54]],[[33478,2154],[-77,-43]],[[33361,1991],[22,54]],[[33568,2136],[0,3]],[[33491,2223],[149,0]],[[33667,2220],[-27,-97]],[[33640,2123],[-72,13]],[[33095,2220],[0,10],[5,-61],[-5,51]],[[33221,2062],[-13,-20]],[[33208,2042],[-45,89],[45,20],[9,-58]],[[33217,2093],[4,-31]],[[33451,1841],[-23,41]],[[33645,1897],[-14,-30]],[[33631,1867],[-63,-51]],[[33568,1816],[-117,25]],[[33645,1966],[0,84]],[[33645,2050],[-5,73]],[[33982,1874],[-112,-7],[0,96],[-225,-2]],[[33568,2006],[0,110]],[[33568,2116],[77,-66]],[[33073,2324],[36,3]],[[33109,2327],[67,0]],[[33176,2327],[0,-92],[-117,94]],[[33059,2329],[14,-5]],[[33073,2324],[-9,23]],[[33064,2347],[4,5]],[[33068,2352],[23,21]],[[33091,2373],[18,-46]],[[33208,2477],[4,-61]],[[33212,2416],[-54,13],[0,30]],[[33158,2459],[32,13]],[[33190,2472],[18,5]],[[33289,2426],[36,-112]],[[33325,2314],[-68,23]],[[33257,2337],[0,64]],[[33257,2401],[32,25]],[[33208,2477],[45,0]],[[33253,2477],[-14,-59]],[[33239,2418],[-27,-2]],[[33140,2416],[-36,46]],[[33104,2462],[0,2]],[[33104,2464],[41,28]],[[33145,2492],[45,-20]],[[33158,2459],[0,-33],[-18,-10]],[[33266,2477],[-13,0]],[[33145,2492],[22,0]],[[33167,2492],[50,0]],[[33217,2492],[40,0]],[[33257,2492],[5,0]],[[33262,2492],[4,-15]],[[33302,2223],[-49,-13]],[[33253,2210],[4,127]],[[33325,2314],[76,-91]],[[33221,2062],[14,-30]],[[33235,2032],[18,-92],[-45,102]],[[33239,1867],[-94,134],[18,-76],[130,-25],[-54,-33]],[[33645,2495],[0,180]],[[33951,2594],[-77,-10],[0,-56]],[[33568,2136],[0,-20]],[[33266,2477],[23,-51]],[[33257,2401],[-18,17]],[[33091,2373],[13,89]],[[33140,2416],[36,-89]],[[33289,2426],[22,69]],[[33311,2495],[41,0]],[[33352,2495],[293,0]],[[33262,2492],[49,3]],[[33325,2057],[0,43]],[[33370,2073],[0,-16]],[[33266,2057],[-13,28]],[[33253,2085],[72,18]],[[33253,2085],[0,125]],[[33217,2093],[18,-61]],[[33446,1612],[18,-2]],[[33464,1610],[9,-13]],[[33473,1597],[0,-23]],[[33473,1574],[-13,-46]],[[33460,1528],[-14,84]],[[33464,1650],[0,-40]],[[33446,1612],[0,38]],[[33446,1650],[18,0]],[[33550,1597],[0,-5]],[[33550,1592],[-77,-18]],[[33473,1597],[41,10]],[[33514,1607],[31,-10]],[[33545,1597],[5,0]],[[33464,1650],[45,0]],[[33509,1650],[5,-43]],[[33437,1711],[32,0]],[[33469,1711],[-5,-61]],[[33446,1650],[-9,61]],[[33469,1711],[36,3]],[[33505,1714],[4,-64]],[[33437,1711],[-4,18]],[[33433,1729],[22,28]],[[33455,1757],[45,0]],[[33500,1757],[5,-43]],[[33550,1592],[-5,-46]],[[33545,1546],[-81,-33]],[[33464,1513],[-4,15]],[[33545,1546],[-13,-147]],[[33532,1399],[-68,114]],[[33550,1597],[90,-66],[5,-94],[94,43],[63,-102]],[[33802,1378],[-27,-94]],[[33775,1284],[-103,-2],[4,61],[-90,-16],[-54,72]],[[33545,1650],[0,-53]],[[33509,1650],[36,0]],[[33708,1671],[108,-79]],[[33816,1592],[-14,-214]],[[33545,1650],[0,18]],[[33545,1668],[163,3]],[[33500,1757],[45,3]],[[33545,1760],[0,-92]],[[33545,1760],[23,56]],[[33631,1867],[77,-196]],[[33451,1841],[4,-84]],[[33433,1729],[-18,145]],[[33816,1592],[360,18]],[[33852,1231],[-9,0],[-27,0],[-41,53]],[[33545,1378],[32,-33],[-81,46],[49,-13]],[[32956,2858],[-9,0]],[[32947,2858],[-19,33]],[[32928,2891],[23,-7]],[[32951,2884],[5,-26]],[[33077,2861],[18,-5]],[[33095,2856],[-139,2]],[[32951,2884],[-4,28]],[[32947,2912],[130,-51]],[[32928,2891],[-63,3]],[[32865,2894],[0,41]],[[32865,2935],[73,0]],[[32938,2935],[9,-23]],[[32865,2978],[0,-43]],[[32865,2935],[-27,0]],[[32838,2935],[-4,0]],[[32834,2935],[4,45]],[[32838,2980],[27,-2]],[[32865,2894],[-13,-10]],[[32852,2884],[-14,7]],[[32838,2891],[0,44]],[[32938,2963],[0,-28]],[[32865,2978],[9,0]],[[32874,2978],[41,20]],[[32915,2998],[23,-35]],[[32834,2935],[-32,10]],[[32802,2945],[-31,40],[54,6]],[[32825,2991],[13,-11]],[[32838,2891],[-72,49],[9,7],[27,-2]],[[33068,2947],[9,-86]],[[32938,2963],[130,-16]],[[33073,2947],[-5,0]],[[32915,2998],[9,-2]],[[32924,2996],[149,-49]],[[33154,2950],[-81,-3]],[[32924,2996],[4,30]],[[32928,3026],[23,97]],[[32928,3026],[-54,-48]],[[32825,2991],[49,132]],[[33082,2479],[-41,-91]],[[33041,2388],[-85,135]],[[32956,2523],[4,-8]],[[32960,2515],[122,-36]],[[33068,2352],[-27,36]],[[33082,2479],[18,-10]],[[33100,2469],[4,-5]],[[33059,2329],[5,18]],[[32915,2680],[4,3]],[[32919,2683],[28,-43]],[[32947,2640],[-19,-16]],[[32928,2624],[-13,56]],[[32879,2767],[36,0]],[[32915,2767],[0,-31]],[[32915,2736],[4,-53]],[[32915,2680],[-36,87]],[[32956,2767],[-41,0]],[[32915,2767],[0,23]],[[32915,2790],[0,30]],[[32915,2820],[41,-7]],[[32956,2813],[0,-46]],[[32956,2767],[0,-31]],[[32956,2736],[-41,0]],[[32910,2820],[-22,0]],[[32888,2820],[-14,3]],[[32874,2823],[-9,28]],[[32865,2851],[45,0]],[[32910,2851],[0,-31]],[[32910,2851],[37,7]],[[32956,2858],[0,-45]],[[32915,2820],[-5,0]],[[32888,2820],[4,-30]],[[32892,2790],[-13,2]],[[32879,2792],[-5,31]],[[32915,2790],[-23,0]],[[32956,2736],[4,-79]],[[32960,2657],[-13,-17]],[[32879,2767],[0,25]],[[33095,2856],[14,-99]],[[33109,2757],[-153,10]],[[33257,2673],[0,-74]],[[33257,2599],[-153,0]],[[33104,2599],[-81,0]],[[33023,2599],[-63,58]],[[33109,2757],[-5,-82],[153,-2]],[[32865,2851],[-13,33]],[[33262,2807],[-5,-134]],[[33352,2495],[18,89],[-113,-72]],[[33257,2512],[0,87]],[[33257,2492],[0,20]],[[33023,2599],[-67,-23]],[[32956,2576],[-28,48]],[[32969,2540],[-9,-25]],[[32956,2523],[0,43]],[[32956,2566],[13,-26]],[[33217,2492],[-36,64],[-14,-64]],[[33145,2492],[-59,56]],[[33086,2548],[18,51]],[[33100,2469],[-27,46]],[[33073,2515],[13,33]],[[33073,2515],[-104,25]],[[32956,2566],[0,10]],[[33208,4537],[-9,30]],[[33199,4567],[63,31]],[[33262,4598],[67,-28]],[[33316,4542],[-108,-5]],[[32883,4460],[5,-61]],[[32888,4399],[-113,26]],[[32775,4425],[-76,28],[31,53]],[[32730,4506],[131,41]],[[32861,4547],[22,-87]],[[32897,4402],[-14,-36]],[[32883,4366],[-81,-48]],[[32802,4318],[-27,107]],[[32888,4399],[9,3]],[[32766,4326],[-27,35],[45,10],[-18,-45]],[[32960,4732],[-18,-172]],[[32942,4560],[-54,5]],[[32888,4565],[-50,160]],[[33059,4471],[-27,30]],[[33032,4501],[-90,59]],[[33014,4760],[-18,-53]],[[32996,4707],[-9,-71],[122,-76]],[[33109,4560],[0,-11]],[[33109,4549],[18,-78]],[[32928,4473],[-45,-13]],[[32861,4547],[27,18]],[[32942,4560],[-14,-87]],[[33032,4501],[-63,-28]],[[32969,4473],[-41,0]],[[33100,4170],[-131,28]],[[32969,4198],[90,97]],[[33059,4295],[99,-10]],[[33086,4415],[-108,-46]],[[32978,4369],[-31,48]],[[32947,4417],[22,56]],[[32951,4198],[-77,0]],[[32874,4198],[-22,112],[49,0]],[[32901,4310],[50,-109]],[[32951,4201],[0,-3]],[[32874,4198],[-63,0]],[[32811,4198],[-9,120]],[[32883,4366],[18,-56]],[[32730,4506],[-18,8]],[[32712,4514],[50,35],[-45,-28]],[[32717,4521],[-45,163],[-59,-5]],[[33059,4295],[-31,48]],[[33028,4343],[76,51]],[[32951,4201],[-18,150],[45,15]],[[32978,4366],[50,-23]],[[32969,4198],[-18,0]],[[32978,4366],[0,3]],[[32897,4402],[50,15]],[[33244,4732],[63,-33]],[[33307,4699],[-45,3]],[[33262,4702],[-63,2]],[[33199,4704],[0,28]],[[33199,4732],[45,0]],[[33262,4702],[0,-36]],[[33262,4666],[-63,3]],[[33199,4669],[0,35]],[[33262,4598],[0,68]],[[33109,4549],[90,31]],[[33199,4580],[0,-13]],[[33208,4537],[0,-66]],[[33208,4471],[-23,0]],[[33199,4669],[0,-31]],[[33199,4638],[-90,-10]],[[33109,4628],[0,74]],[[33109,4702],[49,0]],[[33158,4702],[41,2]],[[33158,4702],[-4,140]],[[33199,4839],[0,-107]],[[33109,4560],[0,68]],[[33199,4638],[0,-58]],[[33248,4778],[-4,-46]],[[32996,4707],[113,-5]],[[33302,4437],[-108,-10]],[[33208,4471],[81,0]],[[32712,4514],[5,7]],[[32933,4033],[9,61]],[[32942,4094],[9,104]],[[33131,4092],[-121,-102]],[[33010,3990],[-77,43]],[[33014,3931],[-4,59]],[[32992,3931],[-68,0]],[[32924,3931],[4,102]],[[32928,4033],[5,0]],[[32802,3931],[54,87]],[[32856,4018],[9,2]],[[32865,4020],[-18,-89]],[[32847,3931],[-45,0]],[[32802,3931],[-18,0]],[[32784,3931],[14,148]],[[32798,4079],[40,-41]],[[32838,4038],[18,-20]],[[32906,4033],[-32,-102]],[[32874,3931],[-22,0]],[[32852,3931],[-5,0]],[[32865,4020],[41,13]],[[32924,3931],[-50,0]],[[32906,4033],[22,0]],[[32856,3822],[-18,66]],[[32838,3888],[14,43]],[[32978,3817],[-122,5]],[[32838,4038],[9,51],[95,5]],[[32798,4079],[13,119]],[[32834,3685],[4,66]],[[32838,3751],[18,71]],[[32726,3700],[-14,18]],[[32712,3718],[14,43]],[[32726,3761],[18,-3]],[[32744,3758],[0,-58]],[[32744,3700],[-18,0]],[[32780,3751],[-32,-51]],[[32748,3700],[-4,0]],[[32744,3758],[31,16]],[[32775,3774],[5,-23]],[[32775,3774],[9,51]],[[32784,3825],[72,-3]],[[32838,3751],[-58,0]],[[32798,3664],[-54,0]],[[32744,3664],[4,36]],[[32838,3888],[-54,-63]],[[32784,3825],[-40,12]],[[32744,3837],[40,94]],[[32726,3761],[18,76]],[[32762,3522],[-9,13]],[[32753,3535],[-5,12]],[[32748,3547],[50,-12]],[[32798,3504],[-36,18]],[[32721,3509],[-27,31]],[[32694,3540],[0,71]],[[32694,3611],[32,0]],[[32726,3611],[0,-76]],[[32726,3611],[13,0]],[[32739,3611],[9,-64]],[[32739,3611],[0,13]],[[32739,3624],[59,-13]],[[32739,3624],[0,40]],[[32739,3664],[5,0]],[[32685,3662],[41,0]],[[32726,3662],[13,2]],[[32694,3611],[-9,51]],[[32726,3662],[0,38]],[[32685,3662],[27,56]],[[32762,3522],[0,-58]],[[32685,3484],[9,56]],[[33550,4163],[-63,7]],[[33487,4170],[4,59]],[[33365,3840],[86,145],[0,173]],[[33451,4158],[36,12]],[[33572,4109],[0,-2]],[[33572,4107],[-45,2],[45,-56]],[[33572,4053],[-49,-55],[49,-156]],[[33428,4402],[-9,-59]],[[33419,4343],[-81,28]],[[33338,4371],[0,51]],[[33663,4020],[0,8]],[[33663,4028],[13,23]],[[33685,4031],[-22,-11]],[[33338,4204],[45,15]],[[33383,4219],[36,-41]],[[33419,4178],[32,-20]],[[33419,4178],[18,43]],[[33437,4221],[50,23]],[[34180,3209],[-54,-91],[-153,2]],[[33789,3517],[22,46]],[[33811,3563],[90,-13]],[[33901,3550],[95,-92],[67,26],[36,-76],[86,7]],[[33780,3758],[-50,6],[5,78]],[[33766,3842],[14,-84]],[[33834,3842],[-32,-45],[-18,45]],[[33843,3761],[-18,-18]],[[33825,3743],[-50,-12]],[[33775,3731],[5,27]],[[33901,3842],[-58,-81]],[[33739,3644],[-58,117]],[[33663,3781],[18,61]],[[33775,3731],[32,-102]],[[33807,3629],[-68,15]],[[33572,3842],[46,18]],[[33383,4219],[14,51],[-59,20]],[[33338,4290],[0,81]],[[33419,4343],[54,-17]],[[33455,4290],[-45,-23],[18,-13],[9,-33]],[[33572,4107],[0,-54]],[[33739,3644],[-63,-13]],[[33807,3629],[4,-66]],[[33663,4028],[-9,74]],[[33338,4275],[0,15]],[[33883,3738],[-58,5]],[[33843,3761],[40,-23]],[[34140,3842],[4,-119],[-58,15],[-95,-119]],[[33991,3619],[-108,119]],[[33991,3619],[-90,-69]],[[34180,3842],[9,-5]],[[33631,3929],[32,91]],[[34541,2835],[-113,3]],[[34428,2838],[-81,-59]],[[34347,2779],[-13,252]],[[34487,3031],[45,-89]],[[34532,2942],[27,-56]],[[34559,2886],[-18,-51]],[[34608,2940],[-18,0]],[[34590,2940],[-40,2]],[[34550,2942],[22,89]],[[34586,3031],[22,-91]],[[34590,2896],[-31,-10]],[[34532,2942],[18,0]],[[34590,2940],[0,-44]],[[34613,3026],[27,-81],[-32,86]],[[34694,2764],[4,-20]],[[34698,2744],[-81,188],[77,-168]],[[34622,2886],[-32,10]],[[34608,2940],[14,-54]],[[34658,2767],[-18,-54]],[[34640,2713],[-5,-7]],[[34635,2706],[-31,18]],[[34604,2724],[4,15]],[[34608,2739],[-9,71]],[[34599,2810],[0,5]],[[34599,2815],[59,-48]],[[34572,2762],[32,-92]],[[34604,2670],[-68,0]],[[34536,2670],[-9,0]],[[34527,2670],[5,92]],[[34532,2762],[40,0]],[[34536,2670],[27,-254]],[[34383,2444],[-40,129]],[[34343,2573],[-9,97]],[[34334,2670],[76,0]],[[34410,2670],[117,0]],[[34694,2764],[18,-51]],[[34712,2713],[-5,0]],[[34707,2713],[-9,31]],[[34698,2685],[-9,-2]],[[34689,2683],[-27,-3]],[[34662,2680],[-22,33]],[[34658,2767],[9,0]],[[34667,2767],[31,-82]],[[34334,2670],[-14,89],[-225,-53]],[[34347,2779],[63,-109]],[[34343,2573],[-118,95],[-193,-224]],[[34590,2896],[9,-81]],[[34599,2810],[-27,13]],[[34572,2823],[-31,0]],[[34541,2823],[0,12]],[[34622,2886],[45,-119]],[[34608,2739],[-36,28]],[[34572,2767],[0,56]],[[34613,2703],[-9,-33]],[[34572,2762],[0,5]],[[34604,2724],[9,-21]],[[34532,2762],[9,61]],[[34410,2670],[18,168]],[[34613,2703],[49,-74]],[[34662,2629],[5,-10]],[[34667,2619],[-50,-84],[50,-2]],[[34662,2680],[-27,26]],[[34689,2632],[-22,-13]],[[34662,2629],[18,36]],[[34680,2665],[9,-33]],[[34712,2713],[27,-81],[-32,81]],[[34698,2685],[18,-48],[-27,46]],[[34698,2635],[-9,-3]],[[34680,2665],[18,-30]],[[34698,2635],[41,-31]]]}