{"type":"Topology","transform":{"scale":[0.0012831345112129487,0.0009745357309423489],"translate":[-124.73273099999999,24.60334863324381]},"objects":{"area":{"type":"GeometryCollection","geometries":[{"arcs":[[0,1,2]],"type":"Polygon","properties":{"state":"GA","name":"AVONDALE ESTATES","zip":"30002"}},{"arcs":[[3,4,5,6,7,8,9]],"type":"Polygon","properties":{"state":"GA","name":"ALPHARETTA","zip":"30004"}},{"arcs":[[10,11,12,-4,13,14]],"type":"Polygon","properties":{"state":"GA","name":"ALPHARETTA","zip":"30005"}},{"arcs":[[15,16,17]],"type":"Polygon","properties":{"state":"GA","name":"MARIETTA","zip":"30008"}},{"arcs":[[18,19,20,21,22,23]],"type":"Polygon","properties":{"state":"GA","name":"AUBURN","zip":"30011"}},{"arcs":[[24,25,26,27,28,29]],"type":"Polygon","properties":{"state":"GA","name":"CONYERS","zip":"30012"}},{"arcs":[[30,31,32,-29,33,34]],"type":"Polygon","properties":{"state":"GA","name":"CONYERS","zip":"30013"}},{"arcs":[[35,36,37,38,-31,39,40,41,42]],"type":"Polygon","properties":{"state":"GA","name":"COVINGTON","zip":"30014"}},{"arcs":[[43,44,45,-32,-39]],"type":"Polygon","properties":{"state":"GA","name":"COVINGTON","zip":"30016"}},{"arcs":[[46,47,48]],"type":"Polygon","properties":{"state":"GA","name":"GRAYSON","zip":"30017"}},{"arcs":[[49,50,51,52,-24,53,54,55]],"type":"Polygon","properties":{"state":"GA","name":"DACULA","zip":"30019"}},{"arcs":[[56,57,58,59,60]],"type":"Polygon","properties":{"state":"GA","name":"CLARKSTON","zip":"30021"}},{"arcs":[[61,62,-5,-13,63]],"type":"Polygon","properties":{"state":"GA","name":"ALPHARETTA","zip":"30022"}},{"arcs":[[64,-11,65,66,67]],"type":"Polygon","properties":{"state":"GA","name":"SUWANEE","zip":"30024"}},{"arcs":[[68,69,70,-43]],"type":"Polygon","properties":{"state":"GA","name":"SOCIAL CIRCLE","zip":"30025"}},{"arcs":[[71,72,73,74,75,-2]],"type":"Polygon","properties":{"state":"GA","name":"DECATUR","zip":"30030"}},{"arcs":[[76,77,-72,-1,-61,78,79,80]],"type":"Polygon","properties":{"state":"GA","name":"DECATUR","zip":"30032"}},{"arcs":[[81,-75,82,83,84,85,86,-58]],"type":"Polygon","properties":{"state":"GA","name":"DECATUR","zip":"30033"}},{"arcs":[[87,88,89,-81,90]],"type":"Polygon","properties":{"state":"GA","name":"DECATUR","zip":"30034"}},{"arcs":[[91,92,-91,-80,93,94]],"type":"Polygon","properties":{"state":"GA","name":"DECATUR","zip":"30035"}},{"arcs":[[95,-88,-93,96,-25,97,98]],"type":"Polygon","properties":{"state":"GA","name":"LITHONIA","zip":"30038"}},{"arcs":[[99,100,101,102,-27,103]],"type":"Polygon","properties":{"state":"GA","name":"SNELLVILLE","zip":"30039"}},{"arcs":[[104,105,106,107,-14,-10]],"type":"Polygon","properties":{"state":"GA","name":"CUMMING","zip":"30040"}},{"arcs":[[108,-66,-15,-108,109,110]],"type":"Polygon","properties":{"state":"GA","name":"CUMMING","zip":"30041"}},{"arcs":[[111,112,-68,113,114,-51,115,116]],"type":"Polygon","properties":{"state":"GA","name":"LAWRENCEVILLE","zip":"30043"}},{"arcs":[[117,118,119,120,121,-117]],"type":"Polygon","properties":{"state":"GA","name":"LAWRENCEVILLE","zip":"30044"}},{"arcs":[[122,-118,-116,-50,123,-48]],"type":"Polygon","properties":{"state":"GA","name":"LAWRENCEVILLE","zip":"30045"}},{"arcs":[[124,-101,125,126,127,-120]],"type":"Polygon","properties":{"state":"GA","name":"LILBURN","zip":"30047"}},{"arcs":[[128,-34,-28,-103,129,-49,-124,-56,130,131,-41]],"type":"Polygon","properties":{"state":"GA","name":"LOGANVILLE","zip":"30052"}},{"arcs":[[-35,-129,-40]],"type":"Polygon","properties":{"state":"GA","name":"OXFORD","zip":"30054"}},{"arcs":[[132,133,-36,-71,134,135]],"type":"Polygon","properties":{"state":"GA","name":"MANSFIELD","zip":"30055"}},{"arcs":[[136,137,-136,138]],"type":"Polygon","properties":{"state":"GA","name":"NEWBORN","zip":"30056"}},{"arcs":[[139,140,-104,-26,-97,-92]],"type":"Polygon","properties":{"state":"GA","name":"LITHONIA","zip":"30058"}},{"arcs":[[[141,142,143,-18,144,145,146,147,148,149,150]],[[151,152,153]]],"type":"MultiPolygon","properties":{"state":"GA","name":"MARIETTA","zip":"30060"}},{"arcs":[[154,-149,155,156,157]],"type":"Polygon","properties":{"state":"GA","name":"MARIETTA","zip":"30062"}},{"arcs":[[158,159,-145,-17]],"type":"Polygon","properties":{"state":"GA","name":"MARIETTA","zip":"30064"}},{"arcs":[[160,161,162,-156,-148]],"type":"Polygon","properties":{"state":"GA","name":"MARIETTA","zip":"30066"}},{"arcs":[[163,164,165,-152,166,-150,-155,167]],"type":"Polygon","properties":{"state":"GA","name":"MARIETTA","zip":"30067"}},{"arcs":[[168,-168,-158,169,170]],"type":"Polygon","properties":{"state":"GA","name":"MARIETTA","zip":"30068"}},{"arcs":[[171,-151,-167,-154]],"type":"Polygon","properties":{"state":"GA","name":"MARIETTA","zip":"30069"}},{"arcs":[[172,173,174,175,176]],"type":"Polygon","properties":{"state":"GA","name":"NORCROSS","zip":"30071"}},{"arcs":[[-163,177,-7,178,179,-170,-157]],"type":"Polygon","properties":{"state":"GA","name":"ROSWELL","zip":"30075"}},{"arcs":[[180,-179,-6,-63,181]],"type":"Polygon","properties":{"state":"GA","name":"ROSWELL","zip":"30076"}},{"arcs":[[-119,-123,-47,-130,-102,-125]],"type":"Polygon","properties":{"state":"GA","name":"SNELLVILLE","zip":"30078"}},{"arcs":[[-82,-57,-3,-76]],"type":"Polygon","properties":{"state":"GA","name":"SCOTTDALE","zip":"30079"}},{"arcs":[[182,183,184,-142,-172,-153,-166]],"type":"Polygon","properties":{"state":"GA","name":"SMYRNA","zip":"30080"}},{"arcs":[[185,186,187,-143,-185]],"type":"Polygon","properties":{"state":"GA","name":"SMYRNA","zip":"30082"}},{"arcs":[[-60,188,189,190,-94,-79]],"type":"Polygon","properties":{"state":"GA","name":"STONE MOUNTAIN","zip":"30083"}},{"arcs":[[-59,-87,191,192,193,194,-127,195,-189]],"type":"Polygon","properties":{"state":"GA","name":"TUCKER","zip":"30084"}},{"arcs":[[-141,196,-190,-196,-126,-100]],"type":"Polygon","properties":{"state":"GA","name":"STONE MOUNTAIN","zip":"30087"}},{"arcs":[[-95,-191,-197,-140]],"type":"Polygon","properties":{"state":"GA","name":"STONE MOUNTAIN","zip":"30088"}},{"arcs":[[197,-182,-62,198,199,-176,200]],"type":"Polygon","properties":{"state":"GA","name":"NORCROSS","zip":"30092"}},{"arcs":[[201,-173,202,-121,-128,-195]],"type":"Polygon","properties":{"state":"GA","name":"NORCROSS","zip":"30093"}},{"arcs":[[203,-98,-30,-33,-46,204]],"type":"Polygon","properties":{"state":"GA","name":"CONYERS","zip":"30094"}},{"arcs":[[-203,-177,-200,205,-112,-122]],"type":"Polygon","properties":{"state":"GA","name":"DULUTH","zip":"30096"}},{"arcs":[[-64,-12,-65,-113,-206,-199]],"type":"Polygon","properties":{"state":"GA","name":"DULUTH","zip":"30097"}},{"arcs":[[206,207,208,209,210,211,212,213]],"type":"Polygon","properties":{"state":"GA","name":"ACWORTH","zip":"30101"}},{"arcs":[[214,-213,215,216,217]],"type":"Polygon","properties":{"state":"GA","name":"ACWORTH","zip":"30102"}},{"arcs":[[218,219,220,221,222,223,224,225]],"type":"Polygon","properties":{"state":"GA","name":"ADAIRSVILLE","zip":"30103"}},{"arcs":[[226,227,228,229,230]],"type":"Polygon","properties":{"state":"GA","name":"ARAGON","zip":"30104"}},{"arcs":[[231,232,233,234,235]],"type":"Polygon","properties":{"state":"GA","name":"ARMUCHEE","zip":"30105"}},{"arcs":[[236,-16,-144,-188,237,238,239]],"type":"Polygon","properties":{"state":"GA","name":"AUSTELL","zip":"30106"}},{"arcs":[[240,241,242,243,-106,244]],"type":"Polygon","properties":{"state":"GA","name":"BALL GROUND","zip":"30107"}},{"arcs":[[245,246,247,248]],"type":"Polygon","properties":{"state":"GA","name":"BOWDON","zip":"30108"}},{"arcs":[[249,250,251,252,253]],"type":"Polygon","properties":{"state":"GA","name":"BREMEN","zip":"30110"}},{"arcs":[[254,255,256,257,-252]],"type":"Polygon","properties":{"state":"GA","name":"BUCHANAN","zip":"30113"}},{"arcs":[[258,259,-217,260,261,262,-241,263]],"type":"Polygon","properties":{"state":"GA","name":"CANTON","zip":"30114"}},{"arcs":[[264,-264,-245,-105,-9]],"type":"Polygon","properties":{"state":"GA","name":"CANTON","zip":"30115"}},{"arcs":[[265,266,267,268,269,270,271,272]],"type":"Polygon","properties":{"state":"GA","name":"CARROLLTON","zip":"30116"}},{"arcs":[[273,-248,274,-254,275,-267]],"type":"Polygon","properties":{"state":"GA","name":"CARROLLTON","zip":"30117"}},{"arcs":[[276,277,278,-226,279,-211]],"type":"Polygon","properties":{"state":"GA","name":"CARTERSVILLE","zip":"30120"}},{"arcs":[[-225,280,-216,-212,-280]],"type":"Polygon","properties":{"state":"GA","name":"CARTERSVILLE","zip":"30121"}},{"arcs":[[281,282,283,284,285,-240]],"type":"Polygon","properties":{"state":"GA","name":"LITHIA SPRINGS","zip":"30122"}},{"arcs":[[286,287,288,289,290]],"type":"Polygon","properties":{"state":"GA","name":"CAVE SPRING","zip":"30124"}},{"arcs":[[291,-288,292,293,-227,294,-256,295]],"type":"Polygon","properties":{"state":"GA","name":"CEDARTOWN","zip":"30125"}},{"arcs":[[296,297,298,-238,-187,299]],"type":"Polygon","properties":{"state":"GA","name":"MABLETON","zip":"30126"}},{"arcs":[[-286,300,301,302,-208,303,-159,-237]],"type":"Polygon","properties":{"state":"GA","name":"POWDER SPRINGS","zip":"30127"}},{"arcs":[[304,305,-277,-210,306]],"type":"Polygon","properties":{"state":"GA","name":"DALLAS","zip":"30132"}},{"arcs":[[307,308,309,-301,-285,310,311]],"type":"Polygon","properties":{"state":"GA","name":"DOUGLASVILLE","zip":"30134"}},{"arcs":[[312,-311,-284,313,314,315,316,317]],"type":"Polygon","properties":{"state":"GA","name":"DOUGLASVILLE","zip":"30135"}},{"arcs":[[318,319,320,321,322]],"type":"Polygon","properties":{"state":"GA","name":"FAIRMOUNT","zip":"30139"}},{"arcs":[[323,-302,-310]],"type":"Polygon","properties":{"state":"GA","name":"HIRAM","zip":"30141"}},{"arcs":[[324,325,326,327,328,329,-242,-263,330,-323]],"type":"Polygon","properties":{"state":"GA","name":"JASPER","zip":"30143"}},{"arcs":[[-147,331,-214,-215,332,333,-161]],"type":"Polygon","properties":{"state":"GA","name":"KENNESAW","zip":"30144"}},{"arcs":[[334,335,-219,-279]],"type":"Polygon","properties":{"state":"GA","name":"KINGSTON","zip":"30145"}},{"arcs":[[336,337,-293,-287]],"type":"Polygon","properties":{"state":"GA","name":"LINDALE","zip":"30147"}},{"arcs":[[338,-243,-330,339]],"type":"Polygon","properties":{"state":"GA","name":"MARBLE HILL","zip":"30148"}},{"arcs":[[-304,-207,-332,-146,-160]],"type":"Polygon","properties":{"state":"GA","name":"KENNESAW","zip":"30152"}},{"arcs":[[-295,-231,340,-305,341,342,-257]],"type":"Polygon","properties":{"state":"GA","name":"ROCKMART","zip":"30153"}},{"arcs":[[343,344,-342,-307,-209,-303,-324,-309]],"type":"Polygon","properties":{"state":"GA","name":"DALLAS","zip":"30157"}},{"arcs":[[345,-229,346,-337,-291,347,348,-220,-336]],"type":"Polygon","properties":{"state":"GA","name":"ROME","zip":"30161"}},{"arcs":[[349,350,351,-236,352,353,-348,-290]],"type":"Polygon","properties":{"state":"GA","name":"ROME","zip":"30165"}},{"arcs":[[354,-282,-239,-299]],"type":"Polygon","properties":{"state":"GA","name":"AUSTELL","zip":"30168"}},{"arcs":[[355,-249,-274,-266,356]],"type":"Polygon","properties":{"state":"GA","name":"ROOPVILLE","zip":"30170"}},{"arcs":[[357,358,-223,359,-320]],"type":"Polygon","properties":{"state":"GA","name":"RYDAL","zip":"30171"}},{"arcs":[[-294,-338,-347,-228]],"type":"Polygon","properties":{"state":"GA","name":"SILVER CREEK","zip":"30173"}},{"arcs":[[360,361,362,-326]],"type":"Polygon","properties":{"state":"GA","name":"TALKING ROCK","zip":"30175"}},{"arcs":[[363,-296,-255,-251,364]],"type":"Polygon","properties":{"state":"GA","name":"TALLAPOOSA","zip":"30176"}},{"arcs":[[-329,365,-340]],"type":"Polygon","properties":{"state":"GA","name":"TATE","zip":"30177"}},{"arcs":[[-306,-341,-230,-346,-335,-278]],"type":"Polygon","properties":{"state":"GA","name":"TAYLORSVILLE","zip":"30178"}},{"arcs":[[-258,-343,-345,366,-268,-276,-253]],"type":"Polygon","properties":{"state":"GA","name":"TEMPLE","zip":"30179"}},{"arcs":[[367,-269,-367,-344,-308]],"type":"Polygon","properties":{"state":"GA","name":"VILLA RICA","zip":"30180"}},{"arcs":[[-247,368,-365,-250,-275]],"type":"Polygon","properties":{"state":"GA","name":"WACO","zip":"30182"}},{"arcs":[[369,-358,-319,-331,-262]],"type":"Polygon","properties":{"state":"GA","name":"WALESKA","zip":"30183"}},{"arcs":[[-281,-224,-359,-370,-261]],"type":"Polygon","properties":{"state":"GA","name":"WHITE","zip":"30184"}},{"arcs":[[370,-318,371,372,-271]],"type":"Polygon","properties":{"state":"GA","name":"WHITESBURG","zip":"30185"}},{"arcs":[[-371,-270,-368,-312,-313]],"type":"Polygon","properties":{"state":"GA","name":"WINSTON","zip":"30187"}},{"arcs":[[-162,-334,373,-259,-265,-8,-178]],"type":"Polygon","properties":{"state":"GA","name":"WOODSTOCK","zip":"30188"}},{"arcs":[[-260,-374,-333,-218]],"type":"Polygon","properties":{"state":"GA","name":"WOODSTOCK","zip":"30189"}},{"arcs":[[374,375,376,377,378,379,380]],"type":"Polygon","properties":{"state":"GA","name":"BARNESVILLE","zip":"30204"}},{"arcs":[[381,382,383,384,385,386]],"type":"Polygon","properties":{"state":"GA","name":"BROOKS","zip":"30205"}},{"arcs":[[387,388,-383,389,390,391]],"type":"Polygon","properties":{"state":"GA","name":"CONCORD","zip":"30206"}},{"arcs":[[392,-316,393,394,395,396,397,398,399]],"type":"Polygon","properties":{"state":"GA","name":"FAIRBURN","zip":"30213"}},{"arcs":[[400,-399,401,402,403,404]],"type":"Polygon","properties":{"state":"GA","name":"FAYETTEVILLE","zip":"30214"}},{"arcs":[[405,406,-404,407,408,-385]],"type":"Polygon","properties":{"state":"GA","name":"FAYETTEVILLE","zip":"30215"}},{"arcs":[[409,410,411]],"type":"Polygon","properties":{"state":"GA","name":"FLOVILLA","zip":"30216"}},{"arcs":[[412,413,414,-357,-273,415]],"type":"Polygon","properties":{"state":"GA","name":"FRANKLIN","zip":"30217"}},{"arcs":[[416,417,418,419,420,-388]],"type":"Polygon","properties":{"state":"GA","name":"GAY","zip":"30218"}},{"arcs":[[421,422,423,424,425]],"type":"Polygon","properties":{"state":"GA","name":"GRANTVILLE","zip":"30220"}},{"arcs":[[426,427,428,-426,429,-419,430,431]],"type":"Polygon","properties":{"state":"GA","name":"GREENVILLE","zip":"30222"}},{"arcs":[[432,433,-386,-409,434,435]],"type":"Polygon","properties":{"state":"GA","name":"GRIFFIN","zip":"30223"}},{"arcs":[[436,437,438,-387,-434,439]],"type":"Polygon","properties":{"state":"GA","name":"GRIFFIN","zip":"30224"}},{"arcs":[[440,441,442,443,444,-435,-408]],"type":"Polygon","properties":{"state":"GA","name":"HAMPTON","zip":"30228"}},{"arcs":[[445,-413,446,-422,-429,447]],"type":"Polygon","properties":{"state":"GA","name":"HOGANSVILLE","zip":"30230"}},{"arcs":[[448,449,-440,-433,450,451,452,453,-44,-38,454,-411]],"type":"Polygon","properties":{"state":"GA","name":"JACKSON","zip":"30233"}},{"arcs":[[455,-452]],"type":"Polygon","properties":{"state":"GA","name":"JENKINSBURG","zip":"30234"}},{"arcs":[[456,-442,457,458,459,460,461]],"type":"Polygon","properties":{"state":"GA","name":"JONESBORO","zip":"30236"}},{"arcs":[[462,463,-458,-441,-403]],"type":"Polygon","properties":{"state":"GA","name":"JONESBORO","zip":"30238"}},{"arcs":[[464,-414,-446,465,466]],"type":"Polygon","properties":{"state":"GA","name":"LAGRANGE","zip":"30240"}},{"arcs":[[467,-466,-448,-428,468]],"type":"Polygon","properties":{"state":"GA","name":"LAGRANGE","zip":"30241"}},{"arcs":[[-451,-436,-445,469,470,-453,-456]],"type":"Polygon","properties":{"state":"GA","name":"LOCUST GROVE","zip":"30248"}},{"arcs":[[-430,-425,471,-420]],"type":"Polygon","properties":{"state":"GA","name":"LUTHERSVILLE","zip":"30251"}},{"arcs":[[-471,472,473,-205,-45,-454]],"type":"Polygon","properties":{"state":"GA","name":"MCDONOUGH","zip":"30252"}},{"arcs":[[474,-473,-470,-444]],"type":"Polygon","properties":{"state":"GA","name":"MCDONOUGH","zip":"30253"}},{"arcs":[[475,476,477,478,-377]],"type":"Polygon","properties":{"state":"GA","name":"MEANSVILLE","zip":"30256"}},{"arcs":[[479,-437,-450,480,-379]],"type":"Polygon","properties":{"state":"GA","name":"MILNER","zip":"30257"}},{"arcs":[[481,-417,-392,482,-478,483,484]],"type":"Polygon","properties":{"state":"GA","name":"MOLENA","zip":"30258"}},{"arcs":[[485,-472,-424,486]],"type":"Polygon","properties":{"state":"GA","name":"MORELAND","zip":"30259"}},{"arcs":[[487,-461,488,489]],"type":"Polygon","properties":{"state":"GA","name":"MORROW","zip":"30260"}},{"arcs":[[-423,-447,-416,-272,-373,490,491,492,493,-487]],"type":"Polygon","properties":{"state":"GA","name":"NEWNAN","zip":"30263"}},{"arcs":[[494,495,-492]],"type":"Polygon","properties":{"state":"GA","name":"NEWNAN","zip":"30265"}},{"arcs":[[-372,-317,-393,496,497,-495,-491]],"type":"Polygon","properties":{"state":"GA","name":"PALMETTO","zip":"30268"}},{"arcs":[[498,499,500,-405,-407]],"type":"Polygon","properties":{"state":"GA","name":"PEACHTREE CITY","zip":"30269"}},{"arcs":[[-488,501,502,-462]],"type":"Polygon","properties":{"state":"GA","name":"REX","zip":"30273"}},{"arcs":[[503,504,505,-459,-464]],"type":"Polygon","properties":{"state":"GA","name":"RIVERDALE","zip":"30274"}},{"arcs":[[-389,-421,-486,-494,506,-499,-406,-384]],"type":"Polygon","properties":{"state":"GA","name":"SENOIA","zip":"30276"}},{"arcs":[[-498,507,-500,-507,-493,-496]],"type":"Polygon","properties":{"state":"GA","name":"SHARPSBURG","zip":"30277"}},{"arcs":[[-503,508,-99,-204,-474,-475,-443,-457]],"type":"Polygon","properties":{"state":"GA","name":"STOCKBRIDGE","zip":"30281"}},{"arcs":[[509,510,-476,-376]],"type":"Polygon","properties":{"state":"GA","name":"THE ROCK","zip":"30285"}},{"arcs":[[511,512,513,514,515,-484,-477,-511]],"type":"Polygon","properties":{"state":"GA","name":"THOMASTON","zip":"30286"}},{"arcs":[[516,517,518,519,520]],"type":"Polygon","properties":{"state":"GA","name":"CONLEY","zip":"30288"}},{"arcs":[[-501,-508,-497,-400,-401]],"type":"Polygon","properties":{"state":"GA","name":"TYRONE","zip":"30290"}},{"arcs":[[521,-396]],"type":"Polygon","properties":{"state":"GA","name":"UNION CITY","zip":"30291"}},{"arcs":[[-382,-439,522,-390]],"type":"Polygon","properties":{"state":"GA","name":"WILLIAMSON","zip":"30292"}},{"arcs":[[523,-431,-418,-482,524]],"type":"Polygon","properties":{"state":"GA","name":"WOODBURY","zip":"30293"}},{"arcs":[[-502,-490,525,-517,526,-89,-96,-509]],"type":"Polygon","properties":{"state":"GA","name":"ELLENWOOD","zip":"30294"}},{"arcs":[[-523,-438,-480,-378,-479,-483,-391]],"type":"Polygon","properties":{"state":"GA","name":"ZEBULON","zip":"30295"}},{"arcs":[[-402,-398,527,-504,-463]],"type":"Polygon","properties":{"state":"GA","name":"RIVERDALE","zip":"30296"}},{"arcs":[[528,529,-518,-526,-489,-460,-506]],"type":"Polygon","properties":{"state":"GA","name":"FOREST PARK","zip":"30297"}},{"arcs":[[530,531,532]],"type":"Polygon","properties":{"state":"GA","name":"ATLANTA","zip":"30303"}},{"arcs":[[533,534,535,536,537,538]],"type":"Polygon","properties":{"state":"GA","name":"ATLANTA","zip":"30305"}},{"arcs":[[539,540,541,542,543,544,545]],"type":"Polygon","properties":{"state":"GA","name":"ATLANTA","zip":"30306"}},{"arcs":[[546,547,548,-545,549,-83,-74]],"type":"Polygon","properties":{"state":"GA","name":"ATLANTA","zip":"30307"}},{"arcs":[[550,-532,551,552,-540]],"type":"Polygon","properties":{"state":"GA","name":"ATLANTA","zip":"30308"}},{"arcs":[[553,-535,554,-541,-553,555]],"type":"Polygon","properties":{"state":"GA","name":"ATLANTA","zip":"30309"}},{"arcs":[[556,557,558,559,560,561,562]],"type":"Polygon","properties":{"state":"GA","name":"ATLANTA","zip":"30310"}},{"arcs":[[563,564,565,-558,566]],"type":"Polygon","properties":{"state":"GA","name":"ATLANTA","zip":"30311"}},{"arcs":[[567,-533,-551,-546,-549,568,569,-561]],"type":"Polygon","properties":{"state":"GA","name":"ATLANTA","zip":"30312"}},{"arcs":[[570,571,-556,-552,-531,-568]],"type":"Polygon","properties":{"state":"GA","name":"ATLANTA","zip":"30313"}},{"arcs":[[572,-571,-560]],"type":"Polygon","properties":{"state":"GA","name":"ATLANTA","zip":"30314"}},{"arcs":[[573,-520,574,575,-562,-570]],"type":"Polygon","properties":{"state":"GA","name":"ATLANTA","zip":"30315"}},{"arcs":[[-569,-548,576,-77,-90,-527,-521,-574]],"type":"Polygon","properties":{"state":"GA","name":"ATLANTA","zip":"30316"}},{"arcs":[[-547,-73,-78,-577]],"type":"Polygon","properties":{"state":"GA","name":"ATLANTA","zip":"30317"}},{"arcs":[[577,-300,-186,-184,578,-536,-554,-572,-573,-559,-566]],"type":"Polygon","properties":{"state":"GA","name":"ATLANTA","zip":"30318"}},{"arcs":[[579,580,581,582,583,584,585,586]],"type":"Polygon","properties":{"state":"GA","name":"ATLANTA","zip":"30319"}},{"arcs":[[587,-84,-550,-544]],"type":"Polygon","properties":{"state":"GA","name":"ATLANTA","zip":"30322"}},{"arcs":[[588,-542,-555,-534,589,-587]],"type":"Polygon","properties":{"state":"GA","name":"ATLANTA","zip":"30324"}},{"arcs":[[-539,590,-580,-590]],"type":"Polygon","properties":{"state":"GA","name":"ATLANTA","zip":"30326"}},{"arcs":[[-579,591,592,593,-537]],"type":"Polygon","properties":{"state":"GA","name":"ATLANTA","zip":"30327"}},{"arcs":[[-169,594,595,596,597,-593,598,-164]],"type":"Polygon","properties":{"state":"GA","name":"ATLANTA","zip":"30328"}},{"arcs":[[-588,-543,-589,-586,599,-85]],"type":"Polygon","properties":{"state":"GA","name":"ATLANTA","zip":"30329"}},{"arcs":[[600,-567,-557]],"type":"Polygon","properties":{"state":"GA","name":"ATLANTA","zip":"30330"}},{"arcs":[[601,602,-394,-315,603,-297,-578,-565]],"type":"Polygon","properties":{"state":"GA","name":"ATLANTA","zip":"30331"}},{"arcs":[[-283,-355,-298,-604,-314]],"type":"Polygon","properties":{"state":"GA","name":"ATLANTA","zip":"30336"}},{"arcs":[[604,605,606]],"type":"Polygon","properties":{"state":"GA","name":"ATLANTA","zip":"30337"}},{"arcs":[[607,-596,608,609,610,-583]],"type":"Polygon","properties":{"state":"GA","name":"ATLANTA","zip":"30338"}},{"arcs":[[-183,-165,-599,-592]],"type":"Polygon","properties":{"state":"GA","name":"ATLANTA","zip":"30339"}},{"arcs":[[611,612,-174,-202,-194]],"type":"Polygon","properties":{"state":"GA","name":"ATLANTA","zip":"30340"}},{"arcs":[[-611,613,-612,-193,614,-584]],"type":"Polygon","properties":{"state":"GA","name":"ATLANTA","zip":"30341"}},{"arcs":[[-538,-594,-598,-581,-591]],"type":"Polygon","properties":{"state":"GA","name":"ATLANTA","zip":"30342"}},{"arcs":[[-564,-601,-563,-576,615,-606,616,-602]],"type":"Polygon","properties":{"state":"GA","name":"ATLANTA","zip":"30344"}},{"arcs":[[-600,-585,-615,-192,-86]],"type":"Polygon","properties":{"state":"GA","name":"ATLANTA","zip":"30345"}},{"arcs":[[-608,-582,-597]],"type":"Polygon","properties":{"state":"GA","name":"ATLANTA","zip":"30346"}},{"arcs":[[-528,-397,-522,-395,-603,-617,-605,617,-529,-505]],"type":"Polygon","properties":{"state":"GA","name":"ATLANTA","zip":"30349"}},{"arcs":[[-171,-180,-181,-198,618,-609,-595]],"type":"Polygon","properties":{"state":"GA","name":"ATLANTA","zip":"30350"}},{"arcs":[[-616,-575,-519,-530,-618,-607]],"type":"Polygon","properties":{"state":"GA","name":"ATLANTA","zip":"30354"}},{"arcs":[[-619,-201,-175,-613,-614,-610]],"type":"Polygon","properties":{"state":"GA","name":"ATLANTA","zip":"30360"}},{"arcs":[[619,620,621,622,623,624,625,626,627]],"type":"Polygon","properties":{"state":"GA","name":"SWAINSBORO","zip":"30401"}},{"arcs":[[628,629,630,631]],"type":"Polygon","properties":{"state":"GA","name":"AILEY","zip":"30410"}},{"arcs":[[632,633,634,635,636]],"type":"Polygon","properties":{"state":"GA","name":"ALAMO","zip":"30411"}},{"arcs":[[637,638,639,640,641]],"type":"Polygon","properties":{"state":"GA","name":"BARTOW","zip":"30413"}},{"arcs":[[642,643,644,645,646]],"type":"Polygon","properties":{"state":"GA","name":"BROOKLET","zip":"30415"}},{"arcs":[[647,648,649,650,651,652,653,654]],"type":"Polygon","properties":{"state":"GA","name":"CLAXTON","zip":"30417"}},{"arcs":[[655,656,-650,657]],"type":"Polygon","properties":{"state":"GA","name":"COBBTOWN","zip":"30420"}},{"arcs":[[658,659,660,-658,-649]],"type":"Polygon","properties":{"state":"GA","name":"COLLINS","zip":"30421"}},{"arcs":[[661,662,663,664,665,666]],"type":"Polygon","properties":{"state":"GA","name":"GARFIELD","zip":"30425"}},{"arcs":[[667,668,669,670]],"type":"Polygon","properties":{"state":"GA","name":"GIRARD","zip":"30426"}},{"arcs":[[671,672,673,674,675,676,-655,677]],"type":"Polygon","properties":{"state":"GA","name":"GLENNVILLE","zip":"30427"}},{"arcs":[[678,-633,679,680,681,682,683,684,685,686]],"type":"Polygon","properties":{"state":"GA","name":"GLENWOOD","zip":"30428"}},{"arcs":[[687,688,689,-641,690,691,692,693,694,695]],"type":"Polygon","properties":{"state":"GA","name":"LOUISVILLE","zip":"30434"}},{"arcs":[[696,697,-621,-656,-661,698,699]],"type":"Polygon","properties":{"state":"GA","name":"LYONS","zip":"30436"}},{"arcs":[[700,-659,-648,-677]],"type":"Polygon","properties":{"state":"GA","name":"MANASSAS","zip":"30438"}},{"arcs":[[-620,701,-667,702,703,704,-651,-657]],"type":"Polygon","properties":{"state":"GA","name":"METTER","zip":"30439"}},{"arcs":[[705,-627,706,-689,707,708,-663]],"type":"Polygon","properties":{"state":"GA","name":"MIDVILLE","zip":"30441"}},{"arcs":[[709,710,-664,-709,711,712,713]],"type":"Polygon","properties":{"state":"GA","name":"MILLEN","zip":"30442"}},{"arcs":[[714,-684,715,-631]],"type":"Polygon","properties":{"state":"GA","name":"MOUNT VERNON","zip":"30445"}},{"arcs":[[716,717,718,719,720,721]],"type":"Polygon","properties":{"state":"GA","name":"NEWINGTON","zip":"30446"}},{"arcs":[[-666,722,723,-703]],"type":"Polygon","properties":{"state":"GA","name":"PORTAL","zip":"30450"}},{"arcs":[[724,-652,-705,725]],"type":"Polygon","properties":{"state":"GA","name":"REGISTER","zip":"30452"}},{"arcs":[[726,-699,-660,-701,-676]],"type":"Polygon","properties":{"state":"GA","name":"REIDSVILLE","zip":"30453"}},{"arcs":[[727,-681,728,729,730,731]],"type":"Polygon","properties":{"state":"GA","name":"ROCKLEDGE","zip":"30454"}},{"arcs":[[732,-710,733]],"type":"Polygon","properties":{"state":"GA","name":"ROCKY FORD","zip":"30455"}},{"arcs":[[734,735,736,-669]],"type":"Polygon","properties":{"state":"GA","name":"SARDIS","zip":"30456"}},{"arcs":[[737,-623,738,-682,-728]],"type":"Polygon","properties":{"state":"GA","name":"SOPERTON","zip":"30457"}},{"arcs":[[739,-726,-704,-724,740,-645]],"type":"Polygon","properties":{"state":"GA","name":"STATESBORO","zip":"30458"}},{"arcs":[[741,-646,-741,-723,-665,-711,-733,742,-719]],"type":"Polygon","properties":{"state":"GA","name":"STATESBORO","zip":"30461"}},{"arcs":[[-714,743,-735,-668,744,-720,-743,-734]],"type":"Polygon","properties":{"state":"GA","name":"SYLVANIA","zip":"30467"}},{"arcs":[[745,-632,-716,-683,-739]],"type":"Polygon","properties":{"state":"GA","name":"TARRYTOWN","zip":"30470"}},{"arcs":[[-628,-706,-662,-702]],"type":"Polygon","properties":{"state":"GA","name":"TWIN CITY","zip":"30471"}},{"arcs":[[746,-685,-715,-630,747,-697,748]],"type":"Polygon","properties":{"state":"GA","name":"UVALDA","zip":"30473"}},{"arcs":[[-746,-622,-698,-748,-629]],"type":"Polygon","properties":{"state":"GA","name":"VIDALIA","zip":"30474"}},{"arcs":[[749,-642,-690,-707,-626,750]],"type":"Polygon","properties":{"state":"GA","name":"WADLEY","zip":"30477"}},{"arcs":[[751,752,753,754]],"type":"Polygon","properties":{"state":"GA","name":"GAINESVILLE","zip":"30501"}},{"arcs":[[755,756,757,-753]],"type":"Polygon","properties":{"state":"GA","name":"GAINESVILLE","zip":"30504"}},{"arcs":[[758,759,760,761,-754,-758,762,763,-111]],"type":"Polygon","properties":{"state":"GA","name":"GAINESVILLE","zip":"30506"}},{"arcs":[[764,765,766,-756,-752,767,768]],"type":"Polygon","properties":{"state":"GA","name":"GAINESVILLE","zip":"30507"}},{"arcs":[[769,770,771,772]],"type":"Polygon","properties":{"state":"GA","name":"ALTO","zip":"30510"}},{"arcs":[[773,774,-773,775,776,777]],"type":"Polygon","properties":{"state":"GA","name":"BALDWIN","zip":"30511"}},{"arcs":[[778,779,780,781,782,783,784,785]],"type":"Polygon","properties":{"state":"GA","name":"BLAIRSVILLE","zip":"30512"}},{"arcs":[[786,787,788,789,790,791,792]],"type":"Polygon","properties":{"state":"GA","name":"BLUE RIDGE","zip":"30513"}},{"arcs":[[793,794,795]],"type":"Polygon","properties":{"state":"GA","name":"BOWERSVILLE","zip":"30516"}},{"arcs":[[796,-21,797,798,-766,799]],"type":"Polygon","properties":{"state":"GA","name":"BRASELTON","zip":"30517"}},{"arcs":[[800,-114,-67,-109,-764,801]],"type":"Polygon","properties":{"state":"GA","name":"BUFORD","zip":"30518"}},{"arcs":[[802,-798,-20,803,-52,-115,-801]],"type":"Polygon","properties":{"state":"GA","name":"BUFORD","zip":"30519"}},{"arcs":[[804,805,806,-794,807]],"type":"Polygon","properties":{"state":"GA","name":"CANON","zip":"30520"}},{"arcs":[[808,809,-774,810,811,812,813,814,815]],"type":"Polygon","properties":{"state":"GA","name":"CARNESVILLE","zip":"30521"}},{"arcs":[[816,817,-787]],"type":"Polygon","properties":{"state":"GA","name":"CHERRYLOG","zip":"30522"}},{"arcs":[[818,819,820,821,822,823,824,825,826,827]],"type":"Polygon","properties":{"state":"GA","name":"CLARKESVILLE","zip":"30523"}},{"arcs":[[828,829,830,831,832,833,-822]],"type":"Polygon","properties":{"state":"GA","name":"CLAYTON","zip":"30525"}},{"arcs":[[834,-761,835,836]],"type":"Polygon","properties":{"state":"GA","name":"CLERMONT","zip":"30527"}},{"arcs":[[837,838,-780,839,840,-819,841,842,843,-837]],"type":"Polygon","properties":{"state":"GA","name":"CLEVELAND","zip":"30528"}},{"arcs":[[844,845,846,847,848]],"type":"Polygon","properties":{"state":"GA","name":"COMMERCE","zip":"30529"}},{"arcs":[[849,-809,850,851,852,-849]],"type":"Polygon","properties":{"state":"GA","name":"COMMERCE","zip":"30530"}},{"arcs":[[-772,853,-843,854,855,-776]],"type":"Polygon","properties":{"state":"GA","name":"CORNELIA","zip":"30531"}},{"arcs":[[856,857,858,-781,-839]],"type":"Polygon","properties":{"state":"GA","name":"DAHLONEGA","zip":"30533"}},{"arcs":[[-339,-366,-328,859,860,-858,861,-759,-110,-107,-244]],"type":"Polygon","properties":{"state":"GA","name":"DAWSONVILLE","zip":"30534"}},{"arcs":[[-828,862,-855,-842]],"type":"Polygon","properties":{"state":"GA","name":"DEMOREST","zip":"30535"}},{"arcs":[[863,864,-832]],"type":"Polygon","properties":{"state":"GA","name":"DILLARD","zip":"30537"}},{"arcs":[[865,866,-812]],"type":"Polygon","properties":{"state":"GA","name":"EASTANOLLEE","zip":"30538"}},{"arcs":[[867,868,869,-817,-793,870,-860,-327,-363]],"type":"Polygon","properties":{"state":"GA","name":"ELLIJAY","zip":"30540"}},{"arcs":[[-818,-870,871,872,873,-788]],"type":"Polygon","properties":{"state":"GA","name":"EPWORTH","zip":"30541"}},{"arcs":[[-763,-757,-767,-799,-803,-802]],"type":"Polygon","properties":{"state":"GA","name":"FLOWERY BRANCH","zip":"30542"}},{"arcs":[[874,875,876,877,-769]],"type":"Polygon","properties":{"state":"GA","name":"GILLSVILLE","zip":"30543"}},{"arcs":[[-779,878,879,-840]],"type":"Polygon","properties":{"state":"GA","name":"HELEN","zip":"30545"}},{"arcs":[[880,881,-829,-821,882,-879,-786]],"type":"Polygon","properties":{"state":"GA","name":"HIAWASSEE","zip":"30546"}},{"arcs":[[-848,883,884,-770,-775,-810,-850]],"type":"Polygon","properties":{"state":"GA","name":"HOMER","zip":"30547"}},{"arcs":[[[885,886,-22,-797,887,888]],[[-804,-19,-53]]],"type":"MultiPolygon","properties":{"state":"GA","name":"HOSCHTON","zip":"30548"}},{"arcs":[[889,-886,890,891,-846,892,893,894]],"type":"Polygon","properties":{"state":"GA","name":"JEFFERSON","zip":"30549"}},{"arcs":[[895,896,-824]],"type":"Polygon","properties":{"state":"GA","name":"LAKEMONT","zip":"30552"}},{"arcs":[[897,898,899,-795,-807,900,-814]],"type":"Polygon","properties":{"state":"GA","name":"LAVONIA","zip":"30553"}},{"arcs":[[-762,-835,-844,-854,-771,-885,901,-875,-768,-755]],"type":"Polygon","properties":{"state":"GA","name":"LULA","zip":"30554"}},{"arcs":[[-874,902,903,-789]],"type":"Polygon","properties":{"state":"GA","name":"MC CAYSVILLE","zip":"30555"}},{"arcs":[[-813,-867,904,905,-898]],"type":"Polygon","properties":{"state":"GA","name":"MARTIN","zip":"30557"}},{"arcs":[[906,-876,-902,-884,-847,-892]],"type":"Polygon","properties":{"state":"GA","name":"MAYSVILLE","zip":"30558"}},{"arcs":[[907,-790,-904,908]],"type":"Polygon","properties":{"state":"GA","name":"MINERAL BLUFF","zip":"30559"}},{"arcs":[[909,-791,-908,910,-783]],"type":"Polygon","properties":{"state":"GA","name":"MORGANTON","zip":"30560"}},{"arcs":[[911,-777,-856,-863,-827]],"type":"Polygon","properties":{"state":"GA","name":"MOUNT AIRY","zip":"30563"}},{"arcs":[[-857,-838,-836,-760,-862]],"type":"Polygon","properties":{"state":"GA","name":"MURRAYVILLE","zip":"30564"}},{"arcs":[[912,913,-893,-845,-853]],"type":"Polygon","properties":{"state":"GA","name":"NICHOLSON","zip":"30565"}},{"arcs":[[914,-877,-907,-891,-889]],"type":"Polygon","properties":{"state":"GA","name":"PENDERGRASS","zip":"30567"}},{"arcs":[[915,-864,-831]],"type":"Polygon","properties":{"state":"GA","name":"RABUN GAP","zip":"30568"}},{"arcs":[[-841,-880,-883,-820]],"type":"Polygon","properties":{"state":"GA","name":"SAUTEE NACOOCHEE","zip":"30571"}},{"arcs":[[-792,-910,-782,-859,-861,-871]],"type":"Polygon","properties":{"state":"GA","name":"SUCHES","zip":"30572"}},{"arcs":[[-800,-765,-878,-915,-888]],"type":"Polygon","properties":{"state":"GA","name":"TALMO","zip":"30575"}},{"arcs":[[916,-896,-823,-834]],"type":"Polygon","properties":{"state":"GA","name":"TIGER","zip":"30576"}},{"arcs":[[-811,-778,-912,-826,917,-905,-866]],"type":"Polygon","properties":{"state":"GA","name":"TOCCOA","zip":"30577"}},{"arcs":[[918,-881,-785]],"type":"Polygon","properties":{"state":"GA","name":"YOUNG HARRIS","zip":"30582"}},{"arcs":[[919,920,921,922,923]],"type":"Polygon","properties":{"state":"GA","name":"ATHENS","zip":"30601"}},{"arcs":[[924,925,926,927,928,-924]],"type":"Polygon","properties":{"state":"GA","name":"ATHENS","zip":"30605"}},{"arcs":[[929,930,931,-920,-929,932,933]],"type":"Polygon","properties":{"state":"GA","name":"ATHENS","zip":"30606"}},{"arcs":[[934,-894,-914,935,-921,-932]],"type":"Polygon","properties":{"state":"GA","name":"ATHENS","zip":"30607"}},{"arcs":[[936,-933,-928]],"type":"Polygon","properties":{"state":"GA","name":"ATHENS","zip":"30609"}},{"arcs":[[937,-926,938,939,940]],"type":"Polygon","properties":{"state":"GA","name":"ARNOLDSVILLE","zip":"30619"}},{"arcs":[[941,-54,942]],"type":"Polygon","properties":{"state":"GA","name":"BETHLEHEM","zip":"30620"}},{"arcs":[[943,944,945,946]],"type":"Polygon","properties":{"state":"GA","name":"BISHOP","zip":"30621"}},{"arcs":[[947,948,-930,949,-945]],"type":"Polygon","properties":{"state":"GA","name":"BOGART","zip":"30622"}},{"arcs":[[950,951,952,953,-805,954]],"type":"Polygon","properties":{"state":"GA","name":"BOWMAN","zip":"30624"}},{"arcs":[[955,956,957]],"type":"Polygon","properties":{"state":"GA","name":"BUCKHEAD","zip":"30625"}},{"arcs":[[958,959,960,961,962,963]],"type":"Polygon","properties":{"state":"GA","name":"CARLTON","zip":"30627"}},{"arcs":[[964,965,966,967,-962,968,969]],"type":"Polygon","properties":{"state":"GA","name":"COLBERT","zip":"30628"}},{"arcs":[[970,-963,-968,971,972,-953]],"type":"Polygon","properties":{"state":"GA","name":"COMER","zip":"30629"}},{"arcs":[[973,-940,974,-970,975]],"type":"Polygon","properties":{"state":"GA","name":"CRAWFORD","zip":"30630"}},{"arcs":[[976,977,978,979,980,981,982]],"type":"Polygon","properties":{"state":"GA","name":"CRAWFORDVILLE","zip":"30631"}},{"arcs":[[983,-851,-816,984,-972,-967]],"type":"Polygon","properties":{"state":"GA","name":"DANIELSVILLE","zip":"30633"}},{"arcs":[[985,986,-951]],"type":"Polygon","properties":{"state":"GA","name":"DEWY ROSE","zip":"30634"}},{"arcs":[[987,-964,-971,-952,-987,988,989]],"type":"Polygon","properties":{"state":"GA","name":"ELBERTON","zip":"30635"}},{"arcs":[[990,991,-944]],"type":"Polygon","properties":{"state":"GA","name":"GOOD HOPE","zip":"30641"}},{"arcs":[[992,993,-978,994,995,-958]],"type":"Polygon","properties":{"state":"GA","name":"GREENSBORO","zip":"30642"}},{"arcs":[[-986,-955,-808,-796,-900,996,-989]],"type":"Polygon","properties":{"state":"GA","name":"HARTWELL","zip":"30643"}},{"arcs":[[-936,-913,-852,-984,-966,997,-922]],"type":"Polygon","properties":{"state":"GA","name":"HULL","zip":"30646"}},{"arcs":[[998,999,-976,-969,-961]],"type":"Polygon","properties":{"state":"GA","name":"LEXINGTON","zip":"30648"}},{"arcs":[[1000,1001,-991,-947,1002,1003,-993,-957,1004,1005,-137]],"type":"Polygon","properties":{"state":"GA","name":"MADISON","zip":"30650"}},{"arcs":[[-69,-42,-132,1006,1007,-948,-992,-1002]],"type":"Polygon","properties":{"state":"GA","name":"MONROE","zip":"30655"}},{"arcs":[[1008,-1007,-131,-55,-942,1009]],"type":"Polygon","properties":{"state":"GA","name":"MONROE","zip":"30656"}},{"arcs":[[1010,1011,-999,-960,1012,1013,-980]],"type":"Polygon","properties":{"state":"GA","name":"RAYLE","zip":"30660"}},{"arcs":[[-815,-901,-806,-954,-973,-985]],"type":"Polygon","properties":{"state":"GA","name":"ROYSTON","zip":"30662"}},{"arcs":[[-139,-135,-70,-1001]],"type":"Polygon","properties":{"state":"GA","name":"RUTLEDGE","zip":"30663"}},{"arcs":[[-1008,-1009,1014,-895,-935,-931,-949]],"type":"Polygon","properties":{"state":"GA","name":"STATHAM","zip":"30666"}},{"arcs":[[1015,-941,-974,-1000,-1012,1016]],"type":"Polygon","properties":{"state":"GA","name":"STEPHENS","zip":"30667"}},{"arcs":[[1017,1018,-1013,-959,-988,1019]],"type":"Polygon","properties":{"state":"GA","name":"TIGNALL","zip":"30668"}},{"arcs":[[1020,-1017,-1011,-979,-994,-1004]],"type":"Polygon","properties":{"state":"GA","name":"UNION POINT","zip":"30669"}},{"arcs":[[1021,1022,-981,-1014,-1019,1023,1024]],"type":"Polygon","properties":{"state":"GA","name":"WASHINGTON","zip":"30673"}},{"arcs":[[-950,-934,-937,-927,-938,-1016,-1021,-1003,-946]],"type":"Polygon","properties":{"state":"GA","name":"WATKINSVILLE","zip":"30677"}},{"arcs":[[1025,1026,-995,-977]],"type":"Polygon","properties":{"state":"GA","name":"WHITE PLAINS","zip":"30678"}},{"arcs":[[-23,-887,-890,-1015,-1010,-943]],"type":"Polygon","properties":{"state":"GA","name":"WINDER","zip":"30680"}},{"arcs":[[-939,-925,-923,-998,-965,-975]],"type":"Polygon","properties":{"state":"GA","name":"WINTERVILLE","zip":"30683"}},{"arcs":[[-222,1027,-353,-235,1028,1029,1030,-321,-360]],"type":"Polygon","properties":{"state":"GA","name":"CALHOUN","zip":"30701"}},{"arcs":[[-362,1031,1032,1033,1034,1035,-868]],"type":"Polygon","properties":{"state":"GA","name":"CHATSWORTH","zip":"30705"}},{"arcs":[[1036,1037,1038,1039,1040,1041,1042,1043]],"type":"Polygon","properties":{"state":"GA","name":"CHICKAMAUGA","zip":"30707"}},{"arcs":[[-869,-1036,1044,1045,1046,-872]],"type":"Polygon","properties":{"state":"GA","name":"CISCO","zip":"30708"}},{"arcs":[[1047,1048,1049,1050,1051,1052]],"type":"Polygon","properties":{"state":"GA","name":"COHUTTA","zip":"30710"}},{"arcs":[[1053,-1051,1054,1055,-1045,-1035]],"type":"Polygon","properties":{"state":"GA","name":"CRANDALL","zip":"30711"}},{"arcs":[[1056,1057,1058,1059,1060,1061,-1053]],"type":"Polygon","properties":{"state":"GA","name":"DALTON","zip":"30720"}},{"arcs":[[-1052,-1054,-1034,1062,-1057]],"type":"Polygon","properties":{"state":"GA","name":"DALTON","zip":"30721"}},{"arcs":[[1063,1064,1065,1066,-1038]],"type":"Polygon","properties":{"state":"GA","name":"FLINTSTONE","zip":"30725"}},{"arcs":[[1067,1068,1069,-1043,1070,1071,1072,-1060,1073,-233,1074]],"type":"Polygon","properties":{"state":"GA","name":"LA FAYETTE","zip":"30728"}},{"arcs":[[1075,1076,1077,-351]],"type":"Polygon","properties":{"state":"GA","name":"LYERLY","zip":"30730"}},{"arcs":[[1078,1079,-1044,-1070,1080,-1077]],"type":"Polygon","properties":{"state":"GA","name":"MENLO","zip":"30731"}},{"arcs":[[-349,-354,-1028,-221]],"type":"Polygon","properties":{"state":"GA","name":"PLAINVILLE","zip":"30733"}},{"arcs":[[-325,-322,-1031,1081,-1032,-361]],"type":"Polygon","properties":{"state":"GA","name":"RANGER","zip":"30734"}},{"arcs":[[1082,-1058,-1063,-1033,-1082,-1030]],"type":"Polygon","properties":{"state":"GA","name":"RESACA","zip":"30735"}},{"arcs":[[1083,-1041,1084,1085,1086,-1049,1087,1088,-1072]],"type":"Polygon","properties":{"state":"GA","name":"RINGGOLD","zip":"30736"}},{"arcs":[[-1080,1089,1090,1091,1092,-1064,-1037]],"type":"Polygon","properties":{"state":"GA","name":"RISING FAWN","zip":"30738"}},{"arcs":[[-1042,-1084,-1071]],"type":"Polygon","properties":{"state":"GA","name":"ROCK SPRING","zip":"30739"}},{"arcs":[[-1073,-1089,1093,-1061]],"type":"Polygon","properties":{"state":"GA","name":"ROCKY FACE","zip":"30740"}},{"arcs":[[1094,-1086,1095,-1039,-1067]],"type":"Polygon","properties":{"state":"GA","name":"ROSSVILLE","zip":"30741"}},{"arcs":[[-1096,-1085,-1040]],"type":"Polygon","properties":{"state":"GA","name":"FORT OGLETHORPE","zip":"30742"}},{"arcs":[[-1029,-234,-1074,-1059,-1083]],"type":"Polygon","properties":{"state":"GA","name":"SUGAR VALLEY","zip":"30746"}},{"arcs":[[-352,-1078,-1081,-1069,1096,-1075,-232]],"type":"Polygon","properties":{"state":"GA","name":"SUMMERVILLE","zip":"30747"}},{"arcs":[[1097,1098,-1065,-1093]],"type":"Polygon","properties":{"state":"GA","name":"LOOKOUT MOUNTAIN","zip":"30750"}},{"arcs":[[-1056,1099,-1046]],"type":"Polygon","properties":{"state":"GA","name":"TENNGA","zip":"30751"}},{"arcs":[[1100,1101,-1091]],"type":"Polygon","properties":{"state":"GA","name":"TRENTON","zip":"30752"}},{"arcs":[[-1068,-1097]],"type":"Polygon","properties":{"state":"GA","name":"TRION","zip":"30753"}},{"arcs":[[-1048,-1062,-1094,-1088]],"type":"Polygon","properties":{"state":"GA","name":"TUNNEL HILL","zip":"30755"}},{"arcs":[[1102,-1098,-1092,-1102]],"type":"Polygon","properties":{"state":"GA","name":"WILDWOOD","zip":"30757"}},{"arcs":[[1103,1104,1105,1106,1107]],"type":"Polygon","properties":{"state":"GA","name":"APPLING","zip":"30802"}},{"arcs":[[1108,-693,1109,1110]],"type":"Polygon","properties":{"state":"GA","name":"AVERA","zip":"30803"}},{"arcs":[[1111,1112,1113,1114,1115]],"type":"Polygon","properties":{"state":"GA","name":"DEARING","zip":"30808"}},{"arcs":[[1116,1117,-1106,1118]],"type":"Polygon","properties":{"state":"GA","name":"EVANS","zip":"30809"}},{"arcs":[[1119,-1111,1120,1121,1122,1123]],"type":"Polygon","properties":{"state":"GA","name":"GIBSON","zip":"30810"}},{"arcs":[[1124,1125,1126,-1107,-1118,1127]],"type":"Polygon","properties":{"state":"GA","name":"GROVETOWN","zip":"30813"}},{"arcs":[[1128,-1114,1129,-1108,-1127]],"type":"Polygon","properties":{"state":"GA","name":"HARLEM","zip":"30814"}},{"arcs":[[1130,1131,1132,1133,1134]],"type":"Polygon","properties":{"state":"GA","name":"HEPHZIBAH","zip":"30815"}},{"arcs":[[1135,1136,-1135,1137,-696]],"type":"Polygon","properties":{"state":"GA","name":"KEYSVILLE","zip":"30816"}},{"arcs":[[-1018,1138,-1024]],"type":"Polygon","properties":{"state":"GA","name":"LINCOLNTON","zip":"30817"}},{"arcs":[[1139,-1131,-1137]],"type":"Polygon","properties":{"state":"GA","name":"MATTHEWS","zip":"30818"}},{"arcs":[[1140,1141,1142,-1121,-1110,-692]],"type":"Polygon","properties":{"state":"GA","name":"MITCHELL","zip":"30820"}},{"arcs":[[1143,-982,-1023,1144,1145,1146]],"type":"Polygon","properties":{"state":"GA","name":"NORWOOD","zip":"30821"}},{"arcs":[[-713,1147,-736,-744]],"type":"Polygon","properties":{"state":"GA","name":"PERKINS","zip":"30822"}},{"arcs":[[-1120,1148,-694,-1109]],"type":"Polygon","properties":{"state":"GA","name":"STAPLETON","zip":"30823"}},{"arcs":[[-1113,1149,-1145,-1022,1150,-1104,-1130]],"type":"Polygon","properties":{"state":"GA","name":"THOMSON","zip":"30824"}},{"arcs":[[1151,-1146,-1150,-1112,1152,-1123]],"type":"Polygon","properties":{"state":"GA","name":"WARRENTON","zip":"30828"}},{"arcs":[[-1148,-712,-708,-688,-1138,-1134,1153,1154,-670,-737]],"type":"Polygon","properties":{"state":"GA","name":"WAYNESBORO","zip":"30830"}},{"arcs":[[-695,-1149,-1124,-1153,-1116,1155,-1140,-1136]],"type":"Polygon","properties":{"state":"GA","name":"WRENS","zip":"30833"}},{"arcs":[[1156,1157,1158]],"type":"Polygon","properties":{"state":"GA","name":"AUGUSTA","zip":"30901"}},{"arcs":[[1159,1160,1161,-1158]],"type":"Polygon","properties":{"state":"GA","name":"AUGUSTA","zip":"30904"}},{"arcs":[[-1129,-1126,1162,1163,-1132,-1156,-1115]],"type":"Polygon","properties":{"state":"GA","name":"AUGUSTA","zip":"30905"}},{"arcs":[[1164,-1154,-1133,-1164,1165,-1160,-1157]],"type":"Polygon","properties":{"state":"GA","name":"AUGUSTA","zip":"30906"}},{"arcs":[[-1117,1166,1167,-1128]],"type":"Polygon","properties":{"state":"GA","name":"AUGUSTA","zip":"30907"}},{"arcs":[[-1163,-1125,-1168,1168,-1161,-1166]],"type":"Polygon","properties":{"state":"GA","name":"AUGUSTA","zip":"30909"}},{"arcs":[[1169,1170,1171,1172,1173,1174]],"type":"Polygon","properties":{"state":"GA","name":"ABBEVILLE","zip":"31001"}},{"arcs":[[1175,1176,1177,-624,-738,-732]],"type":"Polygon","properties":{"state":"GA","name":"ADRIAN","zip":"31002"}},{"arcs":[[1178,1179,1180,1181,1182,1183,1184]],"type":"Polygon","properties":{"state":"GA","name":"ALLENTOWN","zip":"31003"}},{"arcs":[[1185,1186,1187]],"type":"Polygon","properties":{"state":"GA","name":"BONAIRE","zip":"31005"}},{"arcs":[[1188,1189,1190,1191,1192,1193,1194,1195]],"type":"Polygon","properties":{"state":"GA","name":"BUTLER","zip":"31006"}},{"arcs":[[1196,1197,1198,1199,1200]],"type":"Polygon","properties":{"state":"GA","name":"BYROMVILLE","zip":"31007"}},{"arcs":[[1201,1202,1203,1204,1205,1206]],"type":"Polygon","properties":{"state":"GA","name":"BYRON","zip":"31008"}},{"arcs":[[1207,1208,1209,1210]],"type":"Polygon","properties":{"state":"GA","name":"CADWELL","zip":"31009"}},{"arcs":[[1211,1212,1213,1214,-1209,1215,-636]],"type":"Polygon","properties":{"state":"GA","name":"CHAUNCEY","zip":"31011"}},{"arcs":[[1216,1217]],"type":"Polygon","properties":{"state":"GA","name":"CHESTER","zip":"31012"}},{"arcs":[[1218,1219,1220,1221,1222,1223,1224,1225,1226,-1217]],"type":"Polygon","properties":{"state":"GA","name":"COCHRAN","zip":"31014"}},{"arcs":[[1227,1228,1229,1230,1231,1232,1233]],"type":"Polygon","properties":{"state":"GA","name":"CORDELE","zip":"31015"}},{"arcs":[[1234,-513,1235,-381,1236,1237,1238,-1195]],"type":"Polygon","properties":{"state":"GA","name":"CULLODEN","zip":"31016"}},{"arcs":[[1239,1240,-1185,1241,-1224]],"type":"Polygon","properties":{"state":"GA","name":"DANVILLE","zip":"31017"}},{"arcs":[[1242,1243,1244,-691,-640]],"type":"Polygon","properties":{"state":"GA","name":"DAVISBORO","zip":"31018"}},{"arcs":[[1245,-1211,-1219,-1218,-1227,1246,1247]],"type":"Polygon","properties":{"state":"GA","name":"DEXTER","zip":"31019"}},{"arcs":[[1248,1249,1250,1251,1252,-1240,-1223,-1188]],"type":"Polygon","properties":{"state":"GA","name":"DRY BRANCH","zip":"31020"}},{"arcs":[[1253,-730,1254,-1248,1255,1256,-1183,1257]],"type":"Polygon","properties":{"state":"GA","name":"DUBLIN","zip":"31021"}},{"arcs":[[-1226,1258,-1256,-1247]],"type":"Polygon","properties":{"state":"GA","name":"DUDLEY","zip":"31022"}},{"arcs":[[1259,-1174,1260,1261,-1220,-1210,-1215]],"type":"Polygon","properties":{"state":"GA","name":"EASTMAN","zip":"31023"}},{"arcs":[[1262,1263,1264,1265,1266,1267,-1005,-956,-996,-1027]],"type":"Polygon","properties":{"state":"GA","name":"EATONTON","zip":"31024"}},{"arcs":[[1268,1269,1270,1271]],"type":"Polygon","properties":{"state":"GA","name":"ELKO","zip":"31025"}},{"arcs":[[-1254,1272,1273,-1176,-731]],"type":"Polygon","properties":{"state":"GA","name":"EAST DUBLIN","zip":"31027"}},{"arcs":[[-481,-449,-410,1274,1275,1276,1277,1278,1279,-1237,-380]],"type":"Polygon","properties":{"state":"GA","name":"FORSYTH","zip":"31029"}},{"arcs":[[1280,1281,-1204,1282,1283,1284,1285]],"type":"Polygon","properties":{"state":"GA","name":"FORT VALLEY","zip":"31030"}},{"arcs":[[1286,1287,1288,1289,1290,1291]],"type":"Polygon","properties":{"state":"GA","name":"GORDON","zip":"31031"}},{"arcs":[[1292,1293,1294,-1265,1295,1296,-1288,1297]],"type":"Polygon","properties":{"state":"GA","name":"GRAY","zip":"31032"}},{"arcs":[[-1297,1298,-1289]],"type":"Polygon","properties":{"state":"GA","name":"HADDOCK","zip":"31033"}},{"arcs":[[1299,1300,-1243,-639,1301]],"type":"Polygon","properties":{"state":"GA","name":"HARRISON","zip":"31035"}},{"arcs":[[1302,1303,-1271,1304,1305,-1221,-1262,1306]],"type":"Polygon","properties":{"state":"GA","name":"HAWKINSVILLE","zip":"31036"}},{"arcs":[[1307,1308,-1212,-635]],"type":"Polygon","properties":{"state":"GA","name":"HELENA","zip":"31037"}},{"arcs":[[1309,-1276,1310,-1266,-1295]],"type":"Polygon","properties":{"state":"GA","name":"HILLSBORO","zip":"31038"}},{"arcs":[[1311,1312,1313,1314,-1190,1315,1316]],"type":"Polygon","properties":{"state":"GA","name":"IDEAL","zip":"31041"}},{"arcs":[[1317,1318,-1181]],"type":"Polygon","properties":{"state":"GA","name":"IRWINTON","zip":"31042"}},{"arcs":[[1319,-1292,1320,-1179,-1241,-1253]],"type":"Polygon","properties":{"state":"GA","name":"JEFFERSONVILLE","zip":"31044"}},{"arcs":[[1321,-1147,-1152,-1122,-1143]],"type":"Polygon","properties":{"state":"GA","name":"JEWELL","zip":"31045"}},{"arcs":[[-1310,-1294,1322,1323,-1277]],"type":"Polygon","properties":{"state":"GA","name":"JULIETTE","zip":"31046"}},{"arcs":[[1324,-1284,1325,-1186,-1222,-1306]],"type":"Polygon","properties":{"state":"GA","name":"KATHLEEN","zip":"31047"}},{"arcs":[[-1178,1326,-751,-625]],"type":"Polygon","properties":{"state":"GA","name":"KITE","zip":"31049"}},{"arcs":[[1327,1328,1329,-1205,-1282]],"type":"Polygon","properties":{"state":"GA","name":"KNOXVILLE","zip":"31050"}},{"arcs":[[-1330,1330,1331,1332,-1206]],"type":"Polygon","properties":{"state":"GA","name":"LIZELLA","zip":"31052"}},{"arcs":[[-1180,-1321,-1291,1333,1334,1335,-1318]],"type":"Polygon","properties":{"state":"GA","name":"MC INTYRE","zip":"31054"}},{"arcs":[[1336,-1308,-634,-679,1337,1338]],"type":"Polygon","properties":{"state":"GA","name":"MC RAE","zip":"31055"}},{"arcs":[[1339,-1286,1340,1341,-1317]],"type":"Polygon","properties":{"state":"GA","name":"MARSHALLVILLE","zip":"31057"}},{"arcs":[[1342,1343,1344,-1192,1345]],"type":"Polygon","properties":{"state":"GA","name":"MAUK","zip":"31058"}},{"arcs":[[1346,-1213,-1309,-1337,1347,1348,-1170]],"type":"Polygon","properties":{"state":"GA","name":"MILAN","zip":"31060"}},{"arcs":[[-1296,-1264,1349,1350,-1334,-1290,-1299]],"type":"Polygon","properties":{"state":"GA","name":"MILLEDGEVILLE","zip":"31061"}},{"arcs":[[1351,-1312,-1342,1352,-1269,1353,-1199,1354]],"type":"Polygon","properties":{"state":"GA","name":"MONTEZUMA","zip":"31063"}},{"arcs":[[-455,-37,-134,1355,-1267,-1311,-1275,-412]],"type":"Polygon","properties":{"state":"GA","name":"MONTICELLO","zip":"31064"}},{"arcs":[[-1225,-1242,-1184,-1257,-1259]],"type":"Polygon","properties":{"state":"GA","name":"MONTROSE","zip":"31065"}},{"arcs":[[1356,-1238,-1280,1357,-1331]],"type":"Polygon","properties":{"state":"GA","name":"MUSELLA","zip":"31066"}},{"arcs":[[1358,1359,-1313,-1352]],"type":"Polygon","properties":{"state":"GA","name":"OGLETHORPE","zip":"31068"}},{"arcs":[[-1270,-1353,-1341,-1285,-1325,-1305]],"type":"Polygon","properties":{"state":"GA","name":"PERRY","zip":"31069"}},{"arcs":[[1360,-1201,1361]],"type":"Polygon","properties":{"state":"GA","name":"PINEHURST","zip":"31070"}},{"arcs":[[1362,-1307,-1261,-1173,1363,1364,-1231]],"type":"Polygon","properties":{"state":"GA","name":"PINEVIEW","zip":"31071"}},{"arcs":[[1365,1366,1367,-1232,-1365]],"type":"Polygon","properties":{"state":"GA","name":"PITTS","zip":"31072"}},{"arcs":[[-1216,-1208,-1246,-1255,-729,-680,-637]],"type":"Polygon","properties":{"state":"GA","name":"RENTZ","zip":"31075"}},{"arcs":[[-1316,-1189,1368,-1328,-1281,-1340]],"type":"Polygon","properties":{"state":"GA","name":"REYNOLDS","zip":"31076"}},{"arcs":[[-1175,-1260,-1214,-1347]],"type":"Polygon","properties":{"state":"GA","name":"RHINE","zip":"31077"}},{"arcs":[[-1369,-1196,-1239,-1357,-1329]],"type":"Polygon","properties":{"state":"GA","name":"ROBERTA","zip":"31078"}},{"arcs":[[1369,-1366,-1364,-1172]],"type":"Polygon","properties":{"state":"GA","name":"ROCHELLE","zip":"31079"}},{"arcs":[[1370,-1346,-1191,-1315]],"type":"Polygon","properties":{"state":"GA","name":"RUPERT","zip":"31081"}},{"arcs":[[-1351,1371,1372,-1244,-1301,1373,1374,-1335]],"type":"Polygon","properties":{"state":"GA","name":"SANDERSVILLE","zip":"31082"}},{"arcs":[[-1356,-133,-138,-1006,-1268]],"type":"Polygon","properties":{"state":"GA","name":"SHADY DALE","zip":"31085"}},{"arcs":[[1375,-1372,-1350,-1263,-1026,-983,-1144,-1322,-1142]],"type":"Polygon","properties":{"state":"GA","name":"SPARTA","zip":"31087"}},{"arcs":[[-1203,1376,1377,-1249,-1187,-1326,-1283]],"type":"Polygon","properties":{"state":"GA","name":"WARNER ROBINS","zip":"31088"}},{"arcs":[[1378,1379,-1374,-1300]],"type":"Polygon","properties":{"state":"GA","name":"TENNILLE","zip":"31089"}},{"arcs":[[-1258,-1182,-1319,-1336,-1375,-1380,1380,-1273]],"type":"Polygon","properties":{"state":"GA","name":"TOOMSBORO","zip":"31090"}},{"arcs":[[1381,-1362,-1200,-1354,-1272,-1304]],"type":"Polygon","properties":{"state":"GA","name":"UNADILLA","zip":"31091"}},{"arcs":[[1382,1383,-1197,-1361,-1382,-1303,-1363,-1230]],"type":"Polygon","properties":{"state":"GA","name":"VIENNA","zip":"31092"}},{"arcs":[[-1202,1384,1385,-1377]],"type":"Polygon","properties":{"state":"GA","name":"WARNER ROBINS","zip":"31093"}},{"arcs":[[-1373,-1376,-1141,-1245]],"type":"Polygon","properties":{"state":"GA","name":"WARTHEN","zip":"31094"}},{"arcs":[[-1177,-1274,-1381,-1379,-1302,-638,-750,-1327]],"type":"Polygon","properties":{"state":"GA","name":"WRIGHTSVILLE","zip":"31096"}},{"arcs":[[-512,-510,-375,-1236]],"type":"Polygon","properties":{"state":"GA","name":"YATESVILLE","zip":"31097"}},{"arcs":[[-1386,1386,-1250,-1378]],"type":"Polygon","properties":{"state":"GA","name":"WARNER ROBINS","zip":"31098"}},{"arcs":[[1387,1388,1389,1390]],"type":"Polygon","properties":{"state":"GA","name":"MACON","zip":"31201"}},{"arcs":[[1391,1392,1393,-1390]],"type":"Polygon","properties":{"state":"GA","name":"MACON","zip":"31204"}},{"arcs":[[-1389,1394,1395,1396,1397,-1392]],"type":"Polygon","properties":{"state":"GA","name":"MACON","zip":"31206"}},{"arcs":[[-1398,1398,-1278,-1324,1399,-1393]],"type":"Polygon","properties":{"state":"GA","name":"MACON","zip":"31210"}},{"arcs":[[-1400,-1323,-1293,1400,-1391,-1394]],"type":"Polygon","properties":{"state":"GA","name":"MACON","zip":"31211"}},{"arcs":[[-1387,-1385,-1207,-1333,1401,-1396,1402,-1251]],"type":"Polygon","properties":{"state":"GA","name":"MACON","zip":"31216"}},{"arcs":[[-1388,-1401,-1298,-1287,-1320,-1252,-1403,-1395]],"type":"Polygon","properties":{"state":"GA","name":"MACON","zip":"31217"}},{"arcs":[[-1397,-1402,-1332,-1358,-1279,-1399]],"type":"Polygon","properties":{"state":"GA","name":"MACON","zip":"31220"}},{"arcs":[[1403,1404,1405]],"type":"Polygon","properties":{"state":"GA","name":"ALLENHURST","zip":"31301"}},{"arcs":[[1406,1407,1408,1409,1410,1411,1412]],"type":"Polygon","properties":{"state":"GA","name":"BLOOMINGDALE","zip":"31302"}},{"arcs":[[1413,-722,1414]],"type":"Polygon","properties":{"state":"GA","name":"CLYO","zip":"31303"}},{"arcs":[[1415,1416,1417,1418]],"type":"Polygon","properties":{"state":"GA","name":"CRESCENT","zip":"31304"}},{"arcs":[[1419,1420,-1417,1421,1422]],"type":"Polygon","properties":{"state":"GA","name":"DARIEN","zip":"31305"}},{"arcs":[[1423,1424,-643,1425,-1407]],"type":"Polygon","properties":{"state":"GA","name":"ELLABELL","zip":"31308"}},{"arcs":[[1426,1427,1428,1429]],"type":"Polygon","properties":{"state":"GA","name":"FLEMING","zip":"31309"}},{"arcs":[[-647,-742,-718,1430,1431,1432,-1408,-1426]],"type":"Polygon","properties":{"state":"GA","name":"GUYTON","zip":"31312"}},{"arcs":[[1433,-1405,1434,1435,-1427,1436]],"type":"Polygon","properties":{"state":"GA","name":"HINESVILLE","zip":"31313"}},{"arcs":[[1437,-678,-654,1438,-1424,-1413,1439,1440,-1428,-1436]],"type":"Polygon","properties":{"state":"GA","name":"FORT STEWART","zip":"31314"}},{"arcs":[[1441,-672,-1438,-1435,-1404,1442,1443,1444]],"type":"Polygon","properties":{"state":"GA","name":"LUDOWICI","zip":"31316"}},{"arcs":[[-1416,1445,-1422]],"type":"Polygon","properties":{"state":"GA","name":"MERIDIAN","zip":"31319"}},{"arcs":[[1446,-1437,-1430,1447,1448,1449]],"type":"Polygon","properties":{"state":"GA","name":"MIDWAY","zip":"31320"}},{"arcs":[[-725,-740,-644,-1425,-1439,-653]],"type":"Polygon","properties":{"state":"GA","name":"PEMBROKE","zip":"31321"}},{"arcs":[[1450,1451,-1411,1452]],"type":"Polygon","properties":{"state":"GA","name":"POOLER","zip":"31322"}},{"arcs":[[1453,-1443,-1406,-1434,-1447]],"type":"Polygon","properties":{"state":"GA","name":"RICEBORO","zip":"31323"}},{"arcs":[[-1429,-1441,1454,1455,-1448]],"type":"Polygon","properties":{"state":"GA","name":"RICHMOND HILL","zip":"31324"}},{"arcs":[[1456,1457,1458,-1432]],"type":"Polygon","properties":{"state":"GA","name":"RINCON","zip":"31326"}},{"arcs":[[1459]],"type":"Polygon","properties":{"state":"GA","name":"SAPELO ISLAND","zip":"31327"}},{"arcs":[[1460,1461]],"type":"Polygon","properties":{"state":"GA","name":"TYBEE ISLAND","zip":"31328"}},{"arcs":[[-1431,-717,-1414,1462,-1457]],"type":"Polygon","properties":{"state":"GA","name":"SPRINGFIELD","zip":"31329"}},{"arcs":[[1463,-1444,-1454,-1450,1464,-1418,-1421,1465]],"type":"Polygon","properties":{"state":"GA","name":"TOWNSEND","zip":"31331"}},{"arcs":[[1466,1467,1468,1469]],"type":"Polygon","properties":{"state":"GA","name":"SAVANNAH","zip":"31401"}},{"arcs":[[1470,1471,1472,-1467,1473]],"type":"Polygon","properties":{"state":"GA","name":"SAVANNAH","zip":"31404"}},{"arcs":[[1474,1475,1476,-1451,1477,-1468,-1473]],"type":"Polygon","properties":{"state":"GA","name":"SAVANNAH","zip":"31405"}},{"arcs":[[1478,-1475,-1472,1479,1480,1481]],"type":"Polygon","properties":{"state":"GA","name":"SAVANNAH","zip":"31406"}},{"arcs":[[1482,1483,-1409,-1433,-1459]],"type":"Polygon","properties":{"state":"GA","name":"SAVANNAH","zip":"31407"}},{"arcs":[[1484,-1453,-1410,-1484,1485]],"type":"Polygon","properties":{"state":"GA","name":"SAVANNAH","zip":"31408"}},{"arcs":[[1486,-1476,-1479]],"type":"Polygon","properties":{"state":"GA","name":"SAVANNAH","zip":"31409"}},{"arcs":[[1487,-1480,-1471,1488,-1461,1489]],"type":"Polygon","properties":{"state":"GA","name":"SAVANNAH","zip":"31410"}},{"arcs":[[1490,-1481,-1488,1491]],"type":"Polygon","properties":{"state":"GA","name":"SAVANNAH","zip":"31411"}},{"arcs":[[-1478,-1485,1492,-1469]],"type":"Polygon","properties":{"state":"GA","name":"SAVANNAH","zip":"31415"}},{"arcs":[[[-1455,-1440,-1412,-1452,-1477,-1487,-1482,-1491,1493]],[[1494]]],"type":"MultiPolygon","properties":{"state":"GA","name":"SAVANNAH","zip":"31419"}},{"arcs":[[1495,1496]],"type":"Polygon","properties":{"state":"GA","name":"WAYCROSS","zip":"31501"}},{"arcs":[[1497,1498,1499,1500,1501,1502,1503,-1496,1504]],"type":"Polygon","properties":{"state":"GA","name":"WAYCROSS","zip":"31503"}},{"arcs":[[1505,1506,1507,1508,1509,1510,1511,1512,-1503]],"type":"Polygon","properties":{"state":"GA","name":"ALMA","zip":"31510"}},{"arcs":[[1513,1514,1515,1516,1517]],"type":"Polygon","properties":{"state":"GA","name":"AMBROSE","zip":"31512"}},{"arcs":[[1518,1519,-1510,1520,-749,-700,-727,-675,1521]],"type":"Polygon","properties":{"state":"GA","name":"BAXLEY","zip":"31513"}},{"arcs":[[-1504,-1513,1522,1523,1524,-1505,-1497]],"type":"Polygon","properties":{"state":"GA","name":"BLACKSHEAR","zip":"31516"}},{"arcs":[[1525,1526,1527,-1511,-1520,1528,1529]],"type":"Polygon","properties":{"state":"GA","name":"BRISTOL","zip":"31518"}},{"arcs":[[1530,1531,-1517,1532,1533,1534,1535,1536]],"type":"Polygon","properties":{"state":"GA","name":"BROXTON","zip":"31519"}},{"arcs":[[1537,1538,1539]],"type":"Polygon","properties":{"state":"GA","name":"BRUNSWICK","zip":"31520"}},{"arcs":[[1540]],"type":"Polygon","properties":{"state":"GA","name":"SAINT SIMONS ISLAND","zip":"31522"}},{"arcs":[[1541,1542,1543,1544,1545,-1538,1546]],"type":"Polygon","properties":{"state":"GA","name":"BRUNSWICK","zip":"31523"}},{"arcs":[[1547,1548,-1466,-1420,1549,-1539,-1546]],"type":"Polygon","properties":{"state":"GA","name":"BRUNSWICK","zip":"31525"}},{"arcs":[[1550,-1537,1551,-1508]],"type":"Polygon","properties":{"state":"GA","name":"DENTON","zip":"31532"}},{"arcs":[[1552,1553,-1518,-1532,1554]],"type":"Polygon","properties":{"state":"GA","name":"DOUGLAS","zip":"31533"}},{"arcs":[[1555,-1514,-1554,1556,1557,1558]],"type":"Polygon","properties":{"state":"GA","name":"DOUGLAS","zip":"31535"}},{"arcs":[[1559,1560,-1499,1561,1562,1563,1564,1565]],"type":"Polygon","properties":{"state":"GA","name":"FOLKSTON","zip":"31537"}},{"arcs":[[-1509,-1552,-1536,1566,1567,-686,-747,-1521]],"type":"Polygon","properties":{"state":"GA","name":"HAZLEHURST","zip":"31539"}},{"arcs":[[1568,-1562,-1498,-1525,1569,1570]],"type":"Polygon","properties":{"state":"GA","name":"HOBOKEN","zip":"31542"}},{"arcs":[[1571,1572,1573,1574,-1548,-1545,1575,1576,-1571]],"type":"Polygon","properties":{"state":"GA","name":"HORTENSE","zip":"31543"}},{"arcs":[[-1339,1577,-1567,-1535,1578,-1348]],"type":"Polygon","properties":{"state":"GA","name":"JACKSONVILLE","zip":"31544"}},{"arcs":[[1579,-1574,1580,1581,-673,-1442]],"type":"Polygon","properties":{"state":"GA","name":"JESUP","zip":"31545"}},{"arcs":[[-1445,-1464,-1549,-1575,-1580]],"type":"Polygon","properties":{"state":"GA","name":"JESUP","zip":"31546"}},{"arcs":[[1582,1583,1584]],"type":"Polygon","properties":{"state":"GA","name":"KINGS BAY","zip":"31547"}},{"arcs":[[1585,1586,-1565,1587,1588]],"type":"Polygon","properties":{"state":"GA","name":"KINGSLAND","zip":"31548"}},{"arcs":[[-1578,-1338,-687,-1568]],"type":"Polygon","properties":{"state":"GA","name":"LUMBER CITY","zip":"31549"}},{"arcs":[[1589,1590,1591,-1500,-1561,1592,1593]],"type":"Polygon","properties":{"state":"GA","name":"MANOR","zip":"31550"}},{"arcs":[[1594,-1523,-1512,-1528]],"type":"Polygon","properties":{"state":"GA","name":"MERSHON","zip":"31551"}},{"arcs":[[1595,1596,1597,-1501,-1592]],"type":"Polygon","properties":{"state":"GA","name":"MILLWOOD","zip":"31552"}},{"arcs":[[-1569,-1577,1598,1599,-1563]],"type":"Polygon","properties":{"state":"GA","name":"NAHUNTA","zip":"31553"}},{"arcs":[[1600,-1557,-1553,1601,-1506,-1502,-1598]],"type":"Polygon","properties":{"state":"GA","name":"NICHOLLS","zip":"31554"}},{"arcs":[[1602,-1522,-674,-1582,1603,-1530]],"type":"Polygon","properties":{"state":"GA","name":"ODUM","zip":"31555"}},{"arcs":[[-1570,-1524,-1595,-1527,1604,-1572]],"type":"Polygon","properties":{"state":"GA","name":"PATTERSON","zip":"31557"}},{"arcs":[[[1605]],[[1606,-1586,1607,-1583,1608]]],"type":"MultiPolygon","properties":{"state":"GA","name":"SAINT MARYS","zip":"31558"}},{"arcs":[[-1605,-1526,-1604,-1581,-1573]],"type":"Polygon","properties":{"state":"GA","name":"SCREVEN","zip":"31560"}},{"arcs":[[-1519,-1603,-1529]],"type":"Polygon","properties":{"state":"GA","name":"SURRENCY","zip":"31563"}},{"arcs":[[1609,-1542,1610,1611]],"type":"Polygon","properties":{"state":"GA","name":"WAVERLY","zip":"31565"}},{"arcs":[[-1576,-1544,1612,-1599]],"type":"Polygon","properties":{"state":"GA","name":"WAYNESVILLE","zip":"31566"}},{"arcs":[[-1555,-1531,-1551,-1507,-1602]],"type":"Polygon","properties":{"state":"GA","name":"WEST GREEN","zip":"31567"}},{"arcs":[[1613,-1588,-1564,-1600,-1613,-1543,-1610]],"type":"Polygon","properties":{"state":"GA","name":"WHITE OAK","zip":"31568"}},{"arcs":[[-1584,-1608,-1589,-1614,-1612,1614]],"type":"Polygon","properties":{"state":"GA","name":"WOODBINE","zip":"31569"}},{"arcs":[[1615,1616,1617,1618,1619]],"type":"Polygon","properties":{"state":"GA","name":"VALDOSTA","zip":"31601"}},{"arcs":[[1620,1621,1622,-1619,1623]],"type":"Polygon","properties":{"state":"GA","name":"VALDOSTA","zip":"31602"}},{"arcs":[[1624,1625,1626,1627,1628,-1623]],"type":"Polygon","properties":{"state":"GA","name":"VALDOSTA","zip":"31605"}},{"arcs":[[-1629,1629,1630,-1620]],"type":"Polygon","properties":{"state":"GA","name":"VALDOSTA","zip":"31606"}},{"arcs":[[1631,1632,1633,1634,1635,1636,1637,1638]],"type":"Polygon","properties":{"state":"GA","name":"ADEL","zip":"31620"}},{"arcs":[[1639,1640,1641,1642]],"type":"Polygon","properties":{"state":"GA","name":"ALAPAHA","zip":"31622"}},{"arcs":[[1643,1644,-1558,-1601,-1597]],"type":"Polygon","properties":{"state":"GA","name":"AXSON","zip":"31624"}},{"arcs":[[1645,1646,1647,1648,-1632]],"type":"Polygon","properties":{"state":"GA","name":"BARNEY","zip":"31625"}},{"arcs":[[1649,1650,1651,1652,1653]],"type":"Polygon","properties":{"state":"GA","name":"BOSTON","zip":"31626"}},{"arcs":[[1654,1655,-1650,1656]],"type":"Polygon","properties":{"state":"GA","name":"DIXIE","zip":"31629"}},{"arcs":[[1657,1658,1659,1660]],"type":"Polygon","properties":{"state":"GA","name":"DU PONT","zip":"31630"}},{"arcs":[[1661,1662,-1658,1663,-1590]],"type":"Polygon","properties":{"state":"GA","name":"FARGO","zip":"31631"}},{"arcs":[[-1639,1664,-1625,-1622,1665,-1646]],"type":"Polygon","properties":{"state":"GA","name":"HAHIRA","zip":"31632"}},{"arcs":[[-1664,-1661,1666,1667,1668,-1644,-1596,-1591]],"type":"Polygon","properties":{"state":"GA","name":"HOMERVILLE","zip":"31634"}},{"arcs":[[1669,1670,1671,1672,-1627]],"type":"Polygon","properties":{"state":"GA","name":"LAKELAND","zip":"31635"}},{"arcs":[[-1631,1673,1674,1675,1676,-1616]],"type":"Polygon","properties":{"state":"GA","name":"LAKE PARK","zip":"31636"}},{"arcs":[[1677,1678,1679,1680,1681,-1636]],"type":"Polygon","properties":{"state":"GA","name":"LENOX","zip":"31637"}},{"arcs":[[1682,1683,-1647,-1666,-1621]],"type":"Polygon","properties":{"state":"GA","name":"MORVEN","zip":"31638"}},{"arcs":[[1684,-1637,-1682,1685,-1641,1686,1687,-1671]],"type":"Polygon","properties":{"state":"GA","name":"NASHVILLE","zip":"31639"}},{"arcs":[[1688,-1674,-1630,-1628,-1673]],"type":"Polygon","properties":{"state":"GA","name":"NAYLOR","zip":"31641"}},{"arcs":[[1689,-1559,-1645,-1669]],"type":"Polygon","properties":{"state":"GA","name":"PEARSON","zip":"31642"}},{"arcs":[[1690,-1683,-1624,-1618,1691,-1655]],"type":"Polygon","properties":{"state":"GA","name":"QUITMAN","zip":"31643"}},{"arcs":[[-1626,-1665,-1638,-1685,-1670]],"type":"Polygon","properties":{"state":"GA","name":"RAY CITY","zip":"31645"}},{"arcs":[[1692,-1593,-1560]],"type":"Polygon","properties":{"state":"GA","name":"SAINT GEORGE","zip":"31646"}},{"arcs":[[1693,-1678,-1635]],"type":"Polygon","properties":{"state":"GA","name":"SPARKS","zip":"31647"}},{"arcs":[[1694,-1676,1695,-1659,-1663]],"type":"Polygon","properties":{"state":"GA","name":"STATENVILLE","zip":"31648"}},{"arcs":[[-1672,-1688,1696,-1667,-1660,-1696,-1675,-1689]],"type":"Polygon","properties":{"state":"GA","name":"STOCKTON","zip":"31649"}},{"arcs":[[-1697,-1687,-1640,1697,-1515,-1556,-1690,-1668]],"type":"Polygon","properties":{"state":"GA","name":"WILLACOOCHEE","zip":"31650"}},{"arcs":[[1698,1699,1700]],"type":"Polygon","properties":{"state":"GA","name":"ALBANY","zip":"31701"}},{"arcs":[[1701,1702,1703,1704,-1701,1705,1706,1707,1708,1709,1710]],"type":"Polygon","properties":{"state":"GA","name":"ALBANY","zip":"31705"}},{"arcs":[[1711,1712,1713,-1699,-1705,1714,1715]],"type":"Polygon","properties":{"state":"GA","name":"ALBANY","zip":"31707"}},{"arcs":[[1716,1717,1718,1719,1720]],"type":"Polygon","properties":{"state":"GA","name":"AMERICUS","zip":"31709"}},{"arcs":[[1721,-1721,1722,-1359,-1355,-1198,-1384,1723,1724]],"type":"Polygon","properties":{"state":"GA","name":"ANDERSONVILLE","zip":"31711"}},{"arcs":[[1725,1726,-1233,-1368,1727]],"type":"Polygon","properties":{"state":"GA","name":"ARABI","zip":"31712"}},{"arcs":[[1728,1729,1730,1731,1732]],"type":"Polygon","properties":{"state":"GA","name":"ARLINGTON","zip":"31713"}},{"arcs":[[1733,1734,1735,1736,1737,1738,-1726,1739]],"type":"Polygon","properties":{"state":"GA","name":"ASHBURN","zip":"31714"}},{"arcs":[[1740,1741,1742,1743,1744]],"type":"Polygon","properties":{"state":"GA","name":"ATTAPULGUS","zip":"31715"}},{"arcs":[[1745,1746,-1715,-1704]],"type":"Polygon","properties":{"state":"GA","name":"BACONTON","zip":"31716"}},{"arcs":[[1747,1748,1749,1750,1751,1752,1753,-1743,1754]],"type":"Polygon","properties":{"state":"GA","name":"BAINBRIDGE","zip":"31717"}},{"arcs":[[1755,1756,1757,1758,-1731,1759,1760]],"type":"Polygon","properties":{"state":"GA","name":"BLAKELY","zip":"31723"}},{"arcs":[[-1759,1761,1762,1763,-1732]],"type":"Polygon","properties":{"state":"GA","name":"BLUFFTON","zip":"31724"}},{"arcs":[[1764,1765,1766,-1749]],"type":"Polygon","properties":{"state":"GA","name":"BRINSON","zip":"31725"}},{"arcs":[[1767,1768,1769]],"type":"Polygon","properties":{"state":"GA","name":"BRONWOOD","zip":"31726"}},{"arcs":[[1770,1771,1772,1773,1774,1775,-1741]],"type":"Polygon","properties":{"state":"GA","name":"CAIRO","zip":"31728"}},{"arcs":[[1776,-1752,1777,-1746,-1703,1778,1779,1780]],"type":"Polygon","properties":{"state":"GA","name":"CAMILLA","zip":"31730"}},{"arcs":[[1781,1782,1783]],"type":"Polygon","properties":{"state":"GA","name":"CHULA","zip":"31733"}},{"arcs":[[-1754,1784,-1744]],"type":"Polygon","properties":{"state":"GA","name":"CLIMAX","zip":"31734"}},{"arcs":[[1785,1786,-1724,-1383,-1229]],"type":"Polygon","properties":{"state":"GA","name":"COBB","zip":"31735"}},{"arcs":[[1787,1788,1789,-1763]],"type":"Polygon","properties":{"state":"GA","name":"COLEMAN","zip":"31736"}},{"arcs":[[1790,1791,1792,-1761,1793,1794,-1750,-1767]],"type":"Polygon","properties":{"state":"GA","name":"COLQUITT","zip":"31737"}},{"arcs":[[1795,1796,1797,1798,1799]],"type":"Polygon","properties":{"state":"GA","name":"COOLIDGE","zip":"31738"}},{"arcs":[[1800,1801,1802,1803,1804,1805,1806,1807,1808,-1789]],"type":"Polygon","properties":{"state":"GA","name":"CUTHBERT","zip":"31740"}},{"arcs":[[-1730,1809,1810,-1794,-1760]],"type":"Polygon","properties":{"state":"GA","name":"DAMASCUS","zip":"31741"}},{"arcs":[[1811,-1713,1812,1813,-1807,1814,1815,1816,-1768]],"type":"Polygon","properties":{"state":"GA","name":"DAWSON","zip":"31742"}},{"arcs":[[1817,1818,-1725,-1787]],"type":"Polygon","properties":{"state":"GA","name":"DE SOTO","zip":"31743"}},{"arcs":[[1819,1820,1821,-1779,-1702]],"type":"Polygon","properties":{"state":"GA","name":"DOERUN","zip":"31744"}},{"arcs":[[-1748,1822,1823,-1792,1824,-1765]],"type":"Polygon","properties":{"state":"GA","name":"DONALSONVILLE","zip":"31745"}},{"arcs":[[1825,-1733,-1764,-1790,-1809]],"type":"Polygon","properties":{"state":"GA","name":"EDISON","zip":"31746"}},{"arcs":[[-1681,1826,1827,-1642,-1686]],"type":"Polygon","properties":{"state":"GA","name":"ENIGMA","zip":"31749"}},{"arcs":[[1828,1829,1830,1831,-1370,-1171,-1349,-1579,-1534]],"type":"Polygon","properties":{"state":"GA","name":"FITZGERALD","zip":"31750"}},{"arcs":[[-1758,1832,1833,-1801,-1788,-1762]],"type":"Polygon","properties":{"state":"GA","name":"FORT GAINES","zip":"31751"}},{"arcs":[[1834,1835,1836,-1803]],"type":"Polygon","properties":{"state":"GA","name":"GEORGETOWN","zip":"31754"}},{"arcs":[[1837,1838,-1821]],"type":"Polygon","properties":{"state":"GA","name":"HARTSFIELD","zip":"31756"}},{"arcs":[[1839,1840,-1797,1841,-1653]],"type":"Polygon","properties":{"state":"GA","name":"THOMASVILLE","zip":"31757"}},{"arcs":[[-1791,-1766,-1825]],"type":"Polygon","properties":{"state":"GA","name":"IRON CITY","zip":"31759"}},{"arcs":[[1842,1843,-1831,1844,1845,-1784]],"type":"Polygon","properties":{"state":"GA","name":"IRWINVILLE","zip":"31760"}},{"arcs":[[1846,-1756,-1793,-1824]],"type":"Polygon","properties":{"state":"GA","name":"JAKIN","zip":"31761"}},{"arcs":[[1847,-1813,-1712,1848]],"type":"Polygon","properties":{"state":"GA","name":"LEARY","zip":"31762"}},{"arcs":[[-1770,1849,1850,-1818,-1786,-1228,1851,1852,1853,-1706,-1700,-1714,-1812]],"type":"Polygon","properties":{"state":"GA","name":"LEESBURG","zip":"31763"}},{"arcs":[[-1851,1854,-1717,-1722,-1819]],"type":"Polygon","properties":{"state":"GA","name":"LESLIE","zip":"31764"}},{"arcs":[[1855,1856,-1799,1857,-1773]],"type":"Polygon","properties":{"state":"GA","name":"MEIGS","zip":"31765"}},{"arcs":[[-1826,1858,-1848,1859,-1810,-1729]],"type":"Polygon","properties":{"state":"GA","name":"MORGAN","zip":"31766"}},{"arcs":[[-1834,1860,-1835,-1802]],"type":"Polygon","properties":{"state":"GA","name":"MORRIS","zip":"31767"}},{"arcs":[[1861,1862,-1838,-1820,-1711,1863,-1633,-1649,1864,-1800,-1857]],"type":"Polygon","properties":{"state":"GA","name":"MOULTRIE","zip":"31768"}},{"arcs":[[-1811,-1860,-1849,-1716,-1747,-1778,-1751,-1795]],"type":"Polygon","properties":{"state":"GA","name":"NEWTON","zip":"31770"}},{"arcs":[[-1634,-1864,-1710,1865,1866,-1679,-1694]],"type":"Polygon","properties":{"state":"GA","name":"NORMAN PARK","zip":"31771"}},{"arcs":[[1867,-1853]],"type":"Polygon","properties":{"state":"GA","name":"OAKFIELD","zip":"31772"}},{"arcs":[[-1858,-1798,-1841,1868,-1774]],"type":"Polygon","properties":{"state":"GA","name":"OCHLOCKNEE","zip":"31773"}},{"arcs":[[1869,-1845,-1830,1870,-1643,-1828]],"type":"Polygon","properties":{"state":"GA","name":"OCILLA","zip":"31774"}},{"arcs":[[1871,1872,-1867]],"type":"Polygon","properties":{"state":"GA","name":"OMEGA","zip":"31775"}},{"arcs":[[-1842,-1796,-1865,-1648,-1684,-1691,-1657,-1654]],"type":"Polygon","properties":{"state":"GA","name":"PAVO","zip":"31778"}},{"arcs":[[1873,-1781,1874,-1862,-1856,-1772]],"type":"Polygon","properties":{"state":"GA","name":"PELHAM","zip":"31779"}},{"arcs":[[1875,-1816,1876,1877,1878,-1719]],"type":"Polygon","properties":{"state":"GA","name":"PLAINS","zip":"31780"}},{"arcs":[[1879,-1737,1880]],"type":"Polygon","properties":{"state":"GA","name":"POULAN","zip":"31781"}},{"arcs":[[-1728,-1367,-1832,-1844,1881,-1740]],"type":"Polygon","properties":{"state":"GA","name":"REBECCA","zip":"31783"}},{"arcs":[[-1863,-1875,-1780,-1822,-1839]],"type":"Polygon","properties":{"state":"GA","name":"SALE CITY","zip":"31784"}},{"arcs":[[-1814,-1859,-1808]],"type":"Polygon","properties":{"state":"GA","name":"SHELLMAN","zip":"31786"}},{"arcs":[[-1876,-1718,-1855,-1850,-1769,-1817]],"type":"Polygon","properties":{"state":"GA","name":"SMITHVILLE","zip":"31787"}},{"arcs":[[-1866,-1709,1882,-1881,-1736,1883,1884,-1872]],"type":"Polygon","properties":{"state":"GA","name":"SUMNER","zip":"31789"}},{"arcs":[[1885,-1734,-1882,-1843,-1783]],"type":"Polygon","properties":{"state":"GA","name":"SYCAMORE","zip":"31790"}},{"arcs":[[-1708,1886,-1738,-1880,-1883]],"type":"Polygon","properties":{"state":"GA","name":"SYLVESTER","zip":"31791"}},{"arcs":[[1887,-1775,-1869,-1840,-1652]],"type":"Polygon","properties":{"state":"GA","name":"THOMASVILLE","zip":"31792"}},{"arcs":[[1888,-1884,-1735,-1886,-1782,-1846,-1870,-1827,-1680,-1873]],"type":"Polygon","properties":{"state":"GA","name":"TIFTON","zip":"31794"}},{"arcs":[[-1889,-1885]],"type":"Polygon","properties":{"state":"GA","name":"TY TY","zip":"31795"}},{"arcs":[[-1852,-1234,-1727,-1739,-1887,-1707,-1854,-1868]],"type":"Polygon","properties":{"state":"GA","name":"WARWICK","zip":"31796"}},{"arcs":[[-1753,-1777,-1874,-1771,-1745,-1785]],"type":"Polygon","properties":{"state":"GA","name":"WHIGHAM","zip":"31797"}},{"arcs":[[-1871,-1829,-1533,-1516,-1698]],"type":"Polygon","properties":{"state":"GA","name":"WRAY","zip":"31798"}},{"arcs":[[1889,1890,1891,1892,1893,1894,1895]],"type":"Polygon","properties":{"state":"GA","name":"BOX SPRINGS","zip":"31801"}},{"arcs":[[1896,-1878,1897,1898,1899,1900,-1890,1901,-1344]],"type":"Polygon","properties":{"state":"GA","name":"BUENA VISTA","zip":"31803"}},{"arcs":[[1902,1903,1904,1905,1906]],"type":"Polygon","properties":{"state":"GA","name":"CATAULA","zip":"31804"}},{"arcs":[[1907,1908,-1900,1909,1910]],"type":"Polygon","properties":{"state":"GA","name":"CUSSETA","zip":"31805"}},{"arcs":[[-1343,-1371,-1314,-1360,-1723,-1720,-1879,-1897]],"type":"Polygon","properties":{"state":"GA","name":"ELLAVILLE","zip":"31806"}},{"arcs":[[1911,-1907,1912]],"type":"Polygon","properties":{"state":"GA","name":"ELLERSLIE","zip":"31807"}},{"arcs":[[1913,1914,1915,-1904,1916,1917]],"type":"Polygon","properties":{"state":"GA","name":"FORTSON","zip":"31808"}},{"arcs":[[-1916,1918,1919,1920,1921,1922,1923,-1905]],"type":"Polygon","properties":{"state":"GA","name":"HAMILTON","zip":"31811"}},{"arcs":[[1924,-1193,-1345,-1902,-1896]],"type":"Polygon","properties":{"state":"GA","name":"JUNCTION CITY","zip":"31812"}},{"arcs":[[1925,-1804,-1837,1926,1927]],"type":"Polygon","properties":{"state":"GA","name":"LUMPKIN","zip":"31815"}},{"arcs":[[1928,-525,-485,-516,1929]],"type":"Polygon","properties":{"state":"GA","name":"MANCHESTER","zip":"31816"}},{"arcs":[[1930,1931,1932,-1917,-1903,-1912,1933]],"type":"Polygon","properties":{"state":"GA","name":"MIDLAND","zip":"31820"}},{"arcs":[[1934,-1911,1935,-1928]],"type":"Polygon","properties":{"state":"GA","name":"OMAHA","zip":"31821"}},{"arcs":[[1936,-1921,1937,-469,-427,1938,1939]],"type":"Polygon","properties":{"state":"GA","name":"PINE MOUNTAIN","zip":"31822"}},{"arcs":[[-1937,1940,-1922]],"type":"Polygon","properties":{"state":"GA","name":"PINE MOUNTAIN VALLEY","zip":"31823"}},{"arcs":[[1941,1942,-1898,-1877]],"type":"Polygon","properties":{"state":"GA","name":"PRESTON","zip":"31824"}},{"arcs":[[-1936,-1910,-1899,-1943,1943,-1805,-1926]],"type":"Polygon","properties":{"state":"GA","name":"RICHLAND","zip":"31825"}},{"arcs":[[-1941,-1940,1944,1945,1946,-1923]],"type":"Polygon","properties":{"state":"GA","name":"SHILOH","zip":"31826"}},{"arcs":[[-1925,-1895,1947,1948,-514,-1235,-1194]],"type":"Polygon","properties":{"state":"GA","name":"TALBOTTON","zip":"31827"}},{"arcs":[[1949,-1931,1950,-1893]],"type":"Polygon","properties":{"state":"GA","name":"UPATOI","zip":"31829"}},{"arcs":[[1951,-1945,-1939,-432,-524,-1929]],"type":"Polygon","properties":{"state":"GA","name":"WARM SPRINGS","zip":"31830"}},{"arcs":[[-1951,-1934,-1913,-1906,-1924,-1947,1952,-1948,-1894]],"type":"Polygon","properties":{"state":"GA","name":"WAVERLY HALL","zip":"31831"}},{"arcs":[[-1944,-1942,-1815,-1806]],"type":"Polygon","properties":{"state":"GA","name":"WESTON","zip":"31832"}},{"arcs":[[1953,-467,-468,-1938,-1920]],"type":"Polygon","properties":{"state":"GA","name":"WEST POINT","zip":"31833"}},{"arcs":[[-1952,-1930,-515,-1949,-1953,-1946]],"type":"Polygon","properties":{"state":"GA","name":"WOODLAND","zip":"31836"}},{"arcs":[[1954,1955,1956,1957]],"type":"Polygon","properties":{"state":"GA","name":"COLUMBUS","zip":"31901"}},{"arcs":[[1958,-1958,1959,1960,1961]],"type":"Polygon","properties":{"state":"GA","name":"COLUMBUS","zip":"31903"}},{"arcs":[[1962,-1956,1963,-1914,1964]],"type":"Polygon","properties":{"state":"GA","name":"COLUMBUS","zip":"31904"}},{"arcs":[[-1909,1965,-1962,1966,-1891,-1901]],"type":"Polygon","properties":{"state":"GA","name":"FORT BENNING","zip":"31905"}},{"arcs":[[1967,-1960,-1957,-1963]],"type":"Polygon","properties":{"state":"GA","name":"COLUMBUS","zip":"31906"}},{"arcs":[[1968,-1932,-1950,-1892,-1967,-1961,-1968]],"type":"Polygon","properties":{"state":"GA","name":"COLUMBUS","zip":"31907"}},{"arcs":[[-1965,-1918,-1933,-1969]],"type":"Polygon","properties":{"state":"GA","name":"COLUMBUS","zip":"31909"}}]}},"arcs":[[[31550,9424],[-13,-33]],[[31537,9391],[0,28]],[[31537,9419],[13,5]],[[31582,9770],[-50,-58]],[[31532,9712],[-27,-31]],[[31505,9681],[-40,41]],[[31465,9722],[-14,43]],[[31451,9765],[14,41]],[[31465,9806],[-18,35],[85,21]],[[31532,9862],[50,-92]],[[31609,9727],[5,-15]],[[31614,9712],[-28,-13]],[[31586,9699],[-54,13]],[[31582,9770],[0,-3]],[[31582,9767],[27,-40]],[[31280,9503],[-27,3]],[[31253,9506],[63,81]],[[31316,9587],[-36,-84]],[[31852,9689],[-18,30]],[[31834,9719],[32,13]],[[31866,9732],[9,2]],[[31875,9734],[27,-35]],[[31902,9699],[-9,-104]],[[31893,9595],[-41,94]],[[31686,9328],[-9,7]],[[31677,9335],[45,49]],[[31722,9384],[36,40]],[[31758,9424],[45,-71]],[[31803,9353],[-63,-66]],[[31740,9287],[-54,41]],[[31798,9284],[-18,-23]],[[31780,9261],[-45,-71]],[[31735,9190],[5,97]],[[31803,9353],[4,5]],[[31807,9358],[-9,-74]],[[31947,9208],[-68,-186]],[[31879,9022],[-27,-28]],[[31852,8994],[-18,36]],[[31834,9030],[27,170],[-81,61]],[[31798,9284],[86,-17],[-23,101]],[[31861,9368],[27,26]],[[31888,9394],[54,-56]],[[31942,9338],[-36,-89],[41,-41]],[[31834,9030],[-31,48]],[[31803,9078],[-95,79]],[[31708,9157],[27,33]],[[31780,9500],[-36,34]],[[31744,9534],[68,5]],[[31812,9539],[-32,-39]],[[31852,9539],[-67,86]],[[31785,9625],[13,61]],[[31798,9686],[41,18]],[[31839,9704],[13,-15]],[[31893,9595],[9,-39]],[[31902,9556],[-18,-35]],[[31884,9521],[-32,18]],[[31550,9424],[-9,21]],[[31541,9445],[9,10]],[[31550,9455],[23,0]],[[31573,9455],[-18,-31]],[[31555,9424],[-5,0]],[[31586,9640],[-45,-25]],[[31541,9615],[-36,66]],[[31586,9699],[0,-59]],[[31686,9643],[-72,69]],[[31609,9727],[59,40]],[[31668,9767],[58,-76]],[[31726,9691],[-40,-48]],[[31942,9338],[122,7]],[[32064,9345],[-45,-137]],[[32019,9208],[-72,0]],[[31537,9391],[-14,-7]],[[31523,9384],[-22,17]],[[31501,9401],[4,26]],[[31505,9427],[27,5]],[[31532,9432],[5,-13]],[[31501,9350],[4,26]],[[31505,9376],[18,8]],[[31555,9424],[9,-25]],[[31564,9399],[-9,-49]],[[31555,9350],[-54,0]],[[31541,9445],[-9,-13]],[[31505,9427],[-9,5]],[[31496,9432],[-4,10]],[[31492,9442],[18,15]],[[31510,9457],[31,23]],[[31541,9480],[9,-25]],[[31596,9338],[-14,-44]],[[31582,9294],[-63,23]],[[31519,9317],[-18,33]],[[31555,9350],[41,-12]],[[31614,9358],[0,-20]],[[31614,9338],[-18,0]],[[31564,9399],[32,-28]],[[31596,9371],[18,-13]],[[31609,9274],[-27,20]],[[31614,9338],[63,-3]],[[31686,9328],[-32,-82]],[[31654,9246],[-45,28]],[[31699,9409],[-13,33]],[[31686,9442],[13,46]],[[31699,9488],[59,-23]],[[31758,9465],[0,-41]],[[31722,9384],[-23,25]],[[31532,9862],[-9,40]],[[31523,9902],[27,84]],[[31550,9986],[149,-7]],[[31699,9979],[-117,-212]],[[31731,9841],[-63,-74]],[[31699,9979],[23,-21]],[[31722,9958],[9,-117]],[[31672,9605],[5,12]],[[31677,9617],[9,26]],[[31726,9691],[23,10]],[[31749,9701],[49,-15]],[[31785,9625],[-86,-23]],[[31699,9602],[-27,3]],[[31699,9602],[41,-66]],[[31740,9536],[-41,-10]],[[31699,9526],[-49,38]],[[31650,9564],[-9,18]],[[31641,9582],[31,23]],[[31744,9534],[-4,2]],[[31852,9539],[-40,0]],[[31699,9526],[0,-38]],[[31686,9442],[-72,64]],[[31614,9506],[-5,22]],[[31609,9528],[41,36]],[[31861,9368],[-54,-10]],[[31758,9465],[22,35]],[[31884,9521],[9,-66]],[[31893,9455],[-5,-61]],[[31942,9109],[-4,-13]],[[31938,9096],[-59,-74]],[[32019,9208],[-18,-38]],[[32001,9170],[-59,-61]],[[32064,9144],[31,-71]],[[32095,9073],[-153,36]],[[32001,9170],[63,-26]],[[31614,9358],[4,51]],[[31618,9409],[81,0]],[[31330,9551],[-5,-12]],[[31325,9539],[-31,-36]],[[31294,9503],[-14,0]],[[31316,9587],[-13,30]],[[31303,9617],[-9,16]],[[31294,9633],[4,2]],[[31298,9635],[18,-18]],[[31316,9617],[27,-33]],[[31343,9584],[9,-22]],[[31352,9562],[-22,-11]],[[31357,9551],[9,-10]],[[31366,9541],[-9,-5]],[[31357,9536],[0,15]],[[31348,9592],[-5,-8]],[[31316,9617],[90,84]],[[31406,9701],[32,-56]],[[31438,9645],[-90,-53]],[[31253,9506],[-45,81]],[[31208,9587],[95,30]],[[31298,9635],[36,77]],[[31334,9712],[77,7]],[[31411,9719],[-5,-18]],[[31429,9584],[-32,-43]],[[31397,9541],[-22,0]],[[31375,9541],[-9,0]],[[31357,9551],[-5,11]],[[31348,9592],[81,-8]],[[31447,9605],[-18,-21]],[[31438,9645],[9,-10]],[[31447,9635],[0,-30]],[[31357,9536],[-27,15]],[[31623,9577],[-41,-26]],[[31582,9551],[-23,18]],[[31559,9569],[-18,5]],[[31541,9574],[55,38]],[[31596,9612],[27,-35]],[[31411,9719],[40,46]],[[31465,9722],[22,-69]],[[31487,9653],[-40,-18]],[[31537,9612],[-50,41]],[[31541,9615],[-4,-3]],[[31375,9541],[13,-79]],[[31388,9462],[-18,-7]],[[31370,9455],[-45,84]],[[31370,9455],[-9,-5]],[[31361,9450],[-67,38]],[[31294,9488],[0,15]],[[31573,9455],[13,18]],[[31586,9473],[32,-49]],[[31618,9424],[-22,-53]],[[31541,9480],[9,20]],[[31550,9500],[5,11]],[[31555,9511],[18,17]],[[31573,9528],[36,0]],[[31614,9506],[-28,-33]],[[31618,9409],[0,15]],[[31537,9607],[0,5]],[[31586,9640],[0,-2]],[[31586,9638],[10,-26]],[[31541,9574],[-4,33]],[[31573,9528],[9,23]],[[31623,9577],[18,5]],[[31677,9185],[-23,61]],[[31708,9157],[-31,28]],[[31586,9638],[91,-21]],[[31217,9678],[-31,-63]],[[31186,9615],[-9,-8]],[[31177,9607],[-23,46]],[[31154,9653],[-36,13],[36,61]],[[31154,9727],[18,13]],[[31172,9740],[18,-8]],[[31190,9732],[86,-28]],[[31276,9704],[-59,-26]],[[31312,9719],[-36,-15]],[[31190,9732],[-9,61],[50,-3]],[[31231,9790],[27,-12]],[[31258,9778],[54,-59]],[[31015,9948],[-68,38]],[[30947,9986],[-18,33]],[[30929,10019],[36,66]],[[30965,10085],[126,-7]],[[31091,10078],[27,-54]],[[31118,10024],[-9,-61]],[[31109,9963],[-45,-28]],[[31064,9935],[-49,13]],[[30866,9691],[0,36]],[[30866,9727],[45,66]],[[30911,9793],[18,-3]],[[30929,9790],[32,-63]],[[30961,9727],[-5,-51],[-90,15]],[[30789,10060],[9,102],[27,-72],[54,156]],[[30879,10246],[32,0]],[[30911,10246],[5,-21]],[[30916,10225],[-37,-135]],[[30879,10090],[-45,-71],[-45,41]],[[31217,9442],[36,64]],[[31294,9488],[-18,-36]],[[31276,9452],[-32,-18]],[[31244,9434],[-27,8]],[[31465,9902],[-108,41],[27,89]],[[31384,10032],[108,43]],[[31492,10075],[54,-23]],[[31546,10052],[4,-66]],[[31523,9902],[-58,0]],[[30740,9035],[-5,20],[-9,56],[-18,145],[-9,31]],[[30699,9287],[63,-66],[45,51]],[[30807,9272],[14,-178]],[[30821,9094],[-81,-59]],[[30839,9320],[-63,30]],[[30776,9350],[13,39]],[[30789,9389],[104,45]],[[30893,9434],[23,-112]],[[30916,9322],[-77,-2]],[[30789,9389],[-63,84],[50,15],[-23,51]],[[30753,9539],[45,48],[81,-43]],[[30879,9544],[37,0]],[[30916,9544],[-23,-110]],[[31339,9788],[-5,-8]],[[31334,9780],[-67,46],[-9,-48]],[[31231,9790],[18,117]],[[31249,9907],[81,33],[0,92]],[[31330,10032],[54,0]],[[31465,9902],[-86,-15],[-40,-99]],[[31465,9806],[-126,-18]],[[30888,9053],[-9,53]],[[30879,9106],[55,191]],[[30934,9297],[40,25]],[[30974,9322],[68,-86]],[[31042,9236],[-5,-13]],[[31037,9223],[-54,-35],[-9,-107]],[[30974,9081],[-22,-28]],[[30952,9053],[-64,0]],[[30879,9106],[-58,-12]],[[30807,9272],[32,48]],[[30916,9322],[18,-25]],[[31154,9727],[-108,0]],[[31046,9727],[-45,56]],[[31001,9783],[50,89],[-36,76]],[[31064,9935],[95,-155],[0,-23],[13,-17]],[[31109,9963],[122,-173]],[[31244,9434],[50,-56]],[[31294,9378],[-23,-25]],[[31271,9353],[-54,43]],[[31217,9396],[-22,46]],[[31195,9442],[22,0]],[[30753,9801],[9,-77]],[[30762,9724],[-126,0]],[[30636,9724],[-18,122]],[[30618,9846],[45,-7]],[[30663,9839],[90,-38]],[[30663,9541],[-22,171],[-5,12]],[[30762,9724],[59,61]],[[30821,9785],[-9,-66],[54,8]],[[30866,9691],[-41,-63],[54,-84]],[[30753,9539],[-90,2]],[[31357,9447],[-9,-15]],[[31348,9432],[-18,-15]],[[31330,9417],[-54,35]],[[31361,9450],[-4,-3]],[[31195,9442],[-41,15]],[[31154,9457],[27,105]],[[31181,9562],[-4,45]],[[31186,9615],[22,-28]],[[30983,9589],[27,89]],[[31010,9678],[36,49]],[[31154,9653],[-27,-112],[-144,48]],[[31100,9373],[-22,66]],[[31078,9439],[18,39]],[[31096,9478],[58,-21]],[[31217,9396],[-76,-38]],[[31141,9358],[-41,15]],[[31069,9208],[72,150]],[[31271,9353],[-18,-25]],[[31253,9328],[-31,-39]],[[31222,9289],[-68,-33]],[[31154,9256],[-40,-51]],[[31114,9205],[-45,3]],[[31307,10057],[-72,-17]],[[31235,10040],[-63,-31],[-72,74]],[[31100,10083],[27,89]],[[31127,10172],[153,-74]],[[31280,10098],[27,-41]],[[31096,9478],[85,84]],[[31280,10098],[-9,26]],[[31271,10124],[140,12],[-41,49],[77,20]],[[31447,10205],[27,15]],[[31474,10220],[18,-76]],[[31492,10144],[18,-54]],[[31510,10090],[-18,-15]],[[31330,10032],[-23,25]],[[31294,9633],[-77,45]],[[31312,9719],[13,0]],[[31325,9719],[9,-7]],[[31001,9783],[-45,43]],[[30956,9826],[-54,140],[45,20]],[[30753,9801],[86,48]],[[30839,9849],[-18,-64]],[[31523,10121],[5,61],[45,-23],[-27,-107]],[[31510,10090],[13,31]],[[30961,9727],[49,-49]],[[30983,9589],[-22,-71]],[[30961,9518],[-45,26]],[[31078,9439],[-41,0]],[[31037,9439],[-76,79]],[[30956,9826],[-27,-36]],[[30911,9793],[-72,56]],[[30663,9839],[-40,35],[184,-5],[90,186]],[[30897,10055],[32,-36]],[[30618,9846],[-13,89]],[[30605,9935],[90,72]],[[30695,10007],[94,53]],[[30879,10090],[18,-12]],[[30897,10078],[0,-23]],[[31330,9417],[-36,-39]],[[30744,9015],[-4,20]],[[30888,9053],[-144,-38]],[[31235,10040],[0,-74]],[[31235,9966],[-76,-28],[-41,86]],[[31091,10078],[9,5]],[[31271,10124],[-36,116]],[[31235,10240],[0,11]],[[31235,10251],[122,48],[90,-94]],[[30699,9310],[-27,170],[-9,51],[0,10]],[[30776,9350],[-77,-40]],[[31492,10144],[31,-23]],[[31037,9439],[-67,3],[4,-120]],[[31100,9373],[-58,-137]],[[30699,9287],[0,23]],[[31249,9907],[-14,59]],[[31037,9223],[32,-15]],[[31114,9205],[-32,-63]],[[31082,9142],[-108,-61]],[[31325,9719],[9,61]],[[31659,8572],[-54,28]],[[31605,8600],[-73,28]],[[31532,8628],[18,54]],[[31550,8682],[0,33]],[[31550,8715],[68,-33],[-4,58],[99,31]],[[31713,8771],[-5,-209]],[[31708,8562],[-49,10]],[[31406,8829],[-36,-20]],[[31370,8809],[-13,-5]],[[31357,8804],[-9,147]],[[31348,8951],[67,-38]],[[31415,8913],[-4,-46]],[[31411,8867],[-5,-38]],[[31334,8684],[18,110]],[[31352,8794],[5,10]],[[31370,8809],[59,-122]],[[31429,8687],[4,-21]],[[31433,8666],[-99,18]],[[31280,9150],[-126,106]],[[31222,9289],[13,-7]],[[31235,9282],[59,-51]],[[31294,9231],[31,-66],[27,38]],[[31352,9203],[9,-10]],[[31361,9193],[27,-26]],[[31388,9167],[-85,-33]],[[31303,9134],[-23,16]],[[31307,9073],[-4,61]],[[31388,9167],[23,-20]],[[31411,9147],[31,-61]],[[31442,9086],[-126,-23]],[[31316,9063],[-9,10]],[[31348,8951],[-14,15]],[[31334,8966],[-18,97]],[[31442,9086],[0,-107]],[[31442,8979],[-27,-66]],[[31884,8801],[-99,23]],[[31785,8824],[-14,53],[104,54]],[[31875,8931],[9,-130]],[[31010,8857],[-94,-58]],[[30916,8799],[-136,-51]],[[30780,8748],[-22,170],[-14,97]],[[30952,9053],[58,-196]],[[31334,8684],[-9,-43]],[[31325,8641],[-58,56]],[[31267,8697],[-45,89]],[[31222,8786],[27,58]],[[31249,8844],[103,-50]],[[31109,8778],[-94,94]],[[31015,8872],[112,66]],[[31127,8938],[32,-94]],[[31159,8844],[-14,-56]],[[31145,8788],[-36,-10]],[[31073,8560],[0,25]],[[31073,8585],[0,114]],[[31073,8699],[68,-5],[-32,84]],[[31145,8788],[77,-2]],[[31267,8697],[-63,-160]],[[31204,8537],[-131,23]],[[31659,8890],[-9,-23]],[[31650,8867],[-239,0]],[[31442,8979],[135,-18]],[[31577,8961],[82,-71]],[[31636,8796],[-113,-13]],[[31523,8783],[-31,-35]],[[31492,8748],[-14,101],[-72,-20]],[[31650,8867],[-14,-71]],[[31442,9086],[45,3]],[[31487,9089],[50,27]],[[31537,9116],[27,-20]],[[31564,9096],[9,-91]],[[31573,9005],[4,-44]],[[30934,8750],[-18,49]],[[31010,8857],[5,15]],[[31073,8699],[-139,51]],[[31785,8824],[-72,-36]],[[31713,8788],[-77,8]],[[31659,8890],[45,54]],[[31704,8944],[27,-28],[18,81]],[[31749,8997],[-5,23]],[[31744,9020],[59,58]],[[31852,8994],[23,-63]],[[31704,8944],[45,53]],[[31528,9188],[9,-72]],[[31487,9089],[-45,81]],[[31442,9170],[5,41]],[[31447,9211],[13,-8]],[[31460,9203],[54,-8]],[[31514,9195],[14,-7]],[[31411,9147],[4,8]],[[31415,9155],[27,15]],[[30816,8504],[-13,104],[-18,119],[-5,21]],[[30934,8750],[18,-221]],[[30952,8529],[-113,31],[-23,-56]],[[30947,8516],[5,13]],[[31073,8585],[-126,-69]],[[31573,9005],[72,7]],[[31645,9012],[99,8]],[[31159,8844],[90,0]],[[31645,9012],[-9,143]],[[31636,9155],[41,30]],[[31564,9096],[72,59]],[[31532,8628],[-9,-40]],[[31523,8588],[-81,20]],[[31442,8608],[23,46]],[[31465,8654],[85,28]],[[31550,8715],[-27,68]],[[31713,8788],[0,-17]],[[31334,8537],[-9,104]],[[31433,8666],[32,-12]],[[31442,8608],[-94,-89]],[[31348,8519],[-14,18]],[[31195,8911],[54,-67]],[[31127,8938],[68,-27]],[[31514,9221],[0,-26]],[[31460,9203],[41,46]],[[31501,9249],[13,-28]],[[31082,9142],[90,-28]],[[31172,9114],[-18,-135],[36,-18]],[[31190,8961],[5,-40]],[[31195,8921],[0,-10]],[[31172,9114],[72,10]],[[31244,9124],[-54,-163]],[[31280,9150],[-22,-41]],[[31258,9109],[-14,15]],[[31334,8966],[-31,3]],[[31303,8969],[-45,104]],[[31258,9073],[49,0]],[[31514,9221],[41,23]],[[31555,9244],[-27,-56]],[[31415,9155],[0,63]],[[31415,9218],[14,21]],[[31429,9239],[18,-28]],[[31195,8921],[108,48]],[[31258,9109],[0,-36]],[[31555,9244],[54,30]],[[31605,8600],[-19,-23]],[[31586,8577],[-63,11]],[[31586,8577],[14,-160]],[[31600,8417],[-122,-38]],[[31478,8379],[-45,43]],[[31433,8422],[-85,74]],[[31348,8496],[0,23]],[[31487,9300],[-9,-36]],[[31478,9264],[-9,18]],[[31469,9282],[5,15]],[[31474,9297],[4,8]],[[31478,9305],[9,-5]],[[31294,9231],[58,-28]],[[31492,8748],[-63,-61]],[[31240,8547],[-36,-10]],[[31334,8537],[-94,10]],[[31501,9249],[-23,15]],[[31487,9300],[32,17]],[[31361,9193],[54,25]],[[31429,9239],[4,25]],[[31433,9264],[36,18]],[[31429,9378],[13,18]],[[31442,9396],[9,0]],[[31451,9396],[-9,-10],[0,-2],[-13,-6]],[[31465,9480],[-18,-30]],[[31447,9450],[-14,-3]],[[31433,9447],[-13,15]],[[31420,9462],[9,36]],[[31429,9498],[22,-10]],[[31451,9488],[14,-8]],[[31465,9404],[-9,15]],[[31456,9419],[0,10]],[[31456,9429],[27,13]],[[31483,9442],[0,-3]],[[31483,9439],[4,-12]],[[31487,9427],[-22,-26]],[[31465,9401],[0,3]],[[31501,9401],[-27,-12]],[[31474,9389],[-14,0]],[[31460,9389],[5,12]],[[31487,9427],[9,5]],[[31465,9404],[-14,-8]],[[31442,9396],[0,18]],[[31442,9414],[14,5]],[[31438,9417],[-5,30]],[[31447,9450],[9,-21]],[[31442,9414],[-4,3]],[[31411,9335],[-5,13]],[[31406,9348],[-27,41]],[[31379,9389],[5,0]],[[31384,9389],[40,-11]],[[31424,9378],[9,-5]],[[31433,9373],[-13,-40]],[[31420,9333],[-9,2]],[[31397,9340],[-31,-18]],[[31366,9322],[-5,74]],[[31361,9396],[18,-7]],[[31406,9348],[-9,-8]],[[31424,9378],[5,0]],[[31460,9389],[-4,-31]],[[31456,9358],[-23,15]],[[31424,9378],[9,23]],[[31433,9401],[5,16]],[[31384,9389],[49,12]],[[31456,9358],[22,-53]],[[31474,9297],[-54,10]],[[31420,9307],[0,26]],[[31474,9389],[31,-13]],[[31361,9396],[-4,51]],[[31388,9462],[32,0]],[[31469,9488],[-4,5]],[[31465,9493],[9,61]],[[31474,9554],[13,8]],[[31487,9562],[14,0]],[[31501,9562],[4,-59]],[[31505,9503],[-4,-8]],[[31501,9495],[-23,-22]],[[31478,9473],[-9,15]],[[31483,9439],[9,3]],[[31478,9473],[5,-31]],[[31465,9480],[4,8]],[[31451,9488],[14,5]],[[31388,9462],[14,79]],[[31402,9541],[36,13]],[[31438,9554],[-9,-56]],[[31447,9605],[27,-3]],[[31474,9602],[0,-33]],[[31474,9569],[0,-15]],[[31474,9554],[-36,0]],[[31402,9541],[-5,0]],[[31501,9495],[9,-38]],[[31411,9335],[-14,5]],[[31366,9322],[-27,-33]],[[31339,9289],[-104,-7]],[[31253,9328],[95,104]],[[31433,9267],[-72,-3]],[[31361,9264],[50,25]],[[31411,9289],[22,-22]],[[31487,9562],[-13,7]],[[31474,9602],[49,-5]],[[31523,9597],[-4,-38]],[[31519,9559],[-18,3]],[[31555,9511],[-27,33]],[[31528,9544],[31,25]],[[31519,9559],[9,-15]],[[31550,9500],[-45,3]],[[31420,9307],[-9,-18]],[[31361,9264],[-22,25]],[[31433,9267],[0,-3]],[[31537,9607],[-14,-10]],[[33104,7949],[18,-33]],[[33122,7916],[-94,-25]],[[33028,7891],[-45,61]],[[32983,7952],[22,86],[-86,61]],[[32919,8099],[28,150]],[[32947,8249],[-28,49],[46,73]],[[32965,8371],[45,56]],[[33010,8427],[135,-12],[13,-105]],[[33158,8310],[-63,-127],[32,-86],[-59,-31],[36,-117]],[[32947,7837],[0,-129]],[[32947,7708],[-50,45]],[[32897,7753],[-36,92]],[[32861,7845],[86,-8]],[[32703,7868],[54,-308]],[[32757,7560],[-148,120]],[[32609,7680],[-27,48]],[[32582,7728],[31,64]],[[32613,7792],[90,76]],[[32856,8427],[-4,-5]],[[32852,8422],[-59,87]],[[32793,8509],[63,-23],[18,150]],[[32874,8636],[109,-66]],[[32983,8570],[-23,-94],[-104,-49]],[[33735,7873],[-140,-41]],[[33595,7832],[-95,36]],[[33500,7868],[14,130]],[[33514,7998],[149,38]],[[33663,8036],[72,-163]],[[33320,7675],[-18,104]],[[33302,7779],[-13,58]],[[33289,7837],[-5,39]],[[33284,7876],[32,-6]],[[33316,7870],[22,-73],[117,15]],[[33455,7812],[32,-102]],[[33487,7710],[-72,-68]],[[33415,7642],[-95,33]],[[33145,7814],[-23,102]],[[33122,7916],[162,-40]],[[33289,7837],[-144,-23]],[[33302,7779],[-76,-43]],[[33226,7736],[-72,2]],[[33154,7738],[-9,76]],[[33266,8150],[-72,51],[41,59],[-41,61]],[[33194,8321],[14,43]],[[33208,8364],[85,-140],[59,76],[63,-48]],[[33415,8252],[9,-8]],[[33424,8244],[-122,-30],[-22,-71]],[[33280,8143],[-14,7]],[[33663,8664],[-100,-79]],[[33563,8585],[-112,76]],[[33451,8661],[72,84]],[[33523,8745],[81,-30],[59,-51]],[[33397,7512],[-68,-137]],[[33329,7375],[-13,-6]],[[33316,7369],[-50,44]],[[33266,7413],[-54,76]],[[33212,7489],[5,71]],[[33217,7560],[103,115]],[[33415,7642],[-18,-130]],[[32762,7553],[-5,7]],[[32703,7868],[0,5]],[[32703,7873],[36,36]],[[32739,7909],[54,-13]],[[32793,7896],[9,-41]],[[32802,7855],[27,-188]],[[32829,7667],[50,-120]],[[32879,7547],[-77,-40]],[[32802,7507],[-40,46]],[[33127,8748],[-23,-82],[50,-25],[-41,-48]],[[33113,8593],[-58,-140]],[[33055,8453],[-14,112],[-58,5]],[[32874,8636],[-85,109]],[[32789,8745],[36,-2]],[[32825,8743],[63,-49],[45,46]],[[32933,8740],[59,15]],[[32992,8755],[49,-68],[54,86]],[[33095,8773],[-9,-43],[41,18]],[[33028,7527],[-45,115]],[[32983,7642],[63,38],[-45,48],[27,163]],[[33154,7738],[-27,-236]],[[33127,7502],[-99,25]],[[33217,7560],[9,176]],[[33104,7949],[86,176],[76,25]],[[33280,8143],[45,-54]],[[33325,8089],[40,-81]],[[33365,8008],[-49,-138]],[[33194,8321],[-36,-11]],[[33010,8427],[45,26]],[[33113,8593],[126,-61]],[[33239,8532],[-31,-168]],[[33446,8404],[-18,-147]],[[33428,8257],[-13,-5]],[[33239,8532],[36,2]],[[33275,8534],[194,-61]],[[33469,8473],[-23,-69]],[[32897,7753],[-68,-86]],[[32802,7855],[59,-10]],[[33775,8132],[-99,-12]],[[33676,8120],[-18,-28]],[[33658,8092],[-104,61]],[[33554,8153],[104,-23],[-4,74],[112,66]],[[33766,8270],[14,-69]],[[33780,8201],[-5,-69]],[[33424,8244],[-5,-119]],[[33419,8125],[-94,-36]],[[33451,7860],[4,-48]],[[33365,8008],[86,-148]],[[33212,7489],[-85,13]],[[32798,8117],[-59,-208]],[[32703,7873],[-13,69]],[[32690,7942],[-14,66]],[[32676,8008],[104,119]],[[32780,8127],[18,-10]],[[33482,8211],[-54,46]],[[33446,8404],[36,-193]],[[33563,8585],[-81,-61]],[[33482,8524],[-108,28]],[[33374,8552],[77,109]],[[32798,8117],[121,-18]],[[32983,7952],[-190,-56]],[[33500,7868],[-49,-8]],[[33419,8125],[95,-127]],[[33658,8092],[5,-56]],[[33482,8211],[72,-58]],[[33469,8473],[13,51]],[[33663,8664],[22,-18],[45,-163],[36,-129],[0,-84]],[[32983,7952],[-36,-115]],[[32969,7555],[-90,-8]],[[32947,7708],[-9,-82],[45,16]],[[33028,7527],[-59,28]],[[32870,8404],[-14,23]],[[32965,8371],[-95,33]],[[31947,10017],[-68,-120]],[[31879,9897],[-40,76]],[[31839,9973],[99,56]],[[31938,10029],[9,-12]],[[31879,9897],[-31,-23]],[[31848,9874],[-50,3],[-18,7]],[[31780,9884],[59,89]],[[31722,9958],[54,23],[-9,79]],[[31767,10060],[117,46]],[[31884,10106],[40,-3]],[[31924,10103],[14,-74]],[[31780,9884],[-40,-45]],[[31740,9839],[-9,2]],[[31983,9879],[-50,-53]],[[31933,9826],[-63,-8]],[[31870,9818],[-22,56]],[[31947,10017],[45,-33]],[[31992,9984],[-9,-105]],[[32149,10060],[-31,-10]],[[32118,10050],[-113,12],[5,79]],[[32010,10141],[81,0]],[[32091,10141],[58,-81]],[[32226,10073],[-23,-5]],[[32203,10068],[-54,-8]],[[32091,10141],[45,0]],[[32136,10141],[31,-5]],[[32167,10136],[59,-63]],[[31915,10457],[-36,-56]],[[31879,10401],[-81,-3]],[[31798,10398],[-4,5]],[[31794,10403],[-162,84]],[[31632,10487],[27,56],[-41,53],[50,59]],[[31668,10655],[72,0],[31,0]],[[31771,10655],[-22,-46],[144,-71]],[[31893,10538],[22,-81]],[[31523,10426],[-108,94]],[[31415,10520],[36,117]],[[31451,10637],[14,5]],[[31465,10642],[63,-94]],[[31528,10548],[72,-109]],[[31600,10439],[32,-112],[-86,28]],[[31546,10355],[-23,71]],[[32546,9994],[-104,7],[9,56]],[[32451,10057],[81,16]],[[32532,10073],[14,-79]],[[31942,9813],[18,-40],[-85,-39]],[[31866,9732],[4,41]],[[31870,9773],[0,45]],[[31933,9826],[9,-13]],[[31794,9798],[-45,-97]],[[31740,9839],[54,-41]],[[31794,9798],[76,-25]],[[31834,9719],[5,-15]],[[32519,9933],[-9,-13]],[[32510,9920],[-131,53]],[[32379,9973],[72,84]],[[32546,9994],[-27,-61]],[[32280,9907],[-59,89]],[[32221,9996],[-18,72]],[[32226,10073],[72,23]],[[32298,10096],[23,12]],[[32321,10108],[9,-71],[49,28]],[[32379,10065],[-9,-86]],[[32370,9979],[-72,-74]],[[32298,9905],[-18,2]],[[31523,10426],[-103,-56],[-18,148]],[[31402,10518],[13,2]],[[32028,10281],[-18,36]],[[32010,10317],[27,79],[-45,68]],[[31992,10464],[22,23]],[[32014,10487],[90,-30]],[[32104,10457],[18,-11]],[[32122,10446],[0,-53],[126,-15]],[[32248,10378],[14,-31]],[[32262,10347],[-72,-76]],[[32190,10271],[-68,-25]],[[32122,10246],[-94,35]],[[32014,10487],[81,173]],[[32095,10660],[41,3]],[[32136,10663],[-18,-72],[103,-35],[64,94]],[[32285,10650],[9,15]],[[32294,10665],[9,0],[135,5],[0,-66],[-167,-152]],[[32271,10452],[-117,81],[-50,-76]],[[31978,10159],[-54,-56]],[[31884,10106],[9,56]],[[31893,10162],[85,-3]],[[31893,10162],[-41,45]],[[31852,10207],[-54,191]],[[31879,10401],[41,-69]],[[31920,10332],[90,-15]],[[32028,10281],[18,-76]],[[32046,10205],[-41,-46]],[[32005,10159],[-27,0]],[[32185,9790],[-22,-20]],[[32163,9770],[-86,69]],[[32077,9839],[68,109]],[[32145,9948],[67,31]],[[32212,9979],[-27,-189]],[[32212,9979],[9,17]],[[32280,9907],[-50,-58],[41,-56]],[[32271,9793],[-27,-33]],[[32244,9760],[-59,30]],[[32010,10141],[-5,18]],[[32046,10205],[67,0]],[[32113,10205],[23,-64]],[[31852,10207],[-31,-124],[-59,-10]],[[31762,10073],[-13,61],[-149,56],[0,71]],[[31600,10261],[194,142]],[[31474,10220],[117,56]],[[31591,10276],[9,-15]],[[31762,10073],[5,-13]],[[32122,10246],[-9,-41]],[[32285,10650],[-59,13]],[[32226,10663],[18,0],[50,2]],[[32298,10096],[-27,73],[54,18]],[[32325,10187],[36,-38],[-40,-41]],[[31235,10251],[50,229]],[[31285,10480],[-23,40]],[[31262,10520],[140,-2]],[[31546,10355],[45,-79]],[[31262,10520],[0,138]],[[31262,10658],[41,0],[63,-3]],[[31366,10655],[-18,-48],[103,30]],[[31992,9984],[63,20]],[[32055,10004],[-50,-109]],[[32005,9895],[-13,-16]],[[31992,9879],[-9,0]],[[31915,10457],[59,-3]],[[31974,10454],[0,-99],[-54,-23]],[[31893,10538],[9,117]],[[31902,10655],[193,5]],[[31992,10464],[-18,-10]],[[32145,9948],[-36,76]],[[32109,10024],[9,26]],[[32010,9788],[-9,-92]],[[32001,9696],[-99,3]],[[31942,9813],[5,-2]],[[31947,9811],[63,-23]],[[32086,9676],[-85,20]],[[32010,9788],[63,53]],[[32073,9841],[4,-2]],[[32163,9770],[0,-58]],[[32163,9712],[-41,-67]],[[32122,9645],[-36,31]],[[32122,10446],[149,-30]],[[32271,10416],[-23,-38]],[[32379,10065],[63,127]],[[32442,10192],[36,-33],[50,-33]],[[32528,10126],[4,-53]],[[32379,9973],[-9,6]],[[32109,10024],[-54,-20]],[[31366,10655],[90,0]],[[31456,10655],[9,-13]],[[32325,10187],[77,59],[-54,22]],[[32348,10268],[94,-76]],[[32073,9841],[-68,54]],[[31645,10655],[-117,-107]],[[31456,10655],[36,3],[153,-3]],[[31632,10487],[-36,15],[4,-63]],[[31645,10655],[23,0]],[[32190,10271],[-23,-135]],[[32244,9760],[-23,-66]],[[32221,9694],[-58,18]],[[31947,9811],[54,10],[-9,58]],[[32136,10663],[13,0],[77,0]],[[32271,10452],[0,-36]],[[32262,10347],[41,-38],[45,-41]],[[31771,10655],[86,0],[45,0]],[[32221,9597],[-18,18]],[[32203,9615],[27,74]],[[32230,9689],[64,-38]],[[32294,9651],[-5,-21]],[[32289,9630],[-59,-30],[0,-3],[-9,0]],[[32289,9630],[23,-142]],[[32312,9488],[-18,-18]],[[32294,9470],[-50,43]],[[32244,9513],[-14,38]],[[32230,9551],[-9,46]],[[32163,9544],[-27,86]],[[32136,9630],[-5,10]],[[32131,9640],[72,-25]],[[32230,9551],[-9,-12]],[[32221,9539],[-58,5]],[[32131,9640],[-9,5]],[[32221,9694],[9,-5]],[[32244,9513],[-23,26]],[[32298,9467],[-4,3]],[[32312,9488],[54,68]],[[32366,9556],[-9,-81]],[[32357,9475],[-59,-8]],[[31978,9567],[-76,-11]],[[31893,9595],[85,-28]],[[32109,9373],[22,82],[-40,23]],[[32091,9478],[58,28]],[[32149,9506],[59,-28],[-36,-105]],[[32172,9373],[-63,0]],[[32091,9478],[-27,43]],[[32064,9521],[72,109]],[[32163,9544],[-68,15],[54,-53]],[[32546,9902],[-36,-38],[49,-48]],[[32559,9816],[-58,-59]],[[32501,9757],[-59,64]],[[32442,9821],[68,99]],[[32519,9933],[27,-31]],[[32307,9111],[-86,-45]],[[32221,9066],[-40,165],[81,-10]],[[32262,9221],[45,-110]],[[32694,9612],[-85,-71]],[[32609,9541],[-68,-43]],[[32541,9498],[-18,127],[-72,-10]],[[32451,9615],[14,56]],[[32465,9671],[22,48],[-40,21],[72,-21]],[[32519,9719],[175,-107]],[[32366,9587],[-45,61]],[[32321,9648],[-18,107]],[[32303,9755],[72,-26]],[[32375,9729],[90,-58]],[[32451,9615],[-13,-28]],[[32438,9587],[-72,0]],[[32501,9757],[18,-38]],[[32375,9729],[36,102]],[[32411,9831],[31,-10]],[[32393,9480],[-36,-5]],[[32366,9556],[0,31]],[[32438,9587],[-45,-107]],[[32514,9096],[5,74]],[[32519,9170],[-5,46]],[[32514,9216],[50,78],[-36,34]],[[32528,9328],[36,40],[22,-53]],[[32586,9315],[189,-84]],[[32775,9231],[-135,-160]],[[32640,9071],[-126,25]],[[32303,9755],[-32,38]],[[32298,9905],[113,-74]],[[32546,9902],[72,3]],[[32618,9905],[-59,-89]],[[32780,9628],[-86,-16]],[[32618,9905],[81,33]],[[32699,9938],[40,-132],[99,-145],[18,-56],[-76,23]],[[32109,9373],[-36,-10]],[[32073,9363],[-45,43],[63,72]],[[32262,9221],[54,81]],[[32316,9302],[198,-86]],[[32519,9170],[-72,23],[4,-127],[-67,0],[0,-59]],[[32384,9007],[-77,104]],[[32528,10126],[94,0],[14,-25],[27,-92],[22,-18],[14,-53]],[[32321,9648],[-27,3]],[[32541,9498],[-45,-51]],[[32496,9447],[-103,33]],[[32064,9144],[58,120],[-58,81]],[[32064,9345],[9,18]],[[32172,9373],[122,-38]],[[32294,9335],[22,-33]],[[32221,9066],[-112,-3]],[[32109,9063],[-14,10]],[[31893,9455],[85,-13],[81,76]],[[32059,9518],[5,3]],[[32028,9551],[31,-33]],[[31978,9567],[50,-16]],[[32528,9328],[-41,22]],[[32487,9350],[-49,64],[58,33]],[[32609,9541],[27,-20]],[[32636,9521],[-50,-206]],[[32028,9551],[58,125]],[[32307,9399],[-9,68]],[[32487,9350],[-180,49]],[[32856,9500],[0,-73]],[[32856,9427],[-220,94]],[[32780,9628],[67,-21],[-27,-48],[72,20],[-36,-79]],[[32294,9335],[13,64]],[[32852,9267],[-54,-26]],[[32798,9241],[-23,-10]],[[32856,9427],[63,-135]],[[32919,9292],[-67,-25]],[[32514,9096],[-117,-117]],[[32397,8979],[-13,28]],[[30965,10085],[-68,-7]],[[30916,10225],[49,-2]],[[30965,10223],[171,-16]],[[31136,10207],[-9,-35]],[[31235,10240],[-99,26]],[[31136,10266],[-103,28]],[[31033,10294],[-14,81],[77,-30],[-36,96],[45,102]],[[31105,10543],[63,-13]],[[31168,10530],[117,-50]],[[30605,10350],[54,150]],[[30659,10500],[36,56]],[[30695,10556],[63,38]],[[30758,10594],[22,-33]],[[30780,10561],[5,-43]],[[30785,10518],[-36,-64]],[[30749,10454],[-95,-165]],[[30654,10289],[-49,-18],[0,79]],[[31168,10530],[54,61],[-45,41]],[[31177,10632],[36,23]],[[31213,10655],[49,3]],[[30970,10569],[-14,10]],[[30956,10579],[27,76]],[[30983,10655],[27,0],[104,0]],[[31114,10655],[-23,-69]],[[31091,10586],[-27,41],[-72,-64]],[[30992,10563],[-22,6]],[[31105,10543],[-14,43]],[[31114,10655],[4,0],[50,0]],[[31168,10655],[9,-23]],[[30992,10563],[-22,-289]],[[30970,10274],[-23,0]],[[30947,10274],[-22,7]],[[30925,10281],[0,97]],[[30925,10378],[27,99]],[[30952,10477],[18,92]],[[31033,10294],[-63,-20]],[[30659,10500],[9,71]],[[30668,10571],[31,81]],[[30699,10652],[9,0]],[[30708,10652],[-13,-96]],[[30776,10246],[0,68],[-95,-68]],[[30681,10246],[-27,0]],[[30654,10246],[0,43]],[[30749,10454],[99,-23]],[[30848,10431],[4,-2]],[[30852,10429],[-18,-49],[54,-40],[37,38]],[[30925,10281],[-14,-35]],[[30879,10246],[-81,61],[-22,-61]],[[30605,9935],[0,5],[-27,156]],[[30578,10096],[49,-18]],[[30627,10078],[68,-71]],[[30578,10096],[-9,61],[-27,162]],[[30542,10319],[45,97],[18,-66]],[[30654,10246],[-27,-168]],[[31136,10207],[0,59]],[[30965,10223],[-18,51]],[[30848,10431],[-63,87]],[[30780,10561],[14,46]],[[30794,10607],[13,48]],[[30807,10655],[23,0],[54,0],[32,0],[67,0]],[[30956,10579],[-45,30],[-9,-150]],[[30902,10459],[-50,-30]],[[30542,10319],[-9,74],[-9,31],[-9,61]],[[30515,10485],[76,53]],[[30591,10538],[5,3]],[[30596,10541],[72,30]],[[30902,10459],[50,18]],[[30708,10652],[23,0],[18,0],[4,0],[54,3]],[[30794,10607],[-36,-13]],[[30681,10246],[59,-117],[36,117]],[[30596,10541],[72,109]],[[30668,10650],[13,2],[14,0],[4,0]],[[31168,10655],[45,0]],[[30515,10485],[-5,40],[-18,127],[104,-2],[4,0]],[[30600,10650],[-9,-112]],[[30600,10650],[68,0]],[[32992,9137],[-32,124]],[[32960,9261],[81,67],[63,-13],[-36,-54],[81,33],[0,-2],[27,-48]],[[33176,9244],[-54,-97]],[[33122,9147],[-54,15]],[[33068,9162],[-76,-25]],[[32924,8860],[9,-120]],[[32825,8743],[22,48]],[[32847,8791],[77,69]],[[33005,8936],[-54,30]],[[32951,8966],[0,105],[54,20]],[[33005,9091],[68,-112]],[[33073,8979],[-45,-43]],[[33028,8936],[-23,0]],[[33244,9211],[-68,-69]],[[33176,9142],[-54,5]],[[33176,9244],[68,-33]],[[32956,8888],[-32,-28]],[[32847,8791],[-76,104]],[[32771,8895],[45,36]],[[32816,8931],[149,-33]],[[32965,8898],[-9,-10]],[[33203,9111],[-36,-48]],[[33167,9063],[-45,-38]],[[33122,9025],[-54,137]],[[33176,9142],[27,-31]],[[33122,9025],[-49,-46]],[[33005,9091],[-13,46]],[[33118,8855],[-45,45]],[[33073,8900],[153,148]],[[33226,9048],[112,-104],[-36,-51],[41,-28]],[[33343,8865],[-72,-56]],[[33271,8809],[-153,46]],[[33095,8773],[-27,49]],[[33068,8822],[50,33]],[[33271,8809],[-5,-74],[-139,13]],[[32856,9500],[50,67],[9,-61],[104,-31],[-86,-8],[99,3],[81,-127],[-72,33],[-122,-84]],[[33068,8822],[-36,73],[41,5]],[[32789,8745],[-131,84]],[[32658,8829],[54,46]],[[32712,8875],[59,20]],[[32663,9038],[-23,33]],[[32798,9241],[22,-71]],[[32820,9170],[-63,-150]],[[32757,9020],[-94,18]],[[33275,8534],[99,18]],[[32956,8888],[36,-133]],[[32951,8966],[-72,13],[-59,191]],[[32852,9267],[72,12],[-36,-71],[72,53]],[[32816,8931],[-59,89]],[[33005,8936],[-40,-38]],[[33343,8865],[76,5]],[[33419,8870],[72,-51],[32,-74]],[[33028,8936],[45,-36]],[[33343,8994],[-45,79]],[[33298,9073],[22,38]],[[33320,9111],[18,-7],[18,-94],[-13,-16]],[[33298,9073],[-32,3]],[[33266,9076],[36,76]],[[33302,9152],[18,-41]],[[33167,9063],[50,5]],[[33217,9068],[9,-20]],[[33343,8994],[76,-124]],[[33217,9068],[49,8]],[[33244,9211],[22,-16],[27,-33]],[[33293,9162],[-90,-51]],[[33293,9162],[9,-10]],[[32366,7486],[18,-53]],[[32384,7433],[-140,0]],[[32244,7433],[23,71],[-82,145]],[[32185,7649],[82,46]],[[32267,7695],[27,-25]],[[32294,7670],[72,-184]],[[32780,8127],[4,92],[-49,23]],[[32735,8242],[99,28]],[[32834,8270],[113,-21]],[[32330,8229],[-41,89]],[[32289,8318],[104,58]],[[32393,8376],[36,-20]],[[32429,8356],[121,-43]],[[32550,8313],[-121,-71]],[[32429,8242],[-72,-46]],[[32357,8196],[-27,33]],[[32136,8054],[-126,99]],[[32010,8153],[94,-5]],[[32104,8148],[32,-94]],[[31690,8224],[-72,-3],[14,-147]],[[31632,8074],[-41,-74]],[[31591,8000],[-77,97]],[[31514,8097],[-90,89]],[[31424,8186],[27,68]],[[31451,8254],[72,102]],[[31523,8356],[63,-58]],[[31586,8298],[77,-5],[27,-69]],[[31830,7797],[-68,-143]],[[31762,7654],[-40,112]],[[31722,7766],[135,122]],[[31857,7888],[0,-51]],[[31857,7837],[-27,-40]],[[31987,8295],[-13,-74]],[[31974,8221],[-9,-17]],[[31965,8204],[-45,-36],[-68,84]],[[31852,8252],[14,71]],[[31866,8323],[54,5]],[[31920,8328],[67,-33]],[[32501,7980],[103,-193]],[[32604,7787],[-72,-46],[-31,71]],[[32501,7812],[-63,160]],[[32438,7972],[63,8]],[[32582,7728],[-72,-76]],[[32510,7652],[-36,-43]],[[32474,7609],[-68,68]],[[32406,7677],[95,135]],[[32604,7787],[9,5]],[[32424,8005],[-117,-40],[108,58]],[[32415,8023],[9,-18]],[[32424,8005],[14,-33]],[[32438,7972],[-185,-102]],[[32253,7870],[-117,133]],[[32136,8003],[0,51]],[[32136,8054],[112,71]],[[32248,8125],[100,63]],[[32348,8188],[36,-89]],[[32384,8099],[27,-58]],[[32411,8041],[4,-18]],[[31794,7433],[13,66]],[[31807,7499],[-31,122]],[[31776,7621],[274,-2]],[[32050,7619],[0,-8]],[[32050,7611],[-4,-165]],[[32046,7446],[-77,43],[-103,-76]],[[31866,7413],[-72,20]],[[31523,8356],[-45,23]],[[31600,8417],[50,26],[9,129]],[[31708,8562],[63,-30],[-9,-64]],[[31762,8468],[-117,-56]],[[31645,8412],[-59,-114]],[[32248,8125],[-13,107]],[[32235,8232],[95,-3]],[[32357,8196],[-9,-8]],[[32793,8509],[-22,33]],[[32771,8542],[9,140]],[[32780,8682],[9,63]],[[32555,8059],[-54,-79]],[[32411,8041],[67,53]],[[32478,8094],[77,-35]],[[32104,8148],[-9,28]],[[32095,8176],[-36,96]],[[32059,8272],[-4,79]],[[32055,8351],[94,-38],[-45,104],[36,18]],[[32140,8435],[95,-203]],[[32559,8315],[117,-307]],[[32690,7942],[-90,-77],[-45,194]],[[32478,8094],[-18,82]],[[32460,8176],[-31,66]],[[32550,8313],[9,2]],[[32384,8099],[76,77]],[[32406,7677],[-112,-7]],[[32267,7695],[-5,3]],[[32262,7698],[32,78],[-41,94]],[[32397,8979],[-85,-157]],[[32312,8822],[-122,-16]],[[32190,8806],[-90,-12]],[[32100,8794],[0,28]],[[32100,8822],[4,178]],[[32104,9000],[5,63]],[[31861,7888],[-4,74]],[[31857,7962],[162,41]],[[32019,8003],[4,-107]],[[32023,7896],[-162,-8]],[[32559,8315],[0,3]],[[32559,8318],[176,-76]],[[31884,8801],[4,-51]],[[31888,8750],[0,-5]],[[31888,8745],[-49,-51],[54,-35],[-5,-92]],[[31888,8567],[-9,-2]],[[31879,8565],[-58,-41],[9,-61]],[[31830,8463],[-68,5]],[[31731,8109],[13,26]],[[31744,8135],[108,117]],[[31965,8204],[0,-54]],[[31965,8150],[0,-10]],[[31965,8140],[-99,-69]],[[31866,8071],[-135,38]],[[32208,8511],[9,26]],[[32217,8537],[18,48]],[[32235,8585],[18,-20]],[[32253,8565],[99,28]],[[32352,8593],[-67,-100],[49,-81],[-72,-33]],[[32262,8379],[-54,132]],[[32131,8544],[-157,87]],[[31974,8631],[-32,84]],[[31942,8715],[158,79]],[[32190,8806],[4,-40]],[[32194,8766],[-76,-16],[4,-68],[113,-97]],[[32217,8537],[-86,7]],[[32194,8766],[59,-201]],[[32699,8420],[54,107]],[[32753,8527],[18,15]],[[32852,8422],[-153,-2]],[[32050,7710],[0,69]],[[32050,7779],[-27,117]],[[32019,8003],[13,25]],[[32032,8028],[104,-25]],[[32262,7698],[-212,12]],[[32609,7680],[-77,-51]],[[32532,7629],[-22,23]],[[31942,8715],[-54,30]],[[31888,8750],[95,21],[13,114],[104,-63]],[[31726,7972],[-13,-30]],[[31713,7942],[-140,-54]],[[31573,7888],[-27,84]],[[31546,7972],[45,28]],[[31632,8074],[99,25]],[[31731,8099],[-5,-127]],[[32393,8376],[-32,59],[41,-5]],[[32402,8430],[27,-74]],[[32140,8435],[68,76]],[[32262,8379],[27,-61]],[[32712,8875],[-49,163]],[[31974,8631],[-14,-41]],[[31960,8590],[-72,-23]],[[32032,8028],[-67,112]],[[31965,8150],[45,3]],[[32834,8270],[36,134]],[[31744,8135],[-49,74]],[[31695,8209],[58,124]],[[31753,8333],[113,-10]],[[31753,8333],[81,112]],[[31834,8445],[90,-15]],[[31924,8430],[-4,-102]],[[32352,8593],[68,30],[45,-61]],[[32465,8562],[36,-89]],[[32501,8473],[-95,79],[-4,-122]],[[32541,7509],[41,59],[-50,61]],[[32762,7553],[-122,-11],[-13,-53]],[[32627,7489],[-86,20]],[[31731,8099],[0,10]],[[31866,8071],[9,-48]],[[31875,8023],[-149,-51]],[[31451,8028],[-13,-13]],[[31438,8015],[-41,153]],[[31397,8168],[27,18]],[[31514,8097],[-63,-69]],[[32366,7486],[108,123]],[[32541,7509],[-85,-112]],[[32456,7397],[-72,36]],[[32312,8822],[220,-110]],[[32532,8712],[-103,-41],[36,-109]],[[31713,7776],[0,166]],[[31875,8023],[-18,-61]],[[31861,7888],[-4,0]],[[31722,7766],[-9,10]],[[31938,9096],[63,-99],[103,3]],[[31753,8333],[-108,79]],[[31830,8463],[4,-18]],[[31713,7776],[-108,49]],[[31605,7825],[-32,63]],[[31978,7738],[-148,59]],[[31857,7837],[90,-7],[31,-92]],[[32050,7619],[0,91]],[[32185,7649],[-54,-40]],[[32131,7609],[-81,2]],[[32131,7609],[18,-176]],[[32149,7433],[-103,8]],[[32046,7441],[0,5]],[[31690,8224],[5,-15]],[[32244,7433],[-95,0]],[[31546,7972],[-95,56]],[[32532,8712],[50,23]],[[32582,8735],[36,-81],[162,28]],[[32753,8527],[-104,50],[-94,-40],[-23,-79]],[[32532,8458],[-31,15]],[[32658,8829],[-76,-94]],[[31974,8221],[13,3],[9,0],[59,2]],[[32055,8226],[40,-50]],[[32699,8420],[-135,-51]],[[32564,8369],[-32,89]],[[32564,8369],[-5,-51]],[[32050,7779],[-72,-41]],[[31776,7621],[-9,8]],[[31767,7629],[-5,25]],[[31987,8295],[63,-23]],[[32050,8272],[5,-46]],[[32050,8272],[9,0]],[[32037,8458],[4,-26]],[[32041,8432],[-22,0]],[[32019,8432],[-5,6],[5,5],[9,25]],[[32028,8468],[9,-10]],[[32019,8432],[-50,6]],[[31969,8438],[27,78]],[[31996,8516],[32,-48]],[[32041,8432],[14,-63]],[[32055,8369],[-108,51]],[[31947,8420],[9,10]],[[31956,8430],[13,8]],[[31956,8430],[-77,135]],[[31960,8590],[36,-74]],[[32131,8544],[-94,-86]],[[31924,8430],[23,-10]],[[32055,8369],[0,-18]],[[33609,7336],[-37,-25],[9,48]],[[33581,7359],[73,10]],[[33654,7369],[-45,-33]],[[33784,7672],[-22,99]],[[33762,7771],[36,43],[63,-48]],[[33861,7766],[0,-5]],[[33861,7761],[13,-25]],[[33874,7736],[-40,-56]],[[33834,7680],[-41,-26]],[[33793,7654],[-9,18]],[[33924,8028],[-41,54],[-67,-41],[-41,91]],[[33780,8201],[85,-41],[36,-61],[23,-71]],[[33816,7024],[-32,2]],[[33784,7026],[-27,10]],[[33757,7036],[14,72],[81,2]],[[33852,7110],[-36,-86]],[[33771,6863],[-158,138]],[[33613,7001],[144,35]],[[33784,7026],[50,-43]],[[33834,6983],[-5,-76],[-85,7],[49,-12],[-22,-39]],[[33784,7672],[-112,18]],[[33672,7690],[-77,142]],[[33735,7873],[27,-102]],[[33735,7446],[22,74]],[[33757,7520],[9,7]],[[33766,7527],[9,-58]],[[33775,7469],[-40,-23]],[[33676,8120],[162,-204]],[[33838,7916],[45,-117]],[[33883,7799],[-22,-33]],[[33654,7372],[0,-3]],[[33581,7359],[-94,115]],[[33487,7474],[122,-28],[27,15],[121,59]],[[33735,7446],[-81,-74]],[[33487,7474],[-90,38]],[[33487,7710],[185,-20]],[[33793,7654],[50,-81]],[[33843,7573],[-77,-46]],[[33437,7235],[-108,140]],[[33609,7336],[90,-56]],[[33699,7280],[-131,-162]],[[33568,7118],[-131,117]],[[33816,7024],[18,-41]],[[33843,7237],[-41,92],[-148,43]],[[33775,7469],[95,-92]],[[33870,7377],[108,-97],[-45,-124]],[[33933,7156],[-90,81]],[[33924,7662],[-27,2]],[[33897,7664],[-63,16]],[[33874,7736],[50,-74]],[[33843,7237],[-99,-18],[-45,61]],[[33843,7573],[130,-130]],[[33973,7443],[-13,-132],[-90,66]],[[33838,7916],[104,64]],[[33942,7980],[27,-31],[0,-127]],[[33969,7822],[-86,-23]],[[33870,6955],[-18,109],[76,51],[-58,-160]],[[34153,7586],[23,23]],[[34176,7609],[27,-28],[-50,5]],[[33924,8028],[18,-48]],[[33595,7029],[-27,89]],[[33933,7156],[-81,-46]],[[33613,7001],[-18,28]],[[34045,7677],[-27,-38]],[[34018,7639],[-18,5]],[[34000,7644],[14,51]],[[34014,7695],[31,-18]],[[34072,7690],[-13,-79]],[[34059,7611],[-50,5]],[[34009,7616],[9,23]],[[34045,7677],[27,13]],[[34009,7616],[-22,-10]],[[33987,7606],[-59,-15]],[[33928,7591],[-31,73]],[[33924,7662],[76,-18]],[[33964,7588],[23,18]],[[34059,7611],[13,-8]],[[34072,7603],[-72,-96]],[[34000,7507],[-36,81]],[[33969,7822],[22,-97]],[[33991,7725],[-130,36]],[[34000,7705],[-76,-43]],[[33991,7725],[9,-20]],[[33964,7588],[-36,3]],[[34099,7527],[-27,76]],[[34072,7690],[81,-51],[23,-30]],[[34153,7586],[41,-23],[-95,-36]],[[34009,7479],[-9,28]],[[34099,7527],[-36,-13],[68,-20],[-45,-53],[-77,38]],[[34000,7705],[14,-10]],[[34009,7479],[-36,-36]],[[33978,7303],[-14,122],[90,-20],[-76,-102]],[[33055,6802],[-32,-40],[0,73]],[[33023,6835],[32,-33]],[[33149,6772],[-9,-122],[59,-76]],[[33199,6574],[-221,-41]],[[32978,6533],[-108,102],[27,137],[-54,-5]],[[32843,6767],[45,132]],[[32888,6899],[77,92]],[[32965,6991],[22,-26]],[[32987,6965],[36,-130]],[[33055,6802],[94,-30]],[[32965,6991],[-122,56],[-27,170]],[[32816,7217],[0,38]],[[32816,7255],[49,0]],[[32865,7255],[32,38]],[[32897,7293],[216,-157]],[[33113,7136],[5,-28]],[[33118,7108],[-45,25],[-23,-99]],[[33050,7034],[-63,-69]],[[32582,7118],[-14,-107]],[[32568,7011],[-130,43]],[[32438,7054],[90,201]],[[32528,7255],[49,-86]],[[32577,7169],[5,-51]],[[33230,7441],[-67,10],[-63,-94],[13,-196]],[[33113,7161],[0,-25]],[[32897,7293],[0,132],[72,-2],[0,132]],[[33266,7413],[-36,28]],[[33050,7034],[63,-82],[45,26]],[[33158,6978],[-22,-38],[85,-97]],[[33221,6843],[-72,-71]],[[33208,7141],[-9,-94]],[[33199,7047],[-41,-34]],[[33158,7013],[-40,95]],[[33113,7161],[72,-20]],[[33185,7141],[23,0]],[[32703,7253],[5,-51]],[[32708,7202],[-59,-69],[-72,36]],[[32528,7255],[-5,0]],[[32523,7255],[5,109]],[[32528,7364],[126,39]],[[32654,7403],[9,-56]],[[32663,7347],[-9,-94],[49,0]],[[33739,6604],[-49,41],[-14,145]],[[33676,6790],[63,-18]],[[33739,6772],[-31,-92],[31,-76]],[[33843,6785],[-41,-69],[-45,8],[23,160],[90,-21],[-27,-78]],[[33726,6602],[-81,96],[-127,20]],[[33518,6718],[-31,21]],[[33487,6739],[27,163]],[[33514,6902],[58,83]],[[33572,6985],[104,-195]],[[33739,6604],[-13,-2]],[[33572,6985],[18,34]],[[33590,7019],[5,10]],[[33771,6863],[-32,-91]],[[32816,7255],[-113,-2]],[[32663,7347],[121,35],[81,-127]],[[32739,7125],[-67,-45]],[[32672,7080],[-90,38]],[[32708,7202],[31,-77]],[[32640,6978],[-72,33]],[[32672,7080],[58,-102]],[[32730,6978],[-63,-41]],[[32667,6937],[-27,41]],[[33289,6350],[-108,-5]],[[33181,6345],[-207,15],[4,173]],[[33199,6574],[40,5]],[[33239,6579],[23,61],[90,-26]],[[33352,6614],[36,-142]],[[33388,6472],[-9,-84]],[[33379,6388],[-90,-38]],[[32654,7403],[31,30]],[[32685,7433],[117,74]],[[33257,6830],[-18,-251]],[[33221,6843],[41,0]],[[33262,6843],[-5,-13]],[[33262,6843],[54,33],[-27,61]],[[33289,6937],[63,41]],[[33352,6978],[9,25]],[[33361,7003],[130,-53],[99,69]],[[33514,6902],[-140,17],[18,-45]],[[33392,6874],[-135,-44]],[[32627,7489],[58,-56]],[[32528,7364],[-72,33]],[[33437,7235],[-112,-102],[36,-130]],[[33352,6978],[-14,132],[-40,-38],[-63,102]],[[33235,7174],[117,56],[-63,89],[27,50]],[[33699,6307],[-68,20],[14,79]],[[33645,6406],[31,0]],[[33676,6406],[23,-99]],[[33613,6398],[-41,-97]],[[33572,6301],[-45,3],[-148,84]],[[33388,6472],[58,15]],[[33446,6487],[167,-89]],[[32978,6134],[-18,246],[-41,0],[-31,163]],[[32888,6543],[-104,198]],[[32784,6741],[5,56],[54,-30]],[[33181,6345],[-45,-224]],[[33136,6121],[-158,13]],[[33158,7013],[0,-35]],[[32784,6741],[-4,11]],[[32780,6752],[-41,81],[72,10],[0,94]],[[32811,6937],[45,43],[32,-81]],[[33392,6874],[23,-143],[-41,-68]],[[33374,6663],[-22,-49]],[[32811,6937],[-81,41]],[[32739,7125],[77,92]],[[33185,7141],[45,300]],[[33235,7174],[-27,-33]],[[33199,7047],[49,0],[41,-110]],[[33735,6271],[-50,170],[81,99],[-31,-269]],[[33694,6281],[-54,-5],[-68,25]],[[33613,6398],[32,8]],[[33699,6307],[-5,-26]],[[33550,6518],[22,106],[-54,94]],[[33726,6602],[-45,-62]],[[33681,6540],[-131,-22]],[[33487,6739],[-27,-69],[-86,-7]],[[33550,6518],[-72,30],[-32,-61]],[[33681,6540],[36,-55],[-41,-79]],[[32352,6284],[-27,-100]],[[32325,6184],[-18,3],[-63,5]],[[32244,6192],[-99,122],[36,59]],[[32181,6373],[158,63]],[[32339,6436],[13,-152]],[[32181,6406],[13,48]],[[32194,6454],[91,25]],[[32285,6479],[54,-43]],[[32181,6373],[0,33]],[[32285,6479],[36,112]],[[32321,6591],[54,-2]],[[32375,6589],[9,-38],[0,-36],[36,-2]],[[32420,6513],[-27,-31]],[[32393,6482],[-54,-46]],[[32393,6482],[-14,-61]],[[32379,6421],[41,-125],[-68,-12]],[[32154,6596],[-77,49]],[[32077,6645],[23,79]],[[32100,6724],[0,5]],[[32100,6729],[90,-5],[9,63]],[[32199,6787],[63,-25]],[[32262,6762],[14,-74]],[[32276,6688],[18,-97]],[[32294,6591],[-140,5]],[[32411,7049],[67,-168]],[[32478,6881],[-180,33]],[[32298,6914],[5,138]],[[32303,7052],[108,-3]],[[32780,6752],[-86,2]],[[32694,6754],[23,69],[-50,114]],[[32154,6596],[27,-129]],[[32181,6467],[-50,79],[-81,2]],[[32050,6548],[5,51]],[[32055,6599],[22,46]],[[31947,6398],[-5,-186]],[[31942,6212],[-103,8]],[[31839,6220],[-23,81]],[[31816,6301],[68,54],[-23,102]],[[31861,6457],[86,-59]],[[32005,6393],[54,-92],[-36,-94]],[[32023,6207],[-63,5],[-18,0]],[[31947,6398],[58,-5]],[[32690,6490],[-45,-94]],[[32645,6396],[-99,33]],[[32546,6429],[0,180]],[[32546,6609],[139,-18],[5,-101]],[[32978,6134],[-31,2],[-100,8]],[[32847,6144],[0,119],[-153,26],[-49,107]],[[32690,6490],[139,-31],[59,84]],[[32294,6591],[27,0]],[[32194,6454],[-13,13]],[[32546,6609],[0,145]],[[32546,6754],[4,-2]],[[32550,6752],[144,2]],[[32375,6589],[22,107]],[[32397,6696],[99,17]],[[32496,6713],[-4,-203]],[[32492,6510],[-72,3]],[[32379,6421],[131,-13]],[[32510,6408],[4,0]],[[32514,6408],[-9,-236]],[[32505,6172],[-22,2],[-158,10]],[[32199,6787],[-72,10]],[[32127,6797],[-5,102]],[[32122,6899],[63,23]],[[32185,6922],[72,-99]],[[32257,6823],[5,-61]],[[32181,6406],[-131,38]],[[32050,6444],[0,104]],[[32397,6696],[-121,-8]],[[32257,6823],[41,91]],[[32478,6881],[9,-129]],[[32487,6752],[9,-39]],[[32492,6510],[18,-102]],[[32550,6752],[-13,200],[103,26]],[[32005,6393],[45,51]],[[32244,6192],[-23,3],[-103,7],[-95,5]],[[33289,6350],[0,-277],[-23,-163],[-67,0],[-59,61],[-4,150]],[[32100,6729],[27,68]],[[32847,6144],[-81,7],[-261,21]],[[32514,6408],[32,21]],[[32487,6752],[59,2]],[[32411,7049],[27,5]],[[31636,7115],[-40,-15],[13,104]],[[31609,7204],[32,-23]],[[31641,7181],[-5,-66]],[[31839,6907],[-108,0]],[[31731,6907],[-9,15]],[[31722,6922],[-27,99],[-59,-5]],[[31636,7016],[0,99]],[[31641,7181],[90,51]],[[31731,7232],[27,-28]],[[31758,7204],[-9,-127],[58,-38],[-45,-76],[153,-18]],[[31915,6945],[54,-46]],[[31969,6899],[-4,-8]],[[31965,6891],[-126,16]],[[31411,7011],[-18,191]],[[31393,7202],[126,0]],[[31519,7202],[90,2]],[[31636,7016],[-63,-86]],[[31573,6930],[0,81],[-162,0]],[[31690,7619],[-67,-41],[45,-76]],[[31668,7502],[-131,15]],[[31537,7517],[-45,242]],[[31492,7759],[108,25]],[[31600,7784],[-9,-71],[86,-15],[13,-79]],[[31704,7624],[-14,-5]],[[31600,7784],[5,41]],[[31767,7629],[-18,-3]],[[31749,7626],[-45,-2]],[[32046,7390],[-144,-41]],[[31902,7349],[-36,64]],[[32046,7441],[0,-51]],[[31208,7092],[18,-84]],[[31226,7008],[-94,3]],[[31132,7011],[-27,66]],[[31105,7077],[9,20]],[[31114,7097],[94,-5]],[[32073,7306],[-63,-84],[36,-46]],[[32046,7176],[-27,-35]],[[32019,7141],[-108,61]],[[31911,7202],[-9,10]],[[31902,7212],[-32,48]],[[31870,7260],[32,89]],[[32046,7390],[27,-84]],[[31447,6294],[0,-49]],[[31447,6245],[-68,3],[-49,5]],[[31330,6253],[-41,56],[77,43]],[[31366,6352],[81,-20]],[[31447,6332],[0,-38]],[[31722,6922],[-154,2]],[[31568,6924],[5,6]],[[31073,6268],[0,44]],[[31073,6312],[90,28],[72,269]],[[31235,6609],[86,36]],[[31321,6645],[27,0]],[[31348,6645],[76,0]],[[31424,6645],[-4,-130]],[[31420,6515],[-72,-10],[18,-153]],[[31330,6253],[-149,8],[-108,7]],[[31028,6825],[-140,31]],[[30888,6856],[41,236],[0,3]],[[30929,7095],[14,0]],[[30943,7095],[162,-18]],[[31132,7011],[-41,-23],[41,-165]],[[31132,6823],[-104,2]],[[30943,7095],[72,23],[-5,81]],[[31010,7199],[99,0]],[[31109,7199],[5,-102]],[[31073,6312],[72,96]],[[31145,6408],[32,227]],[[31177,6635],[58,-26]],[[31519,7342],[-90,48],[76,66]],[[31505,7456],[32,-38]],[[31537,7418],[-18,-76]],[[31447,6294],[112,107],[-58,76],[40,145]],[[31541,6622],[82,-64],[31,61]],[[31654,6619],[0,-48]],[[31654,6571],[-31,-38],[63,-66]],[[31686,6467],[-72,-191],[-91,-36]],[[31523,6240],[-76,5]],[[31474,6645],[-50,0]],[[31348,6645],[130,229],[90,50]],[[31731,6907],[13,-49]],[[31744,6858],[-72,13],[0,-102]],[[31672,6769],[-144,-40],[-54,-84]],[[32181,7133],[-113,-38],[18,81]],[[32086,7176],[54,54]],[[32140,7230],[59,-23],[-18,-74]],[[31420,6515],[27,-183]],[[31807,7499],[-76,3]],[[31731,7502],[18,124]],[[31010,7199],[-13,120]],[[30997,7319],[139,-120]],[[31136,7199],[-27,0]],[[31177,6635],[-68,-8]],[[31109,6627],[-81,114]],[[31028,6741],[0,84]],[[31132,6823],[112,7]],[[31244,6830],[81,-5],[-4,-180]],[[31902,6604],[-23,-94]],[[31879,6510],[-94,5]],[[31785,6515],[13,92],[-58,2]],[[31740,6609],[0,13]],[[31740,6622],[85,43],[77,-61]],[[30997,7319],[0,43]],[[30997,7362],[72,23],[-32,20]],[[31037,7405],[0,107]],[[31037,7512],[126,-3]],[[31163,7509],[72,0]],[[31235,7509],[41,-2]],[[31276,7507],[0,-43]],[[31276,7464],[-86,-51],[23,-214]],[[31213,7199],[-77,0]],[[31226,7008],[23,0]],[[31249,7008],[-5,-178]],[[31519,7342],[0,-140]],[[31393,7202],[-72,0]],[[31321,7202],[-45,262]],[[31276,7507],[9,0],[108,5],[4,46]],[[31397,7558],[86,-97]],[[31483,7461],[22,-5]],[[31731,7502],[-18,0]],[[31713,7502],[-9,122]],[[31839,6907],[-41,-102]],[[31798,6805],[-54,8]],[[31744,6813],[0,45]],[[31073,6268],[-49,130],[-59,165],[-22,79]],[[30943,6642],[81,-5],[4,104]],[[31109,6627],[36,-219]],[[31213,7199],[-5,-107]],[[32185,6922],[77,130]],[[32262,7052],[41,0]],[[32523,7255],[-139,-48]],[[32384,7207],[-104,56]],[[32280,7263],[-23,91],[-31,-51],[-54,39]],[[32172,7342],[-23,91]],[[30929,7095],[-63,252],[-9,17]],[[30857,7364],[140,-2]],[[31037,7405],[-171,59]],[[30866,7464],[45,117]],[[30911,7581],[126,-69]],[[31798,6805],[-9,-109],[-49,-18]],[[31740,6678],[4,135]],[[31816,6301],[-67,189]],[[31749,6490],[36,25]],[[31879,6510],[-18,-53]],[[32140,7230],[9,48]],[[32149,7278],[23,64]],[[32280,7263],[-86,-130]],[[32194,7133],[-13,0]],[[30943,6642],[-64,117],[9,97]],[[31303,7008],[18,194]],[[31411,7011],[-108,-3]],[[31537,7418],[99,-59],[41,143]],[[31677,7502],[36,0]],[[31794,7433],[-18,-13]],[[31776,7420],[-23,-66]],[[31753,7354],[-22,-122]],[[31677,7502],[-9,0]],[[31654,6619],[86,23]],[[31740,6642],[0,-20]],[[31740,6609],[-86,-38]],[[31213,7199],[108,3]],[[31303,7008],[-54,0]],[[30857,7364],[9,100]],[[31740,6642],[-5,36]],[[31735,6678],[5,0]],[[31965,6891],[-23,-117],[158,-50]],[[32055,6599],[-153,5]],[[31969,6899],[32,5]],[[32001,6904],[121,-5]],[[31776,7420],[36,-185],[-59,119]],[[31749,6490],[-63,-23]],[[32262,7052],[-68,81]],[[32384,7207],[27,-158]],[[32001,6904],[13,59]],[[32014,6963],[108,-64]],[[31541,6622],[-67,23]],[[31672,6769],[63,-91]],[[31537,7517],[-32,46],[-22,-102]],[[31397,7558],[14,170]],[[31411,7728],[0,33]],[[31411,7761],[81,-2]],[[31924,7034],[-22,178]],[[31911,7202],[13,-168]],[[32149,7278],[-76,28]],[[31915,6945],[54,71],[-45,18]],[[32019,7141],[0,-8]],[[32019,7133],[-63,-175],[58,5]],[[32086,7176],[-40,0]],[[31758,7204],[112,56]],[[31839,6220],[-99,8],[-68,5],[-149,7]],[[32014,6963],[68,50],[-63,120]],[[31330,8153],[-81,-13]],[[31249,8140],[-45,-18]],[[31204,8122],[0,18]],[[31204,8140],[-9,48]],[[31195,8188],[9,66]],[[31204,8254],[139,-45]],[[31343,8209],[-13,-56]],[[31438,8015],[-27,-254]],[[31411,7728],[-171,102]],[[31240,7830],[-9,0]],[[31231,7830],[0,76]],[[31231,7906],[18,234]],[[31330,8153],[67,15]],[[31096,8242],[-59,-41]],[[31037,8201],[-36,81]],[[31001,8282],[131,44]],[[31132,8326],[-14,-36]],[[31118,8290],[-22,-48]],[[31024,7827],[27,28]],[[31051,7855],[76,-2],[0,94],[104,-41]],[[31231,7830],[-68,-3]],[[31163,7827],[-139,0]],[[31145,8219],[-49,23]],[[31118,8290],[27,-71]],[[31006,8183],[-104,31]],[[30902,8214],[-14,28],[5,28]],[[30893,8270],[108,12]],[[31037,8201],[-9,-23]],[[31028,8178],[-22,5]],[[30893,8270],[-18,25],[-5,33]],[[30870,8328],[82,28],[-5,51]],[[30947,8407],[131,15]],[[31078,8422],[-9,-51],[72,31]],[[31141,8402],[0,-48]],[[31141,8354],[-9,-28]],[[31343,8209],[-4,43],[112,2]],[[31159,7736],[4,-227]],[[30911,7581],[9,73],[5,8]],[[30925,7662],[180,-10],[-5,99],[59,-15]],[[31217,8455],[23,92]],[[31348,8496],[-131,-41]],[[31159,8188],[0,-35]],[[31159,8153],[-95,-8]],[[31064,8145],[-36,33]],[[31145,8219],[14,-31]],[[30925,7662],[72,152],[13,0],[14,13]],[[31163,7827],[-4,-91]],[[31114,8453],[-36,-31]],[[30947,8407],[0,109]],[[31073,8560],[0,-74],[81,-28]],[[31154,8458],[-40,-5]],[[31114,8453],[27,-51]],[[31397,7558],[-153,66]],[[31244,7624],[-4,206]],[[31244,7624],[-9,-115]],[[31154,8458],[45,-3]],[[31199,8455],[72,-84],[-67,-22]],[[31204,8349],[-63,5]],[[31204,8254],[-5,56]],[[31199,8310],[234,112]],[[31204,8140],[-45,13]],[[31159,8188],[36,0]],[[31217,8455],[-18,0]],[[31204,8349],[-5,-39]],[[30870,8328],[-45,140],[-9,36]],[[30992,8036],[-22,20],[0,31]],[[30970,8087],[27,12]],[[30997,8099],[-5,-40]],[[30992,8059],[0,-23]],[[30988,7977],[-9,16],[13,43]],[[30992,8059],[32,-28]],[[31024,8031],[9,-8]],[[31033,8023],[-45,-46]],[[31006,8107],[-9,-8]],[[30970,8087],[-18,48],[-50,79]],[[31006,8183],[0,-76]],[[31051,7855],[-90,69],[27,53]],[[31033,8023],[112,0],[59,99]],[[31006,8107],[18,-76]],[[31006,8107],[58,38]]]}