{"type":"Topology","transform":{"scale":[0.0012831345112129487,0.0009745357309423489],"translate":[-124.73273099999999,24.60334863324381]},"objects":{"area":{"type":"GeometryCollection","geometries":[{"arcs":[[0,1,2,3,4]],"type":"Polygon","properties":{"state":"ID","name":"SNAKE RIV BIRDS OF PREY","zip":"00056"}},{"arcs":[[5,6,7]],"type":"Polygon","properties":{"state":"ID","name":"YELOWSTONE","zip":"00078"}},{"arcs":[[8,9,10,11]],"type":"Polygon","properties":{"state":"ID","name":"POCATELLO","zip":"83201"}},{"arcs":[[12,13,14,15,-11]],"type":"Polygon","properties":{"state":"ID","name":"POCATELLO","zip":"83202"}},{"arcs":[[16,-12,-16,17,18]],"type":"Polygon","properties":{"state":"ID","name":"FORT HALL","zip":"83203"}},{"arcs":[[19,20,-13,-10,21,22,23,24]],"type":"Polygon","properties":{"state":"ID","name":"POCATELLO","zip":"83204"}},{"arcs":[[25,26,27,28,29]],"type":"Polygon","properties":{"state":"ID","name":"ABERDEEN","zip":"83210"}},{"arcs":[[30,-26,31,-20,32,33,34]],"type":"Polygon","properties":{"state":"ID","name":"AMERICAN FALLS","zip":"83211"}},{"arcs":[[35,36,37,-24,38,39]],"type":"Polygon","properties":{"state":"ID","name":"ARBON","zip":"83212"}},{"arcs":[[40,41,42,43]],"type":"Polygon","properties":{"state":"ID","name":"ARCO","zip":"83213"}},{"arcs":[[44,45,-40,46,47]],"type":"Polygon","properties":{"state":"ID","name":"ARIMO","zip":"83214"}},{"arcs":[[48,49,-19,50,51,52,53]],"type":"Polygon","properties":{"state":"ID","name":"BANCROFT","zip":"83217"}},{"arcs":[[54,-41,55,56,57,58,59,60,61,62,63,-28]],"type":"Polygon","properties":{"state":"ID","name":"BLACKFOOT","zip":"83221"}},{"arcs":[[64,65,66,67,68,69,70,71]],"type":"Polygon","properties":{"state":"ID","name":"CHALLIS","zip":"83226"}},{"arcs":[[72,73,74,75]],"type":"Polygon","properties":{"state":"ID","name":"CLIFTON","zip":"83228"}},{"arcs":[[76]],"type":"Polygon","properties":{"state":"ID","name":"CONDA","zip":"83230"}},{"arcs":[[77,78,79,-76]],"type":"Polygon","properties":{"state":"ID","name":"DAYTON","zip":"83232"}},{"arcs":[[80,-45,81,82,83,-74]],"type":"Polygon","properties":{"state":"ID","name":"DOWNEY","zip":"83234"}},{"arcs":[[84,-70,85,86]],"type":"Polygon","properties":{"state":"ID","name":"ELLIS","zip":"83235"}},{"arcs":[[[87,88,-60]],[[-18,-15,89,-62,90,91,92,-51]]],"type":"MultiPolygon","properties":{"state":"ID","name":"FIRTH","zip":"83236"}},{"arcs":[[93,94,95]],"type":"Polygon","properties":{"state":"ID","name":"FRANKLIN","zip":"83237"}},{"arcs":[[96,97]],"type":"Polygon","properties":{"state":"ID","name":"GENEVA","zip":"83238"}},{"arcs":[[98,99,-83,100,-53,101,102,103]],"type":"Polygon","properties":{"state":"ID","name":"GRACE","zip":"83241"}},{"arcs":[[104,105,-37,106]],"type":"Polygon","properties":{"state":"ID","name":"HOLBROOK","zip":"83243"}},{"arcs":[[107,-22,-9,-17,-50]],"type":"Polygon","properties":{"state":"ID","name":"INKOM","zip":"83245"}},{"arcs":[[108,-54,-101,-82,-48]],"type":"Polygon","properties":{"state":"ID","name":"LAVA HOT SPRINGS","zip":"83246"}},{"arcs":[[-109,-47,-39,-23,-108,-49]],"type":"Polygon","properties":{"state":"ID","name":"MCCAMMON","zip":"83250"}},{"arcs":[[109,110,-66,111,-43,112]],"type":"Polygon","properties":{"state":"ID","name":"MACKAY","zip":"83251"}},{"arcs":[[113,-107,-36,-46,-81,-73,-80,114,115]],"type":"Polygon","properties":{"state":"ID","name":"MALAD CITY","zip":"83252"}},{"arcs":[[116,-71,-85,117]],"type":"Polygon","properties":{"state":"ID","name":"MAY","zip":"83253"}},{"arcs":[[118,119,-103,120,121,-97,122,123,124]],"type":"Polygon","properties":{"state":"ID","name":"MONTPELIER","zip":"83254"}},{"arcs":[[125,-56,-44,-112,-65,126,127,128]],"type":"Polygon","properties":{"state":"ID","name":"MOORE","zip":"83255"}},{"arcs":[[129,130,-119,131]],"type":"Polygon","properties":{"state":"ID","name":"PARIS","zip":"83261"}},{"arcs":[[-29,-64,132]],"type":"Polygon","properties":{"state":"ID","name":"PINGREE","zip":"83262"}},{"arcs":[[133,-95,134,135,-78,-75,-84,-100,136,-104,-120,-131]],"type":"Polygon","properties":{"state":"ID","name":"PRESTON","zip":"83263"}},{"arcs":[[137,-33,-25,-38,-106]],"type":"Polygon","properties":{"state":"ID","name":"ROCKLAND","zip":"83271"}},{"arcs":[[138,-134,-130,139,-124,140]],"type":"Polygon","properties":{"state":"ID","name":"SAINT CHARLES","zip":"83272"}},{"arcs":[[[141,142,-88,-59]],[[143,144,145,146,147,148,149,-92,150]]],"type":"MultiPolygon","properties":{"state":"ID","name":"SHELLEY","zip":"83274"}},{"arcs":[[-52,-93,-150,151,152,-121,-102],[-77]],"type":"Polygon","properties":{"state":"ID","name":"SODA SPRINGS","zip":"83276"}},{"arcs":[[153,154,155,156,157,-68,158,159]],"type":"Polygon","properties":{"state":"ID","name":"STANLEY","zip":"83278"}},{"arcs":[[-99,-137]],"type":"Polygon","properties":{"state":"ID","name":"THATCHER","zip":"83283"}},{"arcs":[[160,161,-152,-149]],"type":"Polygon","properties":{"state":"ID","name":"WAYAN","zip":"83285"}},{"arcs":[[162,-115,-79,-136]],"type":"Polygon","properties":{"state":"ID","name":"WESTON","zip":"83286"}},{"arcs":[[-139,163,-96]],"type":"Polygon","properties":{"state":"ID","name":"FISH HAVEN","zip":"83287"}},{"arcs":[[164,165,166,167,168,169,170,171,172,173,174],[175]],"type":"Polygon","properties":{"state":"ID","name":"TWIN FALLS","zip":"83301"}},{"arcs":[[-176]],"type":"Polygon","properties":{"state":"ID","name":"ROGERSON","zip":"83302"}},{"arcs":[[176,177,178,179,180,181]],"type":"Polygon","properties":{"state":"ID","name":"BELLEVUE","zip":"83313"}},{"arcs":[[182,183,184,185,186,187,188,189]],"type":"Polygon","properties":{"state":"ID","name":"BLISS","zip":"83314"}},{"arcs":[[190,-169,191,192,193,194,195,196,-171]],"type":"Polygon","properties":{"state":"ID","name":"BUHL","zip":"83316"}},{"arcs":[[197,198,199,200,201]],"type":"Polygon","properties":{"state":"ID","name":"BURLEY","zip":"83318"}},{"arcs":[[202,203,204,-181,205,-113,-42,-55,-27,-31,206,207]],"type":"Polygon","properties":{"state":"ID","name":"CAREY","zip":"83320"}},{"arcs":[[-191,-170]],"type":"Polygon","properties":{"state":"ID","name":"CASTLEFORD","zip":"83321"}},{"arcs":[[208,-185,209,210]],"type":"Polygon","properties":{"state":"ID","name":"CORRAL","zip":"83322"}},{"arcs":[[211,-202,212]],"type":"Polygon","properties":{"state":"ID","name":"DECLO","zip":"83323"}},{"arcs":[[213,214]],"type":"Polygon","properties":{"state":"ID","name":"DIETRICH","zip":"83324"}},{"arcs":[[215,216,217,218,219,220]],"type":"Polygon","properties":{"state":"ID","name":"EDEN","zip":"83325"}},{"arcs":[[221,-186,-209,222,223,224,-179]],"type":"Polygon","properties":{"state":"ID","name":"FAIRFIELD","zip":"83327"}},{"arcs":[[-197,225,-172]],"type":"Polygon","properties":{"state":"ID","name":"FILER","zip":"83328"}},{"arcs":[[226,227,228,-188,229]],"type":"Polygon","properties":{"state":"ID","name":"GOODING","zip":"83330"}},{"arcs":[[[-195,230]],[[-189,-229,231,232]]],"type":"MultiPolygon","properties":{"state":"ID","name":"HAGERMAN","zip":"83332"}},{"arcs":[[233,-110,-206,-180,-225]],"type":"Polygon","properties":{"state":"ID","name":"HAILEY","zip":"83333"}},{"arcs":[[234,-216,235,236,-165]],"type":"Polygon","properties":{"state":"ID","name":"HANSEN","zip":"83334"}},{"arcs":[[237,-220,238,239,240,241]],"type":"Polygon","properties":{"state":"ID","name":"HAZELTON","zip":"83335"}},{"arcs":[[-241,242,243,244]],"type":"Polygon","properties":{"state":"ID","name":"HEYBURN","zip":"83336"}},{"arcs":[[245,-227,246,247,-239,-219,248,249]],"type":"Polygon","properties":{"state":"ID","name":"JEROME","zip":"83338"}},{"arcs":[[-234,-224,250,-159,-67,-111]],"type":"Polygon","properties":{"state":"ID","name":"KETCHUM","zip":"83340"}},{"arcs":[[-175,251,-217,-235]],"type":"Polygon","properties":{"state":"ID","name":"KIMBERLY","zip":"83341"}},{"arcs":[[252,253,-198,-212,254,-34,-138,-105,-114]],"type":"Polygon","properties":{"state":"ID","name":"MALTA","zip":"83342"}},{"arcs":[[255,256,257,-203,258]],"type":"Polygon","properties":{"state":"ID","name":"MINIDOKA","zip":"83343"}},{"arcs":[[-200,259,-236,-221,-238,260]],"type":"Polygon","properties":{"state":"ID","name":"MURTAUGH","zip":"83344"}},{"arcs":[[-237,-260,-199,-254,261,-166]],"type":"Polygon","properties":{"state":"ID","name":"OAKLEY","zip":"83346"}},{"arcs":[[262,-243,-240,-248,263,-256]],"type":"Polygon","properties":{"state":"ID","name":"PAUL","zip":"83347"}},{"arcs":[[264,-182,-205]],"type":"Polygon","properties":{"state":"ID","name":"PICABO","zip":"83348"}},{"arcs":[[265,-177,-265,-204,-258,266,-215]],"type":"Polygon","properties":{"state":"ID","name":"RICHFIELD","zip":"83349"}},{"arcs":[[-244,-263,-259,-208,267]],"type":"Polygon","properties":{"state":"ID","name":"RUPERT","zip":"83350"}},{"arcs":[[-267,-257,-264,-247,-230,-187,-222,-178,-266,-214]],"type":"Polygon","properties":{"state":"ID","name":"SHOSHONE","zip":"83352"}},{"arcs":[[-232,-228,-246,268]],"type":"Polygon","properties":{"state":"ID","name":"WENDELL","zip":"83355"}},{"arcs":[[[269,270,271,272,273,274,275,-147,276]],[[277,278,279,280,281,282]]],"type":"MultiPolygon","properties":{"state":"ID","name":"IDAHO FALLS","zip":"83401"}},{"arcs":[[[283,284,285,-142,-58]],[[286,-144,287,-271]]],"type":"MultiPolygon","properties":{"state":"ID","name":"IDAHO FALLS","zip":"83402"}},{"arcs":[[288,-145,-287,-270]],"type":"Polygon","properties":{"state":"ID","name":"IDAHO FALLS","zip":"83404"}},{"arcs":[[-277,-146,-289]],"type":"Polygon","properties":{"state":"ID","name":"IDAHO FALLS","zip":"83406"}},{"arcs":[[289,290,291,292,-6,293]],"type":"Polygon","properties":{"state":"ID","name":"ASHTON","zip":"83420"}},{"arcs":[[294,-278,295,296,297]],"type":"Polygon","properties":{"state":"ID","name":"DRIGGS","zip":"83422"}},{"arcs":[[298,299,-128,300,301,302]],"type":"Polygon","properties":{"state":"ID","name":"DUBOIS","zip":"83423"}},{"arcs":[[303,304,305,306,307]],"type":"Polygon","properties":{"state":"ID","name":"HAMER","zip":"83425"}},{"arcs":[[308,309,310]],"type":"Polygon","properties":{"state":"ID","name":"LEWISVILLE","zip":"83431"}},{"arcs":[[[311,312,313]],[[314,-311,315]]],"type":"MultiPolygon","properties":{"state":"ID","name":"MENAN","zip":"83434"}},{"arcs":[[316,-129,-300]],"type":"Polygon","properties":{"state":"ID","name":"MONTEVIEW","zip":"83435"}},{"arcs":[[317,318,319,-292,320]],"type":"Polygon","properties":{"state":"ID","name":"NEWDALE","zip":"83436"}},{"arcs":[[-313,321,-304,322,323,-321,-291,324,-296,-283,325,326,327]],"type":"Polygon","properties":{"state":"ID","name":"REXBURG","zip":"83440"}},{"arcs":[[-309,-315,328,-327,329,-273,330]],"type":"Polygon","properties":{"state":"ID","name":"RIGBY","zip":"83442"}},{"arcs":[[-274,-330,-326,-282,331]],"type":"Polygon","properties":{"state":"ID","name":"RIRIE","zip":"83443"}},{"arcs":[[-285,332,-305,-322,-312,333]],"type":"Polygon","properties":{"state":"ID","name":"ROBERTS","zip":"83444"}},{"arcs":[[-308,334,335,-7,-293,-320,336,337,-323]],"type":"Polygon","properties":{"state":"ID","name":"SAINT ANTHONY","zip":"83445"}},{"arcs":[[-307,-303,338,-335]],"type":"Polygon","properties":{"state":"ID","name":"SPENCER","zip":"83446"}},{"arcs":[[339,-318,-324,-338]],"type":"Polygon","properties":{"state":"ID","name":"SUGAR CITY","zip":"83448"}},{"arcs":[[-276,340,-280,341,342,-161,-148],[343]],"type":"Polygon","properties":{"state":"ID","name":"SWAN VALLEY","zip":"83449"}},{"arcs":[[-57,-126,-317,-299,-306,-333,-284]],"type":"Polygon","properties":{"state":"ID","name":"TERRETON","zip":"83450"}},{"arcs":[[-337,-319,-340]],"type":"Polygon","properties":{"state":"ID","name":"TETON","zip":"83451"}},{"arcs":[[344,-297,-325,-290]],"type":"Polygon","properties":{"state":"ID","name":"TETONIA","zip":"83452"}},{"arcs":[[345,-342,-279,-295]],"type":"Polygon","properties":{"state":"ID","name":"VICTOR","zip":"83455"}},{"arcs":[[346,347,348,349]],"type":"Polygon","properties":{"state":"ID","name":"CARMEN","zip":"83462"}},{"arcs":[[350,351,352]],"type":"Polygon","properties":{"state":"ID","name":"GIBBONSVILLE","zip":"83463"}},{"arcs":[[-72,-117,353,354,-301,-127]],"type":"Polygon","properties":{"state":"ID","name":"LEADORE","zip":"83464"}},{"arcs":[[355,-353,356,-348]],"type":"Polygon","properties":{"state":"ID","name":"NORTH FORK","zip":"83466"}},{"arcs":[[357,-354,-118,-87,358,-350]],"type":"Polygon","properties":{"state":"ID","name":"SALMON","zip":"83467"}},{"arcs":[[-69,-158,359,360,361,362,-351,-356,-347,-359,-86]],"type":"Polygon","properties":{"state":"ID","name":"SHOUP","zip":"83469"}},{"arcs":[[363,364,365,366,367,368,369]],"type":"Polygon","properties":{"state":"ID","name":"LEWISTON","zip":"83501"}},{"arcs":[[370,371,372,373,374,375,376,-365]],"type":"Polygon","properties":{"state":"ID","name":"COTTONWOOD","zip":"83522"}},{"arcs":[[377,-371,-364,378,379,380,381,382,383]],"type":"Polygon","properties":{"state":"ID","name":"CRAIGMONT","zip":"83523"}},{"arcs":[[384,385,-370,386,387,388,-381]],"type":"Polygon","properties":{"state":"ID","name":"CULDESAC","zip":"83524"}},{"arcs":[[389,390,391,392,393,394,395,396,-362]],"type":"Polygon","properties":{"state":"ID","name":"ELK CITY","zip":"83525"}},{"arcs":[[-378,397,398,-372]],"type":"Polygon","properties":{"state":"ID","name":"FERDINAND","zip":"83526"}},{"arcs":[[399,-375,400,401,-394]],"type":"Polygon","properties":{"state":"ID","name":"GRANGEVILLE","zip":"83530"}},{"arcs":[[402,-373,-399,403]],"type":"Polygon","properties":{"state":"ID","name":"GREENCREEK","zip":"83533"}},{"arcs":[[404,405,-368,406,407,408,409]],"type":"Polygon","properties":{"state":"ID","name":"JULIAETTA","zip":"83535"}},{"arcs":[[-403,410,411,412,413,-401,-374]],"type":"Polygon","properties":{"state":"ID","name":"KAMIAH","zip":"83536"}},{"arcs":[[414,-410,415,416,417]],"type":"Polygon","properties":{"state":"ID","name":"KENDRICK","zip":"83537"}},{"arcs":[[418,419,420,-395,-402,-414]],"type":"Polygon","properties":{"state":"ID","name":"KOOSKIA","zip":"83539"}},{"arcs":[[-406,421,-387,-369]],"type":"Polygon","properties":{"state":"ID","name":"LAPWAI","zip":"83540"}},{"arcs":[[-415,422,423,424,-388,-422,-405]],"type":"Polygon","properties":{"state":"ID","name":"LENORE","zip":"83541"}},{"arcs":[[425,426,427,-392]],"type":"Polygon","properties":{"state":"ID","name":"LUCILE","zip":"83542"}},{"arcs":[[-398,-384,428,-411,-404]],"type":"Polygon","properties":{"state":"ID","name":"NEZPERCE","zip":"83543"}},{"arcs":[[429,430,-412,-429,-383,431,-424,432,433,434,435,-396,-421]],"type":"Polygon","properties":{"state":"ID","name":"OROFINO","zip":"83544"}},{"arcs":[[-389,-425,-432,-382]],"type":"Polygon","properties":{"state":"ID","name":"PECK","zip":"83545"}},{"arcs":[[436,-430,-420]],"type":"Polygon","properties":{"state":"ID","name":"PIERCE","zip":"83546"}},{"arcs":[[437,438]],"type":"Polygon","properties":{"state":"ID","name":"POLLOCK","zip":"83547"}},{"arcs":[[439,-385,-380]],"type":"Polygon","properties":{"state":"ID","name":"REUBENS","zip":"83548"}},{"arcs":[[440,441,-439,442,443,-426,-391]],"type":"Polygon","properties":{"state":"ID","name":"RIGGINS","zip":"83549"}},{"arcs":[[-431,-437,-419,-413]],"type":"Polygon","properties":{"state":"ID","name":"WEIPPE","zip":"83553"}},{"arcs":[[-428,444,-376,-400,-393]],"type":"Polygon","properties":{"state":"ID","name":"WHITE BIRD","zip":"83554"}},{"arcs":[[-386,-440,-379]],"type":"Polygon","properties":{"state":"ID","name":"WINCHESTER","zip":"83555"}},{"arcs":[[445,446,447,-160,-251,-223,-211,448]],"type":"Polygon","properties":{"state":"ID","name":"ATLANTA","zip":"83601"}},{"arcs":[[449,450,451]],"type":"Polygon","properties":{"state":"ID","name":"BANKS","zip":"83602"}},{"arcs":[[452,453,454,-192,-168,455]],"type":"Polygon","properties":{"state":"ID","name":"BRUNEAU","zip":"83604"}},{"arcs":[[456,457,458]],"type":"Polygon","properties":{"state":"ID","name":"CALDWELL","zip":"83605"}},{"arcs":[[459,460,461,462,463,464,465,466,467,468,469,-457]],"type":"Polygon","properties":{"state":"ID","name":"CALDWELL","zip":"83607"}},{"arcs":[[470,471,472,473,474,475]],"type":"Polygon","properties":{"state":"ID","name":"CAMBRIDGE","zip":"83610"}},{"arcs":[[476,-451,477,478,479,480,481,482,-156,483]],"type":"Polygon","properties":{"state":"ID","name":"CASCADE","zip":"83611"}},{"arcs":[[484,-476,485,-443,486]],"type":"Polygon","properties":{"state":"ID","name":"COUNCIL","zip":"83612"}},{"arcs":[[487,488,489,-482]],"type":"Polygon","properties":{"state":"ID","name":"DONNELLY","zip":"83615"}},{"arcs":[[490,491,492,493,494,495,496,497]],"type":"Polygon","properties":{"state":"ID","name":"EAGLE","zip":"83616"}},{"arcs":[[498,-468,499,500,501,502,503,-497]],"type":"Polygon","properties":{"state":"ID","name":"EMMETT","zip":"83617"}},{"arcs":[[504,505,506,507,-466]],"type":"Polygon","properties":{"state":"ID","name":"FRUITLAND","zip":"83619"}},{"arcs":[[-448,508,509,-452,-477,510,-154]],"type":"Polygon","properties":{"state":"ID","name":"GARDEN VALLEY","zip":"83622"}},{"arcs":[[511,512,513,514,-449,-210,-184]],"type":"Polygon","properties":{"state":"ID","name":"GLENNS FERRY","zip":"83623"}},{"arcs":[[515,516,517,-453]],"type":"Polygon","properties":{"state":"ID","name":"GRAND VIEW","zip":"83624"}},{"arcs":[[518,-514,519]],"type":"Polygon","properties":{"state":"ID","name":"HAMMETT","zip":"83627"}},{"arcs":[[520,521,522]],"type":"Polygon","properties":{"state":"ID","name":"HOMEDALE","zip":"83628"}},{"arcs":[[523,524,-478,-450,-510,525,526,-503]],"type":"Polygon","properties":{"state":"ID","name":"HORSESHOE BEND","zip":"83629"}},{"arcs":[[527,528,529,530,-526,-509,-447]],"type":"Polygon","properties":{"state":"ID","name":"IDAHO CITY","zip":"83631"}},{"arcs":[[531,532,-472,533,-480]],"type":"Polygon","properties":{"state":"ID","name":"INDIAN VALLEY","zip":"83632"}},{"arcs":[[-193,-455,534,-512,-183]],"type":"Polygon","properties":{"state":"ID","name":"KING HILL","zip":"83633"}},{"arcs":[[535,536,537,538,539,540,541,-3,542]],"type":"Polygon","properties":{"state":"ID","name":"KUNA","zip":"83634"}},{"arcs":[[543,-469,-499,-496]],"type":"Polygon","properties":{"state":"ID","name":"LETHA","zip":"83636"}},{"arcs":[[-484,-155,-511]],"type":"Polygon","properties":{"state":"ID","name":"LOWMAN","zip":"83637"}},{"arcs":[[544,-441,545,-360,-157,-483,-490]],"type":"Polygon","properties":{"state":"ID","name":"MCCALL","zip":"83638"}},{"arcs":[[546,-523,547]],"type":"Polygon","properties":{"state":"ID","name":"MARSING","zip":"83639"}},{"arcs":[[548,-536,549]],"type":"Polygon","properties":{"state":"ID","name":"MELBA","zip":"83641"}},{"arcs":[[550,551,-493,552,553,-539]],"type":"Polygon","properties":{"state":"ID","name":"MERIDIAN","zip":"83642"}},{"arcs":[[554,-488,-481,-534,-471,-485]],"type":"Polygon","properties":{"state":"ID","name":"MESA","zip":"83643"}},{"arcs":[[555,556,-458,-470,-544,-495]],"type":"Polygon","properties":{"state":"ID","name":"MIDDLETON","zip":"83644"}},{"arcs":[[557,558,-473,-533,559,560]],"type":"Polygon","properties":{"state":"ID","name":"MIDVALE","zip":"83645"}},{"arcs":[[561,-5,562,563,-528,-446,-515,-519,564]],"type":"Polygon","properties":{"state":"ID","name":"MOUNTAIN HOME","zip":"83647"}},{"arcs":[[-1,-562,565]],"type":"Polygon","properties":{"state":"ID","name":"MOUNTAIN HOME A F B","zip":"83648"}},{"arcs":[[566,-521,-547,567,-517]],"type":"Polygon","properties":{"state":"ID","name":"MURPHY","zip":"83650"}},{"arcs":[[568,569,-461]],"type":"Polygon","properties":{"state":"ID","name":"NAMPA","zip":"83651"}},{"arcs":[[-555,-487,-438,-442,-545,-489]],"type":"Polygon","properties":{"state":"ID","name":"NEW MEADOWS","zip":"83654"}},{"arcs":[[-467,-508,570,-500]],"type":"Polygon","properties":{"state":"ID","name":"NEW PLYMOUTH","zip":"83655"}},{"arcs":[[571,-560,-532,-479,-525]],"type":"Polygon","properties":{"state":"ID","name":"OLA","zip":"83657"}},{"arcs":[[572,573,-505,-465]],"type":"Polygon","properties":{"state":"ID","name":"PARMA","zip":"83660"}},{"arcs":[[574,-558,575,-501,-571,-507,576]],"type":"Polygon","properties":{"state":"ID","name":"PAYETTE","zip":"83661"}},{"arcs":[[-556,-494,-552]],"type":"Polygon","properties":{"state":"ID","name":"STAR","zip":"83669"}},{"arcs":[[-502,-576,-561,-572,-524]],"type":"Polygon","properties":{"state":"ID","name":"SWEET","zip":"83670"}},{"arcs":[[-575,577,-474,-559]],"type":"Polygon","properties":{"state":"ID","name":"WEISER","zip":"83672"}},{"arcs":[[-573,-464,578]],"type":"Polygon","properties":{"state":"ID","name":"WILDER","zip":"83676"}},{"arcs":[[-390,-361,-546]],"type":"Polygon","properties":{"state":"ID","name":"YELLOW PINE","zip":"83677"}},{"arcs":[[-570,579,-537,-549,580,-462]],"type":"Polygon","properties":{"state":"ID","name":"NAMPA","zip":"83686"}},{"arcs":[[-569,-460,-459,-557,-551,-538,-580]],"type":"Polygon","properties":{"state":"ID","name":"NAMPA","zip":"83687"}},{"arcs":[[581,582,583,584,-530]],"type":"Polygon","properties":{"state":"ID","name":"BOISE","zip":"83702"}},{"arcs":[[-504,-527,-531,-585,585,-498]],"type":"Polygon","properties":{"state":"ID","name":"BOISE","zip":"83703"}},{"arcs":[[586,587,588,589]],"type":"Polygon","properties":{"state":"ID","name":"BOISE","zip":"83704"}},{"arcs":[[590,-541,591,592]],"type":"Polygon","properties":{"state":"ID","name":"BOISE","zip":"83705"}},{"arcs":[[593,594,-593,-587,595,-583]],"type":"Polygon","properties":{"state":"ID","name":"BOISE","zip":"83706"}},{"arcs":[[596,-588,-592,-540,-554]],"type":"Polygon","properties":{"state":"ID","name":"BOISE","zip":"83709"}},{"arcs":[[597,-594,-582,-529,-564]],"type":"Polygon","properties":{"state":"ID","name":"BOISE","zip":"83712"}},{"arcs":[[-553,-492,598,-589,-597]],"type":"Polygon","properties":{"state":"ID","name":"BOISE","zip":"83713"}},{"arcs":[[-584,-596,-590,-599,-491,-586]],"type":"Polygon","properties":{"state":"ID","name":"GARDEN CITY","zip":"83714"}},{"arcs":[[-591,-595,-598,-563,-4,-542]],"type":"Polygon","properties":{"state":"ID","name":"BOISE","zip":"83716"}},{"arcs":[[599,600,601,602,603,604,605,606,607]],"type":"Polygon","properties":{"state":"ID","name":"ATHOL","zip":"83801"}},{"arcs":[[608]],"type":"Polygon","properties":{"state":"ID","name":"AVERY","zip":"83802"}},{"arcs":[[609,-608,610]],"type":"Polygon","properties":{"state":"ID","name":"BAYVIEW","zip":"83803"}},{"arcs":[[611,612,613,614]],"type":"Polygon","properties":{"state":"ID","name":"BLANCHARD","zip":"83804"}},{"arcs":[[615,616,617,618,619,620,621,622,623]],"type":"Polygon","properties":{"state":"ID","name":"BONNERS FERRY","zip":"83805"}},{"arcs":[[-606,624,625,626]],"type":"Polygon","properties":{"state":"ID","name":"CAREYWOOD","zip":"83809"}},{"arcs":[[627,628,629,630,631,632]],"type":"Polygon","properties":{"state":"ID","name":"CATALDO","zip":"83810"}},{"arcs":[[[633,634,635]],[[636,-600,-610,637,638,639]]],"type":"MultiPolygon","properties":{"state":"ID","name":"CLARK FORK","zip":"83811"}},{"arcs":[[640,641,642,643,644,645,-434]],"type":"Polygon","properties":{"state":"ID","name":"CLARKIA","zip":"83812"}},{"arcs":[[646,647,-625,-605]],"type":"Polygon","properties":{"state":"ID","name":"COCOLALLA","zip":"83813"}},{"arcs":[[648,649,650,651,652,653,-630,654,655]],"type":"Polygon","properties":{"state":"ID","name":"COEUR D ALENE","zip":"83814"}},{"arcs":[[656,657,-651]],"type":"Polygon","properties":{"state":"ID","name":"COEUR D ALENE","zip":"83815"}},{"arcs":[[658,659,-616]],"type":"Polygon","properties":{"state":"ID","name":"COOLIN","zip":"83821"}},{"arcs":[[660,661,-614]],"type":"Polygon","properties":{"state":"ID","name":"OLDTOWN","zip":"83822"}},{"arcs":[[662,-417,663,664,-642]],"type":"Polygon","properties":{"state":"ID","name":"DEARY","zip":"83823"}},{"arcs":[[665,666,667,668]],"type":"Polygon","properties":{"state":"ID","name":"DESMET","zip":"83824"}},{"arcs":[[-663,-641,-433,-423,-418]],"type":"Polygon","properties":{"state":"ID","name":"ELK RIVER","zip":"83827"}},{"arcs":[[669,670,-645]],"type":"Polygon","properties":{"state":"ID","name":"FERNWOOD","zip":"83830"}},{"arcs":[[671,672,-407,-367]],"type":"Polygon","properties":{"state":"ID","name":"GENESEE","zip":"83832"}},{"arcs":[[673,674,-655,-629,675]],"type":"Polygon","properties":{"state":"ID","name":"HARRISON","zip":"83833"}},{"arcs":[[676,677,-643,-665,678]],"type":"Polygon","properties":{"state":"ID","name":"HARVARD","zip":"83834"}},{"arcs":[[679,-601,-637,680,-652,-658]],"type":"Polygon","properties":{"state":"ID","name":"HAYDEN","zip":"83835"}},{"arcs":[[681,682,683,-636,684]],"type":"Polygon","properties":{"state":"ID","name":"HOPE","zip":"83836"}},{"arcs":[[685,686,687,-653,-681,-640,688,689,690,-633]],"type":"Polygon","properties":{"state":"ID","name":"KELLOGG","zip":"83837"}},{"arcs":[[691,-631,-654,-688,692]],"type":"Polygon","properties":{"state":"ID","name":"KINGSTON","zip":"83839"}},{"arcs":[[-673,693,694,695,696,-408]],"type":"Polygon","properties":{"state":"ID","name":"MOSCOW","zip":"83843"}},{"arcs":[[697,-621,698]],"type":"Polygon","properties":{"state":"ID","name":"MOYIE SPRINGS","zip":"83845"}},{"arcs":[[699,700]],"type":"Polygon","properties":{"state":"ID","name":"MULLAN","zip":"83846"}},{"arcs":[[701,-622,-698,702,-683]],"type":"Polygon","properties":{"state":"ID","name":"NAPLES","zip":"83847"}},{"arcs":[[703,704,-617,-660]],"type":"Polygon","properties":{"state":"ID","name":"NORDMAN","zip":"83848"}},{"arcs":[[-632,-692,705,-686]],"type":"Polygon","properties":{"state":"ID","name":"PINEHURST","zip":"83850"}},{"arcs":[[706,707,708,709,-674]],"type":"Polygon","properties":{"state":"ID","name":"PLUMMER","zip":"83851"}},{"arcs":[[-619,710]],"type":"Polygon","properties":{"state":"ID","name":"PORTHILL","zip":"83853"}},{"arcs":[[711,712,-657,-650]],"type":"Polygon","properties":{"state":"ID","name":"POST FALLS","zip":"83854"}},{"arcs":[[713,714,715,-666,716]],"type":"Polygon","properties":{"state":"ID","name":"POTLATCH","zip":"83855"}},{"arcs":[[-604,717,-615,-662,718,-704,-659,-624,719,720,-647]],"type":"Polygon","properties":{"state":"ID","name":"PRIEST RIVER","zip":"83856"}},{"arcs":[[721,-714,722,-677,723,-696]],"type":"Polygon","properties":{"state":"ID","name":"PRINCETON","zip":"83857"}},{"arcs":[[724,725,-602,-680,-713]],"type":"Polygon","properties":{"state":"ID","name":"RATHDRUM","zip":"83858"}},{"arcs":[[-721,726,727,-626,-648]],"type":"Polygon","properties":{"state":"ID","name":"SAGLE","zip":"83860"}},{"arcs":[[728,-707,-676,-628,-691,729,-670,-644,-678,-723,-717,-669]],"type":"Polygon","properties":{"state":"ID","name":"SAINT MARIES","zip":"83861"}},{"arcs":[[-727,-720,-623,-702,-682,730]],"type":"Polygon","properties":{"state":"ID","name":"SANDPOINT","zip":"83864"}},{"arcs":[[-706,-693,-687]],"type":"Polygon","properties":{"state":"ID","name":"SMELTERVILLE","zip":"83868"}},{"arcs":[[731,-612,-718,-603,-726]],"type":"Polygon","properties":{"state":"ID","name":"SPIRIT LAKE","zip":"83869"}},{"arcs":[[-668,732,-708,-729]],"type":"Polygon","properties":{"state":"ID","name":"TENSED","zip":"83870"}},{"arcs":[[-724,-679,-664,-416,-409,-697]],"type":"Polygon","properties":{"state":"ID","name":"TROY","zip":"83871"}},{"arcs":[[-695,733,-715,-722]],"type":"Polygon","properties":{"state":"ID","name":"VIOLA","zip":"83872"}},{"arcs":[[-730,-690,734,-700,735,-435,-646,-671],[-609]],"type":"Polygon","properties":{"state":"ID","name":"WALLACE","zip":"83873"}},{"arcs":[[736,-656,-675,-710]],"type":"Polygon","properties":{"state":"ID","name":"WORLEY","zip":"83876"}}]}},"arcs":[[[6823,19011],[-226,-18]],[[6597,18993],[-139,186]],[[6458,19179],[293,81]],[[6751,19260],[-18,-89],[94,5]],[[6827,19176],[-4,-165]],[[10664,20038],[-36,46]],[[10628,20084],[0,318]],[[10628,20402],[36,-13],[0,-351]],[[9687,18780],[0,-110]],[[9687,18670],[-149,105]],[[9538,18775],[50,66]],[[9588,18841],[99,-61]],[[9538,18775],[-58,63]],[[9480,18838],[-50,61]],[[9430,18899],[176,0]],[[9606,18899],[-18,-58]],[[9817,18780],[-130,0]],[[9606,18899],[270,0]],[[9876,18899],[-59,-119]],[[9349,18495],[13,267]],[[9362,18762],[118,76]],[[9687,18670],[-27,-38]],[[9660,18632],[-63,-114]],[[9597,18518],[-221,-64]],[[9376,18454],[-27,41]],[[9259,18736],[-122,59],[0,196]],[[9137,18991],[0,122]],[[9137,19113],[131,7]],[[9268,19120],[167,-211]],[[9435,18909],[-64,31],[-112,-204]],[[8957,18495],[0,496],[180,0]],[[9259,18736],[-23,-86],[126,112]],[[9349,18495],[-207,-56]],[[9142,18439],[-135,53]],[[9007,18492],[234,158],[-284,-155]],[[9597,18368],[-72,-89]],[[9525,18279],[-149,-92]],[[9376,18187],[0,267]],[[9597,18518],[31,-3]],[[9628,18515],[-31,-147]],[[9286,19339],[-90,0],[-59,-170]],[[9137,19169],[-491,96],[32,100],[-158,96]],[[8520,19461],[275,214]],[[8795,19675],[491,-336]],[[9831,18383],[-207,-20]],[[9624,18363],[-27,5]],[[9628,18515],[27,-76],[176,51]],[[9831,18490],[0,-107]],[[9984,18492],[-153,107]],[[9831,18599],[-14,181]],[[9876,18899],[90,0]],[[9966,18899],[180,-381]],[[10146,18518],[-158,-33]],[[9988,18485],[-4,7]],[[9137,19113],[0,56]],[[9286,19339],[94,178]],[[9380,19517],[136,3]],[[9516,19520],[9,-206],[270,0]],[[9795,19314],[-32,-59]],[[9763,19255],[-67,-86],[85,30]],[[9781,19199],[-49,-45]],[[9732,19154],[85,-41],[-292,-107]],[[9525,19006],[162,135],[-144,-107]],[[9543,19034],[-275,86]],[[8894,20143],[-76,-13],[-23,-297]],[[8795,19833],[-248,106],[-144,247],[-360,-389]],[[8043,19797],[-95,-51]],[[7948,19746],[72,285],[122,28],[-90,109],[-59,87],[-58,241]],[[7935,20496],[257,310]],[[8192,20806],[31,-269],[104,76]],[[8327,20613],[193,-213],[253,-36]],[[8773,20364],[121,-221]],[[9867,18032],[-41,112]],[[9826,18144],[126,-31]],[[9952,18113],[14,-68]],[[9966,18045],[-99,-13]],[[10272,18561],[27,104],[50,-73],[-77,-31]],[[9966,18045],[4,-94]],[[9970,17951],[-130,20]],[[9840,17971],[27,61]],[[9826,18144],[-153,36],[-49,183]],[[9831,18383],[157,13]],[[9988,18396],[32,-117]],[[10020,18279],[-68,-166]],[[8417,20936],[-90,-323]],[[8192,20806],[103,219]],[[8295,21025],[122,-89]],[[9763,19255],[23,-38]],[[9786,19217],[-5,-18]],[[9430,18899],[95,107]],[[9732,19154],[54,63]],[[9786,19217],[459,-53],[0,-265]],[[10245,18899],[-279,0]],[[10308,17852],[-180,0],[-36,0],[-72,-3]],[[10020,17849],[140,147],[135,-68]],[[10295,17928],[13,-76]],[[10664,18119],[-68,71],[68,73]],[[10664,18263],[0,-144]],[[10151,18279],[-32,0]],[[10119,18279],[-99,0]],[[9988,18396],[0,89]],[[10146,18518],[63,-82]],[[10209,18436],[27,-157]],[[10236,18279],[-85,0]],[[9142,17956],[0,231]],[[9142,18187],[234,0]],[[9525,18279],[31,-262],[-126,61],[-126,-143],[-162,21]],[[9831,18599],[-171,33]],[[9831,18490],[31,79],[122,-77]],[[8502,19499],[-342,224]],[[8160,19723],[-117,74]],[[8795,19833],[68,-115],[-68,-43]],[[8520,19461],[-18,38]],[[9142,17849],[0,107]],[[9840,17971],[0,-122]],[[9840,17849],[-45,-3],[-63,6],[-572,-3],[-18,0]],[[8502,20895],[0,-312],[158,-31],[113,-188]],[[8417,20936],[85,-41]],[[10439,18065],[-194,59]],[[10245,18124],[-9,155]],[[10209,18436],[459,-58]],[[10668,18378],[-4,-115]],[[10664,18119],[4,-267],[-166,0]],[[10502,17852],[-5,117]],[[10497,17969],[-58,96]],[[9380,19833],[0,-316]],[[8894,20143],[252,0]],[[9146,20143],[0,-257],[234,-10]],[[9380,19876],[0,-43]],[[10443,17976],[-198,20]],[[10245,17996],[0,128]],[[10439,18065],[4,-89]],[[9543,19034],[-108,-125]],[[10245,17996],[50,-68]],[[10020,17849],[-45,0]],[[9975,17849],[-5,102]],[[10119,18279],[0,-148],[104,59],[-72,89]],[[9142,18187],[0,252]],[[10403,17915],[-108,13]],[[10443,17976],[54,-7]],[[10502,17852],[-5,0],[-4,111],[-90,-48]],[[9795,19314],[49,-5]],[[9844,19309],[-58,-92]],[[9844,19309],[45,-11]],[[9889,19298],[108,-40]],[[9997,19258],[72,10]],[[10069,19268],[176,-13]],[[10245,19255],[234,-211]],[[10479,19044],[-166,-147]],[[10313,18897],[-68,2]],[[9786,19217],[58,92]],[[10313,18897],[144,-199],[22,181],[189,20]],[[10668,18899],[0,-38],[0,-150],[0,-71],[0,-122],[0,-140]],[[7593,19853],[-18,206],[-171,157]],[[7404,20216],[-50,36]],[[7354,20252],[9,193]],[[7363,20445],[122,239],[247,49]],[[7732,20733],[203,-237]],[[7948,19746],[-220,150],[-122,-56]],[[7606,19840],[-13,13]],[[10479,19044],[189,-20]],[[10668,19024],[0,-89],[0,-36]],[[9975,17849],[-9,0],[-126,0]],[[10403,17915],[-18,-63],[-77,0]],[[8111,18289],[36,-249]],[[8147,18040],[0,-194]],[[8147,17846],[-289,0],[-301,0]],[[7557,17846],[0,479]],[[7557,18325],[85,-11]],[[7642,18314],[45,-119],[0,140]],[[7687,18335],[140,20]],[[7827,18355],[90,0],[27,145]],[[7944,18500],[85,-33]],[[8029,18467],[23,-5]],[[8052,18462],[59,-173]],[[7917,17996],[22,107],[-148,-12],[126,-95]],[[8201,19082],[-99,0]],[[8102,19082],[-27,0]],[[8075,19082],[-122,183]],[[7953,19265],[275,186]],[[8228,19451],[-54,-114],[103,-33],[23,-171]],[[8300,19133],[-99,-51]],[[7557,18787],[-41,31]],[[7516,18818],[0,262]],[[7516,19080],[45,0]],[[7561,19080],[338,0]],[[7899,19080],[4,-176]],[[7903,18904],[-135,10],[-49,-193]],[[7719,18721],[-59,15]],[[7660,18736],[-103,51]],[[7687,18335],[-54,61],[9,-82]],[[7557,18325],[0,315]],[[7557,18640],[0,147]],[[7557,18787],[103,-51]],[[7660,18736],[-76,11],[0,-105],[117,-25]],[[7701,18617],[126,-86]],[[7827,18531],[0,-176]],[[8673,18312],[-157,-79]],[[8516,18233],[-158,135]],[[8358,18368],[5,23]],[[8363,18391],[261,0]],[[8624,18391],[49,-79]],[[8777,18686],[45,389],[-234,7]],[[8588,19082],[-302,0]],[[8286,19082],[14,51]],[[8228,19451],[175,-79],[99,127]],[[8957,18495],[-180,51]],[[8777,18546],[0,140]],[[7516,19230],[122,0],[-77,-150]],[[7516,19080],[0,104]],[[7516,19184],[0,46]],[[8764,18533],[-91,-221]],[[8624,18391],[140,142]],[[8246,18777],[-126,-79],[-36,100],[94,73]],[[8178,18871],[68,-94]],[[8228,18391],[-95,43]],[[8133,18434],[-31,5]],[[8102,18439],[-14,18]],[[8088,18457],[144,38]],[[8232,18495],[14,-132]],[[8246,18363],[-18,28]],[[8075,19082],[-176,-2]],[[7516,19230],[77,529]],[[7593,19759],[220,-49],[18,-223]],[[7831,19487],[131,-107],[-9,-115]],[[7827,18531],[117,-31]],[[7903,18724],[-18,-13]],[[7885,18711],[-157,0]],[[7728,18711],[-9,10]],[[7903,18904],[0,-180]],[[7660,18736],[41,-119]],[[7728,18711],[-27,-84]],[[7701,18627],[-41,109]],[[7831,19487],[262,56],[67,180]],[[8111,18289],[22,145]],[[8228,18391],[-72,-66],[153,-77]],[[8309,18248],[112,-142],[-274,-66]],[[8358,18391],[-112,-28]],[[8232,18495],[185,-13]],[[8417,18482],[0,-38]],[[8417,18444],[0,-41]],[[8417,18403],[-59,-12]],[[8417,18444],[162,13]],[[8579,18457],[13,-71]],[[8592,18386],[-63,38],[-13,-5],[-99,-16]],[[7885,18518],[0,193]],[[7903,18724],[514,-87]],[[8417,18637],[0,-155]],[[8088,18457],[-59,10]],[[8029,18467],[-144,51]],[[7593,19759],[13,81]],[[8052,18462],[50,-23]],[[9142,17849],[-505,-8],[-90,0]],[[8547,17841],[-31,392]],[[8764,18533],[243,-41]],[[8547,18576],[0,89]],[[8547,18665],[0,59]],[[8547,18724],[41,358]],[[8777,18686],[-126,38],[4,-145],[-108,-3]],[[8358,18368],[-49,-120]],[[8358,18391],[5,0]],[[8547,17841],[-216,3],[-184,2]],[[8547,18576],[32,-119]],[[8417,18637],[130,28]],[[8286,19082],[-85,0]],[[8178,18871],[-76,211]],[[8547,18724],[-301,53]],[[8777,18546],[-185,-160]],[[7885,18518],[-184,109]],[[9934,19380],[-36,0]],[[9898,19380],[-18,30]],[[9880,19410],[-4,120]],[[9876,19530],[198,-10]],[[10074,19520],[23,-130],[121,92]],[[10218,19482],[117,5],[59,-148]],[[10394,19339],[-149,-84]],[[10069,19268],[-135,112]],[[10389,19515],[95,0]],[[10484,19515],[49,-51]],[[10533,19464],[-157,-82]],[[10376,19382],[-41,110],[-157,28]],[[10178,19520],[36,0]],[[10214,19520],[175,-5]],[[9516,19520],[171,0]],[[9687,19520],[175,20]],[[9862,19540],[-18,-231]],[[9898,19380],[-9,-82]],[[9844,19309],[36,101]],[[9934,19380],[63,-122]],[[10664,19886],[-270,-61]],[[10394,19825],[-122,-20]],[[10272,19805],[-45,30]],[[10227,19835],[99,173],[302,76]],[[10664,20038],[0,-152]],[[10668,19576],[-184,-61]],[[10389,19515],[0,239]],[[10389,19754],[77,-138],[202,66]],[[10668,19682],[0,-106]],[[9741,19962],[-180,0]],[[9561,19962],[-181,3],[0,-89]],[[9146,20143],[131,-3],[13,150]],[[9290,20290],[68,135],[261,-66],[68,119]],[[9687,20478],[99,-239],[-45,-277]],[[9943,19830],[-4,-104]],[[9939,19726],[-180,-54]],[[9759,19672],[-113,69],[95,221]],[[9741,19962],[58,0]],[[9799,19962],[144,-132]],[[9934,19606],[-72,-53]],[[9862,19553],[-9,20]],[[9853,19573],[81,33]],[[9858,19644],[81,56]],[[9939,19700],[22,-46]],[[9961,19654],[-103,-10]],[[9952,19647],[-18,-41]],[[9853,19573],[99,74]],[[9561,19962],[-18,-137],[-163,8]],[[10227,19784],[-4,0]],[[10223,19784],[0,15]],[[10223,19799],[4,36]],[[10272,19805],[-45,-21]],[[9939,19700],[0,26]],[[9943,19830],[185,-31]],[[10128,19799],[14,-104],[85,89]],[[10394,19825],[-5,-71]],[[10214,19520],[-68,30]],[[10146,19550],[-9,8]],[[10137,19558],[-176,96]],[[9952,19647],[185,-89]],[[10146,19550],[-72,-30]],[[9876,19530],[-14,23]],[[10178,19520],[40,-38]],[[9687,19520],[-90,66],[162,86]],[[9858,19644],[4,-104]],[[9799,19962],[234,140],[64,214],[126,7],[0,145]],[[10223,20468],[117,0],[-5,163],[72,43],[221,-272]],[[10223,19799],[-63,0]],[[10160,19799],[-32,0]],[[9687,20478],[536,-10]],[[10160,19799],[63,-15]],[[10394,19339],[-18,43]],[[10533,19464],[135,-71]],[[10668,19393],[0,-191],[0,-178]],[[10538,19232],[-135,102],[63,-48],[72,-54]],[[10664,19886],[4,-204]],[[10668,19576],[0,-100],[0,-83]],[[8336,21155],[40,84]],[[8376,21239],[126,-23],[72,109]],[[8574,21325],[32,-117]],[[8606,21208],[-270,-53]],[[8340,21333],[-108,5],[14,163]],[[8246,21501],[103,142],[54,-2],[9,2],[90,-150],[-4,-28]],[[8498,21465],[-158,-132]],[[8502,20895],[293,8]],[[8795,20903],[18,-142],[153,-18],[131,-178],[36,-201],[157,-74]],[[8376,21239],[-36,94]],[[8498,21465],[76,-140]],[[8606,21208],[81,-122],[108,-173],[0,-10]],[[8295,21025],[41,130]],[[7732,20733],[59,295]],[[7791,21028],[31,104]],[[7822,21132],[68,109],[-158,173],[194,89]],[[7926,21503],[167,-99],[153,97]],[[6260,22142],[0,-191]],[[6260,21951],[-72,-143]],[[6188,21808],[-145,232],[46,91],[-95,262],[0,8],[0,112]],[[5994,22513],[153,0]],[[6147,22513],[45,-84]],[[6192,22429],[-63,-87]],[[6129,22342],[32,-165],[99,-35]],[[6260,21951],[144,61]],[[6404,22012],[130,35]],[[6534,22047],[99,-30]],[[6633,22017],[9,-5]],[[6642,22012],[-27,-130],[-117,-23]],[[6498,21859],[0,-190],[-99,-44]],[[6399,21625],[-184,143],[-27,40]],[[6530,22147],[-126,-135]],[[6260,22142],[90,-31],[40,122]],[[6390,22233],[117,74]],[[6507,22307],[-27,129]],[[6480,22436],[36,-2]],[[6516,22434],[72,-176]],[[6588,22258],[-58,-111]],[[6507,22307],[-175,71],[9,-137]],[[6341,22241],[-81,-99]],[[6129,22342],[131,5],[18,97]],[[6278,22444],[189,23]],[[6467,22467],[13,-31]],[[7822,21132],[-675,0]],[[7147,21132],[36,178],[-419,109]],[[6764,21419],[-9,148]],[[6755,21567],[104,213]],[[6859,21780],[117,107]],[[6976,21887],[337,397],[-40,196]],[[7273,22480],[626,127]],[[7899,22607],[207,28],[-40,-201],[-32,-142],[-32,-229],[59,-219],[-140,-122],[50,-56],[-45,-163]],[[6530,22147],[36,-18]],[[6566,22129],[-32,-82]],[[6859,21780],[-361,79]],[[6642,22012],[54,-18]],[[6696,21994],[280,-107]],[[6620,22124],[13,-107]],[[6566,22129],[54,-5]],[[6300,22518],[-63,-54]],[[6237,22464],[-45,-35]],[[6147,22513],[72,0],[-45,107]],[[6174,22620],[9,17]],[[6183,22637],[54,11]],[[6237,22648],[63,-130]],[[6620,22124],[94,53],[-40,160]],[[6674,22337],[68,-10]],[[6742,22327],[148,-76]],[[6890,22251],[-194,-257]],[[6552,22658],[-252,-140]],[[6237,22648],[86,58]],[[6323,22706],[225,-23]],[[6548,22683],[4,-25]],[[6890,22251],[108,23]],[[6998,22274],[95,168]],[[7093,22442],[180,38]],[[6237,22464],[41,-20]],[[6552,22658],[59,15]],[[6611,22673],[-36,-191],[-59,-12]],[[6516,22470],[-49,-3]],[[6764,21419],[-203,-63],[-144,157]],[[6417,21513],[14,69]],[[6431,21582],[324,-15]],[[6588,22258],[86,79]],[[7093,22442],[-104,213],[-144,-147],[41,-74]],[[6886,22434],[-199,-3],[55,-104]],[[6516,22434],[0,36]],[[6611,22673],[76,196],[-130,46]],[[6557,22915],[27,0]],[[6584,22915],[1031,-3]],[[7615,22912],[27,-94],[198,-107],[59,-104]],[[6998,22274],[-36,173],[-76,-13]],[[6561,21147],[-85,56]],[[6476,21203],[94,99],[-9,-155]],[[6390,22233],[-49,8]],[[7147,21132],[-324,20],[-131,-112]],[[6692,21040],[-126,3],[-5,104]],[[6476,21203],[-203,0]],[[6273,21203],[144,310]],[[6431,21582],[-32,43]],[[7246,19197],[-329,297]],[[6917,19494],[248,260]],[[7165,19754],[184,73],[59,173],[185,-147]],[[7516,19184],[-270,13]],[[6764,19995],[-45,59]],[[6719,20054],[5,91],[157,0]],[[6881,20145],[-126,-51],[9,-99]],[[7030,17849],[-176,966]],[[6854,18815],[387,-10]],[[7241,18805],[-9,-165],[325,0]],[[7557,17846],[-527,3]],[[6309,19527],[-40,64]],[[6269,19591],[99,-13]],[[6368,19578],[-59,-51]],[[6309,19527],[5,-5]],[[6314,19522],[-18,-61]],[[6296,19461],[-45,-145]],[[6251,19316],[-104,171]],[[6147,19487],[-4,61],[4,43],[-22,13]],[[6125,19604],[63,109],[-63,92]],[[6125,19805],[4,38]],[[6129,19843],[122,-54]],[[6251,19789],[72,-43]],[[6323,19746],[-18,-41]],[[6305,19705],[-36,-114]],[[6341,20545],[54,-46]],[[6395,20499],[0,-87]],[[6395,20412],[-324,127]],[[6071,20539],[-100,67]],[[5971,20606],[136,160]],[[6107,20766],[211,-3],[23,-218]],[[7079,20145],[-198,0]],[[6719,20054],[-77,5]],[[6642,20059],[41,356]],[[6683,20415],[-14,155]],[[6669,20570],[9,38]],[[6678,20608],[86,13]],[[6764,20621],[392,-46],[-27,-252],[198,5],[36,117]],[[7354,20252],[-275,-107]],[[6624,20707],[-4,-127],[-279,-35]],[[6107,20766],[166,437]],[[6476,21203],[-50,-417],[198,-79]],[[6678,20608],[-36,94]],[[6642,20702],[9,49]],[[6651,20751],[113,-130]],[[6552,19568],[-9,-10]],[[6543,19558],[-18,0]],[[6525,19558],[-103,18]],[[6422,19576],[-14,56]],[[6408,19632],[0,73]],[[6408,19705],[23,0]],[[6431,19705],[157,0]],[[6588,19705],[-36,-137]],[[6431,19705],[-108,41]],[[6251,19789],[0,94]],[[6251,19883],[166,87]],[[6417,19970],[176,-158]],[[6593,19812],[0,-76]],[[6593,19736],[-5,-31]],[[6125,19805],[-50,104]],[[6075,19909],[-13,40]],[[6062,19949],[76,-20]],[[6138,19929],[-9,-86]],[[7165,19754],[-284,203]],[[6881,19957],[-117,38]],[[7079,20145],[-9,-160],[108,-30],[217,129],[9,132]],[[7516,18818],[-67,43]],[[7449,18861],[-257,-51]],[[7192,18810],[13,104]],[[7205,18914],[-76,219],[117,64]],[[7030,17849],[-1018,3],[-5,0],[0,567]],[[6007,18419],[316,25],[301,209],[-72,193],[45,142]],[[6597,18988],[257,-173]],[[7066,18820],[139,94]],[[7192,18810],[-126,10]],[[6098,19385],[-91,81]],[[6007,19466],[0,110],[100,-87]],[[6107,19489],[-9,-104]],[[6593,19812],[0,219]],[[6593,20031],[49,28]],[[6881,19957],[-22,-124],[-190,-112]],[[6669,19721],[-76,15]],[[6917,19494],[-90,-10]],[[6827,19484],[-94,81]],[[6733,19565],[-9,8]],[[6724,19573],[13,130],[-68,18]],[[6683,20415],[-113,-56]],[[6570,20359],[-175,53]],[[6395,20499],[274,71]],[[7241,18805],[208,56]],[[6408,19179],[-18,160]],[[6390,19339],[41,84]],[[6431,19423],[31,-5]],[[6462,19418],[81,-10]],[[6543,19408],[81,10]],[[6624,19418],[27,-10]],[[6651,19408],[100,-148]],[[6458,19179],[-50,0]],[[6408,19705],[-103,0]],[[6651,20751],[41,289]],[[7147,21132],[-117,-188],[315,-127],[135,112],[-4,160],[315,-61]],[[6215,19352],[-117,33]],[[6107,19489],[108,-137]],[[6278,19288],[112,51]],[[6408,19179],[-130,109]],[[6462,19418],[-54,160]],[[6408,19578],[14,-2]],[[6525,19558],[18,-61]],[[6543,19497],[0,-89]],[[6624,20707],[18,-5]],[[6408,19632],[0,-54]],[[6408,19578],[-40,0]],[[6453,20059],[-175,0]],[[6278,20059],[-207,480]],[[6570,20359],[-81,-300]],[[6489,20059],[-36,0]],[[6967,18851],[-144,160]],[[6827,19176],[0,242]],[[6827,19418],[0,66]],[[7066,18820],[-99,31]],[[6967,18851],[-171,-26],[-199,168]],[[6007,18419],[0,803],[0,244]],[[6215,19352],[382,-364]],[[6314,19522],[63,-58]],[[6377,19464],[-81,-3]],[[6138,19929],[113,-46]],[[6593,20031],[-99,-61],[-5,89]],[[6125,19604],[-118,-26]],[[6007,19578],[0,76],[0,18],[0,16],[0,10],[0,7],[68,204]],[[6111,20059],[167,0]],[[6453,20059],[-36,-89]],[[6062,19949],[49,110]],[[6111,20059],[-252,150],[112,397]],[[6147,19487],[-140,91]],[[6377,19464],[54,-41]],[[6278,19288],[-27,28]],[[6733,19565],[-77,-68]],[[6656,19497],[-32,18]],[[6624,19515],[0,7]],[[6624,19522],[36,97],[64,-46]],[[6624,19522],[-72,46]],[[6606,19522],[0,-25]],[[6606,19497],[-45,5]],[[6561,19502],[0,53]],[[6561,19555],[45,-33]],[[6665,19461],[-14,-53]],[[6624,19418],[-18,79]],[[6606,19497],[59,-36]],[[6656,19497],[40,-31]],[[6696,19466],[-31,-5]],[[6606,19522],[18,-7]],[[6543,19497],[18,5]],[[6827,19418],[-131,48]],[[6543,19558],[18,-3]],[[6413,23896],[9,0]],[[6422,23896],[-9,-81],[-113,12],[14,79],[-104,-56]],[[6210,23850],[-63,79]],[[6147,23929],[50,56]],[[6197,23985],[81,28]],[[6278,24013],[45,15]],[[6323,24028],[90,-35]],[[6413,23993],[-59,-36]],[[6354,23957],[59,-61]],[[6935,23110],[-85,115],[99,160],[63,-36],[-77,-239]],[[6413,23955],[0,-59]],[[6354,23957],[59,-2]],[[6129,23985],[-135,0]],[[5994,23985],[0,112]],[[5994,24097],[13,-3]],[[6007,24094],[122,-109]],[[6201,24522],[-9,356],[-72,0]],[[6120,24878],[-117,0]],[[6003,24878],[0,155],[410,2]],[[6413,25035],[67,-38],[-63,38]],[[6417,25035],[108,0]],[[6525,25035],[90,-330]],[[6615,24705],[-126,-97],[-112,61],[-18,-147]],[[6359,24522],[-104,0]],[[6255,24522],[-54,0]],[[6323,24028],[22,97]],[[6345,24125],[63,-15]],[[6408,24110],[5,-117]],[[6548,23405],[-113,0],[-85,46],[-68,-35]],[[6282,23416],[-58,40],[108,117]],[[6332,23573],[220,15]],[[6552,23588],[0,-63]],[[6552,23525],[-4,-56]],[[6548,23469],[0,-64]],[[6769,24275],[0,-46],[0,-129]],[[6769,24100],[-158,117]],[[6611,24217],[158,58]],[[6552,23896],[-130,0]],[[6413,23955],[81,178],[275,-33]],[[6769,24100],[0,-115]],[[6769,23985],[-167,92],[-50,-181]],[[6557,22915],[-9,0]],[[6548,22915],[0,73]],[[6548,22988],[0,18]],[[6548,23006],[4,64]],[[6552,23070],[-4,5]],[[6548,23075],[148,-18],[-112,-142]],[[6278,24013],[-59,92]],[[6219,24105],[126,20]],[[5994,23520],[0,35],[0,100]],[[5994,23655],[149,50]],[[6143,23705],[108,28]],[[6251,23733],[301,-2]],[[6552,23731],[0,-104]],[[6552,23627],[0,-39]],[[6332,23573],[-122,82],[-72,-171]],[[6138,23484],[-144,36]],[[6143,23705],[0,56]],[[6143,23761],[108,-28]],[[6201,24522],[-63,-84],[-4,119]],[[6134,24557],[-14,321]],[[5994,24097],[4,178]],[[5998,24275],[118,-41],[-109,-140]],[[6548,22915],[0,-232]],[[6323,22706],[-36,122]],[[6287,22828],[261,160]],[[6156,23029],[-162,84]],[[5994,23113],[0,28]],[[5994,23141],[207,-59]],[[6201,23082],[-45,-53]],[[6552,23070],[-85,25],[81,51]],[[6548,23146],[0,-71]],[[5994,22513],[0,46],[0,17]],[[5994,22576],[180,44]],[[6219,23370],[-4,7]],[[6215,23377],[-77,107]],[[6282,23416],[-63,-46]],[[6237,22818],[-63,198]],[[6174,23016],[374,-10]],[[6287,22828],[-50,-10]],[[6143,23761],[67,89]],[[6552,23896],[0,-165]],[[6530,24298],[171,122],[-50,104]],[[6651,24524],[118,0]],[[6769,24524],[0,-249]],[[6611,24217],[-81,81]],[[6548,23469],[76,56]],[[6624,23525],[9,20]],[[6633,23545],[32,61],[-113,21]],[[6769,23985],[72,-84],[175,-236],[-18,-115]],[[6998,23550],[-220,36],[31,-165],[-261,-36]],[[6548,23385],[0,20]],[[6615,23538],[-63,-13]],[[6633,23545],[-18,-7]],[[5994,22576],[0,16],[0,211]],[[5994,22803],[117,-13]],[[6111,22790],[32,-5]],[[6143,22785],[40,-148]],[[6769,24644],[-154,61]],[[6525,25035],[244,0],[0,-391]],[[6994,23416],[-68,78],[104,18]],[[7030,23512],[67,-38],[-103,-58]],[[6651,24524],[-292,-2]],[[6769,24644],[0,-120]],[[6134,24557],[-136,10]],[[5998,24567],[5,252],[0,59]],[[6615,23538],[9,-13]],[[6219,23370],[59,-51],[-77,-92]],[[6201,23227],[-207,3]],[[5994,23230],[0,79],[0,48]],[[5994,23357],[221,20]],[[6413,25035],[4,0]],[[5994,23655],[0,43],[0,2],[0,120]],[[5994,23820],[149,-59]],[[6165,23016],[-58,-162]],[[6107,22854],[-113,33]],[[5994,22887],[0,43],[0,18],[0,165]],[[6156,23029],[9,-13]],[[6197,23985],[-68,0]],[[5998,24275],[0,247],[0,45]],[[6255,24522],[59,-125],[-117,-132],[36,-84]],[[6233,24181],[-14,-76]],[[6111,22790],[-4,64]],[[6165,23016],[9,0]],[[6237,22818],[-94,-33]],[[5994,23820],[0,112],[0,18]],[[5994,23950],[153,-21]],[[6233,24181],[58,86]],[[6291,24267],[221,0],[-104,-157]],[[6201,23082],[77,107],[-77,38]],[[6548,23385],[0,-239]],[[6530,24298],[-239,-31]],[[5994,23950],[0,35]],[[5994,23141],[0,48],[0,41]],[[5994,22803],[0,35],[0,49]],[[6998,23550],[32,-38]],[[6994,23416],[423,-285],[198,-219]],[[5994,23357],[0,48],[0,115]]]}