{"type":"Topology","transform":{"scale":[0.0012831345112129487,0.0009745357309423489],"translate":[-124.73273099999999,24.60334863324381]},"objects":{"area":{"type":"GeometryCollection","geometries":[{"arcs":[[0,1,2,3,4,5,6,7,8,9]],"type":"Polygon","properties":{"state":"KS","name":"ATCHISON","zip":"66002"}},{"arcs":[[10,11,12,13,14,15]],"type":"Polygon","properties":{"state":"KS","name":"BALDWIN CITY","zip":"66006"}},{"arcs":[[16,17,18,19]],"type":"Polygon","properties":{"state":"KS","name":"BASEHOR","zip":"66007"}},{"arcs":[[20,21,-8]],"type":"Polygon","properties":{"state":"KS","name":"BENDENA","zip":"66008"}},{"arcs":[[22,23,24,25,26,27]],"type":"Polygon","properties":{"state":"KS","name":"BLUE MOUND","zip":"66010"}},{"arcs":[[28,29,30,31,-18,32,33]],"type":"Polygon","properties":{"state":"KS","name":"BONNER SPRINGS","zip":"66012"}},{"arcs":[[34,35,36,37,38,39]],"type":"Polygon","properties":{"state":"KS","name":"BUCYRUS","zip":"66013"}},{"arcs":[[40,-28,41,42]],"type":"Polygon","properties":{"state":"KS","name":"CENTERVILLE","zip":"66014"}},{"arcs":[[43,44,45,46,47,48]],"type":"Polygon","properties":{"state":"KS","name":"COLONY","zip":"66015"}},{"arcs":[[49,50,51,-5]],"type":"Polygon","properties":{"state":"KS","name":"CUMMINGS","zip":"66016"}},{"arcs":[[-7,52,53,54,-21]],"type":"Polygon","properties":{"state":"KS","name":"DENTON","zip":"66017"}},{"arcs":[[55,56,-30,57,58,59,60]],"type":"Polygon","properties":{"state":"KS","name":"DE SOTO","zip":"66018"}},{"arcs":[[61,62,-2,63]],"type":"Polygon","properties":{"state":"KS","name":"EASTON","zip":"66020"}},{"arcs":[[64,65,66,67,68]],"type":"Polygon","properties":{"state":"KS","name":"EDGERTON","zip":"66021"}},{"arcs":[[69,70,71,72,73,74,75,-51]],"type":"Polygon","properties":{"state":"KS","name":"EFFINGHAM","zip":"66023"}},{"arcs":[[76,77,78,-56,79,-68,80,-14]],"type":"Polygon","properties":{"state":"KS","name":"EUDORA","zip":"66025"}},{"arcs":[[81,82,83,84]],"type":"Polygon","properties":{"state":"KS","name":"FONTANA","zip":"66026"}},{"arcs":[[85,86,-69,-80,-61,87]],"type":"Polygon","properties":{"state":"KS","name":"GARDNER","zip":"66030"}},{"arcs":[[-27,88,89,90,91,92,93,94,95,-42]],"type":"Polygon","properties":{"state":"KS","name":"GARNETT","zip":"66032"}},{"arcs":[[96,-95,97,98]],"type":"Polygon","properties":{"state":"KS","name":"GREELEY","zip":"66033"}},{"arcs":[[99,100,101,102,103]],"type":"Polygon","properties":{"state":"KS","name":"HIGHLAND","zip":"66035"}},{"arcs":[[104,105,-44,106,-89,-26]],"type":"Polygon","properties":{"state":"KS","name":"KINCAID","zip":"66039"}},{"arcs":[[107,-82,108,109,110,111,112]],"type":"Polygon","properties":{"state":"KS","name":"LA CYGNE","zip":"66040"}},{"arcs":[[113,-53,-6,-52,-76]],"type":"Polygon","properties":{"state":"KS","name":"LANCASTER","zip":"66041"}},{"arcs":[[114,115,-99,116,117]],"type":"Polygon","properties":{"state":"KS","name":"LANE","zip":"66042"}},{"arcs":[[118,119,120,121,122,123,-78,124,125]],"type":"Polygon","properties":{"state":"KS","name":"LAWRENCE","zip":"66044"}},{"type":null,"properties":{"state":"KS","name":"LAWRENCE","zip":"66045"}},{"arcs":[[126,-125,-77,-13]],"type":"Polygon","properties":{"state":"KS","name":"LAWRENCE","zip":"66046"}},{"arcs":[[-12,127,128,129,130,-127]],"type":"Polygon","properties":{"state":"KS","name":"LAWRENCE","zip":"66047"}},{"arcs":[[131,-20,132,133,-64,-1,134]],"type":"Polygon","properties":{"state":"KS","name":"LEAVENWORTH","zip":"66048"}},{"arcs":[[-130,135,136,137,-119,138]],"type":"Polygon","properties":{"state":"KS","name":"LAWRENCE","zip":"66049"}},{"arcs":[[139,140,141,142,-137]],"type":"Polygon","properties":{"state":"KS","name":"LECOMPTON","zip":"66050"}},{"arcs":[[143,-31,-57,-79,-124]],"type":"Polygon","properties":{"state":"KS","name":"LINWOOD","zip":"66052"}},{"arcs":[[144,-110,145,-36]],"type":"Polygon","properties":{"state":"KS","name":"LOUISBURG","zip":"66053"}},{"arcs":[[146,-122,147,148,-62,-134]],"type":"Polygon","properties":{"state":"KS","name":"MC LOUTH","zip":"66054"}},{"arcs":[[149,150,-23,-41,151,-113,152]],"type":"Polygon","properties":{"state":"KS","name":"MOUND CITY","zip":"66056"}},{"arcs":[[153,154,155,-73]],"type":"Polygon","properties":{"state":"KS","name":"MUSCOTAH","zip":"66058"}},{"arcs":[[156,157,-70,-50,-4]],"type":"Polygon","properties":{"state":"KS","name":"NORTONVILLE","zip":"66060"}},{"arcs":[[158,159,160,161,-88,-60]],"type":"Polygon","properties":{"state":"KS","name":"OLATHE","zip":"66061"}},{"arcs":[[162,-86,-162,163,164,165,166,167,-39]],"type":"Polygon","properties":{"state":"KS","name":"OLATHE","zip":"66062"}},{"arcs":[[168,-115,169,170,-84]],"type":"Polygon","properties":{"state":"KS","name":"OSAWATOMIE","zip":"66064"}},{"arcs":[[-121,171,172,173,174,-148]],"type":"Polygon","properties":{"state":"KS","name":"OSKALOOSA","zip":"66066"}},{"arcs":[[175,176,177,178,179,-16,180]],"type":"Polygon","properties":{"state":"KS","name":"OTTAWA","zip":"66067"}},{"arcs":[[181,182,183,-173]],"type":"Polygon","properties":{"state":"KS","name":"OZAWKIE","zip":"66070"}},{"arcs":[[-85,-171,184,185,-66,186,-37,-146,-109]],"type":"Polygon","properties":{"state":"KS","name":"PAOLA","zip":"66071"}},{"arcs":[[-152,-43,-96,-97,-116,-169,-83,-108]],"type":"Polygon","properties":{"state":"KS","name":"PARKER","zip":"66072"}},{"arcs":[[-138,-143,187,-182,-172,-120]],"type":"Polygon","properties":{"state":"KS","name":"PERRY","zip":"66073"}},{"arcs":[[188,189,-153,-112]],"type":"Polygon","properties":{"state":"KS","name":"PLEASANTON","zip":"66075"}},{"arcs":[[190,191,192,-179,193,194]],"type":"Polygon","properties":{"state":"KS","name":"POMONA","zip":"66076"}},{"arcs":[[195,196,-177,197]],"type":"Polygon","properties":{"state":"KS","name":"PRINCETON","zip":"66078"}},{"arcs":[[-118,-198,-176,198,-185,-170]],"type":"Polygon","properties":{"state":"KS","name":"RANTOUL","zip":"66079"}},{"arcs":[[-94,199,-196,-117,-98]],"type":"Polygon","properties":{"state":"KS","name":"RICHMOND","zip":"66080"}},{"arcs":[[-87,-163,-38,-187,-65]],"type":"Polygon","properties":{"state":"KS","name":"SPRING HILL","zip":"66083"}},{"arcs":[[200,201,202,203,-40,-168]],"type":"Polygon","properties":{"state":"KS","name":"STILWELL","zip":"66085"}},{"arcs":[[-144,-123,-147,-133,-19,-32]],"type":"Polygon","properties":{"state":"KS","name":"TONGANOXIE","zip":"66086"}},{"arcs":[[-55,204,205,-100,206,207,208,-9,-22]],"type":"Polygon","properties":{"state":"KS","name":"TROY","zip":"66087"}},{"arcs":[[209,210,211,-71,-158,212,-174,-184]],"type":"Polygon","properties":{"state":"KS","name":"VALLEY FALLS","zip":"66088"}},{"arcs":[[-208,213]],"type":"Polygon","properties":{"state":"KS","name":"WATHENA","zip":"66090"}},{"arcs":[[-49,214,-90,-107]],"type":"Polygon","properties":{"state":"KS","name":"WELDA","zip":"66091"}},{"arcs":[[-15,-81,-67,-186,-199,-181]],"type":"Polygon","properties":{"state":"KS","name":"WELLSVILLE","zip":"66092"}},{"arcs":[[215,216,-91,-215,-48,217]],"type":"Polygon","properties":{"state":"KS","name":"WESTPHALIA","zip":"66093"}},{"arcs":[[218,219,-103]],"type":"Polygon","properties":{"state":"KS","name":"WHITE CLOUD","zip":"66094"}},{"arcs":[[-93,220,221,-194,-178,-197,-200]],"type":"Polygon","properties":{"state":"KS","name":"WILLIAMSBURG","zip":"66095"}},{"arcs":[[-149,-175,-213,-157,-3,-63]],"type":"Polygon","properties":{"state":"KS","name":"WINCHESTER","zip":"66097"}},{"arcs":[[222,223,224,225,226]],"type":"Polygon","properties":{"state":"KS","name":"KANSAS CITY","zip":"66101"}},{"arcs":[[227,228,229,230,-223,231,232]],"type":"Polygon","properties":{"state":"KS","name":"KANSAS CITY","zip":"66102"}},{"arcs":[[233,234,235,236]],"type":"Polygon","properties":{"state":"KS","name":"KANSAS CITY","zip":"66103"}},{"arcs":[[-231,237,238,239,-224]],"type":"Polygon","properties":{"state":"KS","name":"KANSAS CITY","zip":"66104"}},{"arcs":[[-237,240,-232,-227,241]],"type":"Polygon","properties":{"state":"KS","name":"KANSAS CITY","zip":"66105"}},{"arcs":[[242,243,244,-233,-241,-236,245,246,247]],"type":"Polygon","properties":{"state":"KS","name":"KANSAS CITY","zip":"66106"}},{"arcs":[[248,-33,-17,-132,249,-238,-230,250]],"type":"Polygon","properties":{"state":"KS","name":"KANSAS CITY","zip":"66109"}},{"arcs":[[251,-34,-249,252,-228,-245]],"type":"Polygon","properties":{"state":"KS","name":"KANSAS CITY","zip":"66111"}},{"arcs":[[-251,-229,-253]],"type":"Polygon","properties":{"state":"KS","name":"KANSAS CITY","zip":"66112"}},{"arcs":[[224,253,254,239]],"type":"Polygon","properties":{"state":"KS","name":"KANSAS CITY","zip":"66115"}},{"arcs":[[255,-242,-226,253]],"type":"Polygon","properties":{"state":"KS","name":"KANSAS CITY","zip":"66118"}},{"arcs":[[256,-247,257,258,259]],"type":"Polygon","properties":{"state":"KS","name":"COUNTRYSIDE","zip":"66202"}},{"arcs":[[260,261,-248,-257,262]],"type":"Polygon","properties":{"state":"KS","name":"SHAWNEE","zip":"66203"}},{"arcs":[[263,-263,-260,264,265]],"type":"Polygon","properties":{"state":"KS","name":"OVERLAND PARK","zip":"66204"}},{"arcs":[[266,-258,-246,-235,267]],"type":"Polygon","properties":{"state":"KS","name":"MISSION","zip":"66205"}},{"arcs":[[268,269,270,271]],"type":"Polygon","properties":{"state":"KS","name":"LEAWOOD","zip":"66206"}},{"arcs":[[272,273,274,-269]],"type":"Polygon","properties":{"state":"KS","name":"OVERLAND PARK","zip":"66207"}},{"arcs":[[-275,-265,-259,-267,275,-270]],"type":"Polygon","properties":{"state":"KS","name":"PRAIRIE VILLAGE","zip":"66208"}},{"arcs":[[276,277,278,279,280]],"type":"Polygon","properties":{"state":"KS","name":"LEAWOOD","zip":"66209"}},{"arcs":[[281,282,283,284,285]],"type":"Polygon","properties":{"state":"KS","name":"OVERLAND PARK","zip":"66210"}},{"arcs":[[-285,286,-273,-272,287,-279]],"type":"Polygon","properties":{"state":"KS","name":"LEAWOOD","zip":"66211"}},{"arcs":[[-284,288,-266,-274,-287]],"type":"Polygon","properties":{"state":"KS","name":"OVERLAND PARK","zip":"66212"}},{"arcs":[[289,290,-166,-286,-278]],"type":"Polygon","properties":{"state":"KS","name":"OVERLAND PARK","zip":"66213"}},{"arcs":[[291,292,-261,-264,-289,-283]],"type":"Polygon","properties":{"state":"KS","name":"OVERLAND PARK","zip":"66214"}},{"arcs":[[-165,293,294,-292,-282]],"type":"Polygon","properties":{"state":"KS","name":"LENEXA","zip":"66215"}},{"arcs":[[295,-243,-262,-293,-295]],"type":"Polygon","properties":{"state":"KS","name":"SHAWNEE","zip":"66216"}},{"arcs":[[296,297,298,-244,-296]],"type":"Polygon","properties":{"state":"KS","name":"SHAWNEE","zip":"66217"}},{"arcs":[[299,300,301,302,-298]],"type":"Polygon","properties":{"state":"KS","name":"SHAWNEE","zip":"66218"}},{"arcs":[[-164,-161,303,-300,-297,-294]],"type":"Polygon","properties":{"state":"KS","name":"LENEXA","zip":"66219"}},{"arcs":[[304,-301,-304,-160]],"type":"Polygon","properties":{"state":"KS","name":"LENEXA","zip":"66220"}},{"arcs":[[305,-201,-167,-291]],"type":"Polygon","properties":{"state":"KS","name":"OVERLAND PARK","zip":"66221"}},{"arcs":[[-306,-290,-277,306,-202]],"type":"Polygon","properties":{"state":"KS","name":"OVERLAND PARK","zip":"66223"}},{"arcs":[[-281,307,-203,-307]],"type":"Polygon","properties":{"state":"KS","name":"OVERLAND PARK","zip":"66224"}},{"arcs":[[-252,-299,-303,308,-58,-29]],"type":"Polygon","properties":{"state":"KS","name":"SHAWNEE","zip":"66226"}},{"arcs":[[-159,-59,-309,-302,-305]],"type":"Polygon","properties":{"state":"KS","name":"LENEXA","zip":"66227"}},{"arcs":[[309,310,311,312,313,314,315,316,317]],"type":"Polygon","properties":{"state":"KS","name":"ALMA","zip":"66401"}},{"arcs":[[318,319,320,321,322,323]],"type":"Polygon","properties":{"state":"KS","name":"AUBURN","zip":"66402"}},{"arcs":[[324,325,326,327]],"type":"Polygon","properties":{"state":"KS","name":"AXTELL","zip":"66403"}},{"arcs":[[328,-325,329,330,331]],"type":"Polygon","properties":{"state":"KS","name":"BAILEYVILLE","zip":"66404"}},{"arcs":[[332,333,334,335,336,337,-327]],"type":"Polygon","properties":{"state":"KS","name":"BEATTIE","zip":"66406"}},{"arcs":[[338,339,340,341,342]],"type":"Polygon","properties":{"state":"KS","name":"BELVUE","zip":"66407"}},{"arcs":[[343,344,345,346]],"type":"Polygon","properties":{"state":"KS","name":"BERN","zip":"66408"}},{"arcs":[[347,348,349,350,-140,-136,-129,351,352]],"type":"Polygon","properties":{"state":"KS","name":"BERRYTON","zip":"66409"}},{"arcs":[[353,354,355,356,357]],"type":"Polygon","properties":{"state":"KS","name":"BLUE RAPIDS","zip":"66411"}},{"arcs":[[358,359,360]],"type":"Polygon","properties":{"state":"KS","name":"BREMEN","zip":"66412"}},{"arcs":[[361,362,-319,363,364,365,366]],"type":"Polygon","properties":{"state":"KS","name":"BURLINGAME","zip":"66413"}},{"arcs":[[367,-364,-324,368,-353,369,370]],"type":"Polygon","properties":{"state":"KS","name":"CARBONDALE","zip":"66414"}},{"arcs":[[371,-329,372,373]],"type":"Polygon","properties":{"state":"KS","name":"CENTRALIA","zip":"66415"}},{"arcs":[[374,375,376,377]],"type":"Polygon","properties":{"state":"KS","name":"CIRCLEVILLE","zip":"66416"}},{"arcs":[[378,379,380,-374,381,382,383]],"type":"Polygon","properties":{"state":"KS","name":"CORNING","zip":"66417"}},{"arcs":[[384,385,386,387,388,389,390,391]],"type":"Polygon","properties":{"state":"KS","name":"DELIA","zip":"66418"}},{"arcs":[[392,393,394,-212]],"type":"Polygon","properties":{"state":"KS","name":"DENISON","zip":"66419"}},{"arcs":[[395,-388,396,-343]],"type":"Polygon","properties":{"state":"KS","name":"EMMETT","zip":"66422"}},{"arcs":[[397,-317,398,399]],"type":"Polygon","properties":{"state":"KS","name":"ESKRIDGE","zip":"66423"}},{"arcs":[[400,401,-205,-54,-114,-75]],"type":"Polygon","properties":{"state":"KS","name":"EVEREST","zip":"66424"}},{"arcs":[[402,403,404,405]],"type":"Polygon","properties":{"state":"KS","name":"FAIRVIEW","zip":"66425"}},{"arcs":[[406,407,-354,408,409,-333]],"type":"Polygon","properties":{"state":"KS","name":"FRANKFORT","zip":"66427"}},{"arcs":[[410,-383,411,412,-376]],"type":"Polygon","properties":{"state":"KS","name":"GOFF","zip":"66428"}},{"arcs":[[413,414,415,-188,-142]],"type":"Polygon","properties":{"state":"KS","name":"GRANTVILLE","zip":"66429"}},{"arcs":[[-316,416,417,418,-320,-363,419,-399]],"type":"Polygon","properties":{"state":"KS","name":"HARVEYVILLE","zip":"66431"}},{"arcs":[[420,-379,421,-389]],"type":"Polygon","properties":{"state":"KS","name":"HAVENSVILLE","zip":"66432"}},{"arcs":[[422,423,-219,-102,424,425,-403]],"type":"Polygon","properties":{"state":"KS","name":"HIAWATHA","zip":"66434"}},{"arcs":[[426,-378,427,428,429,-154,-72,-395,430]],"type":"Polygon","properties":{"state":"KS","name":"HOLTON","zip":"66436"}},{"arcs":[[431,-334,-410]],"type":"Polygon","properties":{"state":"KS","name":"HOME","zip":"66438"}},{"arcs":[[432,433,-426,434,-401,-74,-156]],"type":"Polygon","properties":{"state":"KS","name":"HORTON","zip":"66439"}},{"arcs":[[435,436,-393,-211,437,438]],"type":"Polygon","properties":{"state":"KS","name":"HOYT","zip":"66440"}},{"arcs":[[439,440,441,442,443,444,445,446,447]],"type":"Polygon","properties":{"state":"KS","name":"JUNCTION CITY","zip":"66441"}},{"arcs":[[[448,449,450,-446]],[[451,-440,452,-312,453,454]]],"type":"MultiPolygon","properties":{"state":"KS","name":"FORT RILEY","zip":"66442"}},{"arcs":[[455,456,457,458,459]],"type":"Polygon","properties":{"state":"KS","name":"LEONARDVILLE","zip":"66449"}},{"arcs":[[460,461,462,463,-366,464,-371,465,466]],"type":"Polygon","properties":{"state":"KS","name":"LYNDON","zip":"66451"}},{"arcs":[[467,468,469,470,471,472,-313,-453,-448]],"type":"Polygon","properties":{"state":"KS","name":"MANHATTAN","zip":"66502"}},{"arcs":[[473,474,-456,475,-469]],"type":"Polygon","properties":{"state":"KS","name":"MANHATTAN","zip":"66503"}},{"arcs":[[476,477,478,479,480,481,-418]],"type":"Polygon","properties":{"state":"KS","name":"MAPLE HILL","zip":"66507"}},{"arcs":[[482,-360,483,484,485,-335,-432,-409,-358]],"type":"Polygon","properties":{"state":"KS","name":"MARYSVILLE","zip":"66508"}},{"arcs":[[486,-431,-394,-437,487,-391]],"type":"Polygon","properties":{"state":"KS","name":"MAYETTA","zip":"66509"}},{"arcs":[[488,-462,489,-195,-222,490]],"type":"Polygon","properties":{"state":"KS","name":"MELVERN","zip":"66510"}},{"arcs":[[-416,491,-438,-210,-183]],"type":"Polygon","properties":{"state":"KS","name":"MERIDEN","zip":"66512"}},{"arcs":[[-445,492,493,-449]],"type":"Polygon","properties":{"state":"KS","name":"MILFORD","zip":"66514"}},{"arcs":[[-406,494,495,-423]],"type":"Polygon","properties":{"state":"KS","name":"MORRILL","zip":"66515"}},{"arcs":[[496,-429,497,498]],"type":"Polygon","properties":{"state":"KS","name":"NETAWAKA","zip":"66516"}},{"arcs":[[499,-474,-468,-447,-451]],"type":"Polygon","properties":{"state":"KS","name":"OGDEN","zip":"66517"}},{"arcs":[[500,-336,-486]],"type":"Polygon","properties":{"state":"KS","name":"OKETO","zip":"66518"}},{"arcs":[[501,-470,-476,502]],"type":"Polygon","properties":{"state":"KS","name":"OLSBURG","zip":"66520"}},{"arcs":[[-342,503,504,505,506,-380,-421,-396]],"type":"Polygon","properties":{"state":"KS","name":"ONAGA","zip":"66521"}},{"arcs":[[507,-344,508]],"type":"Polygon","properties":{"state":"KS","name":"ONEIDA","zip":"66522"}},{"arcs":[[509,510,-367,-464,511]],"type":"Polygon","properties":{"state":"KS","name":"OSAGE CITY","zip":"66523"}},{"arcs":[[-370,-352,-128,-11,-180,-193,512,-466]],"type":"Polygon","properties":{"state":"KS","name":"OVERBROOK","zip":"66524"}},{"arcs":[[-417,-315,513,-340,514,-477]],"type":"Polygon","properties":{"state":"KS","name":"PAXICO","zip":"66526"}},{"arcs":[[515,516,-404,-434,517,-499]],"type":"Polygon","properties":{"state":"KS","name":"POWHATTAN","zip":"66527"}},{"arcs":[[-490,-461,518,-191]],"type":"Polygon","properties":{"state":"KS","name":"QUENEMO","zip":"66528"}},{"arcs":[[519,520,-457,-475,-500,-450,-494]],"type":"Polygon","properties":{"state":"KS","name":"RILEY","zip":"66531"}},{"arcs":[[-402,-435,-425,-101,-206]],"type":"Polygon","properties":{"state":"KS","name":"ROBINSON","zip":"66532"}},{"arcs":[[521,-479,522,-386,523]],"type":"Polygon","properties":{"state":"KS","name":"ROSSVILLE","zip":"66533"}},{"arcs":[[524,525,-509,-347,526,-495,-405,-517]],"type":"Polygon","properties":{"state":"KS","name":"SABETHA","zip":"66534"}},{"arcs":[[527,528,-472]],"type":"Polygon","properties":{"state":"KS","name":"SAINT GEORGE","zip":"66535"}},{"arcs":[[-339,-397,-387,-523,-478,-515]],"type":"Polygon","properties":{"state":"KS","name":"SAINT MARYS","zip":"66536"}},{"arcs":[[-368,-465,-365]],"type":"Polygon","properties":{"state":"KS","name":"SCRANTON","zip":"66537"}},{"arcs":[[-412,-382,-373,-332,529,-345,-508,-526]],"type":"Polygon","properties":{"state":"KS","name":"SENECA","zip":"66538"}},{"arcs":[[530,531,-524,-385]],"type":"Polygon","properties":{"state":"KS","name":"SILVER LAKE","zip":"66539"}},{"arcs":[[-384,-411,-375,-427,-487,-390,-422]],"type":"Polygon","properties":{"state":"KS","name":"SOLDIER","zip":"66540"}},{"arcs":[[-328,-338,532,-330]],"type":"Polygon","properties":{"state":"KS","name":"SUMMERFIELD","zip":"66541"}},{"arcs":[[533,534,535,536,537,-414,-141,-351]],"type":"Polygon","properties":{"state":"KS","name":"TECUMSEH","zip":"66542"}},{"arcs":[[-467,-513,-192,-519]],"type":"Polygon","properties":{"state":"KS","name":"VASSAR","zip":"66543"}},{"arcs":[[-407,-326,-372,-381,-507,538]],"type":"Polygon","properties":{"state":"KS","name":"VERMILLION","zip":"66544"}},{"arcs":[[-323,539,-348,-369]],"type":"Polygon","properties":{"state":"KS","name":"WAKARUSA","zip":"66546"}},{"arcs":[[540,-504,-341,-514,-314,-473,-529]],"type":"Polygon","properties":{"state":"KS","name":"WAMEGO","zip":"66547"}},{"arcs":[[541,542,543,-361,-483,-357]],"type":"Polygon","properties":{"state":"KS","name":"WATERVILLE","zip":"66548"}},{"arcs":[[-528,-471,-502,544,-355,-408,545,-505,-541]],"type":"Polygon","properties":{"state":"KS","name":"WESTMORELAND","zip":"66549"}},{"arcs":[[-428,-377,-413,-525,-516,-498]],"type":"Polygon","properties":{"state":"KS","name":"WETMORE","zip":"66550"}},{"arcs":[[-539,-506,-546]],"type":"Polygon","properties":{"state":"KS","name":"WHEATON","zip":"66551"}},{"arcs":[[-430,-497,-518,-433,-155]],"type":"Polygon","properties":{"state":"KS","name":"WHITING","zip":"66552"}},{"arcs":[[546,547,548,-542,-356,-545,-503,-460]],"type":"Polygon","properties":{"state":"KS","name":"RANDOLPH","zip":"66554"}},{"arcs":[[549,550,551,552]],"type":"Polygon","properties":{"state":"KS","name":"TOPEKA","zip":"66603"}},{"arcs":[[553,554,555,556,557]],"type":"Polygon","properties":{"state":"KS","name":"TOPEKA","zip":"66604"}},{"arcs":[[558,559,560,-535,561]],"type":"Polygon","properties":{"state":"KS","name":"TOPEKA","zip":"66605"}},{"arcs":[[562,563,564,-552,565,-556]],"type":"Polygon","properties":{"state":"KS","name":"TOPEKA","zip":"66606"}},{"arcs":[[-561,566,-550,567,568,-536]],"type":"Polygon","properties":{"state":"KS","name":"TOPEKA","zip":"66607"}},{"arcs":[[569,-568,-553,-565,570,571]],"type":"Polygon","properties":{"state":"KS","name":"TOPEKA","zip":"66608"}},{"arcs":[[572,573,-562,-534,-350,574]],"type":"Polygon","properties":{"state":"KS","name":"TOPEKA","zip":"66609"}},{"arcs":[[575,-321,-419,-482,576,-573]],"type":"Polygon","properties":{"state":"KS","name":"TOPEKA","zip":"66610"}},{"arcs":[[577,-558,578,-559,-574]],"type":"Polygon","properties":{"state":"KS","name":"TOPEKA","zip":"66611"}},{"arcs":[[-579,-557,-566,-551,-567,-560]],"type":"Polygon","properties":{"state":"KS","name":"TOPEKA","zip":"66612"}},{"arcs":[[-577,-481,579,-554,-578]],"type":"Polygon","properties":{"state":"KS","name":"TOPEKA","zip":"66614"}},{"arcs":[[-522,-532,580,-563,-555,-580,-480]],"type":"Polygon","properties":{"state":"KS","name":"TOPEKA","zip":"66615"}},{"arcs":[[-569,-570,581,-537]],"type":"Polygon","properties":{"state":"KS","name":"TOPEKA","zip":"66616"}},{"arcs":[[-538,-582,-572,582,-439,-492,-415]],"type":"Polygon","properties":{"state":"KS","name":"TOPEKA","zip":"66617"}},{"arcs":[[-564,-581,-531,-392,-488,-436,-583,-571]],"type":"Polygon","properties":{"state":"KS","name":"TOPEKA","zip":"66618"}},{"arcs":[[-540,-322,-576,-575,-349]],"type":"Polygon","properties":{"state":"KS","name":"TOPEKA","zip":"66619"}},{"arcs":[[583,584,585,586,587,588,589,590]],"type":"Polygon","properties":{"state":"KS","name":"FORT SCOTT","zip":"66701"}},{"arcs":[[591,592,593,594]],"type":"Polygon","properties":{"state":"KS","name":"ALTOONA","zip":"66710"}},{"arcs":[[595,596,-591,597,598]],"type":"Polygon","properties":{"state":"KS","name":"ARCADIA","zip":"66711"}},{"arcs":[[599,600,601,-596,602]],"type":"Polygon","properties":{"state":"KS","name":"ARMA","zip":"66712"}},{"arcs":[[603,604,605,606,607,608]],"type":"Polygon","properties":{"state":"KS","name":"BAXTER SPRINGS","zip":"66713"}},{"arcs":[[609,-595,610,611,612]],"type":"Polygon","properties":{"state":"KS","name":"BENEDICT","zip":"66714"}},{"arcs":[[613,-25,614,615,616]],"type":"Polygon","properties":{"state":"KS","name":"BRONSON","zip":"66716"}},{"arcs":[[617,618,-612]],"type":"Polygon","properties":{"state":"KS","name":"BUFFALO","zip":"66717"}},{"arcs":[[619,620,-610,621]],"type":"Polygon","properties":{"state":"KS","name":"CHANUTE","zip":"66720"}},{"arcs":[[622,623,624,625,626]],"type":"Polygon","properties":{"state":"KS","name":"CHEROKEE","zip":"66724"}},{"arcs":[[627,-606,628,629,630,631,632,633]],"type":"Polygon","properties":{"state":"KS","name":"COLUMBUS","zip":"66725"}},{"arcs":[[634,635,636,637,638]],"type":"Polygon","properties":{"state":"KS","name":"COYVILLE","zip":"66727"}},{"arcs":[[639,640,641,642]],"type":"Polygon","properties":{"state":"KS","name":"ELSMORE","zip":"66732"}},{"arcs":[[643,644,645,646,647,648,-620]],"type":"Polygon","properties":{"state":"KS","name":"ERIE","zip":"66733"}},{"arcs":[[649,650,-584,-597,-602]],"type":"Polygon","properties":{"state":"KS","name":"FARLINGTON","zip":"66734"}},{"arcs":[[651,652,653,-600]],"type":"Polygon","properties":{"state":"KS","name":"FRANKLIN","zip":"66735"}},{"arcs":[[654,655,-635,656,657,-618,-611,-594,658,659,660]],"type":"Polygon","properties":{"state":"KS","name":"FREDONIA","zip":"66736"}},{"arcs":[[661,662,663,-588]],"type":"Polygon","properties":{"state":"KS","name":"FULTON","zip":"66738"}},{"arcs":[[664,-634,665,666,667,-608]],"type":"Polygon","properties":{"state":"KS","name":"GALENA","zip":"66739"}},{"arcs":[[668,-649,669,670]],"type":"Polygon","properties":{"state":"KS","name":"GALESBURG","zip":"66740"}},{"arcs":[[671,-624,672,673,674,675,-650,-601,-654]],"type":"Polygon","properties":{"state":"KS","name":"GIRARD","zip":"66743"}},{"arcs":[[-676,676,677,678,-585,-651]],"type":"Polygon","properties":{"state":"KS","name":"HEPLER","zip":"66746"}},{"arcs":[[-622,679,680,681,682,-642,683,-644]],"type":"Polygon","properties":{"state":"KS","name":"HUMBOLDT","zip":"66748"}},{"arcs":[[684,-682,685,686,-46]],"type":"Polygon","properties":{"state":"KS","name":"IOLA","zip":"66749"}},{"arcs":[[687,-643,-683,-685,-45,-106]],"type":"Polygon","properties":{"state":"KS","name":"LA HARPE","zip":"66751"}},{"arcs":[[688,-631,689,690,-673,-623]],"type":"Polygon","properties":{"state":"KS","name":"MC CUNE","zip":"66753"}},{"arcs":[[-24,-151,-663,691,-615]],"type":"Polygon","properties":{"state":"KS","name":"MAPLETON","zip":"66754"}},{"arcs":[[-688,-105,-614,692,-640]],"type":"Polygon","properties":{"state":"KS","name":"MORAN","zip":"66755"}},{"arcs":[[-652,-603,-599,693,694]],"type":"Polygon","properties":{"state":"KS","name":"MULBERRY","zip":"66756"}},{"arcs":[[695,696,697,-659,-593]],"type":"Polygon","properties":{"state":"KS","name":"NEODESHA","zip":"66757"}},{"arcs":[[698,699,-687,700]],"type":"Polygon","properties":{"state":"KS","name":"NEOSHO FALLS","zip":"66758"}},{"arcs":[[701,702,-636,-656]],"type":"Polygon","properties":{"state":"KS","name":"NEW ALBANY","zip":"66759"}},{"arcs":[[703,-701,-686,-681]],"type":"Polygon","properties":{"state":"KS","name":"PIQUA","zip":"66761"}},{"arcs":[[704,-667,705,-625,-672,-653,-695]],"type":"Polygon","properties":{"state":"KS","name":"PITTSBURG","zip":"66762"}},{"arcs":[[706,-589,-664,-150,-190]],"type":"Polygon","properties":{"state":"KS","name":"PRESCOTT","zip":"66767"}},{"arcs":[[707,-616,-692,-662,-587]],"type":"Polygon","properties":{"state":"KS","name":"REDFIELD","zip":"66769"}},{"arcs":[[-628,-665,-607]],"type":"Polygon","properties":{"state":"KS","name":"RIVERTON","zip":"66770"}},{"arcs":[[708,-670,-648,709,-674]],"type":"Polygon","properties":{"state":"KS","name":"SAINT PAUL","zip":"66771"}},{"arcs":[[-641,710,711,-645,-684]],"type":"Polygon","properties":{"state":"KS","name":"SAVONBURG","zip":"66772"}},{"arcs":[[-627,712,-632,-689]],"type":"Polygon","properties":{"state":"KS","name":"SCAMMON","zip":"66773"}},{"arcs":[[713,-646,-712,714,-678]],"type":"Polygon","properties":{"state":"KS","name":"STARK","zip":"66775"}},{"arcs":[[715,716,717,-696,-592,-621,-669]],"type":"Polygon","properties":{"state":"KS","name":"THAYER","zip":"66776"}},{"arcs":[[718,-657,-639,719]],"type":"Polygon","properties":{"state":"KS","name":"TORONTO","zip":"66777"}},{"arcs":[[-679,-715,-711,-693,-617,-708,-586]],"type":"Polygon","properties":{"state":"KS","name":"UNIONTOWN","zip":"66779"}},{"arcs":[[-647,-714,-677,-675,-710]],"type":"Polygon","properties":{"state":"KS","name":"WALNUT","zip":"66780"}},{"arcs":[[-666,-633,-713,-626,-706]],"type":"Polygon","properties":{"state":"KS","name":"WEIR","zip":"66781"}},{"arcs":[[-719,720,721,722,723,-699,-704,-680,-613,-619,-658]],"type":"Polygon","properties":{"state":"KS","name":"YATES CENTER","zip":"66783"}},{"arcs":[[724,725,726,727,728,729,730,731,732]],"type":"Polygon","properties":{"state":"KS","name":"EMPORIA","zip":"66801"}},{"arcs":[[733,-400,-420,-362,-511,734,-732]],"type":"Polygon","properties":{"state":"KS","name":"ADMIRE","zip":"66830"}},{"arcs":[[735,736,-318,-398,-734,-731]],"type":"Polygon","properties":{"state":"KS","name":"ALLEN","zip":"66833"}},{"arcs":[[737,738,-454,-311]],"type":"Polygon","properties":{"state":"KS","name":"ALTA VISTA","zip":"66834"}},{"arcs":[[739,740,-736,-730]],"type":"Polygon","properties":{"state":"KS","name":"AMERICUS","zip":"66835"}},{"arcs":[[741,742,743,744,745]],"type":"Polygon","properties":{"state":"KS","name":"BURDICK","zip":"66838"}},{"arcs":[[746,747,748,749,-216,750,-723]],"type":"Polygon","properties":{"state":"KS","name":"BURLINGTON","zip":"66839"}},{"arcs":[[751,752,753,754,755,756,757,758,759,760]],"type":"Polygon","properties":{"state":"KS","name":"BURNS","zip":"66840"}},{"arcs":[[761,762,-759,763]],"type":"Polygon","properties":{"state":"KS","name":"CASSODAY","zip":"66842"}},{"arcs":[[764,765,766,767,-756]],"type":"Polygon","properties":{"state":"KS","name":"CEDAR POINT","zip":"66843"}},{"arcs":[[768,769,-757,-768,770,771,-728]],"type":"Polygon","properties":{"state":"KS","name":"COTTONWOOD FALLS","zip":"66845"}},{"arcs":[[772,773,774,-738,-310,-737,-741,775]],"type":"Polygon","properties":{"state":"KS","name":"COUNCIL GROVE","zip":"66846"}},{"arcs":[[-775,776,-455,-739]],"type":"Polygon","properties":{"state":"KS","name":"DWIGHT","zip":"66849"}},{"arcs":[[777,778,-771,-767]],"type":"Polygon","properties":{"state":"KS","name":"ELMDALE","zip":"66850"}},{"arcs":[[779,780,-765,-755]],"type":"Polygon","properties":{"state":"KS","name":"FLORENCE","zip":"66851"}},{"arcs":[[781,-747,-722]],"type":"Polygon","properties":{"state":"KS","name":"GRIDLEY","zip":"66852"}},{"arcs":[[782,783,784]],"type":"Polygon","properties":{"state":"KS","name":"HAMILTON","zip":"66853"}},{"arcs":[[785,-726,786,787,-748,788]],"type":"Polygon","properties":{"state":"KS","name":"HARTFORD","zip":"66854"}},{"arcs":[[789,790,-512,-463,-489,791,-749,-788]],"type":"Polygon","properties":{"state":"KS","name":"LEBO","zip":"66856"}},{"arcs":[[-700,-724,-751,-218,-47]],"type":"Polygon","properties":{"state":"KS","name":"LE ROY","zip":"66857"}},{"arcs":[[792,793,794,795,-744]],"type":"Polygon","properties":{"state":"KS","name":"LINCOLNVILLE","zip":"66858"}},{"arcs":[[-796,796,797,-745]],"type":"Polygon","properties":{"state":"KS","name":"LOST SPRINGS","zip":"66859"}},{"arcs":[[798,799,800,-789,-782,801,-785]],"type":"Polygon","properties":{"state":"KS","name":"MADISON","zip":"66860"}},{"arcs":[[802,803,-794,-778,-766,-781,804]],"type":"Polygon","properties":{"state":"KS","name":"MARION","zip":"66861"}},{"arcs":[[-770,805,-800,806,-764,-758]],"type":"Polygon","properties":{"state":"KS","name":"MATFIELD GREEN","zip":"66862"}},{"arcs":[[-725,807,-790,-787]],"type":"Polygon","properties":{"state":"KS","name":"NEOSHO RAPIDS","zip":"66864"}},{"arcs":[[-769,-727,-786,-801,-806]],"type":"Polygon","properties":{"state":"KS","name":"OLPE","zip":"66865"}},{"arcs":[[808,809,810,-805,-780,-754,811]],"type":"Polygon","properties":{"state":"KS","name":"PEABODY","zip":"66866"}},{"arcs":[[-733,-735,-510,-791,-808]],"type":"Polygon","properties":{"state":"KS","name":"READING","zip":"66868"}},{"arcs":[[-793,-743,812,-776,-740,-729,-772,-779]],"type":"Polygon","properties":{"state":"KS","name":"STRONG CITY","zip":"66869"}},{"arcs":[[-638,813,814,815,-783,-802,-721,-720]],"type":"Polygon","properties":{"state":"KS","name":"VIRGIL","zip":"66870"}},{"arcs":[[-491,-221,-92,-217,-750,-792]],"type":"Polygon","properties":{"state":"KS","name":"WAVERLY","zip":"66871"}},{"arcs":[[816,817,818,-441,-452,-777,-774]],"type":"Polygon","properties":{"state":"KS","name":"WHITE CITY","zip":"66872"}},{"arcs":[[-813,-742,819,-817,-773]],"type":"Polygon","properties":{"state":"KS","name":"WILSEY","zip":"66873"}},{"arcs":[[820,821,822,823,824,825,826,827,828]],"type":"Polygon","properties":{"state":"KS","name":"CONCORDIA","zip":"66901"}},{"arcs":[[829,830,831,832,833]],"type":"Polygon","properties":{"state":"KS","name":"AGENDA","zip":"66930"}},{"arcs":[[834,835,836]],"type":"Polygon","properties":{"state":"KS","name":"ATHOL","zip":"66932"}},{"arcs":[[-549,837,838,-543]],"type":"Polygon","properties":{"state":"KS","name":"BARNES","zip":"66933"}},{"arcs":[[839,-831,-825,840,841,842,843,844,845,846,847,848]],"type":"Polygon","properties":{"state":"KS","name":"BELLEVILLE","zip":"66935"}},{"arcs":[[849,850,851,852,853]],"type":"Polygon","properties":{"state":"KS","name":"BURR OAK","zip":"66936"}},{"arcs":[[854,-834,855,856,857,858,859]],"type":"Polygon","properties":{"state":"KS","name":"CLIFTON","zip":"66937"}},{"arcs":[[860,-826,-830,-855,861,862,863]],"type":"Polygon","properties":{"state":"KS","name":"CLYDE","zip":"66938"}},{"arcs":[[864,865,866,-843]],"type":"Polygon","properties":{"state":"KS","name":"COURTLAND","zip":"66939"}},{"arcs":[[867,-832,-840]],"type":"Polygon","properties":{"state":"KS","name":"CUBA","zip":"66940"}},{"arcs":[[868,869,870,-850,871,872]],"type":"Polygon","properties":{"state":"KS","name":"ESBON","zip":"66941"}},{"arcs":[[873,874,875,-867]],"type":"Polygon","properties":{"state":"KS","name":"FORMOSO","zip":"66942"}},{"arcs":[[-548,876,877,878,879,-838]],"type":"Polygon","properties":{"state":"KS","name":"GREENLEAF","zip":"66943"}},{"arcs":[[-868,-849,880,881,-856,-833]],"type":"Polygon","properties":{"state":"KS","name":"HADDAM","zip":"66944"}},{"arcs":[[882,883,884,-484,-359,-544,-839]],"type":"Polygon","properties":{"state":"KS","name":"HANOVER","zip":"66945"}},{"arcs":[[885,886,-884]],"type":"Polygon","properties":{"state":"KS","name":"HOLLENBERG","zip":"66946"}},{"arcs":[[887,888,889,-823]],"type":"Polygon","properties":{"state":"KS","name":"JAMESTOWN","zip":"66948"}},{"arcs":[[890,891,-874,892,-889,893]],"type":"Polygon","properties":{"state":"KS","name":"JEWELL","zip":"66949"}},{"arcs":[[894,895,896,-836]],"type":"Polygon","properties":{"state":"KS","name":"KENSINGTON","zip":"66951"}},{"arcs":[[897,898,-851,-871]],"type":"Polygon","properties":{"state":"KS","name":"LEBANON","zip":"66952"}},{"arcs":[[899,-858,900,-879]],"type":"Polygon","properties":{"state":"KS","name":"LINN","zip":"66953"}},{"arcs":[[901,902,903,-881]],"type":"Polygon","properties":{"state":"KS","name":"MAHASKA","zip":"66955"}},{"arcs":[[904,-872,-854,905,906,-875,-892,907,908,909]],"type":"Polygon","properties":{"state":"KS","name":"MANKATO","zip":"66956"}},{"arcs":[[910,-857,-882,-904,911]],"type":"Polygon","properties":{"state":"KS","name":"MORROWVILLE","zip":"66958"}},{"arcs":[[912,913,-847]],"type":"Polygon","properties":{"state":"KS","name":"MUNDEN","zip":"66959"}},{"arcs":[[-848,-914,914,-902]],"type":"Polygon","properties":{"state":"KS","name":"NARKA","zip":"66960"}},{"arcs":[[-824,-890,-893,-866,915,-841]],"type":"Polygon","properties":{"state":"KS","name":"NORWAY","zip":"66961"}},{"arcs":[[916,917,918,-859,-900,-878]],"type":"Polygon","properties":{"state":"KS","name":"PALMER","zip":"66962"}},{"arcs":[[919,-908,-891]],"type":"Polygon","properties":{"state":"KS","name":"RANDALL","zip":"66963"}},{"arcs":[[920,921,-845]],"type":"Polygon","properties":{"state":"KS","name":"REPUBLIC","zip":"66964"}},{"arcs":[[-865,-842,-916]],"type":"Polygon","properties":{"state":"KS","name":"SCANDIA","zip":"66966"}},{"arcs":[[-897,922,923,-852,-899,924,-837]],"type":"Polygon","properties":{"state":"KS","name":"SMITH CENTER","zip":"66967"}},{"arcs":[[-911,925,-886,-883,-880,-901]],"type":"Polygon","properties":{"state":"KS","name":"WASHINGTON","zip":"66968"}},{"arcs":[[-907,926,-921,-844,-876]],"type":"Polygon","properties":{"state":"KS","name":"WEBBER","zip":"66970"}},{"arcs":[[927,928,929,930,931]],"type":"Polygon","properties":{"state":"KS","name":"ANDALE","zip":"67001"}},{"arcs":[[932,933,934,935,936,937]],"type":"Polygon","properties":{"state":"KS","name":"ANDOVER","zip":"67002"}},{"arcs":[[938,939,940,941,942,943,944]],"type":"Polygon","properties":{"state":"KS","name":"ANTHONY","zip":"67003"}},{"arcs":[[945,946,947,948,949,950,951]],"type":"Polygon","properties":{"state":"KS","name":"ARGONIA","zip":"67004"}},{"arcs":[[952,953,954,955,956,957]],"type":"Polygon","properties":{"state":"KS","name":"ARKANSAS CITY","zip":"67005"}},{"arcs":[[958,959,960,961,962,963]],"type":"Polygon","properties":{"state":"KS","name":"ATLANTA","zip":"67008"}},{"arcs":[[964,965,966,967,968,969,-942,970]],"type":"Polygon","properties":{"state":"KS","name":"ATTICA","zip":"67009"}},{"arcs":[[971,972,973,-933,974,975]],"type":"Polygon","properties":{"state":"KS","name":"AUGUSTA","zip":"67010"}},{"arcs":[[976,977,978]],"type":"Polygon","properties":{"state":"KS","name":"BELLE PLAINE","zip":"67013"}},{"arcs":[[979,980,981,982,983,-938]],"type":"Polygon","properties":{"state":"KS","name":"BENTON","zip":"67017"}},{"arcs":[[984,-939,985,986]],"type":"Polygon","properties":{"state":"KS","name":"BLUFF CITY","zip":"67018"}},{"arcs":[[987,988,-960,989,990]],"type":"Polygon","properties":{"state":"KS","name":"BURDEN","zip":"67019"}},{"arcs":[[991,992,993,994,995,996,997]],"type":"Polygon","properties":{"state":"KS","name":"BURRTON","zip":"67020"}},{"arcs":[[998,999,1000,1001]],"type":"Polygon","properties":{"state":"KS","name":"BYERS","zip":"67021"}},{"arcs":[[1002,1003,-987,1004,-947,1005,1006]],"type":"Polygon","properties":{"state":"KS","name":"CALDWELL","zip":"67022"}},{"arcs":[[1007,1008,-990,-959,1009,1010]],"type":"Polygon","properties":{"state":"KS","name":"CAMBRIDGE","zip":"67023"}},{"arcs":[[1011,1012,1013,-1008,1014,1015,1016]],"type":"Polygon","properties":{"state":"KS","name":"CEDAR VALE","zip":"67024"}},{"arcs":[[1017,1018,1019,-930,1020,1021,1022]],"type":"Polygon","properties":{"state":"KS","name":"CHENEY","zip":"67025"}},{"arcs":[[1023,1024,1025,1026,1027,1028,1029,1030]],"type":"Polygon","properties":{"state":"KS","name":"CLEARWATER","zip":"67026"}},{"arcs":[[1031,1032,1033,1034]],"type":"Polygon","properties":{"state":"KS","name":"COATS","zip":"67028"}},{"arcs":[[1035,1036,1037,1038,1039,1040]],"type":"Polygon","properties":{"state":"KS","name":"COLDWATER","zip":"67029"}},{"arcs":[[1041,1042,-932,1043,1044,1045,1046]],"type":"Polygon","properties":{"state":"KS","name":"COLWICH","zip":"67030"}},{"arcs":[[1047,1048,-951,1049,1050,-1025]],"type":"Polygon","properties":{"state":"KS","name":"CONWAY SPRINGS","zip":"67031"}},{"arcs":[[1051,1052,1053,1054]],"type":"Polygon","properties":{"state":"KS","name":"CUNNINGHAM","zip":"67035"}},{"arcs":[[1055,-948,1056,-944]],"type":"Polygon","properties":{"state":"KS","name":"DANVILLE","zip":"67036"}},{"arcs":[[1057,1058,1059,1060,1061,1062,1063]],"type":"Polygon","properties":{"state":"KS","name":"DERBY","zip":"67037"}},{"arcs":[[1064,-958,1065,-991,-1009,-1014,1066]],"type":"Polygon","properties":{"state":"KS","name":"DEXTER","zip":"67038"}},{"arcs":[[1067,-1063,1068,-973,1069,-962,1070,1071]],"type":"Polygon","properties":{"state":"KS","name":"DOUGLASS","zip":"67039"}},{"arcs":[[1072,1073,-760,-763,1074,1075,1076,-976]],"type":"Polygon","properties":{"state":"KS","name":"EL DORADO","zip":"67042"}},{"arcs":[[1077,1078,1079,-1075,-762,-807,-799,-784,-816]],"type":"Polygon","properties":{"state":"KS","name":"EUREKA","zip":"67045"}},{"arcs":[[1080,1081,-814,-637,-703,1082]],"type":"Polygon","properties":{"state":"KS","name":"FALL RIVER","zip":"67047"}},{"arcs":[[-945,-1057,-1005,-986]],"type":"Polygon","properties":{"state":"KS","name":"FREEPORT","zip":"67049"}},{"arcs":[[1083,-1021,-929,1084]],"type":"Polygon","properties":{"state":"KS","name":"GARDEN PLAIN","zip":"67050"}},{"arcs":[[1085,1086,1087,-955]],"type":"Polygon","properties":{"state":"KS","name":"GEUDA SPRINGS","zip":"67051"}},{"arcs":[[1088,-1085,-928,-1043,1089,1090,-1027]],"type":"Polygon","properties":{"state":"KS","name":"GODDARD","zip":"67052"}},{"arcs":[[1091,1092,1093,1094,1095]],"type":"Polygon","properties":{"state":"KS","name":"GOESSEL","zip":"67053"}},{"arcs":[[1096,1097,1098,1099,1100,1101]],"type":"Polygon","properties":{"state":"KS","name":"GREENSBURG","zip":"67054"}},{"arcs":[[1102,1103,1104,1105,-998]],"type":"Polygon","properties":{"state":"KS","name":"HALSTEAD","zip":"67056"}},{"arcs":[[1106,1107,1108]],"type":"Polygon","properties":{"state":"KS","name":"HARDTNER","zip":"67057"}},{"arcs":[[-943,-970,1109,1110,-949,-1056]],"type":"Polygon","properties":{"state":"KS","name":"HARPER","zip":"67058"}},{"arcs":[[1111,1112,-1038,1113,-1101,1114,1115,1116,-1000,1117,-1033]],"type":"Polygon","properties":{"state":"KS","name":"HAVILAND","zip":"67059"}},{"arcs":[[1118,1119,-1030,1120,1121,1122,-1058]],"type":"Polygon","properties":{"state":"KS","name":"HAYSVILLE","zip":"67060"}},{"arcs":[[1123,1124,1125,1126,-965]],"type":"Polygon","properties":{"state":"KS","name":"HAZELTON","zip":"67061"}},{"arcs":[[1127,-1093,1128,-1104]],"type":"Polygon","properties":{"state":"KS","name":"HESSTON","zip":"67062"}},{"arcs":[[1129,1130,1131,-803,-811,1132,-1096]],"type":"Polygon","properties":{"state":"KS","name":"HILLSBORO","zip":"67063"}},{"arcs":[[1133,1134,-1053,1135,1136,1137]],"type":"Polygon","properties":{"state":"KS","name":"ISABEL","zip":"67065"}},{"arcs":[[1138,1139,1140,1141,1142,-1002]],"type":"Polygon","properties":{"state":"KS","name":"IUKA","zip":"67066"}},{"arcs":[[1143,1144,1145,1146]],"type":"Polygon","properties":{"state":"KS","name":"KECHI","zip":"67067"}},{"arcs":[[1147,1148,1149,-1136,-1052,1150,1151,1152,-1018,1153,1154]],"type":"Polygon","properties":{"state":"KS","name":"KINGMAN","zip":"67068"}},{"arcs":[[1155,1156,-1109,1157,-1125]],"type":"Polygon","properties":{"state":"KS","name":"KIOWA","zip":"67070"}},{"arcs":[[1158,1159]],"type":"Polygon","properties":{"state":"KS","name":"LAKE CITY","zip":"67071"}},{"arcs":[[1160,1161,1162,-1010,-964]],"type":"Polygon","properties":{"state":"KS","name":"LATHAM","zip":"67072"}},{"arcs":[[1163,1164,-1131]],"type":"Polygon","properties":{"state":"KS","name":"LEHIGH","zip":"67073"}},{"arcs":[[-972,-1077,1165,1166,-1161,-963,-1070]],"type":"Polygon","properties":{"state":"KS","name":"LEON","zip":"67074"}},{"arcs":[[1167,-1047,1168,1169]],"type":"Polygon","properties":{"state":"KS","name":"MAIZE","zip":"67101"}},{"arcs":[[1170,-953,-1065]],"type":"Polygon","properties":{"state":"KS","name":"MAPLE CITY","zip":"67102"}},{"arcs":[[1171,1172,-952,-1049]],"type":"Polygon","properties":{"state":"KS","name":"MAYFIELD","zip":"67103"}},{"arcs":[[-1158,-1108,1173,-1040,1174,1175,-1159,1176,1177,-1138,1178,1179,-967,1180,-1126]],"type":"Polygon","properties":{"state":"KS","name":"MEDICINE LODGE","zip":"67104"}},{"arcs":[[-1173,-1006,-946]],"type":"Polygon","properties":{"state":"KS","name":"MILAN","zip":"67105"}},{"arcs":[[1181,-1154,-1023,1182,-1050,-950]],"type":"Polygon","properties":{"state":"KS","name":"MILTON","zip":"67106"}},{"arcs":[[1183,1184,1185,1186,-1094,-1128,-1103,-997]],"type":"Polygon","properties":{"state":"KS","name":"MOUNDRIDGE","zip":"67107"}},{"arcs":[[-1020,1187,-993,1188,-1044,-931]],"type":"Polygon","properties":{"state":"KS","name":"MOUNT HOPE","zip":"67108"}},{"arcs":[[1189,1190,1191,-1102,-1114,-1037]],"type":"Polygon","properties":{"state":"KS","name":"MULLINVILLE","zip":"67109"}},{"arcs":[[1192,1193,1194,-979,1195,-1119,-1064,-1068]],"type":"Polygon","properties":{"state":"KS","name":"MULVANE","zip":"67110"}},{"arcs":[[1196,-1179,-1137,-1150]],"type":"Polygon","properties":{"state":"KS","name":"NASHVILLE","zip":"67112"}},{"arcs":[[-1129,-1092,-1133,-810,1197,-812,-753,1198,1199,1200,-1105]],"type":"Polygon","properties":{"state":"KS","name":"NEWTON","zip":"67114"}},{"arcs":[[1201,-1155,-1182,-1111]],"type":"Polygon","properties":{"state":"KS","name":"NORWICH","zip":"67118"}},{"arcs":[[-1088,1202,1203,-1194,1204,1205,-956]],"type":"Polygon","properties":{"state":"KS","name":"OXFORD","zip":"67119"}},{"arcs":[[1206,-1031,-1120,-1196,-978]],"type":"Polygon","properties":{"state":"KS","name":"PECK","zip":"67120"}},{"arcs":[[-1167,-1079,1207,1208,1209,-1162]],"type":"Polygon","properties":{"state":"KS","name":"PIEDMONT","zip":"67122"}},{"arcs":[[1210,-983,1211,-761,-1074]],"type":"Polygon","properties":{"state":"KS","name":"POTWIN","zip":"67123"}},{"arcs":[[1212,-1034,-1118,-999,-1143,1213,-1054,-1135]],"type":"Polygon","properties":{"state":"KS","name":"PRATT","zip":"67124"}},{"arcs":[[1214,1215,-1190,-1036,1216]],"type":"Polygon","properties":{"state":"KS","name":"PROTECTION","zip":"67127"}},{"arcs":[[1217,1218,-1071,-961,-989]],"type":"Polygon","properties":{"state":"KS","name":"ROCK","zip":"67131"}},{"arcs":[[-1076,-1080,-1166]],"type":"Polygon","properties":{"state":"KS","name":"ROSALIA","zip":"67132"}},{"arcs":[[-934,-974,-1069,-1062]],"type":"Polygon","properties":{"state":"KS","name":"ROSE HILL","zip":"67133"}},{"arcs":[[1219,-1035,-1213,-1134,-1178]],"type":"Polygon","properties":{"state":"KS","name":"SAWYER","zip":"67134"}},{"arcs":[[-992,-1106,-1201,1220,-1045,-1189]],"type":"Polygon","properties":{"state":"KS","name":"SEDGWICK","zip":"67135"}},{"arcs":[[1221,-1208,-1078,-815,-1082]],"type":"Polygon","properties":{"state":"KS","name":"SEVERY","zip":"67137"}},{"arcs":[[-1181,-966,-1127]],"type":"Polygon","properties":{"state":"KS","name":"SHARON","zip":"67138"}},{"arcs":[[1222,-1203,-1087,1223,-1003]],"type":"Polygon","properties":{"state":"KS","name":"SOUTH HAVEN","zip":"67140"}},{"arcs":[[1224,-1148,-1202,-1110,-969]],"type":"Polygon","properties":{"state":"KS","name":"SPIVEY","zip":"67142"}},{"arcs":[[1225,-1112,-1032,-1220,-1177,-1160,-1176]],"type":"Polygon","properties":{"state":"KS","name":"SUN CITY","zip":"67143"}},{"arcs":[[-975,-984,-1211,-1073]],"type":"Polygon","properties":{"state":"KS","name":"TOWANDA","zip":"67144"}},{"arcs":[[-1193,-1072,-1219,1226,-1205]],"type":"Polygon","properties":{"state":"KS","name":"UDALL","zip":"67146"}},{"arcs":[[1227,1228,-1169,-1046,-1221,-1200,1229,-981,1230,1231,-1145]],"type":"Polygon","properties":{"state":"KS","name":"VALLEY CENTER","zip":"67147"}},{"arcs":[[-1051,-1183,-1022,-1084,-1089,-1026]],"type":"Polygon","properties":{"state":"KS","name":"VIOLA","zip":"67149"}},{"arcs":[[1232,-1156,-1124,-971,-941]],"type":"Polygon","properties":{"state":"KS","name":"WALDRON","zip":"67150"}},{"arcs":[[-809,-1198]],"type":"Polygon","properties":{"state":"KS","name":"WALTON","zip":"67151"}},{"arcs":[[-1223,-1007,-1172,-1048,-1024,-1207,-977,-1195,-1204]],"type":"Polygon","properties":{"state":"KS","name":"WELLINGTON","zip":"67152"}},{"arcs":[[-982,-1230,-1199,-752,-1212]],"type":"Polygon","properties":{"state":"KS","name":"WHITEWATER","zip":"67154"}},{"arcs":[[-1039,-1113,-1226,-1175]],"type":"Polygon","properties":{"state":"KS","name":"WILMORE","zip":"67155"}},{"arcs":[[-1066,-957,-1206,-1227,-1218,-988]],"type":"Polygon","properties":{"state":"KS","name":"WINFIELD","zip":"67156"}},{"arcs":[[-1197,-1149,-1225,-968,-1180]],"type":"Polygon","properties":{"state":"KS","name":"ZENDA","zip":"67159"}},{"arcs":[[1233,1234,1235,1236]],"type":"Polygon","properties":{"state":"KS","name":"WICHITA","zip":"67202"}},{"arcs":[[1237,1238,1239,-1235,1240]],"type":"Polygon","properties":{"state":"KS","name":"WICHITA","zip":"67203"}},{"arcs":[[1241,-1239,1242,1243,-1229]],"type":"Polygon","properties":{"state":"KS","name":"WICHITA","zip":"67204"}},{"arcs":[[1244,-1170,-1244,1245]],"type":"Polygon","properties":{"state":"KS","name":"WICHITA","zip":"67205"}},{"arcs":[[1246,1247,1248,1249]],"type":"Polygon","properties":{"state":"KS","name":"WICHITA","zip":"67206"}},{"arcs":[[1250,1251,1252,-1250]],"type":"Polygon","properties":{"state":"KS","name":"WICHITA","zip":"67207"}},{"arcs":[[1253,1254,1255,-1247]],"type":"Polygon","properties":{"state":"KS","name":"WICHITA","zip":"67208"}},{"arcs":[[1256,1257,1258,1259]],"type":"Polygon","properties":{"state":"KS","name":"WICHITA","zip":"67209"}},{"arcs":[[1260,1261,-1252,1262,-1060]],"type":"Polygon","properties":{"state":"KS","name":"WICHITA","zip":"67210"}},{"arcs":[[1263,1264,-1237,1265,1266]],"type":"Polygon","properties":{"state":"KS","name":"WICHITA","zip":"67211"}},{"arcs":[[-1258,1267,-1246,-1243,-1238]],"type":"Polygon","properties":{"state":"KS","name":"WICHITA","zip":"67212"}},{"arcs":[[-1259,-1241,-1234,-1265,1268]],"type":"Polygon","properties":{"state":"KS","name":"WICHITA","zip":"67213"}},{"arcs":[[-1266,-1236,-1240,1269,-1255]],"type":"Polygon","properties":{"state":"KS","name":"WICHITA","zip":"67214"}},{"arcs":[[1270,-1121,-1029,1271,-1260]],"type":"Polygon","properties":{"state":"KS","name":"WICHITA","zip":"67215"}},{"arcs":[[1272,-1264,-1261,-1059,-1123]],"type":"Polygon","properties":{"state":"KS","name":"WICHITA","zip":"67216"}},{"arcs":[[-1122,-1271,-1269,-1273]],"type":"Polygon","properties":{"state":"KS","name":"WICHITA","zip":"67217"}},{"arcs":[[-1267,-1254,-1253,-1262]],"type":"Polygon","properties":{"state":"KS","name":"WICHITA","zip":"67218"}},{"arcs":[[-1228,-1144,1273,-1270,-1242]],"type":"Polygon","properties":{"state":"KS","name":"WICHITA","zip":"67219"}},{"arcs":[[-1274,-1147,1274,-1256]],"type":"Polygon","properties":{"state":"KS","name":"WICHITA","zip":"67220"}},{"arcs":[[1275,-1042,-1168,-1245]],"type":"Polygon","properties":{"state":"KS","name":"WICHITA","zip":"67223"}},{"arcs":[[1276,-1248,-1275,-1146,-1232]],"type":"Polygon","properties":{"state":"KS","name":"WICHITA","zip":"67226"}},{"arcs":[[-1028,-1091,1277,-1272]],"type":"Polygon","properties":{"state":"KS","name":"WICHITA","zip":"67227"}},{"arcs":[[1278,-1277,-1231,-980,-937]],"type":"Polygon","properties":{"state":"KS","name":"WICHITA","zip":"67228"}},{"arcs":[[1279,-1251,-1249,-1279,-936]],"type":"Polygon","properties":{"state":"KS","name":"WICHITA","zip":"67230"}},{"arcs":[[-1263,-1280,-935,-1061]],"type":"Polygon","properties":{"state":"KS","name":"WICHITA","zip":"67232"}},{"arcs":[[-1090,-1276,-1268,-1257,-1278]],"type":"Polygon","properties":{"state":"KS","name":"WICHITA","zip":"67235"}},{"arcs":[[1280,1281,1282,-660,-698,1283,1284,1285]],"type":"Polygon","properties":{"state":"KS","name":"INDEPENDENCE","zip":"67301"}},{"arcs":[[1286,1287,1288,1289,1290]],"type":"Polygon","properties":{"state":"KS","name":"ALTAMONT","zip":"67330"}},{"arcs":[[1291,1292,1293,1294]],"type":"Polygon","properties":{"state":"KS","name":"BARTLETT","zip":"67332"}},{"arcs":[[1295,1296,1297,1298,-1281]],"type":"Polygon","properties":{"state":"KS","name":"CANEY","zip":"67333"}},{"arcs":[[1299,1300,-1284,-697,-718]],"type":"Polygon","properties":{"state":"KS","name":"CHERRYVALE","zip":"67335"}},{"arcs":[[1301,-1292,1302,-629,-605]],"type":"Polygon","properties":{"state":"KS","name":"CHETOPA","zip":"67336"}},{"arcs":[[1303,1304,-1296,-1286,1305,1306,-1288]],"type":"Polygon","properties":{"state":"KS","name":"COFFEYVILLE","zip":"67337"}},{"arcs":[[1307,-716,1308]],"type":"Polygon","properties":{"state":"KS","name":"DENNIS","zip":"67341"}},{"arcs":[[-1287,-1294,1309,-1304]],"type":"Polygon","properties":{"state":"KS","name":"EDNA","zip":"67342"}},{"arcs":[[1310,1311,-661,-1283]],"type":"Polygon","properties":{"state":"KS","name":"ELK CITY","zip":"67344"}},{"arcs":[[1312,1313,-1017,1314,1315]],"type":"Polygon","properties":{"state":"KS","name":"ELK FALLS","zip":"67345"}},{"arcs":[[-1163,-1210,1316,1317,-1015,-1011]],"type":"Polygon","properties":{"state":"KS","name":"GRENOLA","zip":"67346"}},{"arcs":[[1318,-1316,1319,-1317,-1209,-1222,-1081]],"type":"Polygon","properties":{"state":"KS","name":"HOWARD","zip":"67349"}},{"arcs":[[-1301,1320,-1306,-1285]],"type":"Polygon","properties":{"state":"KS","name":"LIBERTY","zip":"67351"}},{"arcs":[[-1319,-1083,-702,-655,-1312,1321,-1313]],"type":"Polygon","properties":{"state":"KS","name":"LONGTON","zip":"67352"}},{"arcs":[[-1016,-1318,-1320,-1315]],"type":"Polygon","properties":{"state":"KS","name":"MOLINE","zip":"67353"}},{"arcs":[[-1300,-717,-1308,1322,-1289,-1307,-1321]],"type":"Polygon","properties":{"state":"KS","name":"MOUND VALLEY","zip":"67354"}},{"arcs":[[1323,1324,1325,-1298]],"type":"Polygon","properties":{"state":"KS","name":"NIOTAZE","zip":"67355"}},{"arcs":[[-1291,1326,-690,-630,-1303,-1295]],"type":"Polygon","properties":{"state":"KS","name":"OSWEGO","zip":"67356"}},{"arcs":[[-1290,-1323,-1309,-671,-709,-691,-1327]],"type":"Polygon","properties":{"state":"KS","name":"PARSONS","zip":"67357"}},{"arcs":[[1327,1328,-1325]],"type":"Polygon","properties":{"state":"KS","name":"PERU","zip":"67360"}},{"arcs":[[-1314,-1322,-1311,-1282,-1299,-1326,-1329,1329,-1012]],"type":"Polygon","properties":{"state":"KS","name":"SEDAN","zip":"67361"}},{"arcs":[[1330,1331,1332,1333,1334,1335,1336,1337,1338,1339]],"type":"Polygon","properties":{"state":"KS","name":"SALINA","zip":"67401"}},{"arcs":[[1340,1341,1342,1343,1344,1345,1346,1347]],"type":"Polygon","properties":{"state":"KS","name":"ABILENE","zip":"67410"}},{"arcs":[[1348,-1339,1349]],"type":"Polygon","properties":{"state":"KS","name":"ASSARIA","zip":"67416"}},{"arcs":[[-861,1350,-827]],"type":"Polygon","properties":{"state":"KS","name":"AURORA","zip":"67417"}},{"arcs":[[1351,1352,1353,1354]],"type":"Polygon","properties":{"state":"KS","name":"BARNARD","zip":"67418"}},{"arcs":[[1355,-1355,1356,1357,1358,1359,-909,-920,-894,-888,-822,1360,1361,1362]],"type":"Polygon","properties":{"state":"KS","name":"BELOIT","zip":"67420"}},{"arcs":[[1363,1364,-1334]],"type":"Polygon","properties":{"state":"KS","name":"BENNINGTON","zip":"67422"}},{"arcs":[[1365,1366,1367,-1332]],"type":"Polygon","properties":{"state":"KS","name":"BEVERLY","zip":"67423"}},{"arcs":[[1368,-1366,-1331,1369,1370,1371]],"type":"Polygon","properties":{"state":"KS","name":"BROOKVILLE","zip":"67425"}},{"arcs":[[1372,1373,1374,1375,1376,1377,1378]],"type":"Polygon","properties":{"state":"KS","name":"BUSHTON","zip":"67427"}},{"arcs":[[-1095,-1187,1379,1380,1381,1382,-1164,-1130]],"type":"Polygon","properties":{"state":"KS","name":"CANTON","zip":"67428"}},{"arcs":[[1383,-873,-905,1384]],"type":"Polygon","properties":{"state":"KS","name":"CAWKER CITY","zip":"67430"}},{"arcs":[[1385,-1348,1386,-443,1387]],"type":"Polygon","properties":{"state":"KS","name":"CHAPMAN","zip":"67431"}},{"arcs":[[1388,1389,1390,1391,-863,1392,-918,1393,-458,-521]],"type":"Polygon","properties":{"state":"KS","name":"CLAY CENTER","zip":"67432"}},{"arcs":[[1394,-829,1395,1396,-1356]],"type":"Polygon","properties":{"state":"KS","name":"DELPHOS","zip":"67436"}},{"arcs":[[1397,1398,1399,1400,-869,-1384]],"type":"Polygon","properties":{"state":"KS","name":"DOWNS","zip":"67437"}},{"arcs":[[1401,1402,-1132,-1165,-1383]],"type":"Polygon","properties":{"state":"KS","name":"DURHAM","zip":"67438"}},{"arcs":[[1403,1404,1405,1406,1407,1408,-1369,1409,1410,1411]],"type":"Polygon","properties":{"state":"KS","name":"ELLSWORTH","zip":"67439"}},{"arcs":[[1412,1413,-1341,-1386]],"type":"Polygon","properties":{"state":"KS","name":"ENTERPRISE","zip":"67441"}},{"arcs":[[1414,1415,-1371]],"type":"Polygon","properties":{"state":"KS","name":"FALUN","zip":"67442"}},{"arcs":[[-1186,1416,1417,1418,1419,-1380]],"type":"Polygon","properties":{"state":"KS","name":"GALVA","zip":"67443"}},{"arcs":[[1420,1421,-1412,1422,1423,-1379]],"type":"Polygon","properties":{"state":"KS","name":"GENESEO","zip":"67444"}},{"arcs":[[-1363,1424,-1361,-821,-1395]],"type":"Polygon","properties":{"state":"KS","name":"GLASCO","zip":"67445"}},{"arcs":[[1425,-1398,-1385,-910,-1360]],"type":"Polygon","properties":{"state":"KS","name":"GLEN ELDER","zip":"67446"}},{"arcs":[[-1394,-917,-877,-547,-459]],"type":"Polygon","properties":{"state":"KS","name":"GREEN","zip":"67447"}},{"arcs":[[-1382,1426,-1419,1427,-1350,-1338,-1343,1428,1429,-1402]],"type":"Polygon","properties":{"state":"KS","name":"GYPSUM","zip":"67448"}},{"arcs":[[1430,1431,-818,-820,-746,-798,1432]],"type":"Polygon","properties":{"state":"KS","name":"HERINGTON","zip":"67449"}},{"arcs":[[1433,1434,-1406,1435,-1377]],"type":"Polygon","properties":{"state":"KS","name":"HOLYROOD","zip":"67450"}},{"arcs":[[1436,1437,-1429,-1342,-1414,1438,-1431]],"type":"Polygon","properties":{"state":"KS","name":"HOPE","zip":"67451"}},{"arcs":[[1439,1440,1441,-1358]],"type":"Polygon","properties":{"state":"KS","name":"HUNTER","zip":"67452"}},{"arcs":[[1442,-1404,-1422]],"type":"Polygon","properties":{"state":"KS","name":"KANOPOLIS","zip":"67454"}},{"arcs":[[-1409,1443,-1353,1444,-1367]],"type":"Polygon","properties":{"state":"KS","name":"LINCOLN","zip":"67455"}},{"arcs":[[1445,1446,-1415,-1370,-1340,-1349,-1428,-1418]],"type":"Polygon","properties":{"state":"KS","name":"LINDSBORG","zip":"67456"}},{"arcs":[[1447,1448,-1423,-1411,1449]],"type":"Polygon","properties":{"state":"KS","name":"LITTLE RIVER","zip":"67457"}},{"arcs":[[1450,-1390,1451,-1346]],"type":"Polygon","properties":{"state":"KS","name":"LONGFORD","zip":"67458"}},{"arcs":[[-1436,-1405,-1443,-1421,-1378]],"type":"Polygon","properties":{"state":"KS","name":"LORRAINE","zip":"67459"}},{"arcs":[[-1185,1452,1453,1454,-1446,-1417]],"type":"Polygon","properties":{"state":"KS","name":"MCPHERSON","zip":"67460"}},{"arcs":[[-1455,1455,-1450,-1410,-1372,-1416,-1447]],"type":"Polygon","properties":{"state":"KS","name":"MARQUETTE","zip":"67464"}},{"arcs":[[-828,-1351,-864,-1392,1456,-1396]],"type":"Polygon","properties":{"state":"KS","name":"MILTONVALE","zip":"67466"}},{"arcs":[[1457,-1445,-1352,-1397,-1457,-1391,-1451,-1345,1458,1459,-1335,-1365]],"type":"Polygon","properties":{"state":"KS","name":"MINNEAPOLIS","zip":"67467"}},{"arcs":[[-862,-860,-919,-1393]],"type":"Polygon","properties":{"state":"KS","name":"MORGANVILLE","zip":"67468"}},{"arcs":[[-1460,1460,-1336]],"type":"Polygon","properties":{"state":"KS","name":"NEW CAMBRIA","zip":"67470"}},{"arcs":[[1461,1462,1463,1464,-1399,1465,-1441,1466,1467,1468]],"type":"Polygon","properties":{"state":"KS","name":"OSBORNE","zip":"67473"}},{"arcs":[[-1465,1469,1470,-1400]],"type":"Polygon","properties":{"state":"KS","name":"PORTIS","zip":"67474"}},{"arcs":[[1471,-1437,-1433,-797,-795]],"type":"Polygon","properties":{"state":"KS","name":"RAMONA","zip":"67475"}},{"arcs":[[-1427,-1381,-1420]],"type":"Polygon","properties":{"state":"KS","name":"ROXBURY","zip":"67476"}},{"arcs":[[-1425,-1362]],"type":"Polygon","properties":{"state":"KS","name":"SIMPSON","zip":"67478"}},{"arcs":[[-1459,-1344,-1337,-1461]],"type":"Polygon","properties":{"state":"KS","name":"SOLOMON","zip":"67480"}},{"arcs":[[1472,1473,1474,-1467,-1440,-1357,-1354,-1444,-1408]],"type":"Polygon","properties":{"state":"KS","name":"SYLVAN GROVE","zip":"67481"}},{"arcs":[[-1430,-1438,-1472,-804,-1403]],"type":"Polygon","properties":{"state":"KS","name":"TAMPA","zip":"67483"}},{"arcs":[[-1333,-1368,-1458,-1364]],"type":"Polygon","properties":{"state":"KS","name":"TESCOTT","zip":"67484"}},{"arcs":[[-1466,-1426,-1359,-1442]],"type":"Polygon","properties":{"state":"KS","name":"TIPTON","zip":"67485"}},{"arcs":[[-1347,-1452,-1389,-520,-493,-444,-1387]],"type":"Polygon","properties":{"state":"KS","name":"WAKEFIELD","zip":"67487"}},{"arcs":[[1475,1476,-1473,-1407,-1435]],"type":"Polygon","properties":{"state":"KS","name":"WILSON","zip":"67490"}},{"arcs":[[1477,1478,-1448,-1456,-1454]],"type":"Polygon","properties":{"state":"KS","name":"WINDOM","zip":"67491"}},{"arcs":[[-1413,-1388,-442,-819,-1432,-1439]],"type":"Polygon","properties":{"state":"KS","name":"WOODBINE","zip":"67492"}},{"arcs":[[1479,1480,1481,1482,1483,1484,1485,1486,-994,1487,1488,1489,1490,1491,1492]],"type":"Polygon","properties":{"state":"KS","name":"HUTCHINSON","zip":"67501"}},{"arcs":[[1493,-1486,1494,1495,1496]],"type":"Polygon","properties":{"state":"KS","name":"HUTCHINSON","zip":"67502"}},{"arcs":[[1497,-1491,1498,1499]],"type":"Polygon","properties":{"state":"KS","name":"ABBYVILLE","zip":"67510"}},{"arcs":[[1500,1501,1502]],"type":"Polygon","properties":{"state":"KS","name":"ALBERT","zip":"67511"}},{"arcs":[[1503,-1483,1504,1505]],"type":"Polygon","properties":{"state":"KS","name":"ALDEN","zip":"67512"}},{"arcs":[[1506,1507,1508,1509,1510,1511]],"type":"Polygon","properties":{"state":"KS","name":"ALEXANDER","zip":"67513"}},{"arcs":[[1512,-1151,1513,1514,-1500,1515]],"type":"Polygon","properties":{"state":"KS","name":"ARLINGTON","zip":"67514"}},{"arcs":[[1516,1517,-1510]],"type":"Polygon","properties":{"state":"KS","name":"BAZINE","zip":"67516"}},{"arcs":[[1518,1519,1520]],"type":"Polygon","properties":{"state":"KS","name":"BEELER","zip":"67518"}},{"arcs":[[1521,1522,1523,1524,-1116]],"type":"Polygon","properties":{"state":"KS","name":"BELPRE","zip":"67519"}},{"arcs":[[1525,1526,1527,1528]],"type":"Polygon","properties":{"state":"KS","name":"BISON","zip":"67520"}},{"arcs":[[1529,-1518,1530,1531,1532,1533]],"type":"Polygon","properties":{"state":"KS","name":"BROWNELL","zip":"67521"}},{"arcs":[[-1494,1534,-995,-1487]],"type":"Polygon","properties":{"state":"KS","name":"BUHLER","zip":"67522"}},{"arcs":[[1535,1536,1537,-1508,1538]],"type":"Polygon","properties":{"state":"KS","name":"BURDETT","zip":"67523"}},{"arcs":[[1539,1540,-1374,1541]],"type":"Polygon","properties":{"state":"KS","name":"CHASE","zip":"67524"}},{"arcs":[[1542,1543,1544,1545,-1476,-1434,-1376]],"type":"Polygon","properties":{"state":"KS","name":"CLAFLIN","zip":"67525"}},{"arcs":[[1546,1547,-1543,-1375,-1541,1548,1549]],"type":"Polygon","properties":{"state":"KS","name":"ELLINWOOD","zip":"67526"}},{"arcs":[[1550,-1523,1551,1552]],"type":"Polygon","properties":{"state":"KS","name":"GARFIELD","zip":"67529"}},{"arcs":[[1553,1554,-1501,1555,1556,-1544,-1548,1557]],"type":"Polygon","properties":{"state":"KS","name":"GREAT BEND","zip":"67530"}},{"arcs":[[1558,-1488,-1188,-1019,-1153]],"type":"Polygon","properties":{"state":"KS","name":"HAVEN","zip":"67543"}},{"arcs":[[-1557,1559,1560,1561,1562,1563,-1545]],"type":"Polygon","properties":{"state":"KS","name":"HOISINGTON","zip":"67544"}},{"arcs":[[1564,-1550,1565,-1481]],"type":"Polygon","properties":{"state":"KS","name":"HUDSON","zip":"67545"}},{"arcs":[[-1535,-1497,1566,-1478,-1453,-1184,-996]],"type":"Polygon","properties":{"state":"KS","name":"INMAN","zip":"67546"}},{"arcs":[[1567,1568,1569,1570,-1553,1571,-1099]],"type":"Polygon","properties":{"state":"KS","name":"KINSLEY","zip":"67547"}},{"arcs":[[1572,1573,-1528,1574,1575,-1512]],"type":"Polygon","properties":{"state":"KS","name":"LA CROSSE","zip":"67548"}},{"arcs":[[1576,1577,-1524,-1551,-1571,1578,-1536,1579,1580,1581,-1554]],"type":"Polygon","properties":{"state":"KS","name":"LARNED","zip":"67550"}},{"arcs":[[-1100,-1572,-1552,-1522,-1115]],"type":"Polygon","properties":{"state":"KS","name":"LEWIS","zip":"67552"}},{"arcs":[[1582,1583,1584,1585,-1529,-1574]],"type":"Polygon","properties":{"state":"KS","name":"LIEBENTHAL","zip":"67553"}},{"arcs":[[1586,-1506,1587,-1542,-1373,-1424,-1449,-1479,-1567,-1496,1588]],"type":"Polygon","properties":{"state":"KS","name":"LYONS","zip":"67554"}},{"arcs":[[-1511,-1530,1589,-1583,-1573]],"type":"Polygon","properties":{"state":"KS","name":"MC CRACKEN","zip":"67556"}},{"arcs":[[-1525,-1578,1590,-1139,-1001,-1117]],"type":"Polygon","properties":{"state":"KS","name":"MACKSVILLE","zip":"67557"}},{"arcs":[[1591,-1507,-1576,1592]],"type":"Polygon","properties":{"state":"KS","name":"NEKOMA","zip":"67559"}},{"arcs":[[1593,1594,-1519,1595,1596,-1517,-1509,-1538,1597,1598]],"type":"Polygon","properties":{"state":"KS","name":"NESS CITY","zip":"67560"}},{"arcs":[[-1485,1599,-1589,-1495]],"type":"Polygon","properties":{"state":"KS","name":"NICKERSON","zip":"67561"}},{"arcs":[[1600,1601,-1569]],"type":"Polygon","properties":{"state":"KS","name":"OFFERLE","zip":"67563"}},{"arcs":[[-1556,-1503,1602,-1560]],"type":"Polygon","properties":{"state":"KS","name":"OLMITZ","zip":"67564"}},{"arcs":[[-1555,-1582,1603,-1526,-1586,1604,1605,-1561,-1603,-1502]],"type":"Polygon","properties":{"state":"KS","name":"OTIS","zip":"67565"}},{"arcs":[[1606,-1516,-1499,-1490]],"type":"Polygon","properties":{"state":"KS","name":"PARTRIDGE","zip":"67566"}},{"arcs":[[1607,1608,-1492,-1498,-1515]],"type":"Polygon","properties":{"state":"KS","name":"PLEVNA","zip":"67568"}},{"arcs":[[-1513,-1607,-1489,-1559,-1152]],"type":"Polygon","properties":{"state":"KS","name":"PRETTY PRAIRIE","zip":"67570"}},{"arcs":[[1609,1610,1611,-1531,-1597]],"type":"Polygon","properties":{"state":"KS","name":"RANSOM","zip":"67572"}},{"arcs":[[-1482,-1566,-1549,-1540,-1588,-1505]],"type":"Polygon","properties":{"state":"KS","name":"RAYMOND","zip":"67573"}},{"arcs":[[-1539,-1592,-1580]],"type":"Polygon","properties":{"state":"KS","name":"ROZEL","zip":"67574"}},{"arcs":[[-1581,-1593,-1575,-1527,-1604]],"type":"Polygon","properties":{"state":"KS","name":"RUSH CENTER","zip":"67575"}},{"arcs":[[-1577,-1558,-1547,-1565,-1480,1612,-1140,-1591]],"type":"Polygon","properties":{"state":"KS","name":"SAINT JOHN","zip":"67576"}},{"arcs":[[-1613,1613,1614,-1141]],"type":"Polygon","properties":{"state":"KS","name":"STAFFORD","zip":"67578"}},{"arcs":[[-1484,-1504,-1587,-1600]],"type":"Polygon","properties":{"state":"KS","name":"STERLING","zip":"67579"}},{"arcs":[[1615,-1614,-1493,-1609]],"type":"Polygon","properties":{"state":"KS","name":"SYLVIA","zip":"67581"}},{"arcs":[[-1615,-1616,-1608,-1514,-1055,-1214,-1142]],"type":"Polygon","properties":{"state":"KS","name":"TURON","zip":"67583"}},{"arcs":[[1616,1617,1618,-1610,-1596,-1521]],"type":"Polygon","properties":{"state":"KS","name":"UTICA","zip":"67584"}},{"arcs":[[-1534,1619,1620,1621,1622,1623,-1584,-1590]],"type":"Polygon","properties":{"state":"KS","name":"HAYS","zip":"67601"}},{"arcs":[[1624,1625,1626,-923,-896]],"type":"Polygon","properties":{"state":"KS","name":"AGRA","zip":"67621"}},{"arcs":[[1627,1628,1629,1630,1631]],"type":"Polygon","properties":{"state":"KS","name":"ALMENA","zip":"67622"}},{"arcs":[[1632,1633,1634,-1470,-1464]],"type":"Polygon","properties":{"state":"KS","name":"ALTON","zip":"67623"}},{"arcs":[[1635,1636,1637,1638,1639,1640]],"type":"Polygon","properties":{"state":"KS","name":"BOGUE","zip":"67625"}},{"arcs":[[1641,1642,1643,1644,-1563]],"type":"Polygon","properties":{"state":"KS","name":"BUNKER HILL","zip":"67626"}},{"arcs":[[1645,-1622,1646,1647,1648]],"type":"Polygon","properties":{"state":"KS","name":"CATHARINE","zip":"67627"}},{"arcs":[[1649,1650,1651,1652]],"type":"Polygon","properties":{"state":"KS","name":"CLAYTON","zip":"67629"}},{"arcs":[[1653,-1611,-1619,1654,1655,1656]],"type":"Polygon","properties":{"state":"KS","name":"COLLYER","zip":"67631"}},{"arcs":[[1657,1658,-1636,1659]],"type":"Polygon","properties":{"state":"KS","name":"DAMAR","zip":"67632"}},{"arcs":[[1660,-1474,-1477,-1546,-1564,-1645]],"type":"Polygon","properties":{"state":"KS","name":"DORRANCE","zip":"67634"}},{"arcs":[[1661,1662,1663]],"type":"Polygon","properties":{"state":"KS","name":"DRESDEN","zip":"67635"}},{"arcs":[[1664,1665,-1647,-1621]],"type":"Polygon","properties":{"state":"KS","name":"ELLIS","zip":"67637"}},{"arcs":[[1666,1667,-895,-835,-925,-898,-870,-1401,-1471,-1635]],"type":"Polygon","properties":{"state":"KS","name":"GAYLORD","zip":"67638"}},{"arcs":[[1668,1669,1670,1671]],"type":"Polygon","properties":{"state":"KS","name":"GLADE","zip":"67639"}},{"arcs":[[1672,1673,1674]],"type":"Polygon","properties":{"state":"KS","name":"GORHAM","zip":"67640"}},{"arcs":[[1675,1676,-1657,1677,1678,1679,1680,-1638,1681,1682]],"type":"Polygon","properties":{"state":"KS","name":"HILL CITY","zip":"67642"}},{"arcs":[[1683,1684,-1652,1685,1686,-1664]],"type":"Polygon","properties":{"state":"KS","name":"JENNINGS","zip":"67643"}},{"arcs":[[1687,1688,-1672,1689,-1625,-1668]],"type":"Polygon","properties":{"state":"KS","name":"KIRWIN","zip":"67644"}},{"arcs":[[1690,1691,-1686,-1651,1692,-1629,1693,-1639,-1681]],"type":"Polygon","properties":{"state":"KS","name":"LENORA","zip":"67645"}},{"arcs":[[-1694,1694,1695,-1670,1696,-1640]],"type":"Polygon","properties":{"state":"KS","name":"LOGAN","zip":"67646"}},{"arcs":[[1697,1698,-1632,1699]],"type":"Polygon","properties":{"state":"KS","name":"LONG ISLAND","zip":"67647"}},{"arcs":[[-1661,1700,-1468,-1475]],"type":"Polygon","properties":{"state":"KS","name":"LUCAS","zip":"67648"}},{"arcs":[[1701,-1469,-1701,-1644]],"type":"Polygon","properties":{"state":"KS","name":"LURAY","zip":"67649"}},{"arcs":[[1702,1703,-1691,-1680,1704,-1678,-1656,1705]],"type":"Polygon","properties":{"state":"KS","name":"MORLAND","zip":"67650"}},{"arcs":[[1706,-1633,-1463,1707,1708,1709,-1649]],"type":"Polygon","properties":{"state":"KS","name":"NATOMA","zip":"67651"}},{"arcs":[[-1685,1710,1711,1712,-1653]],"type":"Polygon","properties":{"state":"KS","name":"NORCATUR","zip":"67653"}},{"arcs":[[-1713,1713,-1630,-1693,-1650]],"type":"Polygon","properties":{"state":"KS","name":"NORTON","zip":"67654"}},{"arcs":[[1714,-1676,1715,-1665,-1620,-1533]],"type":"Polygon","properties":{"state":"KS","name":"OGALLAH","zip":"67656"}},{"arcs":[[-1637,-1659,1716,-1682]],"type":"Polygon","properties":{"state":"KS","name":"PALCO","zip":"67657"}},{"arcs":[[1717,-1709,1718,1719,-1675]],"type":"Polygon","properties":{"state":"KS","name":"PARADISE","zip":"67658"}},{"arcs":[[-1705,-1679]],"type":"Polygon","properties":{"state":"KS","name":"PENOKEE","zip":"67659"}},{"arcs":[[1720,-1605,-1585,-1624,1721]],"type":"Polygon","properties":{"state":"KS","name":"PFEIFER","zip":"67660"}},{"arcs":[[-1671,-1696,1722,-1698,1723,-1626,-1690]],"type":"Polygon","properties":{"state":"KS","name":"PHILLIPSBURG","zip":"67661"}},{"arcs":[[-1683,-1717,-1658,1724,1725,-1707,-1648,-1666,-1716]],"type":"Polygon","properties":{"state":"KS","name":"PLAINVILLE","zip":"67663"}},{"arcs":[[-1695,-1628,-1699,-1723]],"type":"Polygon","properties":{"state":"KS","name":"PRAIRIE VIEW","zip":"67664"}},{"arcs":[[-1721,1726,-1673,-1720,1727,-1642,-1562,-1606]],"type":"Polygon","properties":{"state":"KS","name":"RUSSELL","zip":"67665"}},{"arcs":[[-1641,-1697,-1669,-1689,1728,-1725,-1660]],"type":"Polygon","properties":{"state":"KS","name":"STOCKTON","zip":"67669"}},{"arcs":[[-1646,-1710,-1718,-1674,-1727,-1722,-1623]],"type":"Polygon","properties":{"state":"KS","name":"VICTORIA","zip":"67671"}},{"arcs":[[-1654,-1677,-1715,-1532,-1612]],"type":"Polygon","properties":{"state":"KS","name":"WA KEENEY","zip":"67672"}},{"arcs":[[-1643,-1728,-1719,-1708,-1462,-1702]],"type":"Polygon","properties":{"state":"KS","name":"WALDO","zip":"67673"}},{"arcs":[[-1726,-1729,-1688,-1667,-1634]],"type":"Polygon","properties":{"state":"KS","name":"WOODSTON","zip":"67675"}},{"arcs":[[1729,1730,1731,1732,1733,1734,1735,1736,1737,1738,1739,1740,1741,1742,1743,1744]],"type":"Polygon","properties":{"state":"KS","name":"COLBY","zip":"67701"}},{"arcs":[[1745,1746,1747,1748,1749,1750,1751,-1736]],"type":"Polygon","properties":{"state":"KS","name":"ATWOOD","zip":"67730"}},{"arcs":[[1752,1753,1754,1755,1756]],"type":"Polygon","properties":{"state":"KS","name":"BIRD CITY","zip":"67731"}},{"arcs":[[1757,-1733,1758,-1731]],"type":"Polygon","properties":{"state":"KS","name":"BREWSTER","zip":"67732"}},{"arcs":[[1759,1760,1761,-1754,1762,-1734,-1758,-1730]],"type":"Polygon","properties":{"state":"KS","name":"EDSON","zip":"67733"}},{"arcs":[[1763,-1739]],"type":"Polygon","properties":{"state":"KS","name":"GEM","zip":"67734"}},{"arcs":[[1764,1765,1766,1767,-1755,-1762]],"type":"Polygon","properties":{"state":"KS","name":"GOODLAND","zip":"67735"}},{"arcs":[[1768,1769,1770,1771,1772,1773]],"type":"Polygon","properties":{"state":"KS","name":"GOVE","zip":"67736"}},{"arcs":[[1774,-1771,1775,1776]],"type":"Polygon","properties":{"state":"KS","name":"GRAINFIELD","zip":"67737"}},{"arcs":[[1777,1778,1779,-1742,1780,-1776,-1770]],"type":"Polygon","properties":{"state":"KS","name":"GRINNELL","zip":"67738"}},{"arcs":[[1781,-1750,1782,-1748,1783]],"type":"Polygon","properties":{"state":"KS","name":"HERNDON","zip":"67739"}},{"arcs":[[1784,-1777,-1781,-1741,1785,1786,-1703,1787]],"type":"Polygon","properties":{"state":"KS","name":"HOXIE","zip":"67740"}},{"arcs":[[1788,1789,1790,-1767,1791]],"type":"Polygon","properties":{"state":"KS","name":"KANORADO","zip":"67741"}},{"arcs":[[-1759,-1732]],"type":"Polygon","properties":{"state":"KS","name":"LEVANT","zip":"67743"}},{"arcs":[[-1783,-1749]],"type":"Polygon","properties":{"state":"KS","name":"LUDELL","zip":"67744"}},{"arcs":[[-1753,1792,-1746,-1735,-1763]],"type":"Polygon","properties":{"state":"KS","name":"MC DONALD","zip":"67745"}},{"arcs":[[1793,1794,-1744]],"type":"Polygon","properties":{"state":"KS","name":"MONUMENT","zip":"67747"}},{"arcs":[[1795,1796,1797,-1794,-1743,-1780]],"type":"Polygon","properties":{"state":"KS","name":"OAKLEY","zip":"67748"}},{"arcs":[[-1663,1798,-1751,-1782,1799,-1711,-1684]],"type":"Polygon","properties":{"state":"KS","name":"OBERLIN","zip":"67749"}},{"arcs":[[-1775,-1785,1800,-1772]],"type":"Polygon","properties":{"state":"KS","name":"PARK","zip":"67751"}},{"arcs":[[1801,-1773,-1801,-1788,-1706,-1655,-1618]],"type":"Polygon","properties":{"state":"KS","name":"QUINTER","zip":"67752"}},{"arcs":[[-1740,-1764,-1738,1802,-1786]],"type":"Polygon","properties":{"state":"KS","name":"REXFORD","zip":"67753"}},{"arcs":[[1803,-1756,-1768,-1791]],"type":"Polygon","properties":{"state":"KS","name":"SAINT FRANCIS","zip":"67756"}},{"arcs":[[-1737,-1752,-1799,-1662,-1687,-1692,-1704,-1787,-1803]],"type":"Polygon","properties":{"state":"KS","name":"SELDEN","zip":"67757"}},{"arcs":[[1804,1805,-1792,-1766,1806]],"type":"Polygon","properties":{"state":"KS","name":"SHARON SPRINGS","zip":"67758"}},{"arcs":[[1807,1808,-1807,-1765,-1761,1809]],"type":"Polygon","properties":{"state":"KS","name":"WALLACE","zip":"67761"}},{"arcs":[[1810,1811,-1789,-1806]],"type":"Polygon","properties":{"state":"KS","name":"WESKAN","zip":"67762"}},{"arcs":[[-1760,-1745,-1795,-1798,1812,1813,-1810]],"type":"Polygon","properties":{"state":"KS","name":"WINONA","zip":"67764"}},{"arcs":[[1814,1815,1816,1817,1818,1819,1820,1821]],"type":"Polygon","properties":{"state":"KS","name":"DODGE CITY","zip":"67801"}},{"arcs":[[1822,1823,1824,-1215]],"type":"Polygon","properties":{"state":"KS","name":"ASHLAND","zip":"67831"}},{"arcs":[[1825,1826,1827,-1097,-1192]],"type":"Polygon","properties":{"state":"KS","name":"BUCKLIN","zip":"67834"}},{"arcs":[[1828,1829,1830,1831,1832,1833,-1594,1834,-1816]],"type":"Polygon","properties":{"state":"KS","name":"CIMARRON","zip":"67835"}},{"arcs":[[1835,1836,1837,1838]],"type":"Polygon","properties":{"state":"KS","name":"COPELAND","zip":"67837"}},{"arcs":[[1839,1840,1841,1842,1843]],"type":"Polygon","properties":{"state":"KS","name":"DEERFIELD","zip":"67838"}},{"arcs":[[1844,-1774,-1802,-1617,-1520,-1595,-1834]],"type":"Polygon","properties":{"state":"KS","name":"DIGHTON","zip":"67839"}},{"arcs":[[1845,1846,1847,-1824]],"type":"Polygon","properties":{"state":"KS","name":"ENGLEWOOD","zip":"67840"}},{"arcs":[[1848,1849,-1829,-1815,1850]],"type":"Polygon","properties":{"state":"KS","name":"ENSIGN","zip":"67841"}},{"arcs":[[1851,-1820,1852,-1827]],"type":"Polygon","properties":{"state":"KS","name":"FORD","zip":"67842"}},{"arcs":[[1853,1854,-1851,-1822,1855,-1847]],"type":"Polygon","properties":{"state":"KS","name":"FOWLER","zip":"67844"}},{"arcs":[[1856,1857,1858,1859,1860,-1844,1861,1862,1863,-1832,1864]],"type":"Polygon","properties":{"state":"KS","name":"GARDEN CITY","zip":"67846"}},{"arcs":[[1865,-1598,-1537,-1579,-1570,-1602,1866]],"type":"Polygon","properties":{"state":"KS","name":"HANSTON","zip":"67849"}},{"arcs":[[1867,-1778,-1769,-1845,-1833,-1864]],"type":"Polygon","properties":{"state":"KS","name":"HEALY","zip":"67850"}},{"arcs":[[1868,-1840,-1861]],"type":"Polygon","properties":{"state":"KS","name":"HOLCOMB","zip":"67851"}},{"arcs":[[1869,-1839,1870,-1865,-1831]],"type":"Polygon","properties":{"state":"KS","name":"INGALLS","zip":"67853"}},{"arcs":[[-1835,-1599,-1866,1871,1872,-1817]],"type":"Polygon","properties":{"state":"KS","name":"JETMORE","zip":"67854"}},{"arcs":[[1873,1874,1875,1876,1877]],"type":"Polygon","properties":{"state":"KS","name":"JOHNSON","zip":"67855"}},{"arcs":[[1878,1879]],"type":"Polygon","properties":{"state":"KS","name":"KENDALL","zip":"67857"}},{"arcs":[[1880,1881,1882,1883]],"type":"Polygon","properties":{"state":"KS","name":"KISMET","zip":"67859"}},{"arcs":[[1884,1885,-1880,1886,1887,-1841,-1869,-1860]],"type":"Polygon","properties":{"state":"KS","name":"LAKIN","zip":"67860"}},{"arcs":[[1888,1889,-1808,-1814,1890,-1842,-1888]],"type":"Polygon","properties":{"state":"KS","name":"LEOTI","zip":"67861"}},{"arcs":[[1891,1892,1893,1894,-1876]],"type":"Polygon","properties":{"state":"KS","name":"MANTER","zip":"67862"}},{"arcs":[[-1843,-1891,-1813,-1797,1895,-1862]],"type":"Polygon","properties":{"state":"KS","name":"MARIENTHAL","zip":"67863"}},{"arcs":[[1896,1897,-1849,-1855,1898]],"type":"Polygon","properties":{"state":"KS","name":"MEADE","zip":"67864"}},{"arcs":[[-1856,-1821,-1852,-1826,-1191,-1216,-1825,-1848]],"type":"Polygon","properties":{"state":"KS","name":"MINNEOLA","zip":"67865"}},{"arcs":[[1899,-1836,-1870,-1830,-1850,-1898]],"type":"Polygon","properties":{"state":"KS","name":"MONTEZUMA","zip":"67867"}},{"arcs":[[1900,-1857,-1871]],"type":"Polygon","properties":{"state":"KS","name":"PIERCEVILLE","zip":"67868"}},{"arcs":[[1901,-1884,1902,1903,-1837,-1900,-1897]],"type":"Polygon","properties":{"state":"KS","name":"PLAINS","zip":"67869"}},{"arcs":[[1904,1905,1906,-1859,1907,-1903,-1883]],"type":"Polygon","properties":{"state":"KS","name":"SATANTA","zip":"67870"}},{"arcs":[[-1863,-1896,-1796,-1779,-1868]],"type":"Polygon","properties":{"state":"KS","name":"SCOTT CITY","zip":"67871"}},{"arcs":[[1908,-1872,-1867,-1601,-1568,-1098,-1828,-1853,-1819]],"type":"Polygon","properties":{"state":"KS","name":"SPEARVILLE","zip":"67876"}},{"arcs":[[-1908,-1858,-1901,-1838,-1904]],"type":"Polygon","properties":{"state":"KS","name":"SUBLETTE","zip":"67877"}},{"arcs":[[1909,1910,-1889,-1887,-1879,-1886,-1877,-1895]],"type":"Polygon","properties":{"state":"KS","name":"SYRACUSE","zip":"67878"}},{"arcs":[[-1911,1911,-1811,-1805,-1809,-1890]],"type":"Polygon","properties":{"state":"KS","name":"TRIBUNE","zip":"67879"}},{"arcs":[[1912,-1878,-1885,-1907]],"type":"Polygon","properties":{"state":"KS","name":"ULYSSES","zip":"67880"}},{"arcs":[[-1873,-1909,-1818]],"type":"Polygon","properties":{"state":"KS","name":"WRIGHT","zip":"67882"}},{"arcs":[[1913,1914,1915,-1905,-1882]],"type":"Polygon","properties":{"state":"KS","name":"LIBERAL","zip":"67901"}},{"arcs":[[1916,1917,-1893,1918]],"type":"Polygon","properties":{"state":"KS","name":"ELKHART","zip":"67950"}},{"arcs":[[1919,1920,1921,1922,-1915]],"type":"Polygon","properties":{"state":"KS","name":"HUGOTON","zip":"67951"}},{"arcs":[[-1916,-1923,1923,-1874,-1913,-1906]],"type":"Polygon","properties":{"state":"KS","name":"MOSCOW","zip":"67952"}},{"arcs":[[1924,-1919,-1892,-1875,-1924,-1922]],"type":"Polygon","properties":{"state":"KS","name":"RICHFIELD","zip":"67953"}},{"arcs":[[1925,-1917,-1925,-1921]],"type":"Polygon","properties":{"state":"KS","name":"ROLLA","zip":"67954"}}]}},"arcs":[[[23197,15202],[-54,0]],[[23143,15202],[-113,-28]],[[23030,15174],[-54,0]],[[22976,15174],[0,28]],[[22976,15202],[14,127]],[[22990,15329],[-23,114]],[[22967,15443],[27,0]],[[22994,15443],[81,0]],[[23075,15443],[54,-30]],[[23129,15413],[-40,-89],[108,-122]],[[22877,14505],[5,74]],[[22882,14579],[67,51]],[[22949,14630],[108,25]],[[23057,14655],[41,-92]],[[23098,14563],[-113,-81]],[[22985,14482],[-108,23]],[[23251,14981],[-9,-89]],[[23242,14892],[-54,0]],[[23188,14892],[4,73]],[[23192,14965],[59,16]],[[22994,15443],[0,89]],[[22994,15532],[81,-89]],[[23197,13920],[85,-135]],[[23282,13785],[-58,0]],[[23224,13785],[-113,0]],[[23111,13785],[-13,135]],[[23098,13920],[13,13]],[[23111,13933],[86,-13]],[[23273,14833],[-31,-69]],[[23242,14764],[-41,-10]],[[23201,14754],[-22,64]],[[23179,14818],[9,74]],[[23242,14892],[45,0]],[[23287,14892],[-14,-59]],[[23476,14520],[0,-25],[0,-36]],[[23476,14459],[-104,-7]],[[23372,14452],[0,7]],[[23372,14459],[0,102]],[[23372,14561],[45,10]],[[23417,14571],[59,-51]],[[23300,14019],[-103,-99]],[[23111,13933],[9,109]],[[23120,14042],[180,-23]],[[22940,13846],[27,-61]],[[22967,13785],[-58,-15]],[[22909,13770],[-140,15]],[[22769,13785],[0,77]],[[22769,13862],[72,43]],[[22841,13905],[99,-59]],[[22976,15202],[-58,46]],[[22918,15248],[18,55]],[[22936,15303],[54,26]],[[22967,15443],[-58,16]],[[22909,15459],[0,73]],[[22909,15532],[85,0]],[[23156,14640],[-13,107]],[[23143,14747],[58,7]],[[23242,14764],[0,-2]],[[23242,14762],[4,-41]],[[23246,14721],[-72,-81]],[[23174,14640],[-18,0]],[[23107,15047],[-59,23]],[[23048,15070],[-18,104]],[[23143,15202],[-36,-155]],[[23228,14520],[-13,-76]],[[23215,14444],[-54,15]],[[23161,14459],[-63,89]],[[23098,14548],[58,61]],[[23156,14609],[72,-89]],[[22918,15248],[-118,-44]],[[22800,15204],[-72,-2]],[[22728,15202],[0,91]],[[22728,15293],[86,61]],[[22814,15354],[18,28]],[[22832,15382],[32,-15]],[[22864,15367],[72,-64]],[[23057,14655],[-4,92]],[[23053,14747],[36,-5]],[[23089,14742],[54,5]],[[23156,14640],[0,-31]],[[23098,14548],[0,15]],[[23327,14207],[-90,-134]],[[23237,14073],[-31,73]],[[23206,14146],[31,44]],[[23237,14190],[90,17]],[[23273,14584],[0,-36]],[[23273,14548],[-45,-28]],[[23174,14640],[99,-56]],[[23098,13920],[-90,0]],[[23008,13920],[-144,61]],[[22864,13981],[-86,92]],[[22778,14073],[0,61]],[[22778,14134],[86,12]],[[22864,14146],[157,0]],[[23021,14146],[-27,-73],[126,-16]],[[23120,14057],[0,-15]],[[23129,14146],[-9,-89]],[[23021,14146],[41,46]],[[23062,14192],[67,-46]],[[23053,15703],[-81,-105]],[[22972,15598],[-63,69]],[[22909,15667],[0,33]],[[22909,15700],[108,-2]],[[23017,15698],[36,5]],[[23111,13785],[-112,-15]],[[22999,13770],[-32,15]],[[22940,13846],[68,74]],[[23305,14027],[-68,46]],[[23327,14207],[77,13]],[[23404,14220],[67,-15]],[[23471,14205],[0,-3],[5,-134],[0,-13]],[[23476,14055],[-149,-28]],[[23327,14027],[-22,0]],[[22864,15367],[45,92]],[[23120,14235],[45,-89]],[[23165,14146],[-36,0]],[[23062,14192],[-14,31]],[[23048,14223],[72,12]],[[22967,14729],[-18,79]],[[22949,14808],[0,61]],[[22949,14869],[27,20]],[[22976,14889],[50,8]],[[23026,14897],[45,-100]],[[23071,14797],[18,-55]],[[23053,14747],[-86,-26]],[[22967,14721],[0,8]],[[22949,14630],[18,91]],[[22882,14579],[-50,89]],[[22832,14668],[18,30]],[[22850,14698],[117,28]],[[22967,14726],[0,-5]],[[23300,14998],[-49,-17]],[[23192,14965],[-130,-15]],[[23062,14950],[45,97]],[[23197,15202],[22,-33],[23,-56],[58,-115]],[[22850,14698],[-18,28]],[[22832,14726],[86,79]],[[22918,14805],[31,3]],[[22967,14729],[0,-3]],[[22832,14726],[-50,18]],[[22782,14744],[0,87]],[[22782,14831],[14,0]],[[22796,14831],[122,-26]],[[23071,14797],[108,21]],[[23476,14459],[0,-117],[-5,-137]],[[23404,14220],[-32,232]],[[23062,14950],[-36,-53]],[[22976,14889],[-18,153]],[[22958,15042],[90,28]],[[23368,13874],[-59,-89]],[[23309,13785],[-27,0]],[[23300,14019],[5,8]],[[23327,14027],[41,-153]],[[22728,15293],[0,28]],[[22728,15321],[5,54]],[[22733,15375],[81,-21]],[[22976,15174],[-63,-54]],[[22913,15120],[-113,84]],[[23246,14721],[45,-7]],[[23291,14714],[32,0]],[[23323,14714],[27,-28]],[[23350,14686],[-77,-102]],[[23372,14561],[-99,-13]],[[23350,14686],[9,7]],[[23359,14693],[13,-10]],[[23372,14683],[0,-30]],[[23372,14653],[27,-44]],[[23399,14609],[18,-38]],[[23206,14146],[-41,0]],[[23120,14235],[0,92]],[[23120,14327],[131,-41],[-14,-96]],[[22949,14869],[-117,51]],[[22832,14920],[18,132]],[[22850,15052],[81,33]],[[22931,15085],[27,-43]],[[23066,14370],[-31,-79]],[[23035,14291],[-144,-25]],[[22891,14266],[-14,66]],[[22877,14332],[-59,0],[91,61],[-50,112]],[[22859,14505],[18,0]],[[22985,14482],[81,-112]],[[22832,14920],[-36,-28]],[[22796,14892],[-27,157]],[[22769,15049],[81,3]],[[23120,14327],[0,43]],[[23120,14370],[41,89]],[[23215,14444],[157,15]],[[22796,14831],[0,61]],[[23476,14055],[0,-76],[-5,-110],[0,-10]],[[23471,13859],[-103,15]],[[22773,14289],[0,96]],[[22773,14385],[9,89]],[[22782,14474],[77,31]],[[22877,14332],[-99,-81]],[[22778,14251],[-5,38]],[[23048,14223],[-157,-46]],[[22891,14177],[0,89]],[[23035,14291],[13,-68]],[[23066,14370],[54,0]],[[22864,14146],[27,31]],[[23399,14609],[18,0]],[[23417,14609],[27,0]],[[23444,14609],[32,10]],[[23476,14619],[0,-2],[0,-97]],[[22909,15532],[0,23]],[[22909,15555],[63,43]],[[23053,15703],[216,-97]],[[23269,15606],[-113,0],[45,-71]],[[23201,15535],[-72,-122]],[[22769,15049],[-54,21]],[[22715,15070],[0,15]],[[22715,15085],[13,117]],[[22913,15120],[18,-35]],[[23269,15606],[-5,-18],[0,-25],[-63,-28]],[[22841,13905],[23,76]],[[22737,13905],[-18,109]],[[22719,14014],[59,59]],[[22769,13862],[-32,43]],[[22909,15700],[0,99]],[[22909,15799],[22,0],[86,-101]],[[22778,14134],[0,58]],[[22778,14192],[0,59]],[[23458,14866],[0,33]],[[23458,14899],[0,23]],[[23458,14922],[13,-33]],[[23471,14889],[5,-15]],[[23476,14874],[-18,-8]],[[23399,14869],[-22,10]],[[23377,14879],[-5,25]],[[23372,14904],[5,0]],[[23377,14904],[81,-5]],[[23458,14866],[-32,5]],[[23426,14871],[-27,-2]],[[23480,14866],[0,-8],[-4,-12],[0,-28]],[[23476,14818],[-27,0]],[[23449,14818],[-5,33]],[[23444,14851],[36,15]],[[23377,14904],[-5,43]],[[23372,14947],[72,-17]],[[23444,14930],[14,-8]],[[23444,14851],[-18,20]],[[23476,14874],[4,-8]],[[23386,14818],[-27,0]],[[23359,14818],[-27,0]],[[23332,14818],[67,51]],[[23449,14818],[-5,0]],[[23444,14818],[-9,0]],[[23435,14818],[-49,0]],[[23327,14904],[-40,-12]],[[23300,14998],[72,-51]],[[23372,14904],[-45,0]],[[23332,14818],[-59,15]],[[23327,14904],[50,-25]],[[23471,14889],[5,0]],[[23476,14889],[-32,41]],[[23476,14889],[4,-5],[0,-8],[0,-10]],[[23408,14780],[27,38]],[[23444,14818],[0,-31]],[[23444,14787],[0,-7]],[[23444,14780],[-36,0]],[[23404,14767],[-18,0]],[[23386,14767],[0,51]],[[23408,14780],[-4,-13]],[[23404,14752],[0,15]],[[23444,14780],[-4,-28]],[[23440,14752],[-36,0]],[[23476,14808],[-32,-21]],[[23476,14818],[0,-10]],[[23462,14703],[0,49]],[[23462,14752],[14,5]],[[23476,14757],[0,-49]],[[23476,14708],[-14,-5]],[[23462,14703],[-22,3]],[[23440,14706],[0,46]],[[23440,14752],[22,0]],[[23476,14808],[0,-5],[0,-31],[0,-15]],[[23444,14653],[-13,2]],[[23431,14655],[0,28]],[[23431,14683],[45,0]],[[23476,14683],[0,-30]],[[23476,14653],[-32,0]],[[23372,14683],[14,23]],[[23386,14706],[18,0]],[[23404,14706],[27,-3]],[[23431,14703],[0,-20]],[[23431,14683],[-59,0]],[[23431,14703],[9,3]],[[23476,14708],[0,-25]],[[23404,14706],[0,46]],[[23431,14655],[-14,-2]],[[23417,14653],[-45,0]],[[23386,14706],[0,51]],[[23386,14757],[0,10]],[[23359,14693],[0,64]],[[23359,14757],[27,0]],[[23359,14757],[0,61]],[[23359,14757],[-27,0]],[[23332,14757],[-9,58]],[[23323,14815],[9,3]],[[23332,14757],[-18,0]],[[23314,14757],[-23,0]],[[23291,14757],[5,15]],[[23296,14772],[27,43]],[[23323,14714],[-9,43]],[[23291,14714],[0,43]],[[23417,14653],[0,-44]],[[23444,14653],[0,-44]],[[23476,14653],[0,-34]],[[23296,14772],[-54,-10]],[[22116,14505],[-27,46]],[[22089,14551],[13,132],[-99,15]],[[22003,14698],[0,120]],[[22003,14818],[86,0],[0,132]],[[22089,14950],[117,38]],[[22206,14988],[0,-229],[86,0]],[[22292,14759],[0,-122]],[[22292,14637],[-45,-132]],[[22247,14505],[-131,0]],[[22526,14640],[-63,0]],[[22463,14640],[-27,58]],[[22436,14698],[144,31]],[[22580,14729],[0,-31]],[[22580,14698],[-45,-61]],[[22535,14637],[-9,3]],[[22206,15710],[0,-89]],[[22206,15621],[-86,0]],[[22120,15621],[0,89]],[[22120,15710],[86,0]],[[22296,15621],[-90,0]],[[22206,15710],[0,89]],[[22206,15799],[90,0]],[[22296,15799],[0,-178]],[[22120,15621],[-90,0]],[[22030,15621],[-72,89]],[[21958,15710],[-18,0]],[[21940,15710],[0,89]],[[21940,15799],[18,0],[72,0],[86,0]],[[22116,15799],[4,-89]],[[22287,15054],[-9,-84]],[[22278,14970],[-67,21]],[[22211,14991],[4,94]],[[22215,15085],[36,23]],[[22251,15108],[36,-54]],[[22472,15710],[-90,0]],[[22382,15710],[0,89]],[[22382,15799],[4,0],[86,0]],[[22472,15799],[0,-89]],[[22665,14655],[-13,36]],[[22652,14691],[-9,38]],[[22643,14729],[72,30]],[[22715,14759],[67,-15]],[[22832,14668],[-122,-43]],[[22710,14625],[-45,30]],[[21958,15532],[72,0],[0,-178]],[[22030,15354],[-76,0]],[[21954,15354],[-117,0]],[[21837,15354],[13,178]],[[21850,15532],[108,0]],[[21765,15621],[0,89]],[[21765,15710],[85,-89]],[[21850,15621],[-85,0]],[[22436,14474],[0,31]],[[22436,14505],[27,135]],[[22526,14640],[22,-46]],[[22548,14594],[59,-89]],[[22607,14505],[-5,-46]],[[22602,14459],[-166,15]],[[22607,14536],[-59,58]],[[22535,14637],[130,18]],[[22710,14625],[-13,-105]],[[22697,14520],[-90,16]],[[22220,15443],[-14,178]],[[22296,15621],[0,-89]],[[22296,15532],[-76,-89]],[[22467,15265],[-13,89]],[[22454,15354],[18,0]],[[22472,15354],[67,0]],[[22539,15354],[18,-76],[-90,-13]],[[22364,15354],[-81,0]],[[22283,15354],[-59,0]],[[22224,15354],[-4,89]],[[22296,15532],[86,0]],[[22382,15532],[0,-178]],[[22382,15354],[-18,0]],[[22539,14996],[-72,0]],[[22467,14996],[-85,0]],[[22382,14996],[-18,58]],[[22364,15054],[0,97]],[[22364,15151],[0,23]],[[22364,15174],[103,0]],[[22467,15174],[86,-178]],[[22553,14996],[-14,0]],[[22715,15085],[-32,28]],[[22683,15113],[-27,76]],[[22656,15189],[72,13]],[[22251,15108],[113,43]],[[22364,15054],[-77,0]],[[22292,14505],[-45,0]],[[22292,14637],[72,3],[-14,-135]],[[22350,14505],[-58,0]],[[22832,15382],[-14,173]],[[22818,15555],[91,0]],[[22647,15695],[41,-104]],[[22688,15591],[-131,2]],[[22557,15593],[14,102]],[[22571,15695],[76,0]],[[22120,15621],[0,-267]],[[22120,15354],[-90,0]],[[21958,15532],[-4,89]],[[21954,15621],[76,0]],[[22454,15354],[-72,0]],[[22382,15532],[90,0]],[[22472,15532],[0,-178]],[[22782,14831],[-54,0]],[[22728,14831],[0,68]],[[22728,14899],[68,-7]],[[22292,14759],[27,0]],[[22319,14759],[117,0]],[[22436,14759],[0,-61]],[[22436,14505],[-86,0]],[[22364,15151],[-81,203]],[[22364,15354],[0,-180]],[[22647,15695],[0,104]],[[22647,15799],[162,0],[100,0]],[[22909,15667],[-91,-84]],[[22818,15583],[-130,8]],[[22467,15189],[0,76]],[[22539,15354],[18,0]],[[22557,15354],[99,-17]],[[22656,15337],[72,-16]],[[22656,15189],[-189,0]],[[21954,15621],[4,89]],[[22733,15375],[-45,68]],[[22688,15443],[0,148]],[[22818,15583],[0,-28]],[[22647,14996],[-72,0]],[[22575,14996],[108,117]],[[22715,15070],[-27,-74]],[[22688,14996],[-41,0]],[[21841,14818],[27,-178]],[[21868,14640],[-171,0]],[[21697,14640],[-27,0]],[[21670,14640],[-58,269]],[[21612,14909],[31,0]],[[21643,14909],[77,-56]],[[21720,14853],[94,3]],[[21814,14856],[27,10]],[[21841,14866],[0,-48]],[[21720,14853],[9,23]],[[21729,14876],[72,-12]],[[21801,14864],[13,-8]],[[21886,14640],[-18,0]],[[21841,14818],[162,0]],[[22003,14698],[-31,-58]],[[21972,14640],[-86,0]],[[21832,15159],[-27,-44]],[[21805,15115],[-162,-20]],[[21643,15095],[0,84]],[[21643,15179],[0,58]],[[21643,15237],[189,-78]],[[22742,14385],[-54,-58]],[[22688,14327],[-54,-46]],[[22634,14281],[-59,74]],[[22575,14355],[27,104]],[[22607,14505],[0,31]],[[22697,14520],[0,-30]],[[22697,14490],[45,-105]],[[21841,14866],[5,26]],[[21846,14892],[63,195]],[[21909,15087],[49,0]],[[21958,15087],[45,-5]],[[22003,15082],[81,-127]],[[22084,14955],[5,-5]],[[21846,14892],[-14,15]],[[21832,14907],[-27,208]],[[21832,15159],[77,-72]],[[22319,14759],[40,148]],[[22359,14907],[14,-10]],[[22373,14897],[63,-26]],[[22436,14871],[0,-68]],[[22436,14803],[0,-21]],[[22436,14782],[0,-23]],[[21850,15532],[0,89]],[[21765,15710],[0,89]],[[21765,15799],[76,0],[9,0]],[[21850,15799],[90,-89]],[[22467,15174],[0,15]],[[22575,14996],[-22,0]],[[22634,14192],[0,89]],[[22688,14327],[85,-38]],[[22778,14192],[-144,0]],[[22728,14899],[-40,97]],[[21643,14909],[0,89]],[[21643,14998],[86,0],[0,-122]],[[22571,15695],[-14,104]],[[22557,15799],[5,0],[85,0]],[[22616,15443],[40,-106]],[[22557,15354],[0,89]],[[22557,15443],[59,0]],[[21801,14864],[31,43]],[[21850,15799],[90,0]],[[21954,15347],[4,-260]],[[21832,15159],[122,188]],[[22215,15085],[-36,46]],[[22179,15131],[0,132]],[[22179,15263],[-5,91]],[[22174,15354],[50,0]],[[22472,15621],[-90,89]],[[22472,15710],[0,-89]],[[22431,14223],[-13,236]],[[22418,14459],[18,15]],[[22575,14355],[-27,-132],[-117,0]],[[22782,14474],[-85,16]],[[22206,14988],[5,3]],[[22278,14970],[81,-63]],[[22557,15443],[0,89]],[[22557,15532],[0,61]],[[22688,15443],[-72,0]],[[22742,14385],[31,0]],[[21643,14998],[0,8]],[[21643,15006],[0,89]],[[22463,14861],[-27,10]],[[22373,14897],[9,99]],[[22467,14996],[-4,-135]],[[22557,15532],[-85,0]],[[22472,15532],[0,89]],[[22472,15799],[85,0]],[[22003,15082],[86,18]],[[22089,15100],[-5,-145]],[[22296,15799],[86,0]],[[22539,14996],[23,-127],[-68,-8]],[[22494,14861],[-31,0]],[[22116,15799],[90,0]],[[22715,14759],[0,16]],[[22715,14775],[-23,30]],[[22692,14805],[27,20]],[[22719,14825],[0,3]],[[22719,14828],[9,3]],[[22174,15354],[-54,0]],[[22580,14698],[72,-7]],[[22089,15100],[90,31]],[[21837,15354],[-72,0]],[[21765,15354],[0,178]],[[21765,15532],[0,89]],[[21954,15347],[0,7]],[[22120,15354],[59,-91]],[[21643,15237],[5,117]],[[21648,15354],[27,0]],[[21675,15354],[90,0]],[[22656,14836],[-9,-13]],[[22647,14823],[-9,2]],[[22638,14825],[5,13]],[[22643,14838],[13,-2]],[[22616,14803],[-41,0]],[[22575,14803],[5,22]],[[22580,14825],[58,-2]],[[22638,14823],[0,-20]],[[22638,14803],[-22,0]],[[22638,14775],[5,28]],[[22643,14803],[4,0]],[[22647,14803],[45,2]],[[22715,14775],[-77,0]],[[22580,14825],[4,21]],[[22584,14846],[18,0]],[[22602,14846],[41,-8]],[[22638,14825],[0,-2]],[[22647,14803],[0,20]],[[22656,14836],[5,0]],[[22661,14836],[58,-11]],[[22679,14861],[-18,-25]],[[22602,14846],[45,20]],[[22647,14866],[32,-5]],[[22616,14739],[0,36]],[[22616,14775],[22,0]],[[22643,14729],[-27,10]],[[22616,14739],[-36,-10]],[[22436,14782],[180,-7]],[[22616,14775],[0,28]],[[22638,14803],[5,0]],[[22436,14803],[139,0]],[[22494,14861],[90,-15]],[[22679,14861],[40,-33]],[[22647,14866],[0,130]],[[23345,13412],[-72,0]],[[23273,13412],[-27,0]],[[23246,13412],[0,91]],[[23246,13503],[113,0],[9,148]],[[23368,13651],[27,134]],[[23395,13785],[76,0]],[[23471,13785],[0,-96],[0,-87],[0,-89],[0,-48],[0,-53]],[[23471,13412],[-126,0]],[[22764,13295],[0,-92]],[[22764,13203],[-171,3]],[[22593,13206],[0,89]],[[22593,13295],[171,0]],[[23431,13325],[-59,13]],[[23372,13338],[-27,74]],[[23471,13412],[0,-21],[0,-63]],[[23471,13328],[-40,-3]],[[23417,13262],[-45,-13]],[[23372,13249],[-13,58]],[[23359,13307],[13,31]],[[23431,13325],[-14,-63]],[[23260,12720],[-41,0]],[[23219,12720],[0,33]],[[23219,12753],[140,61]],[[23359,12814],[45,-38]],[[23404,12776],[27,-56]],[[23431,12720],[-108,0],[-18,0],[-18,0],[-27,0]],[[22760,13473],[4,-178]],[[22593,13295],[-27,89]],[[22566,13384],[86,89]],[[22652,13473],[108,0]],[[23111,13592],[0,193]],[[23224,13785],[0,-89]],[[23224,13696],[27,-89]],[[23251,13607],[-140,-15]],[[22566,13384],[0,89]],[[22566,13473],[86,0]],[[22877,13473],[0,-181]],[[22877,13292],[-113,3]],[[22760,13473],[117,0]],[[23233,13025],[13,89]],[[23246,13114],[14,15]],[[23260,13129],[85,-61]],[[23345,13068],[-13,-15]],[[23332,13053],[-99,-28]],[[23372,12814],[-13,0]],[[23219,12753],[-103,107]],[[23116,12860],[22,114]],[[23138,12974],[81,5]],[[23219,12979],[126,15]],[[23345,12994],[59,-30]],[[23404,12964],[0,-69],[-14,-7],[-18,-74]],[[22494,13473],[0,-117]],[[22494,13356],[-72,0]],[[22422,13356],[0,104]],[[22422,13460],[0,15]],[[22422,13475],[72,-2]],[[22981,13577],[121,-59]],[[23102,13518],[-153,13]],[[22949,13531],[-18,15]],[[22931,13546],[50,31]],[[22877,13473],[41,0]],[[22918,13473],[130,2]],[[23048,13475],[54,-91]],[[23102,13384],[0,-89]],[[23102,13295],[-112,-23]],[[22990,13272],[-113,20]],[[23359,13307],[-126,31]],[[23233,13338],[40,74]],[[23417,13262],[-13,-28]],[[23404,13234],[-32,0]],[[23372,13234],[0,15]],[[22422,13162],[0,44]],[[22422,13206],[72,0],[0,150]],[[22494,13473],[63,0]],[[22557,13473],[9,0]],[[22593,13206],[0,-89]],[[22593,13117],[-58,0]],[[22535,13117],[-113,45]],[[23368,13651],[-59,45]],[[23309,13696],[0,89]],[[23309,13785],[86,0]],[[23404,12776],[-32,38]],[[23404,12964],[49,-31]],[[23453,12933],[18,0]],[[23471,12933],[0,-48],[0,-76],[0,-89],[-40,0]],[[22877,13114],[0,178]],[[22990,13272],[0,-69]],[[22990,13203],[0,-89],[-113,0]],[[23372,13234],[-112,-105]],[[23246,13114],[-144,92]],[[23102,13206],[0,12]],[[23102,13218],[113,120]],[[23215,13338],[18,0]],[[23215,13338],[-113,61]],[[23102,13399],[0,13]],[[23102,13412],[144,0]],[[22760,13473],[4,89]],[[22764,13562],[5,45]],[[22769,13607],[158,0]],[[22927,13607],[4,-61]],[[22949,13531],[-31,-58]],[[22909,13770],[18,-163]],[[22769,13607],[0,117]],[[22769,13724],[0,61]],[[22999,13770],[-18,-193]],[[23233,13025],[-14,-46]],[[23138,12974],[-63,51]],[[23075,13025],[27,181]],[[23309,13696],[-85,0]],[[23111,13592],[-9,-74]],[[23471,13328],[0,-87]],[[23471,13241],[-40,-38],[-32,0],[5,31]],[[22764,13203],[-4,-89]],[[22760,13114],[-59,0]],[[22701,13114],[-108,3]],[[22710,13712],[-85,76]],[[22625,13788],[144,-3]],[[22769,13724],[-59,-12]],[[22422,13206],[0,45]],[[22422,13251],[0,105]],[[22764,13562],[-67,15],[13,135]],[[23471,13241],[0,-30],[0,-74],[0,-193],[0,-11]],[[23453,12933],[-108,135]],[[23471,13859],[0,-74]],[[23246,13503],[5,104]],[[23102,13206],[-112,-3]],[[23102,13295],[0,-77]],[[23102,13518],[0,-45]],[[23102,13473],[-54,2]],[[23332,13053],[13,-59]],[[23102,13399],[0,-15]],[[23102,13473],[0,-61]],[[22877,13114],[-63,-120]],[[22814,12994],[-45,0]],[[22769,12994],[-9,120]],[[22427,13684],[130,-211]],[[22422,13475],[5,209]],[[22427,13684],[0,104]],[[22427,13788],[139,0]],[[22566,13788],[41,0]],[[22607,13788],[18,0]],[[22404,14192],[-85,-119]],[[22319,14073],[-32,0]],[[22287,14073],[-171,7]],[[22116,14080],[0,26]],[[22116,14106],[0,147]],[[22116,14253],[113,-7],[4,81]],[[22233,14327],[54,-3]],[[22287,14324],[45,-58]],[[22332,14266],[72,-74]],[[22287,14324],[5,181]],[[22418,14459],[-86,-193]],[[22233,14327],[-117,46]],[[22116,14373],[0,132]],[[22089,14551],[-86,0]],[[22003,14551],[-31,89]],[[22116,14253],[0,28]],[[22116,14281],[0,92]],[[21828,14373],[13,-92]],[[21841,14281],[-85,3]],[[21756,14284],[-59,0]],[[21697,14284],[0,43]],[[21697,14327],[131,46]],[[22566,13788],[14,89],[-153,46]],[[22427,13923],[4,147]],[[22431,14070],[216,-43]],[[22647,14027],[72,-13]],[[22737,13905],[-130,-117]],[[21607,13760],[-13,15]],[[21594,13775],[-14,61]],[[21580,13836],[59,28]],[[21639,13864],[99,120]],[[21738,13984],[144,0]],[[21882,13984],[13,-31]],[[21895,13953],[0,-117]],[[21895,13836],[-99,-2],[0,-102]],[[21796,13732],[-130,-3]],[[21666,13729],[-59,31]],[[21985,13836],[0,-119]],[[21985,13717],[-189,15]],[[21895,13836],[90,0]],[[21738,13984],[0,45]],[[21738,14029],[18,74]],[[21756,14103],[126,0]],[[21882,14103],[0,-119]],[[22116,14080],[0,-127]],[[22116,13953],[-221,0]],[[21882,14103],[45,51]],[[21927,14154],[189,-48]],[[21927,14281],[-86,181]],[[21841,14462],[45,119]],[[21886,14581],[117,-30]],[[22116,14281],[-189,0]],[[21886,14581],[0,59]],[[21756,14103],[0,77]],[[21756,14180],[171,-26]],[[21639,13864],[-59,135]],[[21580,13999],[158,30]],[[22427,13788],[0,135]],[[22341,13788],[-58,-132]],[[22283,13656],[-131,2],[-9,148]],[[22143,13806],[198,-18]],[[22283,13968],[4,105]],[[22319,14073],[112,15]],[[22431,14088],[0,-18]],[[22427,13923],[-144,45]],[[22431,14088],[0,119]],[[22431,14207],[0,16]],[[22634,14192],[13,-165]],[[21756,14284],[0,-104]],[[21756,14180],[-216,101]],[[21540,14281],[40,15]],[[21580,14296],[117,-12]],[[21580,14296],[32,74]],[[21612,14370],[85,-43]],[[22143,13806],[-32,28]],[[22111,13834],[5,89]],[[22116,13923],[167,45]],[[22427,13788],[-86,0]],[[21494,14014],[0,178]],[[21494,14192],[46,89]],[[21580,13999],[-86,15]],[[22116,13953],[0,-30]],[[22111,13834],[-126,2]],[[22404,14192],[27,15]],[[21494,13836],[-85,135]],[[21409,13971],[0,15]],[[21409,13986],[85,28]],[[21580,13836],[-86,0]],[[21841,14281],[86,0]],[[22422,13460],[-112,15]],[[22310,13475],[-27,31]],[[22283,13506],[0,150]],[[21841,14462],[-13,0]],[[21828,14462],[-158,104]],[[21670,14566],[27,74]],[[21828,14373],[0,89]],[[20977,15087],[0,135],[-90,0]],[[20887,15222],[4,132]],[[20891,15354],[86,89]],[[20977,15443],[85,0]],[[21062,15443],[176,0]],[[21238,15443],[0,-175]],[[21238,15268],[-86,-92]],[[21152,15176],[0,-89]],[[21152,15087],[-175,0]],[[21328,15443],[-90,0]],[[21238,15443],[0,89]],[[21238,15532],[90,11]],[[21328,15543],[0,-11]],[[21328,15532],[0,-89]],[[20180,15535],[-91,0]],[[20089,15535],[0,89]],[[20089,15624],[91,-89]],[[21675,15354],[0,178]],[[21675,15532],[90,0]],[[21328,15621],[-90,-89]],[[21062,15443],[0,89]],[[21062,15532],[-85,89]],[[20977,15621],[-90,0]],[[20887,15621],[0,89]],[[20887,15710],[103,92]],[[20990,15802],[99,0],[63,0]],[[21152,15802],[-4,-107],[90,18]],[[21238,15713],[90,-3]],[[21328,15710],[0,-89]],[[20526,15624],[-85,0]],[[20441,15624],[0,89]],[[20441,15713],[0,89]],[[20441,15802],[180,0],[4,0]],[[20625,15802],[0,-178],[-99,0]],[[21328,15354],[0,89]],[[21328,15532],[85,0]],[[21413,15532],[90,0]],[[21503,15532],[-4,-89]],[[21499,15443],[0,-89]],[[21499,15354],[-171,0]],[[21238,15176],[0,92]],[[21328,15354],[0,-162]],[[21328,15192],[0,-16]],[[21328,15176],[-90,0]],[[20977,15621],[0,-89]],[[20977,15532],[-90,0]],[[20887,15532],[0,89]],[[21328,15621],[0,-78]],[[20454,15354],[-13,0]],[[20441,15354],[0,181]],[[20441,15535],[0,89]],[[20526,15624],[0,-270]],[[20526,15354],[-72,0]],[[20887,15532],[-86,0]],[[20801,15532],[-5,89]],[[20796,15621],[91,0]],[[21648,15354],[-59,0]],[[21589,15354],[0,89]],[[21589,15443],[0,89]],[[21589,15532],[86,0]],[[21328,15710],[85,3]],[[21413,15713],[0,-181]],[[21675,15532],[4,178]],[[21679,15710],[0,89]],[[21679,15799],[86,0]],[[21679,15710],[-90,89]],[[21589,15799],[32,0],[58,0]],[[20891,15354],[-4,0]],[[20887,15354],[0,89]],[[20887,15443],[90,0]],[[20801,15354],[4,89],[-94,0]],[[20711,15443],[90,89]],[[20887,15532],[0,-89]],[[20887,15354],[-86,0]],[[20089,15535],[-85,0]],[[20004,15535],[0,89]],[[20004,15624],[85,0]],[[20441,15535],[-86,-3]],[[20355,15532],[0,181],[86,0]],[[21589,15443],[-90,0]],[[21503,15532],[86,0]],[[21328,15710],[0,92]],[[21328,15802],[85,-3]],[[21413,15799],[0,-86]],[[20540,15354],[-14,0]],[[20625,15802],[171,0],[5,0]],[[20801,15802],[-5,-181]],[[20711,15443],[0,-89]],[[20711,15354],[-81,0]],[[20630,15354],[-90,0]],[[21503,15799],[0,-267]],[[21413,15799],[90,0]],[[21152,15802],[27,0],[59,-3]],[[21238,15799],[0,-86]],[[21238,15799],[90,3]],[[20977,15532],[85,0]],[[21589,15354],[-18,-43]],[[21571,15311],[-72,0]],[[21499,15311],[0,43]],[[20801,15354],[-90,0]],[[20887,15710],[0,92]],[[20887,15802],[85,0],[18,0]],[[20004,15624],[0,178]],[[20004,15802],[85,0],[181,0],[85,0],[77,0],[9,0]],[[20355,15532],[-175,3]],[[21503,15799],[86,0]],[[20801,15802],[86,0]],[[21152,13462],[-40,-2]],[[21112,13460],[-45,15]],[[21067,13475],[0,15]],[[21067,13490],[85,59]],[[21152,13549],[0,-87]],[[21567,13493],[-18,-120]],[[21549,13373],[-55,0]],[[21494,13373],[0,16]],[[21494,13389],[0,73]],[[21494,13462],[0,31]],[[21494,13493],[73,0]],[[20905,12878],[-45,-158]],[[20860,12720],[-113,0],[-14,0]],[[20733,12720],[0,170]],[[20733,12890],[0,46]],[[20733,12936],[154,0]],[[20887,12936],[18,3]],[[20905,12939],[0,-61]],[[21157,13028],[-86,-89]],[[21071,12939],[-81,0]],[[20990,12939],[-4,89]],[[20986,13028],[0,89]],[[20986,13117],[31,0]],[[21017,13117],[140,-59]],[[21157,13058],[0,-30]],[[21751,12819],[0,-99]],[[21751,12720],[-81,0],[-171,0]],[[21499,12720],[14,178]],[[21513,12898],[-19,41]],[[21494,12939],[257,-87]],[[21751,12852],[0,-33]],[[21891,13178],[-27,-28]],[[21864,13150],[-113,-31]],[[21751,13119],[-58,89]],[[21693,13208],[58,104]],[[21751,13312],[68,-15]],[[21819,13297],[72,-119]],[[20562,12893],[0,43]],[[20562,12936],[0,89]],[[20562,13025],[0,89]],[[20562,13114],[81,0]],[[20643,13114],[90,3]],[[20733,13117],[0,-181]],[[20733,12890],[-171,3]],[[21733,13447],[-40,-119]],[[21693,13328],[-99,-28]],[[21594,13300],[-45,73]],[[21567,13493],[67,-15]],[[21634,13478],[99,-31]],[[21463,13122],[-108,-89],[-54,104]],[[21301,13137],[67,46]],[[21368,13183],[95,-61]],[[21494,13493],[-13,74]],[[21481,13567],[13,91]],[[21494,13658],[73,0]],[[21567,13658],[13,-30]],[[21580,13628],[-13,-135]],[[20990,12720],[-58,0],[-72,0]],[[20905,12878],[81,2]],[[20986,12880],[4,-160]],[[21765,12926],[-72,84],[49,96]],[[21742,13106],[9,13]],[[21864,13150],[-27,-196]],[[21837,12954],[-72,-28]],[[21152,13717],[-13,-59]],[[21139,13658],[-72,-5]],[[21067,13653],[0,168]],[[21067,13821],[0,104]],[[21067,13925],[27,0]],[[21094,13925],[99,-89]],[[21193,13836],[-41,-119]],[[20216,13488],[-172,-15]],[[20044,13473],[0,94]],[[20044,13567],[140,0]],[[20184,13567],[32,-79]],[[21242,12852],[5,-132]],[[21247,12720],[-257,0]],[[20986,12880],[4,59]],[[21071,12939],[86,2]],[[21157,12941],[85,-89]],[[21985,13030],[-67,-43]],[[21918,12987],[-81,-33]],[[21891,13178],[90,33]],[[21981,13211],[4,-181]],[[22211,13030],[-68,-310]],[[22143,12720],[-72,0],[-144,0]],[[21927,12720],[-9,267]],[[21985,13030],[126,0]],[[22111,13030],[68,0]],[[22179,13030],[32,0]],[[20986,13267],[-5,117],[-67,0],[72,89]],[[20986,13473],[40,17]],[[21026,13490],[41,0]],[[21067,13475],[31,-147]],[[21098,13328],[-27,-105]],[[21071,13223],[-85,44]],[[21283,13211],[-41,-3]],[[21242,13208],[-85,0]],[[21157,13208],[40,120]],[[21197,13328],[14,30]],[[21211,13358],[27,-7]],[[21238,13351],[58,-36]],[[21296,13315],[0,-61]],[[21296,13254],[-13,-43]],[[20216,13203],[-131,0]],[[20085,13203],[-14,89]],[[20071,13292],[145,0]],[[20216,13292],[0,-89]],[[19747,12720],[-31,391]],[[19716,13111],[31,0]],[[19747,13111],[108,3]],[[19855,13114],[-9,-104],[207,-3]],[[20053,13007],[0,-287]],[[20053,12720],[-9,0],[-297,0]],[[21215,13490],[-4,-28]],[[21211,13462],[-59,0]],[[21152,13549],[0,61]],[[21152,13610],[72,-46]],[[21224,13564],[5,3]],[[21229,13567],[-14,-77]],[[21242,13208],[-40,-119]],[[21202,13089],[-45,-31]],[[21017,13117],[54,91]],[[21071,13208],[86,0]],[[20643,13473],[0,-89],[-171,0],[0,-120]],[[20472,13264],[-45,43]],[[20427,13307],[-27,135]],[[20400,13442],[243,31]],[[20887,12936],[0,92],[99,0]],[[20990,12939],[-85,0]],[[21382,13241],[4,48]],[[21386,13289],[5,39]],[[21391,13328],[4,15],[27,15],[45,15]],[[21467,13373],[27,0]],[[21494,13373],[0,-119]],[[21494,13254],[-13,-15]],[[21481,13239],[-99,2]],[[21859,12720],[-108,99]],[[21751,12852],[14,74]],[[21927,12720],[-68,0]],[[21508,13208],[-27,31]],[[21494,13254],[100,46]],[[21693,13328],[58,-16]],[[21693,13208],[-113,-13]],[[21580,13195],[-72,13]],[[21634,13478],[5,165]],[[21639,13643],[27,86]],[[21985,13717],[-4,-150]],[[21981,13567],[-117,-59]],[[21864,13508],[-131,-61]],[[22283,13506],[-118,2]],[[22165,13508],[-184,-30]],[[21981,13478],[0,89]],[[22283,13251],[0,92]],[[22283,13343],[27,132]],[[22422,13251],[-139,0]],[[21112,13328],[-14,0]],[[21112,13460],[0,-132]],[[21499,12720],[-63,0],[-23,0]],[[21413,12720],[0,135]],[[21413,12855],[100,43]],[[21197,13328],[-85,0]],[[21211,13462],[13,-76]],[[21224,13386],[-13,-28]],[[21350,14014],[-27,-89]],[[21323,13925],[0,15]],[[21323,13940],[0,59]],[[21323,13999],[0,15]],[[21323,14014],[27,0]],[[19621,13366],[-4,107]],[[19617,13473],[0,2]],[[19617,13475],[198,-2]],[[19815,13473],[58,0]],[[19873,13473],[0,-166],[-81,0]],[[19792,13307],[-171,59]],[[21193,13836],[31,0]],[[21224,13836],[54,15]],[[21278,13851],[-4,-104]],[[21274,13747],[-122,-30]],[[20351,12720],[-149,0]],[[20202,12720],[0,142],[144,0],[5,-89]],[[20351,12773],[0,-53]],[[20733,13117],[81,0]],[[20814,13117],[172,0]],[[20085,13203],[-41,-89]],[[20044,13114],[-189,0]],[[19747,13111],[45,196]],[[19873,13473],[86,94]],[[19959,13567],[76,0]],[[20035,13567],[9,0]],[[20044,13473],[27,-181]],[[21382,13241],[-14,-2]],[[21368,13239],[-72,15]],[[21296,13315],[27,0]],[[21323,13315],[32,-5]],[[21355,13310],[31,-21]],[[20562,12893],[0,-135]],[[20562,12758],[-85,13]],[[20477,12771],[0,165]],[[20477,12936],[85,0]],[[21224,13836],[99,104]],[[21323,13925],[-45,-74]],[[21323,14014],[0,89]],[[21323,14103],[86,104]],[[21409,14207],[85,-15]],[[21409,13986],[-59,28]],[[20378,13203],[9,89]],[[20387,13292],[40,15]],[[20472,13264],[0,-61]],[[20472,13203],[0,-89]],[[20472,13114],[-94,89]],[[20184,13567],[23,0]],[[20207,13567],[85,0]],[[20292,13567],[9,0]],[[20301,13567],[0,-110]],[[20301,13457],[-85,31]],[[21382,13521],[0,30]],[[21382,13551],[27,0]],[[21409,13551],[0,-30]],[[21409,13521],[-27,0]],[[20814,13206],[-171,-3]],[[20643,13203],[-85,3]],[[20558,13206],[-86,-3]],[[20643,13473],[153,0]],[[20796,13473],[167,0]],[[20963,13473],[23,0]],[[20986,13267],[0,-59]],[[20986,13208],[-172,-2]],[[20562,12758],[0,-38]],[[20562,12720],[-13,0],[-113,0],[-85,0]],[[20351,12773],[126,-2]],[[20243,13114],[9,-104],[-86,15]],[[20166,13025],[77,89]],[[21819,13297],[162,92]],[[21981,13389],[0,-127]],[[21981,13262],[0,-51]],[[21323,14103],[0,89]],[[21323,14192],[86,15]],[[21864,13508],[117,-30]],[[21981,13478],[0,-89]],[[21238,13493],[-23,-3]],[[21229,13567],[54,-16]],[[21283,13551],[-45,-58]],[[21859,12720],[-49,0],[-59,0]],[[21202,13089],[40,-89],[-85,-59]],[[21157,12941],[0,87]],[[20202,12720],[-149,0]],[[20053,13007],[0,18]],[[20053,13025],[113,0]],[[20243,13114],[0,89]],[[20243,13203],[135,0]],[[20472,13114],[86,0]],[[20558,13114],[4,0]],[[20562,13025],[-85,-89]],[[20986,13117],[0,91]],[[21071,13223],[0,-15]],[[21094,13925],[13,74]],[[21107,13999],[59,15]],[[21166,14014],[85,0]],[[21251,14014],[72,-15]],[[21026,13490],[41,163]],[[21139,13658],[13,-48]],[[19716,13111],[-86,0]],[[19630,13111],[-9,89]],[[19621,13200],[0,166]],[[21508,13208],[-14,-160]],[[21494,13048],[-9,0]],[[21485,13048],[-22,74]],[[21368,13183],[0,56]],[[20558,13206],[0,-92]],[[21409,13971],[-45,-107],[130,-28]],[[21594,13775],[-100,3],[0,-107]],[[21494,13671],[-99,0]],[[21395,13671],[-121,76]],[[20814,13117],[0,89]],[[21413,12855],[0,58]],[[21413,12913],[72,135]],[[21494,13048],[28,-15]],[[21522,13033],[-28,-94]],[[21301,13137],[-18,74]],[[22165,13508],[-13,-165]],[[22152,13343],[0,-89]],[[22152,13254],[-171,8]],[[21639,13643],[-59,-15]],[[21567,13658],[40,102]],[[20387,13292],[-171,0]],[[20301,13457],[99,-15]],[[19635,12720],[-5,257]],[[19630,12977],[0,134]],[[19747,12720],[-49,0],[-63,0]],[[21742,13106],[-162,16]],[[21580,13122],[0,73]],[[20243,13203],[-27,0]],[[21395,13671],[-171,-107]],[[22283,13343],[-131,0]],[[21242,12852],[171,61]],[[21413,12720],[-162,0],[-4,0]],[[20643,13114],[0,89]],[[20053,13025],[-9,89]],[[21580,13122],[-58,-89]],[[21382,13551],[-32,16]],[[21350,13567],[-67,-16]],[[21494,13671],[0,-13]],[[21481,13567],[-18,0]],[[21463,13567],[-54,-16]],[[20733,12720],[-171,0]],[[21350,13417],[-4,7]],[[21346,13424],[4,10]],[[21350,13434],[9,-10]],[[21359,13424],[-9,-7]],[[21310,13422],[0,40]],[[21310,13462],[40,0]],[[21350,13462],[0,-28]],[[21346,13424],[-36,-2]],[[21350,13567],[0,-105]],[[21310,13462],[0,3]],[[21310,13465],[-27,86]],[[21238,13462],[0,31]],[[21310,13465],[-72,-3]],[[21409,13424],[0,38]],[[21409,13462],[58,0]],[[21467,13462],[0,-38]],[[21467,13424],[-58,0]],[[21467,13424],[0,-35]],[[21467,13389],[-58,0]],[[21409,13389],[0,35]],[[21409,13424],[-27,0]],[[21382,13424],[0,31],[0,2],[0,5]],[[21382,13462],[27,0]],[[21238,13386],[0,36]],[[21238,13422],[72,0]],[[21310,13422],[0,-33]],[[21310,13389],[-72,-3]],[[21391,13328],[-9,58]],[[21382,13386],[27,3]],[[21467,13389],[0,-16]],[[21382,13386],[-32,0]],[[21350,13386],[0,31]],[[21359,13424],[23,0]],[[21382,13424],[0,-38]],[[21238,13422],[0,40]],[[21350,13386],[-40,3]],[[21350,13462],[32,0]],[[21310,13389],[13,-74]],[[21238,13351],[0,35]],[[21355,13310],[-5,76]],[[21382,13521],[0,-59]],[[21409,13521],[0,-59]],[[21238,13462],[-27,0]],[[21463,13567],[4,-105]],[[21224,13386],[14,0]],[[21494,13462],[-27,0]],[[21494,13389],[-27,0]],[[22535,12847],[-113,3]],[[22422,12850],[0,132]],[[22422,12982],[113,0],[0,135]],[[22701,13114],[-54,-173]],[[22647,12941],[0,-94]],[[22647,12847],[-112,0]],[[22963,12844],[-86,0]],[[22877,12844],[0,28]],[[22877,12872],[0,61]],[[22877,12933],[86,0]],[[22963,12933],[0,-89]],[[23048,12844],[0,-124]],[[23048,12720],[-85,0]],[[22963,12720],[0,124]],[[22963,12844],[85,0]],[[22535,12847],[4,-127]],[[22539,12720],[-9,0],[-108,0]],[[22422,12720],[0,99]],[[22422,12819],[0,31]],[[22769,12994],[-5,-73]],[[22764,12921],[-117,20]],[[23219,12720],[-54,0],[-117,0]],[[23048,12844],[68,16]],[[22877,12844],[0,-124]],[[22877,12720],[-22,0],[-199,0],[-117,0]],[[22647,12847],[117,28]],[[22764,12875],[113,-3]],[[22877,12994],[-63,0]],[[22877,13114],[0,-120]],[[22963,12720],[-86,0]],[[22422,12982],[-72,46]],[[22350,13028],[0,134],[72,0]],[[22283,13150],[-5,-120]],[[22278,13030],[-67,0]],[[22179,13030],[-14,112]],[[22165,13142],[118,8]],[[22152,13254],[0,-89]],[[22152,13165],[-68,0],[27,-135]],[[22283,13251],[0,-101]],[[22165,13142],[-13,23]],[[22764,12921],[0,-46]],[[22350,13028],[-72,2]],[[22877,12994],[0,-61]],[[22422,12720],[-31,0],[-72,0]],[[22319,12720],[18,99]],[[22337,12819],[85,0]],[[22963,12933],[0,89],[112,3]],[[22319,12720],[-108,0]],[[22211,12720],[0,102],[126,-3]],[[22211,12720],[-68,0]],[[20977,14520],[13,102],[-99,18]],[[20891,14640],[0,91]],[[20891,14731],[171,-2]],[[21062,14729],[104,30]],[[21166,14759],[27,-15]],[[21193,14744],[-41,-112],[126,8]],[[21278,14640],[45,-89]],[[21323,14551],[-99,-104]],[[21224,14447],[-94,58]],[[21130,14505],[-153,15]],[[21567,14731],[-68,-165]],[[21499,14566],[-90,-76]],[[21409,14490],[-86,61]],[[21323,14551],[45,239],[-31,28],[-14,0]],[[21323,14818],[0,91]],[[21323,14909],[162,0]],[[21485,14909],[86,0]],[[21571,14909],[-4,-178]],[[21238,14373],[-144,0],[36,132]],[[21224,14447],[14,-74]],[[21238,15176],[-86,0]],[[20887,14998],[0,-89]],[[20887,14909],[-257,0]],[[20630,14909],[-5,89]],[[20625,14998],[262,0]],[[20891,15087],[-4,-89]],[[20625,14998],[-85,0]],[[20540,14998],[0,89]],[[20540,15087],[0,89]],[[20540,15176],[90,0],[0,178]],[[20887,15222],[0,-46]],[[20887,15176],[-86,-89],[90,3]],[[20891,15090],[0,-3]],[[21062,14729],[0,91]],[[21062,14820],[104,-61]],[[20891,14640],[-90,0]],[[20801,14640],[0,180],[90,0]],[[20891,14820],[0,-89]],[[20851,14447],[-50,193]],[[20977,14520],[0,-58]],[[20977,14462],[-86,-15]],[[20891,14447],[-40,0]],[[20576,14207],[0,-15]],[[20576,14192],[-117,0]],[[20459,14192],[0,46]],[[20459,14238],[0,43]],[[20459,14281],[85,0]],[[20544,14281],[32,0]],[[20576,14281],[0,-74]],[[21251,14014],[-13,193]],[[21238,14207],[27,31]],[[21265,14238],[58,31]],[[21323,14269],[0,-77]],[[20454,15265],[0,89]],[[20540,15354],[-86,-89]],[[21540,14612],[27,119]],[[21571,14909],[41,0]],[[21670,14640],[-130,-28]],[[21643,15006],[-176,-8]],[[21467,14998],[-144,-7]],[[21323,14991],[0,96]],[[21323,15087],[5,89]],[[21328,15192],[171,119]],[[21571,15311],[72,-132]],[[20891,15087],[86,0]],[[21152,15087],[18,0]],[[21170,15087],[-4,-89],[-279,0]],[[20454,15265],[0,-89]],[[20454,15176],[-117,89]],[[20337,15265],[32,89]],[[20369,15354],[72,0]],[[21323,14269],[23,104]],[[21346,14373],[148,-181]],[[20747,14350],[27,201],[-95,-74],[27,-119]],[[20706,14358],[-162,104]],[[20544,14462],[-4,0]],[[20540,14462],[58,178]],[[20598,14640],[32,0]],[[20630,14640],[171,0]],[[20851,14447],[4,-163]],[[20855,14284],[-50,0]],[[20805,14284],[-58,66]],[[21540,14612],[0,-46]],[[21540,14566],[-41,0]],[[20977,14462],[85,0],[-72,-89]],[[20990,14373],[-99,74]],[[21166,14014],[0,239]],[[21166,14253],[22,28]],[[21188,14281],[50,-43]],[[21238,14238],[0,-31]],[[20576,14281],[144,77]],[[20720,14358],[27,-8]],[[20805,14284],[-72,-92]],[[20733,14192],[-157,15]],[[20891,15090],[-4,86]],[[20540,15176],[-86,0]],[[21265,14238],[-27,0]],[[21188,14281],[50,92]],[[21409,14490],[0,-117]],[[21409,14373],[-63,0]],[[21580,14370],[45,196]],[[21625,14566],[45,0]],[[21612,14370],[-32,0]],[[20459,14281],[0,181]],[[20459,14462],[81,0]],[[20544,14462],[0,-181]],[[21580,14370],[-40,3]],[[21540,14373],[-131,0]],[[21540,14566],[85,0]],[[20540,14998],[-90,0]],[[20450,14998],[0,74]],[[20450,15072],[90,15]],[[20720,14358],[-14,0]],[[20630,14640],[0,269]],[[20887,14909],[4,-89]],[[21166,14253],[-158,0]],[[21008,14253],[-18,120]],[[20891,14284],[0,-181]],[[20891,14103],[-158,89]],[[20855,14284],[36,0]],[[21323,14909],[0,82]],[[21467,14998],[18,-89]],[[21107,13999],[-157,76]],[[20950,14075],[-14,148]],[[20936,14223],[72,30]],[[20936,14223],[-45,61]],[[21323,15087],[-153,0]],[[21062,14820],[-171,0]],[[21323,14818],[-117,-74]],[[21206,14744],[-13,0]],[[21206,14744],[72,-104]],[[20283,14909],[-4,0]],[[20279,14909],[0,178],[-176,0]],[[20103,15087],[90,181]],[[20193,15268],[144,-3]],[[20454,15176],[-58,-104],[54,0]],[[20450,14998],[4,-89]],[[20454,14909],[-81,0]],[[20373,14909],[-90,0]],[[20193,15268],[0,86]],[[20193,15354],[176,0]],[[21540,14281],[0,92]],[[20598,14640],[-144,0]],[[20454,14640],[0,89]],[[20454,14729],[0,180]],[[20459,14462],[-5,0]],[[20454,14462],[0,178]],[[20950,14075],[-59,-46]],[[20891,14029],[0,74]],[[20468,13745],[0,89]],[[20468,13834],[0,89]],[[20468,13923],[85,2]],[[20553,13925],[68,0]],[[20621,13925],[103,-15]],[[20724,13910],[104,-76]],[[20828,13834],[153,-13]],[[20981,13821],[86,0]],[[21067,13653],[-86,59],[-76,-143]],[[20905,13569],[-95,13]],[[20810,13582],[-14,165],[-94,43]],[[20702,13790],[-81,46],[4,-89]],[[20625,13747],[-72,-2]],[[20553,13745],[-85,0]],[[20972,13925],[9,-104]],[[20828,13834],[0,91]],[[20828,13925],[68,0]],[[20896,13925],[76,0]],[[20621,13656],[4,91]],[[20702,13790],[9,-132]],[[20711,13658],[-90,-2]],[[20116,14238],[-85,-46]],[[20031,14192],[0,61]],[[20031,14253],[85,-15]],[[20621,14014],[0,-89]],[[20553,13925],[0,89]],[[20553,14014],[68,0]],[[19684,14241],[5,-135]],[[19689,14106],[-90,0]],[[19599,14106],[0,58]],[[19599,14164],[0,150]],[[19599,14314],[85,0]],[[19684,14314],[0,-73]],[[20778,13582],[18,-109]],[[20643,13473],[-36,183]],[[20607,13656],[14,0]],[[20711,13658],[67,-76]],[[19599,14164],[-172,3],[-4,147]],[[19423,14314],[176,0]],[[19225,14312],[27,-148],[-167,0]],[[19085,14164],[-4,150]],[[19081,14314],[144,-2]],[[19959,13567],[-50,180]],[[19909,13747],[41,0]],[[19950,13747],[85,0]],[[20035,13747],[0,-180]],[[19945,14342],[0,-104]],[[19945,14238],[-90,0]],[[19855,14238],[0,107]],[[19855,14345],[90,-3]],[[19599,14462],[0,-148]],[[19423,14314],[4,148]],[[19427,14462],[18,0]],[[19445,14462],[145,0]],[[19590,14462],[9,0]],[[20972,13925],[95,0]],[[19698,13928],[-86,-3]],[[19612,13925],[-13,92]],[[19599,14017],[0,89]],[[19689,14106],[9,-178]],[[20544,14088],[-85,15]],[[20459,14103],[0,89]],[[20576,14192],[58,-84],[-90,-20]],[[20459,14238],[-113,-46]],[[20346,14192],[-58,89]],[[20288,14281],[0,135],[85,46]],[[20373,14462],[81,0]],[[20292,14014],[-4,0]],[[20288,14014],[58,178]],[[20459,14103],[0,-89]],[[20459,14014],[-167,0]],[[19783,13836],[167,0],[0,-89]],[[19909,13747],[-103,0]],[[19806,13747],[-23,89]],[[20121,14014],[-5,0],[-85,89]],[[20031,14103],[0,89]],[[20116,14238],[27,0]],[[20143,14238],[145,43]],[[20288,14014],[-167,0]],[[20963,13473],[-58,96]],[[20143,14238],[0,102],[-112,-56]],[[20031,14284],[0,178]],[[20031,14462],[252,0]],[[20283,14462],[86,0]],[[20369,14462],[4,0]],[[20468,13834],[-176,2],[0,178]],[[20459,14014],[9,-91]],[[20896,13925],[-5,104]],[[19617,13475],[0,3]],[[19617,13478],[81,226],[-86,-3]],[[19612,13701],[0,135]],[[19612,13836],[171,0]],[[19806,13747],[9,-274]],[[19684,14314],[86,31]],[[19770,14345],[85,0]],[[19855,14238],[-85,3]],[[19770,14241],[-86,0]],[[20121,14014],[0,-267]],[[20121,13747],[-86,0]],[[19612,13836],[0,89]],[[19698,13928],[85,0],[-9,178]],[[19774,14106],[171,-3]],[[19945,14103],[86,0]],[[19770,14345],[0,117]],[[19770,14462],[157,0]],[[19927,14462],[18,0]],[[19945,14462],[0,-120]],[[20724,13925],[0,89],[-103,0]],[[20553,14014],[-9,74]],[[20828,13925],[-104,0]],[[19599,14462],[171,0]],[[20121,13747],[86,0],[0,-180]],[[19774,14106],[-85,0]],[[19770,14241],[4,-135]],[[19099,14017],[-14,0]],[[19085,14017],[0,147]],[[19225,14312],[27,30]],[[19252,14342],[171,-28]],[[19599,14017],[-163,-3]],[[19436,14014],[-337,3]],[[20724,13910],[0,15]],[[19617,13478],[-5,180]],[[19612,13658],[0,43]],[[20031,14253],[0,31]],[[19945,14103],[0,135]],[[19945,14462],[77,0]],[[20022,14462],[9,0]],[[20810,13582],[-32,0]],[[20607,13656],[-54,0]],[[20553,13656],[0,89]],[[19252,14342],[0,16],[0,27],[4,77]],[[19256,14462],[45,0]],[[19301,14462],[126,0]],[[20468,13745],[-171,0],[-5,-178]],[[20468,13745],[0,-89]],[[20468,13656],[0,-89],[-167,0]],[[20553,13656],[-85,0]],[[19081,14314],[0,150]],[[19081,14464],[76,-2]],[[19157,14462],[99,0]],[[19590,14462],[0,74]],[[19590,14536],[162,239],[99,0]],[[19851,14775],[58,-44]],[[19909,14731],[-18,-195]],[[19891,14536],[36,-74]],[[20004,15535],[-95,0]],[[19909,15535],[5,267]],[[19914,15802],[90,0]],[[19567,15715],[0,-183]],[[19567,15532],[-90,89]],[[19477,15621],[4,178]],[[19481,15799],[86,3]],[[19567,15802],[0,-87]],[[20103,15087],[-86,0]],[[20017,15087],[5,267]],[[20022,15354],[171,0]],[[19585,15192],[0,-105]],[[19585,15087],[0,-15]],[[19585,15072],[-149,0],[45,282]],[[19481,15354],[86,0]],[[19567,15354],[18,0]],[[19585,15354],[0,-162]],[[20283,14462],[-45,267]],[[20238,14729],[45,2]],[[20283,14731],[86,0]],[[20369,14731],[0,-269]],[[19954,14879],[-45,-148]],[[19851,14775],[31,104]],[[19882,14879],[108,30]],[[19990,14909],[-36,-30]],[[19135,15563],[22,-43]],[[19157,15520],[-22,2]],[[19135,15522],[0,10]],[[19135,15532],[0,31]],[[19306,14907],[-5,-445]],[[19157,14462],[5,447]],[[19162,14909],[130,-2]],[[19292,14907],[14,0]],[[19671,15118],[0,-31]],[[19671,15087],[-86,0]],[[19585,15192],[86,-74]],[[20369,14731],[85,-2]],[[19049,15354],[-130,0],[0,89]],[[18919,15443],[40,0]],[[18959,15443],[90,-89]],[[19590,14536],[4,373]],[[19594,14909],[288,-30]],[[20022,15354],[-18,0]],[[20004,15354],[0,181]],[[19860,15354],[-117,0]],[[19743,15354],[0,89]],[[19743,15443],[157,64]],[[19900,15507],[-40,-153]],[[20112,14731],[-18,-180],[-72,0]],[[20022,14551],[-54,135],[58,104]],[[20026,14790],[86,-59]],[[19585,14909],[-135,0]],[[19450,14909],[-144,-2]],[[19292,14907],[5,231]],[[19297,15138],[67,84],[-72,-2]],[[19292,15220],[-36,134]],[[19256,15354],[225,0]],[[19585,15072],[0,-74]],[[19585,14998],[0,-89]],[[18959,15443],[90,92]],[[19049,15535],[86,-3]],[[19135,15522],[0,-168]],[[19135,15354],[-86,0]],[[20004,15354],[-59,0]],[[19945,15354],[-85,0]],[[19900,15507],[9,28]],[[19256,15354],[-108,0]],[[19148,15354],[-13,0]],[[19157,15520],[176,-72],[144,173]],[[19567,15532],[0,-178]],[[19567,15532],[81,-12]],[[19648,15520],[95,-77]],[[19743,15354],[-158,0]],[[19662,15802],[-18,-89]],[[19644,15713],[-77,2]],[[19567,15802],[86,0],[9,0]],[[20369,14731],[4,178]],[[20283,14731],[0,178]],[[19148,14907],[0,269]],[[19148,15176],[0,178]],[[19292,15220],[5,-82]],[[19162,14909],[-14,-2]],[[19990,14909],[27,178]],[[20279,14909],[-81,0]],[[20198,14909],[-172,0],[0,-89]],[[20026,14820],[-72,59]],[[19049,15535],[0,264]],[[19049,15799],[77,0],[9,0]],[[19135,15799],[0,-236]],[[19135,15799],[76,0],[176,0],[94,0]],[[19445,14462],[5,447]],[[19585,14909],[9,0]],[[19671,15087],[-86,-89]],[[20026,14790],[0,30]],[[20198,14909],[0,-150]],[[20198,14759],[-86,-28]],[[20022,14520],[0,-58]],[[19891,14536],[131,-16]],[[19648,15520],[-4,193]],[[19662,15802],[76,0],[90,0],[86,0]],[[19671,15118],[261,-15]],[[19932,15103],[85,-16]],[[20022,14520],[0,31]],[[20198,14759],[40,-30]],[[19945,15354],[-13,-251]],[[18189,14912],[0,178]],[[18189,15090],[90,0]],[[18279,15090],[86,58],[-86,74]],[[18279,15222],[-85,3]],[[18194,15225],[0,132]],[[18194,15357],[153,0]],[[18347,15357],[351,-3]],[[18698,15354],[18,-86]],[[18716,15268],[-90,0]],[[18626,15268],[-86,0],[86,-89]],[[18626,15179],[0,-135],[85,0]],[[18711,15044],[0,-135]],[[18711,14909],[-67,0]],[[18644,14909],[-131,0]],[[18513,14909],[-130,0]],[[18383,14909],[-194,3]],[[18347,15357],[4,445]],[[18351,15802],[68,0],[90,0],[18,0]],[[18527,15802],[0,-89]],[[18527,15713],[-27,-89],[81,0]],[[18581,15624],[117,-89]],[[18698,15535],[0,-89]],[[18698,15446],[0,-92]],[[18176,15802],[0,-445]],[[18176,15357],[-158,0]],[[18018,15357],[-18,0]],[[18000,15357],[45,445]],[[18045,15802],[113,0],[18,0]],[[18189,15090],[5,135]],[[18279,15222],[0,-132]],[[18189,14912],[-68,0]],[[18121,14912],[-103,0]],[[18018,14912],[0,445]],[[18176,15357],[18,0]],[[18626,15268],[0,-89]],[[18018,14912],[-23,0]],[[17995,14912],[-153,-3]],[[17842,14909],[-72,61],[0,204],[72,5],[-63,178]],[[17779,15357],[221,0]],[[18856,14464],[-46,0]],[[18810,14464],[-40,313],[72,0]],[[18842,14777],[113,0]],[[18955,14777],[31,-135]],[[18986,14642],[-4,-178]],[[18982,14464],[-126,0]],[[18959,14909],[-4,-132]],[[18842,14777],[0,132]],[[18842,14909],[117,0]],[[18810,14464],[-72,0]],[[18738,14464],[-103,0]],[[18635,14464],[9,445]],[[18711,14909],[131,0]],[[18698,15802],[0,-267]],[[18581,15624],[-54,89]],[[18527,15802],[157,0],[14,0]],[[19058,14909],[-99,0]],[[18711,15044],[0,132]],[[18711,15176],[437,0]],[[19148,14907],[-90,2]],[[17775,14909],[-95,0]],[[17680,14909],[0,448]],[[17680,15357],[99,0]],[[17842,14909],[-67,0]],[[18176,15802],[67,0],[108,0]],[[18513,14909],[-49,-356]],[[18464,14553],[-86,3],[5,353]],[[18635,14464],[-113,0]],[[18522,14464],[-58,0]],[[18464,14464],[0,89]],[[18919,15443],[-221,3]],[[18698,15802],[162,0],[176,-3],[13,0]],[[19058,14909],[-4,-267],[-68,0]],[[19081,14464],[-99,0]],[[18716,15268],[-5,-92]],[[17680,15357],[-4,5],[0,104],[0,336],[184,0],[117,0],[68,0]],[[17986,14464],[-126,-2]],[[17860,14462],[-85,447]],[[17995,14912],[-9,-448]],[[18117,14464],[-63,0]],[[18054,14464],[-68,0]],[[18121,14912],[-4,-448]],[[17860,14462],[-180,0]],[[17680,14462],[0,358],[0,89]],[[18464,14464],[-68,0]],[[18396,14464],[-279,0]],[[19108,13208],[0,224]],[[19108,13432],[-9,226]],[[19099,13658],[184,0]],[[19283,13658],[90,-211]],[[19373,13447],[5,0]],[[19378,13447],[-14,-152]],[[19364,13295],[-171,-87]],[[19193,13208],[-85,0]],[[19635,12720],[-185,2],[-99,0]],[[19351,12722],[-5,303]],[[19346,13025],[284,-48]],[[19621,13200],[-85,92]],[[19536,13292],[0,94]],[[19536,13386],[81,87]],[[19108,13432],[-86,-43]],[[19022,13389],[-85,89]],[[18937,13478],[18,269],[-113,0]],[[18842,13747],[-13,270]],[[18829,14017],[27,0]],[[18856,14017],[229,0]],[[19099,14017],[0,-359]],[[18851,13432],[0,-224]],[[18851,13208],[-86,0]],[[18765,13208],[0,267]],[[18765,13475],[86,-43]],[[18414,13869],[0,-145]],[[18414,13724],[-171,105],[0,188]],[[18243,14017],[153,2]],[[18396,14019],[18,0]],[[18414,14019],[0,-150]],[[18856,14017],[0,447]],[[19351,12722],[-77,0],[-67,0]],[[19207,12722],[-5,306]],[[19202,13028],[144,-3]],[[19063,13208],[-41,0]],[[19022,13208],[0,181]],[[19108,13208],[-45,0]],[[19536,13292],[-172,3]],[[19378,13447],[158,-61]],[[19207,12722],[-144,0]],[[19063,12722],[76,156],[-76,2],[0,328]],[[19193,13208],[9,-180]],[[18756,13612],[-76,-134]],[[18680,13478],[-140,0]],[[18540,13478],[-112,0]],[[18428,13478],[0,94]],[[18428,13572],[117,89],[0,180],[-59,102],[-72,-74]],[[18414,14019],[72,0]],[[18486,14019],[257,0]],[[18743,14019],[86,-2]],[[18842,13747],[-86,3],[0,-138]],[[19441,13658],[-5,356]],[[19612,13658],[-171,0]],[[18743,14019],[-5,445]],[[18428,13572],[-14,152]],[[18937,13478],[-86,-46]],[[18765,13475],[-9,137]],[[19441,13658],[-68,0]],[[19373,13658],[-90,0]],[[18085,13119],[-22,0]],[[18063,13119],[-234,0]],[[17829,13119],[4,359]],[[17833,13478],[252,-3]],[[18085,13475],[0,-356]],[[18072,13658],[-81,0],[-5,132],[86,138]],[[18072,13928],[0,-270]],[[18783,12720],[-49,0],[-122,0]],[[18612,12720],[-13,264]],[[18599,12984],[180,0]],[[18779,12984],[4,-264]],[[18428,13478],[-343,-3]],[[18085,13475],[-13,183]],[[18072,13928],[0,89]],[[18072,14017],[171,0]],[[18072,14017],[-18,0]],[[18054,14017],[0,447]],[[18396,14464],[0,-178],[-117,-43],[117,-224]],[[17829,13119],[-23,0]],[[17806,13119],[-121,0]],[[17685,13119],[0,262],[0,97]],[[17685,13478],[148,0]],[[18522,14464],[45,-147],[-81,-298]],[[18937,12722],[-72,158],[72,0],[45,328]],[[18982,13208],[40,0]],[[19063,12722],[-32,0],[-94,0]],[[18982,13208],[-131,0]],[[18765,13475],[-85,3]],[[18937,12722],[-154,-2]],[[18779,12984],[-14,135]],[[18765,13119],[0,89]],[[18599,12984],[-158,0]],[[18441,12984],[-13,135]],[[18428,13119],[0,359]],[[18540,13478],[0,-359],[225,0]],[[19373,13447],[0,211]],[[17685,13478],[-5,539]],[[17680,14017],[374,0]],[[17680,14017],[0,20],[0,341],[0,84]],[[18428,13119],[-343,0]],[[18612,12720],[-72,0],[-94,0]],[[18446,12720],[-5,221]],[[18441,12941],[0,43]],[[17851,12850],[0,-135]],[[17851,12715],[-157,0],[-9,0],[0,404]],[[17806,13119],[45,-269]],[[18446,12720],[-32,-3],[-198,0],[-153,-2]],[[18063,12715],[0,254]],[[18063,12969],[0,15]],[[18063,12984],[378,-43]],[[18063,12984],[0,135]],[[18063,12969],[-212,-119]],[[18063,12715],[-59,0],[-153,0]]]}