{"type":"Topology","transform":{"scale":[0.0012831345112129487,0.0009745357309423489],"translate":[-124.73273099999999,24.60334863324381]},"objects":{"area":{"type":"GeometryCollection","geometries":[{"arcs":[[0,1,2]],"type":"Polygon","properties":{"state":"KY","name":"BAGDAD","zip":"40003"}},{"arcs":[[3,4,5,6,7,8]],"type":"Polygon","properties":{"state":"KY","name":"BARDSTOWN","zip":"40004"}},{"arcs":[[9,10,11,12,13,14,15]],"type":"Polygon","properties":{"state":"KY","name":"BEDFORD","zip":"40006"}},{"arcs":[[16,17,18,19]],"type":"Polygon","properties":{"state":"KY","name":"BETHLEHEM","zip":"40007"}},{"arcs":[[20,21,-6,22,23,24,25,26]],"type":"Polygon","properties":{"state":"KY","name":"BLOOMFIELD","zip":"40008"}},{"arcs":[[27,28,29,30]],"type":"Polygon","properties":{"state":"KY","name":"BRADFORDSVILLE","zip":"40009"}},{"arcs":[[31,32,33,-15,34,35,36,37,-19]],"type":"Polygon","properties":{"state":"KY","name":"CAMPBELLSBURG","zip":"40011"}},{"arcs":[[38,39,-27]],"type":"Polygon","properties":{"state":"KY","name":"CHAPLIN","zip":"40012"}},{"arcs":[[40,41,42,-23,-5,43]],"type":"Polygon","properties":{"state":"KY","name":"COXS CREEK","zip":"40013"}},{"arcs":[[44,45,46,47,48,49,50]],"type":"Polygon","properties":{"state":"KY","name":"CRESTWOOD","zip":"40014"}},{"arcs":[[51,52,53,54]],"type":"Polygon","properties":{"state":"KY","name":"EMINENCE","zip":"40019"}},{"arcs":[[55,56,57,58]],"type":"Polygon","properties":{"state":"KY","name":"FINCHVILLE","zip":"40022"}},{"arcs":[[59,60,61,-56,62]],"type":"Polygon","properties":{"state":"KY","name":"FISHERVILLE","zip":"40023"}},{"arcs":[[63,64,65,66]],"type":"Polygon","properties":{"state":"KY","name":"GOSHEN","zip":"40026"}},{"arcs":[[67,-47,-64,68,69]],"type":"Polygon","properties":{"state":"KY","name":"LA GRANGE","zip":"40031"}},{"arcs":[[70,71,72,73,-29,74]],"type":"Polygon","properties":{"state":"KY","name":"LEBANON","zip":"40033"}},{"arcs":[[75,76,-17,77]],"type":"Polygon","properties":{"state":"KY","name":"LOCKPORT","zip":"40036"}},{"arcs":[[78,79,80,81,-8,82,-72]],"type":"Polygon","properties":{"state":"KY","name":"LORETTO","zip":"40037"}},{"arcs":[[83,84,85,86,87]],"type":"Polygon","properties":{"state":"KY","name":"MACKVILLE","zip":"40040"}},{"arcs":[[88,-13,89]],"type":"Polygon","properties":{"state":"KY","name":"MILTON","zip":"40045"}},{"arcs":[[90,91,92,-25]],"type":"Polygon","properties":{"state":"KY","name":"MOUNT EDEN","zip":"40046"}},{"arcs":[[93,94,95,96,-42]],"type":"Polygon","properties":{"state":"KY","name":"MOUNT WASHINGTON","zip":"40047"}},{"arcs":[[97,-55,98,99,100,-33]],"type":"Polygon","properties":{"state":"KY","name":"NEW CASTLE","zip":"40050"}},{"arcs":[[101,102,103,104,105,-9,-82,106,-80]],"type":"Polygon","properties":{"state":"KY","name":"NEW HAVEN","zip":"40051"}},{"arcs":[[-81,-107]],"type":"Polygon","properties":{"state":"KY","name":"NEW HOPE","zip":"40052"}},{"arcs":[[107,-70,108,-10,109,-100]],"type":"Polygon","properties":{"state":"KY","name":"PENDLETON","zip":"40055"}},{"arcs":[[-98,-32,-18,-77,110,-3,111,-52]],"type":"Polygon","properties":{"state":"KY","name":"PLEASUREVILLE","zip":"40057"}},{"arcs":[[112,113,-65,-46,114]],"type":"Polygon","properties":{"state":"KY","name":"PROSPECT","zip":"40059"}},{"arcs":[[-79,-71,115,-102]],"type":"Polygon","properties":{"state":"KY","name":"RAYWICK","zip":"40060"}},{"arcs":[[116,117,118,-58,119,-49,120,-53,-112,-2]],"type":"Polygon","properties":{"state":"KY","name":"SHELBYVILLE","zip":"40065"}},{"arcs":[[-62,121,-50,-120,-57]],"type":"Polygon","properties":{"state":"KY","name":"SIMPSONVILLE","zip":"40067"}},{"arcs":[[-68,-108,-99,-54,-121,-48]],"type":"Polygon","properties":{"state":"KY","name":"SMITHFIELD","zip":"40068"}},{"arcs":[[122,-73,-83,-7,-22,123,-85]],"type":"Polygon","properties":{"state":"KY","name":"SPRINGFIELD","zip":"40069"}},{"arcs":[[-16,-34,-101,-110]],"type":"Polygon","properties":{"state":"KY","name":"SULPHUR","zip":"40070"}},{"arcs":[[-24,-43,-97,124,125,-63,-59,-119,-91]],"type":"Polygon","properties":{"state":"KY","name":"TAYLORSVILLE","zip":"40071"}},{"arcs":[[126,-36,127]],"type":"Polygon","properties":{"state":"KY","name":"TURNERS STATION","zip":"40075"}},{"arcs":[[128,-92,-118,129]],"type":"Polygon","properties":{"state":"KY","name":"WADDY","zip":"40076"}},{"arcs":[[-67,130,-11,-109,-69]],"type":"Polygon","properties":{"state":"KY","name":"WESTPORT","zip":"40077"}},{"arcs":[[131,-86,-124,-21,-40,132,133]],"type":"Polygon","properties":{"state":"KY","name":"WILLISBURG","zip":"40078"}},{"arcs":[[134,135,136]],"type":"Polygon","properties":{"state":"KY","name":"BATTLETOWN","zip":"40104"}},{"arcs":[[137,138,139,-44,-4,-106]],"type":"Polygon","properties":{"state":"KY","name":"BOSTON","zip":"40107"}},{"arcs":[[140,141,-137,142,143,144,145]],"type":"Polygon","properties":{"state":"KY","name":"BRANDENBURG","zip":"40108"}},{"arcs":[[146,147,148,149]],"type":"Polygon","properties":{"state":"KY","name":"BROOKS","zip":"40109"}},{"arcs":[[150,151,152,153,154,155,156]],"type":"Polygon","properties":{"state":"KY","name":"CLOVERPORT","zip":"40111"}},{"arcs":[[157,158,159,160,161,162,163]],"type":"Polygon","properties":{"state":"KY","name":"CUSTER","zip":"40115"}},{"arcs":[[164,165,-146]],"type":"Polygon","properties":{"state":"KY","name":"EKRON","zip":"40117"}},{"arcs":[[166,167,168,169,-148]],"type":"Polygon","properties":{"state":"KY","name":"FAIRDALE","zip":"40118"}},{"arcs":[[170,171,172,173,-152,174,175]],"type":"Polygon","properties":{"state":"KY","name":"FALLS OF ROUGH","zip":"40119"}},{"arcs":[[176,177,178,179,180]],"type":"Polygon","properties":{"state":"KY","name":"FORT KNOX","zip":"40121"}},{"arcs":[[[181,182,183,184,-160]],[[185,186,-163,187,188]]],"type":"MultiPolygon","properties":{"state":"KY","name":"GARFIELD","zip":"40140"}},{"arcs":[[189,190,191,192,-141,-166]],"type":"Polygon","properties":{"state":"KY","name":"GUSTON","zip":"40142"}},{"arcs":[[193,194,195,-183,196,197,-175,-151]],"type":"Polygon","properties":{"state":"KY","name":"HARDINSBURG","zip":"40143"}},{"arcs":[[198,199,-197,-182,-159]],"type":"Polygon","properties":{"state":"KY","name":"HARNED","zip":"40144"}},{"arcs":[[200,-184,-196,201,202,-191]],"type":"Polygon","properties":{"state":"KY","name":"IRVINGTON","zip":"40146"}},{"arcs":[[203,204,205,-139]],"type":"Polygon","properties":{"state":"KY","name":"LEBANON JUNCTION","zip":"40150"}},{"arcs":[[206,-144,207,208,-179]],"type":"Polygon","properties":{"state":"KY","name":"MULDRAUGH","zip":"40155"}},{"arcs":[[-193,209,210,211,212,-135,-142]],"type":"Polygon","properties":{"state":"KY","name":"PAYNEVILLE","zip":"40157"}},{"arcs":[[213,214,215,-177]],"type":"Polygon","properties":{"state":"KY","name":"RADCLIFF","zip":"40160"}},{"arcs":[[216,217,-211]],"type":"Polygon","properties":{"state":"KY","name":"RHODELIA","zip":"40161"}},{"arcs":[[218,219,-215,220]],"type":"Polygon","properties":{"state":"KY","name":"RINEYVILLE","zip":"40162"}},{"arcs":[[221,222,-199,-158]],"type":"Polygon","properties":{"state":"KY","name":"SE REE","zip":"40164"}},{"arcs":[[-140,-206,223,224,-150,225,-94,-41]],"type":"Polygon","properties":{"state":"KY","name":"SHEPHERDSVILLE","zip":"40165"}},{"arcs":[[-157,226,227,-194]],"type":"Polygon","properties":{"state":"KY","name":"STEPHENSPORT","zip":"40170"}},{"arcs":[[-228,228,-212,-218,229,-202,-195]],"type":"Polygon","properties":{"state":"KY","name":"UNION STAR","zip":"40171"}},{"arcs":[[-220,230,-161,-185,-201,-190,-165,-145,-207,-178,-216]],"type":"Polygon","properties":{"state":"KY","name":"VINE GROVE","zip":"40175"}},{"arcs":[[-217,-210,-192,-203,-230]],"type":"Polygon","properties":{"state":"KY","name":"WEBSTER","zip":"40176"}},{"arcs":[[-209,231,232,-224,-205,233,-180]],"type":"Polygon","properties":{"state":"KY","name":"WEST POINT","zip":"40177"}},{"arcs":[[234,-176,-198,-200,-223]],"type":"Polygon","properties":{"state":"KY","name":"WESTVIEW","zip":"40178"}},{"arcs":[[235,236,237,238]],"type":"Polygon","properties":{"state":"KY","name":"LOUISVILLE","zip":"40202"}},{"arcs":[[239,240,241,242,243,244,-237]],"type":"Polygon","properties":{"state":"KY","name":"LOUISVILLE","zip":"40203"}},{"arcs":[[245,246,247,-240,-236,248]],"type":"Polygon","properties":{"state":"KY","name":"LOUISVILLE","zip":"40204"}},{"arcs":[[249,250,251,-246,252,253]],"type":"Polygon","properties":{"state":"KY","name":"LOUISVILLE","zip":"40205"}},{"arcs":[[254,-253,-249,-239,255]],"type":"Polygon","properties":{"state":"KY","name":"LOUISVILLE","zip":"40206"}},{"arcs":[[256,-254,-255,257,258]],"type":"Polygon","properties":{"state":"KY","name":"LOUISVILLE","zip":"40207"}},{"arcs":[[259,260,-241,261,262,263]],"type":"Polygon","properties":{"state":"KY","name":"LOUISVILLE","zip":"40208"}},{"arcs":[[264,265,-263,266]],"type":"Polygon","properties":{"state":"KY","name":"LOUISVILLE","zip":"40209"}},{"arcs":[[267,268,-242,-261]],"type":"Polygon","properties":{"state":"KY","name":"LOUISVILLE","zip":"40210"}},{"arcs":[[269,270,-243,-269,271,272]],"type":"Polygon","properties":{"state":"KY","name":"LOUISVILLE","zip":"40211"}},{"arcs":[[-244,-271,273]],"type":"Polygon","properties":{"state":"KY","name":"LOUISVILLE","zip":"40212"}},{"arcs":[[274,275,276,-265,277,-247,-252]],"type":"Polygon","properties":{"state":"KY","name":"LOUISVILLE","zip":"40213"}},{"arcs":[[278,-168,279,280,281,282,-264,-266,-277]],"type":"Polygon","properties":{"state":"KY","name":"LOUISVILLE","zip":"40214"}},{"arcs":[[283,-260,-283]],"type":"Polygon","properties":{"state":"KY","name":"LOUISVILLE","zip":"40215"}},{"arcs":[[-272,-268,-284,-282,284,285]],"type":"Polygon","properties":{"state":"KY","name":"LOUISVILLE","zip":"40216"}},{"arcs":[[-267,-262,-248,-278]],"type":"Polygon","properties":{"state":"KY","name":"LOUISVILLE","zip":"40217"}},{"arcs":[[286,287,288,-275,-251,289,290]],"type":"Polygon","properties":{"state":"KY","name":"LOUISVILLE","zip":"40218"}},{"arcs":[[291,292,-169,-279,-276,-289]],"type":"Polygon","properties":{"state":"KY","name":"LOUISVILLE","zip":"40219"}},{"arcs":[[293,-290,-250,-257,294]],"type":"Polygon","properties":{"state":"KY","name":"LOUISVILLE","zip":"40220"}},{"arcs":[[295,-295,-259,296,-113,297,298]],"type":"Polygon","properties":{"state":"KY","name":"LOUISVILLE","zip":"40222"}},{"arcs":[[-296,299,300,301,302]],"type":"Polygon","properties":{"state":"KY","name":"LOUISVILLE","zip":"40223"}},{"arcs":[[303,304,-292,-288]],"type":"Polygon","properties":{"state":"KY","name":"LOUISVILLE","zip":"40228"}},{"arcs":[[-226,-149,-170,-293,-305,305,-95]],"type":"Polygon","properties":{"state":"KY","name":"LOUISVILLE","zip":"40229"}},{"arcs":[[-115,-45,306,-301,307,-298]],"type":"Polygon","properties":{"state":"KY","name":"LOUISVILLE","zip":"40241"}},{"arcs":[[-308,-300,-299]],"type":"Polygon","properties":{"state":"KY","name":"LOUISVILLE","zip":"40242"}},{"arcs":[[-307,-51,-122,-61,308,-302]],"type":"Polygon","properties":{"state":"KY","name":"LOUISVILLE","zip":"40245"}},{"arcs":[[-285,-281,309,310]],"type":"Polygon","properties":{"state":"KY","name":"LOUISVILLE","zip":"40258"}},{"arcs":[[-233,311,-310,-280,-167,-147,-225]],"type":"Polygon","properties":{"state":"KY","name":"LOUISVILLE","zip":"40272"}},{"arcs":[[-96,-306,-304,-287,312,-125]],"type":"Polygon","properties":{"state":"KY","name":"LOUISVILLE","zip":"40291"}},{"arcs":[[-294,-303,-309,-60,-126,-313,-291]],"type":"Polygon","properties":{"state":"KY","name":"LOUISVILLE","zip":"40299"}},{"arcs":[[313,314,315,316,317,318,319]],"type":"Polygon","properties":{"state":"KY","name":"CARLISLE","zip":"40311"}},{"arcs":[[320,321,322,323,324]],"type":"Polygon","properties":{"state":"KY","name":"CLAY CITY","zip":"40312"}},{"arcs":[[325,326]],"type":"Polygon","properties":{"state":"KY","name":"CLEARFIELD","zip":"40313"}},{"arcs":[[327,328,329,330,331,332,333,334,335]],"type":"Polygon","properties":{"state":"KY","name":"FRENCHBURG","zip":"40322"}},{"arcs":[[336,337,338,339,340,341]],"type":"Polygon","properties":{"state":"KY","name":"GEORGETOWN","zip":"40324"}},{"arcs":[[-74,-123,-84,342,343,344,345,-30]],"type":"Polygon","properties":{"state":"KY","name":"GRAVEL SWITCH","zip":"40328"}},{"arcs":[[346,347,-87,-132,348,349,350,351]],"type":"Polygon","properties":{"state":"KY","name":"HARRODSBURG","zip":"40330"}},{"arcs":[[352,353,354,355,356,-323,357,358,359,360]],"type":"Polygon","properties":{"state":"KY","name":"IRVINE","zip":"40336"}},{"arcs":[[361,362,-325,363,364,365]],"type":"Polygon","properties":{"state":"KY","name":"JEFFERSONVILLE","zip":"40337"}},{"arcs":[[-26,-93,-129,366,367,368,-133,-39]],"type":"Polygon","properties":{"state":"KY","name":"LAWRENCEBURG","zip":"40342"}},{"arcs":[[369,-362,370,-331]],"type":"Polygon","properties":{"state":"KY","name":"MEANS","zip":"40346"}},{"arcs":[[371,372,373,374,-342]],"type":"Polygon","properties":{"state":"KY","name":"MIDWAY","zip":"40347"}},{"arcs":[[375,376,-320]],"type":"Polygon","properties":{"state":"KY","name":"MOOREFIELD","zip":"40350"}},{"arcs":[[377,378,379,380,381,382,383,384,-327,385,386,-335]],"type":"Polygon","properties":{"state":"KY","name":"MOREHEAD","zip":"40351"}},{"arcs":[[387,-365,388,389,-315,390]],"type":"Polygon","properties":{"state":"KY","name":"MOUNT STERLING","zip":"40353"}},{"arcs":[[391,392,393,394,395,396,397,-37,-127]],"type":"Polygon","properties":{"state":"KY","name":"NEW LIBERTY","zip":"40355"}},{"arcs":[[398,399,400,401,402,403,404]],"type":"Polygon","properties":{"state":"KY","name":"NICHOLASVILLE","zip":"40356"}},{"arcs":[[405,406,-333]],"type":"Polygon","properties":{"state":"KY","name":"OLYMPIA","zip":"40358"}},{"arcs":[[-20,-38,-398,407,408,409,410,411,-78]],"type":"Polygon","properties":{"state":"KY","name":"OWENTON","zip":"40359"}},{"arcs":[[-332,-371,-366,-388,412,413,-379,414,-406]],"type":"Polygon","properties":{"state":"KY","name":"OWINGSVILLE","zip":"40360"}},{"arcs":[[415,416,417,-340,418,-316,-390]],"type":"Polygon","properties":{"state":"KY","name":"PARIS","zip":"40361"}},{"arcs":[[419,-410,420,421,422,-338]],"type":"Polygon","properties":{"state":"KY","name":"SADIEVILLE","zip":"40370"}},{"arcs":[[-415,-378,-334,-407]],"type":"Polygon","properties":{"state":"KY","name":"SALT LICK","zip":"40371"}},{"arcs":[[423,-349,-134,-369]],"type":"Polygon","properties":{"state":"KY","name":"SALVISA","zip":"40372"}},{"arcs":[[-377,424,425,-413,-391,-314]],"type":"Polygon","properties":{"state":"KY","name":"SHARPSBURG","zip":"40374"}},{"arcs":[[426,427,-329,428,429]],"type":"Polygon","properties":{"state":"KY","name":"SLADE","zip":"40376"}},{"arcs":[[430,-411,-420,-337,-375]],"type":"Polygon","properties":{"state":"KY","name":"STAMPING GROUND","zip":"40379"}},{"arcs":[[431,432,-321,-363,-370,-330,-428]],"type":"Polygon","properties":{"state":"KY","name":"STANTON","zip":"40380"}},{"arcs":[[433,-350,-424,-368,434,-373,435,436,437,-400]],"type":"Polygon","properties":{"state":"KY","name":"VERSAILLES","zip":"40383"}},{"arcs":[[[438,-355]],[[439,440,-353]]],"type":"MultiPolygon","properties":{"state":"KY","name":"WACO","zip":"40385"}},{"arcs":[[-387,441,442,443,444,-336]],"type":"Polygon","properties":{"state":"KY","name":"WELLINGTON","zip":"40387"}},{"arcs":[[445,-351,-434,-399]],"type":"Polygon","properties":{"state":"KY","name":"WILMORE","zip":"40390"}},{"arcs":[[446,447,448,449,-416,-389,-364,-324,-357]],"type":"Polygon","properties":{"state":"KY","name":"WINCHESTER","zip":"40391"}},{"arcs":[[450,451,452,453,454]],"type":"Polygon","properties":{"state":"KY","name":"ANNVILLE","zip":"40402"}},{"arcs":[[455,456,457,458,459,-440,-361]],"type":"Polygon","properties":{"state":"KY","name":"BEREA","zip":"40403"}},{"arcs":[[460,461,462,463]],"type":"Polygon","properties":{"state":"KY","name":"BRODHEAD","zip":"40409"}},{"arcs":[[464,465,466,-458,467]],"type":"Polygon","properties":{"state":"KY","name":"CRAB ORCHARD","zip":"40419"}},{"arcs":[[468,469,-347,470,471,472]],"type":"Polygon","properties":{"state":"KY","name":"DANVILLE","zip":"40422"}},{"arcs":[[473,474,475,476,477]],"type":"Polygon","properties":{"state":"KY","name":"HUSTONVILLE","zip":"40437"}},{"arcs":[[478,-473,479]],"type":"Polygon","properties":{"state":"KY","name":"JUNCTION CITY","zip":"40440"}},{"arcs":[[480,481,482,-477,483]],"type":"Polygon","properties":{"state":"KY","name":"KINGS MOUNTAIN","zip":"40442"}},{"arcs":[[484,-466,485,-471,-352,-446,-405,486]],"type":"Polygon","properties":{"state":"KY","name":"LANCASTER","zip":"40444"}},{"arcs":[[-456,-360,487,488],[489]],"type":"Polygon","properties":{"state":"KY","name":"MC KEE","zip":"40447"}},{"arcs":[[490,-461,491,492,493,494]],"type":"Polygon","properties":{"state":"KY","name":"MOUNT VERNON","zip":"40456"}},{"arcs":[[-467,-485,495,-459]],"type":"Polygon","properties":{"state":"KY","name":"PAINT LICK","zip":"40461"}},{"arcs":[[496,-344,-469,-479]],"type":"Polygon","properties":{"state":"KY","name":"PARKSVILLE","zip":"40464"}},{"arcs":[[-343,-88,-348,-470]],"type":"Polygon","properties":{"state":"KY","name":"PERRYVILLE","zip":"40468"}},{"arcs":[[497,-358,-322,-433]],"type":"Polygon","properties":{"state":"KY","name":"RAVENNA","zip":"40472"}},{"arcs":[[-460,-496,-487,-404,498,-447,-356,-439,-354,-441]],"type":"Polygon","properties":{"state":"KY","name":"RICHMOND","zip":"40475"}},{"arcs":[[499]],"type":"Polygon","properties":{"state":"KY","name":"SANDGAP","zip":"40481"}},{"arcs":[[-345,-497,-480,-472,-486,-465,500]],"type":"Polygon","properties":{"state":"KY","name":"STANFORD","zip":"40484"}},{"arcs":[[501,502,-455,503,504,505,506]],"type":"Polygon","properties":{"state":"KY","name":"TYNER","zip":"40486"}},{"arcs":[[507,508,509,510,-484,-476,511]],"type":"Polygon","properties":{"state":"KY","name":"WAYNESBURG","zip":"40489"}},{"arcs":[[512,513,514,515,516,517]],"type":"Polygon","properties":{"state":"KY","name":"LEXINGTON","zip":"40502"}},{"arcs":[[518,519,520,521,522,523,524,-515]],"type":"Polygon","properties":{"state":"KY","name":"LEXINGTON","zip":"40503"}},{"arcs":[[525,526,527,528,-523]],"type":"Polygon","properties":{"state":"KY","name":"LEXINGTON","zip":"40504"}},{"arcs":[[529,-518,530,531,532]],"type":"Polygon","properties":{"state":"KY","name":"LEXINGTON","zip":"40505"}},{"arcs":[[533,-516,-525]],"type":"Polygon","properties":{"state":"KY","name":"LEXINGTON","zip":"40506"}},{"arcs":[[-529,534,-531,-517,-534,-524]],"type":"Polygon","properties":{"state":"KY","name":"LEXINGTON","zip":"40508"}},{"arcs":[[535,-513,-530,536,-449,537]],"type":"Polygon","properties":{"state":"KY","name":"LEXINGTON","zip":"40509"}},{"arcs":[[538,-527,539,-437]],"type":"Polygon","properties":{"state":"KY","name":"LEXINGTON","zip":"40510"}},{"arcs":[[-535,-528,-539,-436,-372,-341,-418,540,-532]],"type":"Polygon","properties":{"state":"KY","name":"LEXINGTON","zip":"40511"}},{"arcs":[[-540,-526,-522,541,-401,-438]],"type":"Polygon","properties":{"state":"KY","name":"LEXINGTON","zip":"40513"}},{"arcs":[[542,-402,-542,-521]],"type":"Polygon","properties":{"state":"KY","name":"LEXINGTON","zip":"40514"}},{"arcs":[[-499,-403,-543,-520,543,-538,-448]],"type":"Polygon","properties":{"state":"KY","name":"LEXINGTON","zip":"40515"}},{"arcs":[[-537,-533,-541,-417,-450]],"type":"Polygon","properties":{"state":"KY","name":"LEXINGTON","zip":"40516"}},{"arcs":[[-514,-536,-544,-519]],"type":"Polygon","properties":{"state":"KY","name":"LEXINGTON","zip":"40517"}},{"arcs":[[-435,-367,-130,-117,-1,-111,-76,-412,-431,-374]],"type":"Polygon","properties":{"state":"KY","name":"FRANKFORT","zip":"40601"}},{"arcs":[[544,545,546,547,548,549,550,551,552,553]],"type":"Polygon","properties":{"state":"KY","name":"CORBIN","zip":"40701"}},{"arcs":[[-453,554,-493,555]],"type":"Polygon","properties":{"state":"KY","name":"EAST BERNSTADT","zip":"40729"}},{"arcs":[[556,-553,557,558,559]],"type":"Polygon","properties":{"state":"KY","name":"GRAY","zip":"40734"}},{"arcs":[[560,561,-550]],"type":"Polygon","properties":{"state":"KY","name":"KEAVY","zip":"40737"}},{"arcs":[[-562,562,-551]],"type":"Polygon","properties":{"state":"KY","name":"LILY","zip":"40740"}},{"arcs":[[563,-494,-555,-452,564,565,566,567]],"type":"Polygon","properties":{"state":"KY","name":"LONDON","zip":"40741"}},{"arcs":[[-563,-561,-549,568,569,-566,570,571,-558,-552]],"type":"Polygon","properties":{"state":"KY","name":"LONDON","zip":"40744"}},{"arcs":[[572,573,-546,574,575]],"type":"Polygon","properties":{"state":"KY","name":"ROCKHOLDS","zip":"40759"}},{"arcs":[[576,577,578,579]],"type":"Polygon","properties":{"state":"KY","name":"SILER","zip":"40763"}},{"arcs":[[580,581,582,583,584,-547,-574,585,-578]],"type":"Polygon","properties":{"state":"KY","name":"WILLIAMSBURG","zip":"40769"}},{"arcs":[[-545,586,-575]],"type":"Polygon","properties":{"state":"KY","name":"WOODBINE","zip":"40771"}},{"arcs":[[587,588,589]],"type":"Polygon","properties":{"state":"KY","name":"AGES BROOKSIDE","zip":"40801"}},{"arcs":[[590,591,592,593,594,595,596]],"type":"Polygon","properties":{"state":"KY","name":"BAXTER","zip":"40806"}},{"arcs":[[597,598,599]],"type":"Polygon","properties":{"state":"KY","name":"BENHAM","zip":"40807"}},{"arcs":[[600,601,602,603,604,605,606]],"type":"Polygon","properties":{"state":"KY","name":"BIG LAUREL","zip":"40808"}},{"arcs":[[607,608,609,610,-602,611,-592,612]],"type":"Polygon","properties":{"state":"KY","name":"BLEDSOE","zip":"40810"}},{"arcs":[[613,614,615]],"type":"Polygon","properties":{"state":"KY","name":"CALVIN","zip":"40813"}},{"arcs":[[616,617,618,619,620,621]],"type":"Polygon","properties":{"state":"KY","name":"CAWOOD","zip":"40815"}},{"arcs":[[622,623,-588,624,-618]],"type":"Polygon","properties":{"state":"KY","name":"COALGOOD","zip":"40818"}},{"arcs":[[625,626,627,-609]],"type":"Polygon","properties":{"state":"KY","name":"COLDIRON","zip":"40819"}},{"arcs":[[628,629,-621,630,631]],"type":"Polygon","properties":{"state":"KY","name":"CRANKS","zip":"40820"}},{"arcs":[[632,633,634,635,636,637,638,639,640,-599,641,642]],"type":"Polygon","properties":{"state":"KY","name":"CUMBERLAND","zip":"40823"}},{"arcs":[[643,-613,-591]],"type":"Polygon","properties":{"state":"KY","name":"DAYHOIT","zip":"40824"}},{"arcs":[[644,-638,645,646,647]],"type":"Polygon","properties":{"state":"KY","name":"EOLIA","zip":"40826"}},{"arcs":[[648,-619,-625,-590,649,-595,650,-633,651,652,-632]],"type":"Polygon","properties":{"state":"KY","name":"EVARTS","zip":"40828"}},{"arcs":[[653,-623,-617]],"type":"Polygon","properties":{"state":"KY","name":"GRAYS KNOB","zip":"40829"}},{"arcs":[[654,655,656,657,-596,-650,-589,-624,-654,-622,-630]],"type":"Polygon","properties":{"state":"KY","name":"HARLAN","zip":"40831"}},{"arcs":[[658,659,-642,-598]],"type":"Polygon","properties":{"state":"KY","name":"HOLMES MILL","zip":"40843"}},{"arcs":[[660,661,662,663,664,-628,665,-656]],"type":"Polygon","properties":{"state":"KY","name":"HULEN","zip":"40845"}},{"arcs":[[630,648,619]],"type":"Polygon","properties":{"state":"KY","name":"KENVIR","zip":"40847"}},{"arcs":[[666,-640]],"type":"Polygon","properties":{"state":"KY","name":"LYNCH","zip":"40855"}},{"arcs":[[667,668,669,670,671,672,-603,-611,673]],"type":"Polygon","properties":{"state":"KY","name":"MOZELLE","zip":"40858"}},{"arcs":[[-666,-627,674,-657]],"type":"Polygon","properties":{"state":"KY","name":"PATHFORK","zip":"40863"}},{"arcs":[[675,-593,-612]],"type":"Polygon","properties":{"state":"KY","name":"PUTNEY","zip":"40865"}},{"arcs":[[676,-671,677,678]],"type":"Polygon","properties":{"state":"KY","name":"STINNETT","zip":"40868"}},{"arcs":[[-601,679,-634,-651,-594,-676]],"type":"Polygon","properties":{"state":"KY","name":"TOTZ","zip":"40870"}},{"arcs":[[-608,-644,-597,-658,-675,-626]],"type":"Polygon","properties":{"state":"KY","name":"WALLINS CREEK","zip":"40873"}},{"arcs":[[680,681,682,683,684,685,686,687]],"type":"Polygon","properties":{"state":"KY","name":"ARJAY","zip":"40902"}},{"arcs":[[688,689,690,691]],"type":"Polygon","properties":{"state":"KY","name":"ARTEMUS","zip":"40903"}},{"arcs":[[692,693,-576,-587,-554,-557,694,695,696,-689]],"type":"Polygon","properties":{"state":"KY","name":"BARBOURVILLE","zip":"40906"}},{"arcs":[[697,-685,698,699]],"type":"Polygon","properties":{"state":"KY","name":"BEVERLY","zip":"40913"}},{"arcs":[[700,701,702,703]],"type":"Polygon","properties":{"state":"KY","name":"BIG CREEK","zip":"40914"}},{"arcs":[[-690,-697,704,705,706]],"type":"Polygon","properties":{"state":"KY","name":"BIMBLE","zip":"40915"}},{"arcs":[[707,708,-579,-586,-573,-694]],"type":"Polygon","properties":{"state":"KY","name":"BRYANTS STORE","zip":"40921"}},{"arcs":[[709,-695,-560,710,711,712,713,714,715,-706]],"type":"Polygon","properties":{"state":"KY","name":"CANNON","zip":"40923"}},{"arcs":[[716,-652,-643,-660]],"type":"Polygon","properties":{"state":"KY","name":"CLOSPLINT","zip":"40927"}},{"arcs":[[717,718,719,720,-682]],"type":"Polygon","properties":{"state":"KY","name":"DEWITT","zip":"40930"}},{"arcs":[[[721,722,-699,-684,723,-720]],[[724,-691,725,726,-718,-681,727]]],"type":"MultiPolygon","properties":{"state":"KY","name":"FLAT LICK","zip":"40935"}},{"arcs":[[-577,728,-615,729,730,-581]],"type":"Polygon","properties":{"state":"KY","name":"FRAKES","zip":"40940"}},{"arcs":[[731,732,-712]],"type":"Polygon","properties":{"state":"KY","name":"GIRDLER","zip":"40943"}},{"arcs":[[-711,-559,-572,733,734,-732]],"type":"Polygon","properties":{"state":"KY","name":"GREEN ROAD","zip":"40946"}},{"arcs":[[-710,-705,-696]],"type":"Polygon","properties":{"state":"KY","name":"HEIDRICK","zip":"40949"}},{"arcs":[[-716,735,-726,-707]],"type":"Polygon","properties":{"state":"KY","name":"HINKLE","zip":"40953"}},{"arcs":[[736,-687,737,-664]],"type":"Polygon","properties":{"state":"KY","name":"KETTLE ISLAND","zip":"40958"}},{"arcs":[[738,-668,739,-700,-723,740,-714,741,-734,-571,-565,-451,-503,742,743,-702,744]],"type":"Polygon","properties":{"state":"KY","name":"MANCHESTER","zip":"40962"}},{"arcs":[[-614,745,-662,746,-730]],"type":"Polygon","properties":{"state":"KY","name":"MIDDLESBORO","zip":"40965"}},{"arcs":[[747,748,749,750,751,752,-703,-744]],"type":"Polygon","properties":{"state":"KY","name":"ONEIDA","zip":"40972"}},{"arcs":[[753,-728,-688,-737,-663,-746,-616,-729,-580,-709]],"type":"Polygon","properties":{"state":"KY","name":"PINEVILLE","zip":"40977"}},{"arcs":[[754,-669,-739]],"type":"Polygon","properties":{"state":"KY","name":"ROARK","zip":"40979"}},{"arcs":[[-727,-736,-715,-741,-722,-719]],"type":"Polygon","properties":{"state":"KY","name":"SCALF","zip":"40982"}},{"arcs":[[-743,-502,755,-748]],"type":"Polygon","properties":{"state":"KY","name":"SEXTONS CREEK","zip":"40983"}},{"arcs":[[-665,-738,-686,-698,-740,-674,-610]],"type":"Polygon","properties":{"state":"KY","name":"STONEY FORK","zip":"40988"}},{"arcs":[[-693,-692,-725,-754,-708]],"type":"Polygon","properties":{"state":"KY","name":"TROSPER","zip":"40995"}},{"arcs":[[-724,-683,-721]],"type":"Polygon","properties":{"state":"KY","name":"WALKER","zip":"40997"}},{"arcs":[[-733,-735,-742,-713]],"type":"Polygon","properties":{"state":"KY","name":"WOOLLUM","zip":"40999"}},{"arcs":[[756,757,758,759,760,761,762]],"type":"Polygon","properties":{"state":"KY","name":"ALEXANDRIA","zip":"41001"}},{"arcs":[[763,764,765,766,767]],"type":"Polygon","properties":{"state":"KY","name":"AUGUSTA","zip":"41002"}},{"arcs":[[768,769,770,-422]],"type":"Polygon","properties":{"state":"KY","name":"BERRY","zip":"41003"}},{"arcs":[[771,772,-765,773,774,775,776]],"type":"Polygon","properties":{"state":"KY","name":"BROOKSVILLE","zip":"41004"}},{"arcs":[[777,778,779,780,781,782,783]],"type":"Polygon","properties":{"state":"KY","name":"BURLINGTON","zip":"41005"}},{"arcs":[[784,785,786,787,-758,788,789]],"type":"Polygon","properties":{"state":"KY","name":"BUTLER","zip":"41006"}},{"arcs":[[-757,790,791,-789]],"type":"Polygon","properties":{"state":"KY","name":"CALIFORNIA","zip":"41007"}},{"arcs":[[792,-128,-35,-14,-89,793,794,795]],"type":"Polygon","properties":{"state":"KY","name":"CARROLLTON","zip":"41008"}},{"arcs":[[-409,796,-769,-421]],"type":"Polygon","properties":{"state":"KY","name":"CORINTH","zip":"41010"}},{"arcs":[[797,798,799,800,801,802]],"type":"Polygon","properties":{"state":"KY","name":"COVINGTON","zip":"41011"}},{"arcs":[[803,-798,804]],"type":"Polygon","properties":{"state":"KY","name":"COVINGTON","zip":"41014"}},{"arcs":[[805,806,-799,-804,807,-760,808]],"type":"Polygon","properties":{"state":"KY","name":"LATONIA","zip":"41015"}},{"arcs":[[809,810,-801]],"type":"Polygon","properties":{"state":"KY","name":"COVINGTON","zip":"41016"}},{"arcs":[[811,812,813,-810,-800,-807,814]],"type":"Polygon","properties":{"state":"KY","name":"FT MITCHELL","zip":"41017"}},{"arcs":[[815,816,817,818,-812]],"type":"Polygon","properties":{"state":"KY","name":"ERLANGER","zip":"41018"}},{"arcs":[[819,820,821,822]],"type":"Polygon","properties":{"state":"KY","name":"CRITTENDEN","zip":"41030"}},{"arcs":[[-771,823,-777,824,-317,-419,-339,-423]],"type":"Polygon","properties":{"state":"KY","name":"CYNTHIANA","zip":"41031"}},{"arcs":[[825,-820,826,-787,827,828]],"type":"Polygon","properties":{"state":"KY","name":"DE MOSSVILLE","zip":"41033"}},{"arcs":[[829,-768,830,831]],"type":"Polygon","properties":{"state":"KY","name":"DOVER","zip":"41034"}},{"arcs":[[832,833,834,835,836,-821,-826,837,-397]],"type":"Polygon","properties":{"state":"KY","name":"DRY RIDGE","zip":"41035"}},{"arcs":[[-319,838,839,840,841,-425,-376]],"type":"Polygon","properties":{"state":"KY","name":"EWING","zip":"41039"}},{"arcs":[[-770,842,-828,-786,843,-772,-824]],"type":"Polygon","properties":{"state":"KY","name":"FALMOUTH","zip":"41040"}},{"arcs":[[844,845,846,847,848,849,-841]],"type":"Polygon","properties":{"state":"KY","name":"FLEMINGSBURG","zip":"41041"}},{"arcs":[[850,851,852,-782,853,-817]],"type":"Polygon","properties":{"state":"KY","name":"FLORENCE","zip":"41042"}},{"arcs":[[-844,-785,854,-766,-773]],"type":"Polygon","properties":{"state":"KY","name":"FOSTER","zip":"41043"}},{"arcs":[[855,-774,-764,-830]],"type":"Polygon","properties":{"state":"KY","name":"GERMANTOWN","zip":"41044"}},{"arcs":[[856,-795,857,858]],"type":"Polygon","properties":{"state":"KY","name":"GHENT","zip":"41045"}},{"arcs":[[859,-395,860,-834]],"type":"Polygon","properties":{"state":"KY","name":"GLENCOE","zip":"41046"}},{"arcs":[[861,-780,862,-813,-819]],"type":"Polygon","properties":{"state":"KY","name":"HEBRON","zip":"41048"}},{"arcs":[[863,-380,-414,-426,-842,-850]],"type":"Polygon","properties":{"state":"KY","name":"HILLSBORO","zip":"41049"}},{"arcs":[[864,865,-851,-816,-815,-806]],"type":"Polygon","properties":{"state":"KY","name":"INDEPENDENCE","zip":"41051"}},{"arcs":[[-396,-860,-833]],"type":"Polygon","properties":{"state":"KY","name":"JONESVILLE","zip":"41052"}},{"arcs":[[-840,866,867,-845]],"type":"Polygon","properties":{"state":"KY","name":"MAYSLICK","zip":"41055"}},{"arcs":[[868,-846,-868,869,-775,-856,-832,870]],"type":"Polygon","properties":{"state":"KY","name":"MAYSVILLE","zip":"41056"}},{"arcs":[[871,872,-791,-763]],"type":"Polygon","properties":{"state":"KY","name":"MELBOURNE","zip":"41059"}},{"arcs":[[873,874,-865,-809,-759,-788,-827,-823]],"type":"Polygon","properties":{"state":"KY","name":"MORNING VIEW","zip":"41063"}},{"arcs":[[-776,-870,-867,-839,-318,-825]],"type":"Polygon","properties":{"state":"KY","name":"MOUNT OLIVET","zip":"41064"}},{"arcs":[[-803,875,876,877,878,-805]],"type":"Polygon","properties":{"state":"KY","name":"NEWPORT","zip":"41071"}},{"arcs":[[879,-877,880,881]],"type":"Polygon","properties":{"state":"KY","name":"BELLEVUE","zip":"41073"}},{"arcs":[[882,881,883]],"type":"Polygon","properties":{"state":"KY","name":"DAYTON","zip":"41074"}},{"arcs":[[-880,883,884,885,-878]],"type":"Polygon","properties":{"state":"KY","name":"FORT THOMAS","zip":"41075"}},{"arcs":[[886,-761,-808,-879,-886,887]],"type":"Polygon","properties":{"state":"KY","name":"NEWPORT","zip":"41076"}},{"arcs":[[-778,888]],"type":"Polygon","properties":{"state":"KY","name":"PETERSBURG","zip":"41080"}},{"arcs":[[-857,889,890,-393,891,-796]],"type":"Polygon","properties":{"state":"KY","name":"SANDERS","zip":"41083"}},{"arcs":[[-762,-887,892,-872]],"type":"Polygon","properties":{"state":"KY","name":"SILVER GROVE","zip":"41085"}},{"arcs":[[-891,893,-835,-861,-394]],"type":"Polygon","properties":{"state":"KY","name":"SPARTA","zip":"41086"}},{"arcs":[[-783,-853,894,895,896,897]],"type":"Polygon","properties":{"state":"KY","name":"UNION","zip":"41091"}},{"arcs":[[-837,898,-896,899,-874,-822]],"type":"Polygon","properties":{"state":"KY","name":"VERONA","zip":"41092"}},{"arcs":[[-864,-849,900,-381]],"type":"Polygon","properties":{"state":"KY","name":"WALLINGFORD","zip":"41093"}},{"arcs":[[-895,-852,-866,-875,-900]],"type":"Polygon","properties":{"state":"KY","name":"WALTON","zip":"41094"}},{"arcs":[[-897,-899,-836,-894,-890,-859,901]],"type":"Polygon","properties":{"state":"KY","name":"WARSAW","zip":"41095"}},{"arcs":[[-797,-408,-838,-829,-843]],"type":"Polygon","properties":{"state":"KY","name":"WILLIAMSTOWN","zip":"41097"}},{"arcs":[[-892,-392,-793]],"type":"Polygon","properties":{"state":"KY","name":"WORTHVILLE","zip":"41098"}},{"arcs":[[902,903,904,905]],"type":"Polygon","properties":{"state":"KY","name":"ASHLAND","zip":"41101"}},{"arcs":[[906,907,908,909,910,-903,911,912]],"type":"Polygon","properties":{"state":"KY","name":"ASHLAND","zip":"41102"}},{"arcs":[[913,-908]],"type":"Polygon","properties":{"state":"KY","name":"ARGILLITE","zip":"41121"}},{"arcs":[[914,915,916,917,918,919,920,921]],"type":"Polygon","properties":{"state":"KY","name":"BLAINE","zip":"41124"}},{"arcs":[[922,923,924]],"type":"Polygon","properties":{"state":"KY","name":"CAMP DIX","zip":"41127"}},{"arcs":[[925,926,927,-912,-906,928]],"type":"Polygon","properties":{"state":"KY","name":"CATLETTSBURG","zip":"41129"}},{"arcs":[[929,930,931,932,933]],"type":"Polygon","properties":{"state":"KY","name":"DENTON","zip":"41132"}},{"arcs":[[934,-923,935,936]],"type":"Polygon","properties":{"state":"KY","name":"EMERSON","zip":"41135"}},{"arcs":[[937,938,939,940]],"type":"Polygon","properties":{"state":"KY","name":"FIREBRICK","zip":"41137"}},{"arcs":[[941,942,-910]],"type":"Polygon","properties":{"state":"KY","name":"FLATWOODS","zip":"41139"}},{"arcs":[[943,944,945,946,947,-936,-925]],"type":"Polygon","properties":{"state":"KY","name":"GARRISON","zip":"41141"}},{"arcs":[[948,949,950,-932,951,-930,952,953]],"type":"Polygon","properties":{"state":"KY","name":"GRAYSON","zip":"41143"}},{"arcs":[[-914,-907,954,-950,955,-947,956,957,958,959,960,961,-942,-909]],"type":"Polygon","properties":{"state":"KY","name":"GREENUP","zip":"41144"}},{"arcs":[[-952,-931]],"type":"Polygon","properties":{"state":"KY","name":"HITCHINS","zip":"41146"}},{"arcs":[[962,-918,963,964]],"type":"Polygon","properties":{"state":"KY","name":"ISONVILLE","zip":"41149"}},{"arcs":[[965,966,-964,-917]],"type":"Polygon","properties":{"state":"KY","name":"MARTHA","zip":"41159"}},{"arcs":[[967,-383,968,-937,-948,-956,-949]],"type":"Polygon","properties":{"state":"KY","name":"OLIVE HILL","zip":"41164"}},{"arcs":[[-946,969,970,-957]],"type":"Polygon","properties":{"state":"KY","name":"QUINCY","zip":"41166"}},{"arcs":[[971,-933,-951,-955,-913,-928]],"type":"Polygon","properties":{"state":"KY","name":"RUSH","zip":"41168"}},{"arcs":[[-911,-943,-962,972,973,-904]],"type":"Polygon","properties":{"state":"KY","name":"RUSSELL","zip":"41169"}},{"arcs":[[-939,974,-958,-971,975]],"type":"Polygon","properties":{"state":"KY","name":"SAINT PAUL","zip":"41170"}},{"arcs":[[-963,976,-384,-968,-954,977,-919]],"type":"Polygon","properties":{"state":"KY","name":"SANDY HOOK","zip":"41171"}},{"arcs":[[978,-941,979]],"type":"Polygon","properties":{"state":"KY","name":"SOUTH PORTSMOUTH","zip":"41174"}},{"arcs":[[-938,-979,980,-959,-975]],"type":"Polygon","properties":{"state":"KY","name":"SOUTH SHORE","zip":"41175"}},{"arcs":[[-969,-382,-901,-848,981,982,-944,-924,-935]],"type":"Polygon","properties":{"state":"KY","name":"VANCEBURG","zip":"41179"}},{"arcs":[[983,984,-920,-978,-953,-934,-972]],"type":"Polygon","properties":{"state":"KY","name":"WEBBVILLE","zip":"41180"}},{"arcs":[[-961,985,-973]],"type":"Polygon","properties":{"state":"KY","name":"WORTHINGTON","zip":"41183"}},{"arcs":[[-869,986,-982,-847]],"type":"Polygon","properties":{"state":"KY","name":"TOLLESBORO","zip":"41189"}},{"arcs":[[987,988,-921,-985]],"type":"Polygon","properties":{"state":"KY","name":"ADAMS","zip":"41201"}},{"arcs":[[989,990,991,992,993,994]],"type":"Polygon","properties":{"state":"KY","name":"BOONS CAMP","zip":"41204"}},{"arcs":[[995,996,997,998,999,1000]],"type":"Polygon","properties":{"state":"KY","name":"DEBORD","zip":"41214"}},{"arcs":[[1001,1002,1003,1004,1005]],"type":"Polygon","properties":{"state":"KY","name":"DENVER","zip":"41215"}},{"arcs":[[1006,1007,1008,1009,1010,1011,1012]],"type":"Polygon","properties":{"state":"KY","name":"EAST POINT","zip":"41216"}},{"arcs":[[1013,1014,1015,1016,1017,-915,1018,1019]],"type":"Polygon","properties":{"state":"KY","name":"FLATGAP","zip":"41219"}},{"arcs":[[1020,-1006,1021,1022,-1009]],"type":"Polygon","properties":{"state":"KY","name":"HAGERHILL","zip":"41222"}},{"arcs":[[1023,1024,-999,1025,1026,1027]],"type":"Polygon","properties":{"state":"KY","name":"INEZ","zip":"41224"}},{"arcs":[[1028,-966,-916,-1018]],"type":"Polygon","properties":{"state":"KY","name":"KEATON","zip":"41226"}},{"arcs":[[1029,-1002,-1021,-1008]],"type":"Polygon","properties":{"state":"KY","name":"LEANDER","zip":"41228"}},{"arcs":[[1030,1031,-988,-984,-927,1032,-1027]],"type":"Polygon","properties":{"state":"KY","name":"LOUISA","zip":"41230"}},{"arcs":[[1033,1034,1035,1036]],"type":"Polygon","properties":{"state":"KY","name":"LOVELY","zip":"41231"}},{"arcs":[[1037,1038,-990,1039]],"type":"Polygon","properties":{"state":"KY","name":"MEALLY","zip":"41234"}},{"arcs":[[1040,1041,-1016,1042,1043]],"type":"Polygon","properties":{"state":"KY","name":"OIL SPRINGS","zip":"41238"}},{"arcs":[[[1044,1045,1046,1047,1048,-1022,-1005,1049,1050,1051,-1019,-922,-989,1052,-992,1053]],[[1054,-1044,1055,-1003,-1030,-1007,1056]]],"type":"MultiPolygon","properties":{"state":"KY","name":"PAINTSVILLE","zip":"41240"}},{"arcs":[[1057,-1000,-1025,1058,-1036,1059,1060]],"type":"Polygon","properties":{"state":"KY","name":"PILGRIM","zip":"41250"}},{"arcs":[[1061,-993,-1053,-1032]],"type":"Polygon","properties":{"state":"KY","name":"RIVER","zip":"41254"}},{"arcs":[[-1052,1062,-1020]],"type":"Polygon","properties":{"state":"KY","name":"SITKA","zip":"41255"}},{"arcs":[[-1056,-1043,-1015,1063,-1050,-1004]],"type":"Polygon","properties":{"state":"KY","name":"STAFFORDSVILLE","zip":"41256"}},{"arcs":[[1064,-1046,1065,-1048]],"type":"Polygon","properties":{"state":"KY","name":"STAMBAUGH","zip":"41257"}},{"arcs":[[-1049,-1066,-1045,1066,-1038,1067,-1010,-1023]],"type":"Polygon","properties":{"state":"KY","name":"THELMA","zip":"41260"}},{"arcs":[[-1062,-1031,-1026,-998,1068,-994]],"type":"Polygon","properties":{"state":"KY","name":"TOMAHAWK","zip":"41262"}},{"arcs":[[-1047,-1065]],"type":"Polygon","properties":{"state":"KY","name":"TUTOR KEY","zip":"41263"}},{"arcs":[[[-1068,-1040,-995,-1069,-997,1069,-1011]],[[1070,1071,1072,1073,1074,1075,1076]]],"type":"MultiPolygon","properties":{"state":"KY","name":"VAN LEAR","zip":"41265"}},{"arcs":[[-1024,1077,-1037,-1059]],"type":"Polygon","properties":{"state":"KY","name":"WARFIELD","zip":"41267"}},{"arcs":[[-1054,-991,-1039,-1067]],"type":"Polygon","properties":{"state":"KY","name":"WILLIAMSPORT","zip":"41271"}},{"arcs":[[-1014,-1063,-1051,-1064]],"type":"Polygon","properties":{"state":"KY","name":"WITTENSVILLE","zip":"41274"}},{"arcs":[[1078,1079,1080,-444,1081,1082,1083,1084,1085,1086]],"type":"Polygon","properties":{"state":"KY","name":"CAMPTON","zip":"41301"}},{"arcs":[[-359,-498,-432,-427,1087,1088,-1087,1089,1090,-488]],"type":"Polygon","properties":{"state":"KY","name":"BEATTYVILLE","zip":"41311"}},{"arcs":[[[1091,-506,1092,1093,1094]],[[1095,1096,1097,1098,1099]]],"type":"MultiPolygon","properties":{"state":"KY","name":"BOONEVILLE","zip":"41314"}},{"arcs":[[1100,1101,1102,1103,1104]],"type":"Polygon","properties":{"state":"KY","name":"CLAYHOLE","zip":"41317"}},{"arcs":[[1105,1106,-1083,1107]],"type":"Polygon","properties":{"state":"KY","name":"HAZEL GREEN","zip":"41332"}},{"arcs":[[1108,-749,-756,-507,-1092]],"type":"Polygon","properties":{"state":"KY","name":"ISLAND CITY","zip":"41338"}},{"arcs":[[-1090,-1086,1109,1110,1111,1112,1113]],"type":"Polygon","properties":{"state":"KY","name":"JACKSON","zip":"41339"}},{"arcs":[[1114,1115,-1084,-1107]],"type":"Polygon","properties":{"state":"KY","name":"LEE CITY","zip":"41342"}},{"arcs":[[1116,1117,-1104,1118,1119]],"type":"Polygon","properties":{"state":"KY","name":"LOST CREEK","zip":"41348"}},{"arcs":[[1120,-751,1121,-1097]],"type":"Polygon","properties":{"state":"KY","name":"MISTLETOE","zip":"41351"}},{"arcs":[[1122,-429,-328,-445,-1081]],"type":"Polygon","properties":{"state":"KY","name":"PINE RIDGE","zip":"41360"}},{"arcs":[[-1109,-1095,1123,-1098,-1122,-750]],"type":"Polygon","properties":{"state":"KY","name":"RICETOWN","zip":"41364"}},{"arcs":[[-1088,-430,-1123,-1080]],"type":"Polygon","properties":{"state":"KY","name":"ROGERS","zip":"41365"}},{"arcs":[[1124,1125,-1111]],"type":"Polygon","properties":{"state":"KY","name":"ROUSSEAU","zip":"41366"}},{"arcs":[[1126,-1119,-1103,1127,1128]],"type":"Polygon","properties":{"state":"KY","name":"ROWDY","zip":"41367"}},{"arcs":[[1129,-1100,1130]],"type":"Polygon","properties":{"state":"KY","name":"TALBERT","zip":"41377"}},{"arcs":[[-1110,-1085,-1116,1131,-1125]],"type":"Polygon","properties":{"state":"KY","name":"VANCLEVE","zip":"41385"}},{"arcs":[[-505,1132,-1093]],"type":"Polygon","properties":{"state":"KY","name":"VINCENT","zip":"41386"}},{"arcs":[[-1079,-1089]],"type":"Polygon","properties":{"state":"KY","name":"ZOE","zip":"41397"}},{"arcs":[[1133,1134]],"type":"Polygon","properties":{"state":"KY","name":"EDNA","zip":"41419"}},{"arcs":[[-443,1135,-1082]],"type":"Polygon","properties":{"state":"KY","name":"EZEL","zip":"41425"}},{"arcs":[[1136,1137]],"type":"Polygon","properties":{"state":"KY","name":"ROYALTON","zip":"41464"}},{"arcs":[[1138,1139,1140,-1112,-1126,-1132,-1115,-1106,1141,-1135,1142,-1041,-1055,1143,-1137]],"type":"Polygon","properties":{"state":"KY","name":"SALYERSVILLE","zip":"41465"}},{"arcs":[[-1143,-1134,-1142,-1108,-1136,-442,-386,-326,-385,-977,-965,-967,-1029,-1017,-1042]],"type":"Polygon","properties":{"state":"KY","name":"WEST LIBERTY","zip":"41472"}},{"arcs":[[1144,1145,-1071,1146,-1061,1147,1148,1149,1150,1151,1152]],"type":"Polygon","properties":{"state":"KY","name":"PIKEVILLE","zip":"41501"}},{"arcs":[[1153,1154,1155,1156]],"type":"Polygon","properties":{"state":"KY","name":"SOUTH WILLIAMSON","zip":"41503"}},{"arcs":[[1157,1158,1159]],"type":"Polygon","properties":{"state":"KY","name":"ASHCAMP","zip":"41512"}},{"arcs":[[1160,1161,1162]],"type":"Polygon","properties":{"state":"KY","name":"BELCHER","zip":"41513"}},{"arcs":[[[-1060,-1035,1163,-1156,1164,1165,1166,-1148]],[[1167,1168,1169,1170,1171,-1154,1172]]],"type":"MultiPolygon","properties":{"state":"KY","name":"BELFRY","zip":"41514"}},{"arcs":[[1173,-1166,1174,-1171,1175,1176,1177]],"type":"Polygon","properties":{"state":"KY","name":"CANADA","zip":"41519"}},{"arcs":[[1178,1179,1180,1181,1182,-1161,1183,1184,1185,1186,1187,-1160]],"type":"Polygon","properties":{"state":"KY","name":"ELKHORN CITY","zip":"41522"}},{"arcs":[[1188,1189,1190,1191]],"type":"Polygon","properties":{"state":"KY","name":"FEDSCREEK","zip":"41524"}},{"arcs":[[-1165,-1155,-1172,-1175]],"type":"Polygon","properties":{"state":"KY","name":"FOREST HILLS","zip":"41527"}},{"arcs":[[1192,1193,1194,1195,1196]],"type":"Polygon","properties":{"state":"KY","name":"FREEBURN","zip":"41528"}},{"arcs":[[1197,1198,-1169,1199,1200,1201]],"type":"Polygon","properties":{"state":"KY","name":"HARDY","zip":"41531"}},{"arcs":[[1202,-1176,-1170,-1199]],"type":"Polygon","properties":{"state":"KY","name":"HUDDY","zip":"41535"}},{"arcs":[[1203,1204,1205,1206,-1179,-1159,1207,1208,1209,1210]],"type":"Polygon","properties":{"state":"KY","name":"JENKINS","zip":"41537"}},{"arcs":[[1211,-1150,-1178,1212,1213,1214,1215,1216,1217,1218,-1152]],"type":"Polygon","properties":{"state":"KY","name":"KIMPER","zip":"41539"}},{"arcs":[[1219,-1185,1220]],"type":"Polygon","properties":{"state":"KY","name":"LICK CREEK","zip":"41540"}},{"arcs":[[1221,1222,-1214]],"type":"Polygon","properties":{"state":"KY","name":"MC ANDREWS","zip":"41543"}},{"arcs":[[1223,-1200,-1168,1224,-1195]],"type":"Polygon","properties":{"state":"KY","name":"MC CARR","zip":"41544"}},{"arcs":[[1225,-1189,1226,1227,-1186,-1220,1228]],"type":"Polygon","properties":{"state":"KY","name":"MOUTHCARD","zip":"41548"}},{"arcs":[[1229,-1193,1230,1231,-1218]],"type":"Polygon","properties":{"state":"KY","name":"PHELPS","zip":"41553"}},{"arcs":[[-1190,-1226,1232]],"type":"Polygon","properties":{"state":"KY","name":"PHYLLIS","zip":"41554"}},{"arcs":[[-1215,-1223,1233,-1202,1234,1235]],"type":"Polygon","properties":{"state":"KY","name":"PINSONFORK","zip":"41555"}},{"arcs":[[-1151,-1212]],"type":"Polygon","properties":{"state":"KY","name":"RACCOON","zip":"41557"}},{"arcs":[[-1235,-1201,-1224,-1194,-1230,-1217,1236]],"type":"Polygon","properties":{"state":"KY","name":"RANSOM","zip":"41558"}},{"arcs":[[-1183,1237,-1162]],"type":"Polygon","properties":{"state":"KY","name":"REGINA","zip":"41559"}},{"arcs":[[1238,1239]],"type":"Polygon","properties":{"state":"KY","name":"ROBINSON CREEK","zip":"41560"}},{"arcs":[[-1181,1240]],"type":"Polygon","properties":{"state":"KY","name":"SHELBIANA","zip":"41562"}},{"arcs":[[1241,-1208,-1158,-1188]],"type":"Polygon","properties":{"state":"KY","name":"SHELBY GAP","zip":"41563"}},{"arcs":[[-1167,-1174,-1149]],"type":"Polygon","properties":{"state":"KY","name":"SIDNEY","zip":"41564"}},{"arcs":[[1242,-1227,-1192,1243]],"type":"Polygon","properties":{"state":"KY","name":"STEELE","zip":"41566"}},{"arcs":[[-1203,-1198,-1234,-1222,-1213,-1177]],"type":"Polygon","properties":{"state":"KY","name":"STONE","zip":"41567"}},{"arcs":[[-1197,1244,-1231]],"type":"Polygon","properties":{"state":"KY","name":"STOPOVER","zip":"41568"}},{"arcs":[[1245,1246,1247,1248,1249,1250,1251,-1206]],"type":"Polygon","properties":{"state":"KY","name":"VIRGIE","zip":"41572"}},{"arcs":[[1252,-1074,1253,1254]],"type":"Polygon","properties":{"state":"KY","name":"ALLEN","zip":"41601"}},{"arcs":[[-1070,-996,1255,-1076,1256,-1012]],"type":"Polygon","properties":{"state":"KY","name":"AUXIER","zip":"41602"}},{"arcs":[[[1257,1258,1259,-1254,-1073,1260]],[[1261,1262,1263,1264]]],"type":"MultiPolygon","properties":{"state":"KY","name":"BANNER","zip":"41603"}},{"arcs":[[1265,1266,1267,1268,-1251]],"type":"Polygon","properties":{"state":"KY","name":"BEAVER","zip":"41604"}},{"arcs":[[1269,1270,-1261,-1072,-1146]],"type":"Polygon","properties":{"state":"KY","name":"BETSY LAYNE","zip":"41605"}},{"arcs":[[1271,1272,-1266,-1250]],"type":"Polygon","properties":{"state":"KY","name":"BEVINSVILLE","zip":"41606"}},{"arcs":[[1273,-1259,1274,-1262]],"type":"Polygon","properties":{"state":"KY","name":"DANA","zip":"41615"}},{"type":null,"properties":{"state":"KY","name":"DAVID","zip":"41616"}},{"arcs":[[1275,1276,1277,1278]],"type":"Polygon","properties":{"state":"KY","name":"EASTERN","zip":"41622"}},{"arcs":[[1279,1280,1281,1282,1283]],"type":"Polygon","properties":{"state":"KY","name":"GARRETT","zip":"41630"}},{"arcs":[[1284,1285,1286,1287,1288]],"type":"Polygon","properties":{"state":"KY","name":"GRETHEL","zip":"41631"}},{"arcs":[[-1141,1289,1290,1291,-1113]],"type":"Polygon","properties":{"state":"KY","name":"GUNLOCK","zip":"41632"}},{"arcs":[[1292,1293,-1264,1294,-1270,-1145,1295]],"type":"Polygon","properties":{"state":"KY","name":"HAROLD","zip":"41635"}},{"arcs":[[1296,1297,-1267,-1273]],"type":"Polygon","properties":{"state":"KY","name":"HI HAT","zip":"41636"}},{"arcs":[[-1258,-1271,-1295,-1263,-1275]],"type":"Polygon","properties":{"state":"KY","name":"IVEL","zip":"41642"}},{"arcs":[[1298,-1284,-1288]],"type":"Polygon","properties":{"state":"KY","name":"LACKEY","zip":"41643"}},{"arcs":[[1299,1300,-1279]],"type":"Polygon","properties":{"state":"KY","name":"LANGLEY","zip":"41645"}},{"arcs":[[1301,-1268,-1298,1302,-1285,1303]],"type":"Polygon","properties":{"state":"KY","name":"MC DOWELL","zip":"41647"}},{"arcs":[[-1293,1304,-1276,-1301,1305,-1255,-1260,-1274,1306]],"type":"Polygon","properties":{"state":"KY","name":"MARTIN","zip":"41649"}},{"arcs":[[[-1139,-1138,-1144,-1057,-1013,-1257,-1075,-1253,-1306,-1300,-1278,1307,-1291,1308]],[[-1256,-1001,-1058,-1147,-1077]]],"type":"MultiPolygon","properties":{"state":"KY","name":"PRESTONSBURG","zip":"41653"}},{"arcs":[[-1239,1309,-1269,-1302,1310]],"type":"Polygon","properties":{"state":"KY","name":"TEABERRY","zip":"41660"}},{"arcs":[[1311,1312,1313,-1280,-1299,-1287]],"type":"Polygon","properties":{"state":"KY","name":"WAYLAND","zip":"41666"}},{"arcs":[[1314,1315,1316,1317,-1120,-1127,1318,1319,1320,1321,1322,1323,1324]],"type":"Polygon","properties":{"state":"KY","name":"HAZARD","zip":"41701"}},{"arcs":[[1325,1326,1327]],"type":"Polygon","properties":{"state":"KY","name":"ARY","zip":"41712"}},{"arcs":[[-753,1328,1329,-704]],"type":"Polygon","properties":{"state":"KY","name":"BEAR BRANCH","zip":"41714"}},{"arcs":[[1330,1331,-1316]],"type":"Polygon","properties":{"state":"KY","name":"BONNYMAN","zip":"41719"}},{"arcs":[[1332,-1329,-752,-1121,-1096,1333,1334,1335,1336]],"type":"Polygon","properties":{"state":"KY","name":"BUCKHORN","zip":"41721"}},{"arcs":[[[1337,1338,1339,1340]],[[1341,1342,-1319,-1129,1343,-1326]]],"type":"MultiPolygon","properties":{"state":"KY","name":"BULAN","zip":"41722"}},{"arcs":[[1344,1345,1346,-1331,-1315,1347]],"type":"Polygon","properties":{"state":"KY","name":"BUSY","zip":"41723"}},{"arcs":[[1348,1349,1350,1351]],"type":"Polygon","properties":{"state":"KY","name":"CARRIE","zip":"41725"}},{"arcs":[[1352,1353,-1117,-1318,1354,-1335]],"type":"Polygon","properties":{"state":"KY","name":"CHAVIES","zip":"41727"}},{"arcs":[[1355,-1337,1356,-1346]],"type":"Polygon","properties":{"state":"KY","name":"CONFLUENCE","zip":"41730"}},{"arcs":[[1357,1358,1359,1360,1361,1362,-605,1363]],"type":"Polygon","properties":{"state":"KY","name":"CORNETTSVILLE","zip":"41731"}},{"arcs":[[-1363,1364,-606]],"type":"Polygon","properties":{"state":"KY","name":"DELPHIA","zip":"41735"}},{"arcs":[[-1344,-1128,-1102,1365,-1327]],"type":"Polygon","properties":{"state":"KY","name":"DICE","zip":"41736"}},{"arcs":[[-1343,1366,-1339,1367,1368,-1351,1369,-1320]],"type":"Polygon","properties":{"state":"KY","name":"EMMALENA","zip":"41740"}},{"arcs":[[-1342,-1328,1370,-1340,-1367]],"type":"Polygon","properties":{"state":"KY","name":"FISTY","zip":"41743"}},{"arcs":[[-1334,-1130,1371,-1353]],"type":"Polygon","properties":{"state":"KY","name":"GAYS CREEK","zip":"41745"}},{"arcs":[[1372,1373,1374,-1322]],"type":"Polygon","properties":{"state":"KY","name":"HAPPY","zip":"41746"}},{"arcs":[[-1330,-1333,-1356,-1345,1375,1376,-678,-670,-755,-745,-701]],"type":"Polygon","properties":{"state":"KY","name":"HYDEN","zip":"41749"}},{"arcs":[[-1347,-1357,-1336,-1355,-1317,-1332]],"type":"Polygon","properties":{"state":"KY","name":"KRYPTON","zip":"41754"}},{"arcs":[[1377,1378,1379,-1373,-1321,-1370,-1350,1380]],"type":"Polygon","properties":{"state":"KY","name":"SASSAFRAS","zip":"41759"}},{"arcs":[[1381,-1323,-1375,1382]],"type":"Polygon","properties":{"state":"KY","name":"SCUDDY","zip":"41760"}},{"arcs":[[1383,1384,1385,-1358]],"type":"Polygon","properties":{"state":"KY","name":"SLEMP","zip":"41763"}},{"arcs":[[1386,1387]],"type":"Polygon","properties":{"state":"KY","name":"SMILAX","zip":"41764"}},{"arcs":[[-1101,1388,1389,-1341,-1371,-1366]],"type":"Polygon","properties":{"state":"KY","name":"VEST","zip":"41772"}},{"arcs":[[[1390,-1381,-1349,1391]],[[-1374,-1380,1392,1393,1394,-1383]]],"type":"MultiPolygon","properties":{"state":"KY","name":"VICCO","zip":"41773"}},{"arcs":[[1395,-1324,-1382,-1395,1396,-1359,-1386,1397,-1388]],"type":"Polygon","properties":{"state":"KY","name":"VIPER","zip":"41774"}},{"arcs":[[-1377,1398,-679]],"type":"Polygon","properties":{"state":"KY","name":"WENDOVER","zip":"41775"}},{"arcs":[[1399,-672,-677,-1399,-1376,-1348,-1325,-1396,-1387,-1398,-1385]],"type":"Polygon","properties":{"state":"KY","name":"WOOTON","zip":"41776"}},{"arcs":[[-1400,-1384,-1364,-604,-673]],"type":"Polygon","properties":{"state":"KY","name":"YEADDISS","zip":"41777"}},{"arcs":[[1400,1401,1402,1403,1404,1405,-1361]],"type":"Polygon","properties":{"state":"KY","name":"BLACKEY","zip":"41804"}},{"arcs":[[1406,1407,1408,1409,1410,-1248,1411,1412,1413,1414]],"type":"Polygon","properties":{"state":"KY","name":"DEANE","zip":"41812"}},{"arcs":[[1415,1416,-1415]],"type":"Polygon","properties":{"state":"KY","name":"ERMINE","zip":"41815"}},{"arcs":[[1417,1418,1419,1420,1421,1422,1423]],"type":"Polygon","properties":{"state":"KY","name":"GARNER","zip":"41817"}},{"arcs":[[-680,-607,-1365,1424,1425,-635]],"type":"Polygon","properties":{"state":"KY","name":"GORDON","zip":"41819"}},{"arcs":[[-1362,-1406,1426,-1425]],"type":"Polygon","properties":{"state":"KY","name":"HALLIE","zip":"41821"}},{"arcs":[[1427,1428,1429,-1392,-1352,-1369,1430,-1420,1431]],"type":"Polygon","properties":{"state":"KY","name":"HINDMAN","zip":"41822"}},{"arcs":[[1432,1433,1434,-1407,-1417]],"type":"Polygon","properties":{"state":"KY","name":"ISOM","zip":"41824"}},{"arcs":[[1435,1436,-1204]],"type":"Polygon","properties":{"state":"KY","name":"JACKHORN","zip":"41825"}},{"arcs":[[1437,1438,-1434,1439,1440,-1402]],"type":"Polygon","properties":{"state":"KY","name":"JEREMIAH","zip":"41826"}},{"arcs":[[1441,1442,1443,-1410]],"type":"Polygon","properties":{"state":"KY","name":"KITE","zip":"41828"}},{"arcs":[[-1390,1444,-1282,1445,-1421,-1431,-1368,-1338]],"type":"Polygon","properties":{"state":"KY","name":"LEBURN","zip":"41831"}},{"arcs":[[-1401,-1360,-1397,-1394,1446,-1438]],"type":"Polygon","properties":{"state":"KY","name":"LETCHER","zip":"41832"}},{"arcs":[[-1426,-1427,-1405,1447,-636]],"type":"Polygon","properties":{"state":"KY","name":"LINEFORK","zip":"41833"}},{"arcs":[[-1391,-1430,1448,-1378]],"type":"Polygon","properties":{"state":"KY","name":"LITTCARR","zip":"41834"}},{"arcs":[[1449,-1432,-1419,1450]],"type":"Polygon","properties":{"state":"KY","name":"MALLIE","zip":"41836"}},{"arcs":[[1451,1452,-647]],"type":"Polygon","properties":{"state":"KY","name":"MAYKING","zip":"41837"}},{"arcs":[[1453,1454,-1413,1455]],"type":"Polygon","properties":{"state":"KY","name":"MILLSTONE","zip":"41838"}},{"arcs":[[-1281,1456,-1422,-1446]],"type":"Polygon","properties":{"state":"KY","name":"MOUSIE","zip":"41839"}},{"arcs":[[-1437,1457,-1456,-1412,1458,-1246,-1205]],"type":"Polygon","properties":{"state":"KY","name":"NEON","zip":"41840"}},{"arcs":[[1459,-1428,-1450,-1442,-1409]],"type":"Polygon","properties":{"state":"KY","name":"PINE TOP","zip":"41843"}},{"arcs":[[-1451,-1418,1460,1461,-1443]],"type":"Polygon","properties":{"state":"KY","name":"PIPPA PASSES","zip":"41844"}},{"arcs":[[-1441,1462,-1403]],"type":"Polygon","properties":{"state":"KY","name":"PREMIUM","zip":"41845"}},{"arcs":[[-1379,-1449,-1429,-1460,-1408,-1435,-1439,-1447,-1393]],"type":"Polygon","properties":{"state":"KY","name":"REDFOX","zip":"41847"}},{"arcs":[[1463,-1454,-1458]],"type":"Polygon","properties":{"state":"KY","name":"SECO","zip":"41849"}},{"arcs":[[-1453,1464,-1210,1465,-648]],"type":"Polygon","properties":{"state":"KY","name":"THORNTON","zip":"41855"}},{"arcs":[[-1463,-1440,-1433,-1416,-1414,-1455,-1464,-1436,-1211,-1465,-1452,-646,-637,-1448,-1404]],"type":"Polygon","properties":{"state":"KY","name":"WHITESBURG","zip":"41858"}},{"arcs":[[1466,-1423,-1457,-1314]],"type":"Polygon","properties":{"state":"KY","name":"DEMA","zip":"41859"}},{"arcs":[[-1424,-1467,-1313,1467,-1461]],"type":"Polygon","properties":{"state":"KY","name":"RAVEN","zip":"41861"}},{"arcs":[[-1249,-1411,-1444,-1462,-1468,-1312,-1286,-1303,-1297,-1272]],"type":"Polygon","properties":{"state":"KY","name":"TOPMOST","zip":"41862"}},{"arcs":[[1468,1469,1470,1471,1472,1473,1474,1475]],"type":"Polygon","properties":{"state":"KY","name":"PADUCAH","zip":"42001"}},{"arcs":[[1476,-1474,1477,1478,1479,1480,1481]],"type":"Polygon","properties":{"state":"KY","name":"PADUCAH","zip":"42003"}},{"arcs":[[1482,1483,1484,1485]],"type":"Polygon","properties":{"state":"KY","name":"ALMO","zip":"42020"}},{"arcs":[[1486,1487,1488,1489,1490]],"type":"Polygon","properties":{"state":"KY","name":"ARLINGTON","zip":"42021"}},{"arcs":[[1491,1492,1493,1494,-1488]],"type":"Polygon","properties":{"state":"KY","name":"BARDWELL","zip":"42023"}},{"arcs":[[1495,1496,1497,1498,1499]],"type":"Polygon","properties":{"state":"KY","name":"BARLOW","zip":"42024"}},{"arcs":[[1500,1501,1502,1503,-1481,1504,1505,1506]],"type":"Polygon","properties":{"state":"KY","name":"BENTON","zip":"42025"}},{"arcs":[[1507,1508,1509,-1475,-1477]],"type":"Polygon","properties":{"state":"KY","name":"BOAZ","zip":"42027"}},{"arcs":[[1510,1511,1512,1513]],"type":"Polygon","properties":{"state":"KY","name":"BURNA","zip":"42028"}},{"arcs":[[1514,1515,1516,-1505,-1480]],"type":"Polygon","properties":{"state":"KY","name":"CALVERT CITY","zip":"42029"}},{"arcs":[[1517,1518,1519,1520,1521,-1491,1522,1523]],"type":"Polygon","properties":{"state":"KY","name":"CLINTON","zip":"42031"}},{"arcs":[[-1492,-1487,-1522,1524]],"type":"Polygon","properties":{"state":"KY","name":"COLUMBUS","zip":"42032"}},{"arcs":[[1525,-1469,1526,1527,1528,-1489,-1495]],"type":"Polygon","properties":{"state":"KY","name":"CUNNINGHAM","zip":"42035"}},{"arcs":[[1529,1530,-1483]],"type":"Polygon","properties":{"state":"KY","name":"DEXTER","zip":"42036"}},{"arcs":[[1531,1532,1533,1534,1535,1536]],"type":"Polygon","properties":{"state":"KY","name":"EDDYVILLE","zip":"42038"}},{"arcs":[[-1490,-1529,1537,1538,-1523]],"type":"Polygon","properties":{"state":"KY","name":"FANCY FARM","zip":"42039"}},{"arcs":[[1539,1540,1541,1542,1543]],"type":"Polygon","properties":{"state":"KY","name":"FARMINGTON","zip":"42040"}},{"arcs":[[-1520,1544,1545,1546,1547]],"type":"Polygon","properties":{"state":"KY","name":"FULTON","zip":"42041"}},{"arcs":[[-1517,1548,1549,-1506]],"type":"Polygon","properties":{"state":"KY","name":"GILBERTSVILLE","zip":"42044"}},{"arcs":[[1550,1551,-1549,-1516,1552,1553,1554]],"type":"Polygon","properties":{"state":"KY","name":"GRAND RIVERS","zip":"42045"}},{"arcs":[[1555,1556,-1513,1557]],"type":"Polygon","properties":{"state":"KY","name":"HAMPTON","zip":"42047"}},{"arcs":[[1558,-1501,1559,1560,-1530,-1486]],"type":"Polygon","properties":{"state":"KY","name":"HARDIN","zip":"42048"}},{"arcs":[[1561,1562,-1544,1563]],"type":"Polygon","properties":{"state":"KY","name":"HAZEL","zip":"42049"}},{"arcs":[[[1564]],[[1565]]],"type":"MultiPolygon","properties":{"state":"KY","name":"HICKMAN","zip":"42050"}},{"arcs":[[1566,1567,-1538,-1528,1568,-1509]],"type":"Polygon","properties":{"state":"KY","name":"HICKORY","zip":"42051"}},{"arcs":[[1569,-1498,1570,1571,-1471,1572,-1500]],"type":"Polygon","properties":{"state":"KY","name":"KEVIL","zip":"42053"}},{"arcs":[[1573,-1502,-1559,-1485,1574,-1542]],"type":"Polygon","properties":{"state":"KY","name":"KIRKSEY","zip":"42054"}},{"arcs":[[[1575,-1535,1576,-1551]],[[1577,1578]]],"type":"MultiPolygon","properties":{"state":"KY","name":"KUTTAWA","zip":"42055"}},{"arcs":[[-1499,-1570]],"type":"Polygon","properties":{"state":"KY","name":"LA CENTER","zip":"42056"}},{"arcs":[[-1479,1579,1580,-1553,-1515]],"type":"Polygon","properties":{"state":"KY","name":"LEDBETTER","zip":"42058"}},{"arcs":[[1581,-1536,-1576,-1555,1582,1583,-1556,1584,1585,1586]],"type":"Polygon","properties":{"state":"KY","name":"MARION","zip":"42064"}},{"arcs":[[1587,1588,-1524,-1539,-1568,1589,-1503,-1574,-1541]],"type":"Polygon","properties":{"state":"KY","name":"MAYFIELD","zip":"42066"}},{"arcs":[[-1476,-1510,-1569,-1527]],"type":"Polygon","properties":{"state":"KY","name":"MELBER","zip":"42069"}},{"arcs":[[1590,-1564,-1543,-1575,-1484,-1531,-1561,1591]],"type":"Polygon","properties":{"state":"KY","name":"MURRAY","zip":"42071"}},{"arcs":[[-1591,1592,-1562]],"type":"Polygon","properties":{"state":"KY","name":"NEW CONCORD","zip":"42076"}},{"arcs":[[1593,-1514,-1557,-1584]],"type":"Polygon","properties":{"state":"KY","name":"SALEM","zip":"42078"}},{"arcs":[[1594,-1547,1595,-1588,-1540]],"type":"Polygon","properties":{"state":"KY","name":"SEDALIA","zip":"42079"}},{"arcs":[[-1511,-1594,-1583,-1554,-1581,1596]],"type":"Polygon","properties":{"state":"KY","name":"SMITHLAND","zip":"42081"}},{"arcs":[[-1590,-1567,-1508,-1482,-1504]],"type":"Polygon","properties":{"state":"KY","name":"SYMSONIA","zip":"42082"}},{"arcs":[[-1519,1597,-1545]],"type":"Polygon","properties":{"state":"KY","name":"WATER VALLEY","zip":"42085"}},{"arcs":[[-1472,-1572,1598]],"type":"Polygon","properties":{"state":"KY","name":"WEST PADUCAH","zip":"42086"}},{"arcs":[[-1496,-1573,-1470,-1526,-1494,1599]],"type":"Polygon","properties":{"state":"KY","name":"WICKLIFFE","zip":"42087"}},{"arcs":[[-1598,-1518,-1589,-1596,-1546]],"type":"Polygon","properties":{"state":"KY","name":"WINGO","zip":"42088"}},{"arcs":[[1600,1601,1602,1603,1604,1605,1606,1607,1608,1609]],"type":"Polygon","properties":{"state":"KY","name":"BOWLING GREEN","zip":"42101"}},{"arcs":[[1610,1611,1612,-1601,1613]],"type":"Polygon","properties":{"state":"KY","name":"BOWLING GREEN","zip":"42103"}},{"arcs":[[1614,1615,1616,1617,-1602,-1613]],"type":"Polygon","properties":{"state":"KY","name":"BOWLING GREEN","zip":"42104"}},{"arcs":[[1618,1619,1620]],"type":"Polygon","properties":{"state":"KY","name":"ADOLPHUS","zip":"42120"}},{"arcs":[[-1612,1621,-1615]],"type":"Polygon","properties":{"state":"KY","name":"ALVATON","zip":"42122"}},{"arcs":[[1622,1623,1624,1625,1626]],"type":"Polygon","properties":{"state":"KY","name":"AUSTIN","zip":"42123"}},{"arcs":[[1627,1628,1629,1630]],"type":"Polygon","properties":{"state":"KY","name":"CAVE CITY","zip":"42127"}},{"arcs":[[1631,1632,1633,1634,1635,1636,1637,1638,1639,1640,1641,1642]],"type":"Polygon","properties":{"state":"KY","name":"EDMONTON","zip":"42129"}},{"arcs":[[1643,-1626,1644]],"type":"Polygon","properties":{"state":"KY","name":"ETOILE","zip":"42131"}},{"arcs":[[1645,1646,-1627,-1644,1647,1648,1649,1650]],"type":"Polygon","properties":{"state":"KY","name":"FOUNTAIN RUN","zip":"42133"}},{"arcs":[[1651,1652,1653,1654,1655,-1617,1656,-1620]],"type":"Polygon","properties":{"state":"KY","name":"FRANKLIN","zip":"42134"}},{"arcs":[[1657,-1650,1658]],"type":"Polygon","properties":{"state":"KY","name":"GAMALIEL","zip":"42140"}},{"arcs":[[1659,1660,1661,1662,-1631,1663,-1635,1664,1665,1666,1667,-1648,-1645,-1625]],"type":"Polygon","properties":{"state":"KY","name":"GLASGOW","zip":"42141"}},{"arcs":[[1668,1669]],"type":"Polygon","properties":{"state":"KY","name":"HESTAND","zip":"42151"}},{"arcs":[[1670,1671,-1646]],"type":"Polygon","properties":{"state":"KY","name":"HOLLAND","zip":"42153"}},{"arcs":[[-1664,1672,-1636]],"type":"Polygon","properties":{"state":"KY","name":"KNOB LICK","zip":"42154"}},{"arcs":[[1673,-1660,-1624]],"type":"Polygon","properties":{"state":"KY","name":"LUCAS","zip":"42156"}},{"arcs":[[1674,-1667]],"type":"Polygon","properties":{"state":"KY","name":"MOUNT HERMON","zip":"42157"}},{"arcs":[[1675,-1614,-1610,1676]],"type":"Polygon","properties":{"state":"KY","name":"OAKLAND","zip":"42159"}},{"arcs":[[1677,1678,1679,-1628,-1663,1680]],"type":"Polygon","properties":{"state":"KY","name":"PARK CITY","zip":"42160"}},{"arcs":[[1681,-1678]],"type":"Polygon","properties":{"state":"KY","name":"ROCKY HILL","zip":"42163"}},{"arcs":[[-1672,1682,-1621,-1657,-1616,-1622,-1611,-1676,1683,-1661,-1674,-1623,-1647]],"type":"Polygon","properties":{"state":"KY","name":"SCOTTSVILLE","zip":"42164"}},{"arcs":[[1684,1685,1686,-1665,-1634]],"type":"Polygon","properties":{"state":"KY","name":"SUMMER SHADE","zip":"42166"}},{"arcs":[[1687,1688,-1670,1689,-1659,-1649,-1668,-1675,-1666,-1687]],"type":"Polygon","properties":{"state":"KY","name":"TOMPKINSVILLE","zip":"42167"}},{"arcs":[[-1656,1690,-1603,-1618]],"type":"Polygon","properties":{"state":"KY","name":"WOODBURN","zip":"42170"}},{"arcs":[[-1609,1691,1692,-1679,-1682,-1681,-1662,-1684,-1677]],"type":"Polygon","properties":{"state":"KY","name":"SMITHS GROVE","zip":"42171"}},{"arcs":[[1693,1694,1695,1696,-1653]],"type":"Polygon","properties":{"state":"KY","name":"ADAIRVILLE","zip":"42202"}},{"arcs":[[1697,1698,1699,1700,-1695]],"type":"Polygon","properties":{"state":"KY","name":"ALLENSVILLE","zip":"42204"}},{"arcs":[[1701,1702,1703,-1691,-1655]],"type":"Polygon","properties":{"state":"KY","name":"AUBURN","zip":"42206"}},{"arcs":[[1704,1705,1706,1707]],"type":"Polygon","properties":{"state":"KY","name":"BEE SPRING","zip":"42207"}},{"arcs":[[1708,1709,1710,1711,-1707,1712,1713,-1692,-1608]],"type":"Polygon","properties":{"state":"KY","name":"BROWNSVILLE","zip":"42210"}},{"arcs":[[[1714,1715,1716,-1533,1717,1718,1719,1720]],[[1721,-1578,1722]]],"type":"MultiPolygon","properties":{"state":"KY","name":"CADIZ","zip":"42211"}},{"arcs":[[1723,1724,1725,-1638]],"type":"Polygon","properties":{"state":"KY","name":"CENTER","zip":"42214"}},{"arcs":[[1726,1727,-1719,1728,1729,1730]],"type":"Polygon","properties":{"state":"KY","name":"CERULEAN","zip":"42215"}},{"arcs":[[1731,1732,1733,-1731,1734,1735,1736]],"type":"Polygon","properties":{"state":"KY","name":"CROFTON","zip":"42217"}},{"arcs":[[1737,1738,1739,1740,1741,1742,1743,1744,1745,-1700,1746]],"type":"Polygon","properties":{"state":"KY","name":"ELKTON","zip":"42220"}},{"arcs":[[1747,1748,-1716,1749]],"type":"Polygon","properties":{"state":"KY","name":"FORT CAMPBELL","zip":"42223"}},{"arcs":[[-1728,1750,-1720]],"type":"Polygon","properties":{"state":"KY","name":"GRACEY","zip":"42232"}},{"arcs":[[1751,1752,-1747,-1699]],"type":"Polygon","properties":{"state":"KY","name":"GUTHRIE","zip":"42234"}},{"arcs":[[1753,-1750,-1715,1754]],"type":"Polygon","properties":{"state":"KY","name":"HERNDON","zip":"42236"}},{"arcs":[[-1721,-1751,-1727,-1734,1755,-1740,1756,1757,-1755]],"type":"Polygon","properties":{"state":"KY","name":"HOPKINSVILLE","zip":"42240"}},{"arcs":[[1758,1759,1760,-1606]],"type":"Polygon","properties":{"state":"KY","name":"JETSON","zip":"42252"}},{"arcs":[[1761,1762,1763,1764,1765,1766,1767,-1744,1768,-1742]],"type":"Polygon","properties":{"state":"KY","name":"LEWISBURG","zip":"42256"}},{"arcs":[[1769,-1705,1770,1771,1772,1773,-1629,-1680,-1693,-1714]],"type":"Polygon","properties":{"state":"KY","name":"MAMMOTH CAVE","zip":"42259"}},{"arcs":[[1774,-1703,1775,-1767,1776,1777,1778,1779,1780,1781,-1759,-1605]],"type":"Polygon","properties":{"state":"KY","name":"MORGANTOWN","zip":"42261"}},{"arcs":[[1782,1783,-1748,-1754,-1758,1784]],"type":"Polygon","properties":{"state":"KY","name":"OAK GROVE","zip":"42262"}},{"arcs":[[-1701,-1746,1785,-1696]],"type":"Polygon","properties":{"state":"KY","name":"OLMSTEAD","zip":"42265"}},{"arcs":[[1786,-1785,-1757,-1739]],"type":"Polygon","properties":{"state":"KY","name":"PEMBROKE","zip":"42266"}},{"arcs":[[-1766,1787,1788,1789,-1777]],"type":"Polygon","properties":{"state":"KY","name":"ROCHESTER","zip":"42273"}},{"arcs":[[-1704,-1775,-1604]],"type":"Polygon","properties":{"state":"KY","name":"ROCKFIELD","zip":"42274"}},{"arcs":[[1790,-1709,-1607,-1761]],"type":"Polygon","properties":{"state":"KY","name":"ROUNDHILL","zip":"42275"}},{"arcs":[[-1745,-1768,-1776,-1702,-1654,-1697,-1786]],"type":"Polygon","properties":{"state":"KY","name":"RUSSELLVILLE","zip":"42276"}},{"arcs":[[-1769,-1743]],"type":"Polygon","properties":{"state":"KY","name":"SHARON GROVE","zip":"42280"}},{"arcs":[[-1706,-1770,-1713]],"type":"Polygon","properties":{"state":"KY","name":"SWEEDEN","zip":"42285"}},{"arcs":[[1791,-1783,-1787,-1738,-1753]],"type":"Polygon","properties":{"state":"KY","name":"TRENTON","zip":"42286"}},{"arcs":[[-1760,-1782,1792,-1710,-1791]],"type":"Polygon","properties":{"state":"KY","name":"WELCHS CREEK","zip":"42287"}},{"arcs":[[1793,1794,1795,1796,1797,1798]],"type":"Polygon","properties":{"state":"KY","name":"OWENSBORO","zip":"42301"}},{"arcs":[[1799,1800,1801,-1797,1802]],"type":"Polygon","properties":{"state":"KY","name":"OWENSBORO","zip":"42303"}},{"arcs":[[-1790,1803,1804,1805,1806,1807,-1778]],"type":"Polygon","properties":{"state":"KY","name":"BEAVER DAM","zip":"42320"}},{"arcs":[[1808,1809,1810,1811]],"type":"Polygon","properties":{"state":"KY","name":"BEECHMONT","zip":"42323"}},{"arcs":[[1812,1813,-1809,1814,1815,-1764]],"type":"Polygon","properties":{"state":"KY","name":"BELTON","zip":"42324"}},{"arcs":[[1816,1817,1818,1819,1820]],"type":"Polygon","properties":{"state":"KY","name":"BREMEN","zip":"42325"}},{"arcs":[[-1812,1821,-1815]],"type":"Polygon","properties":{"state":"KY","name":"BROWDER","zip":"42326"}},{"arcs":[[1822,1823,1824,1825,1826,-1799,1827,1828,1829]],"type":"Polygon","properties":{"state":"KY","name":"CALHOUN","zip":"42327"}},{"arcs":[[1830,1831,1832,1833,-1805]],"type":"Polygon","properties":{"state":"KY","name":"CENTERTOWN","zip":"42328"}},{"arcs":[[-1821,1834,-1832,1835,1836,1837]],"type":"Polygon","properties":{"state":"KY","name":"CENTRAL CITY","zip":"42330"}},{"arcs":[[-1808,1838,-1779]],"type":"Polygon","properties":{"state":"KY","name":"CROMWELL","zip":"42333"}},{"arcs":[[-1816,-1822,-1811,1839,-1837,1840,-1788,-1765]],"type":"Polygon","properties":{"state":"KY","name":"DRAKESBORO","zip":"42337"}},{"arcs":[[1841,1842,1843]],"type":"Polygon","properties":{"state":"KY","name":"DUNDEE","zip":"42338"}},{"arcs":[[1844,-1813,-1763]],"type":"Polygon","properties":{"state":"KY","name":"DUNMOR","zip":"42339"}},{"arcs":[[1845,1846,1847,-153,-174,1848,-1843]],"type":"Polygon","properties":{"state":"KY","name":"FORDSVILLE","zip":"42343"}},{"arcs":[[1849,1850,1851,-1818]],"type":"Polygon","properties":{"state":"KY","name":"GRAHAM","zip":"42344"}},{"arcs":[[-1845,-1762,-1741,-1756,-1733,1852,-1850,-1817,-1838,-1840,-1810,-1814]],"type":"Polygon","properties":{"state":"KY","name":"GREENVILLE","zip":"42345"}},{"arcs":[[1853,1854,1855,-1846,-1842,1856,1857]],"type":"Polygon","properties":{"state":"KY","name":"HARTFORD","zip":"42347"}},{"arcs":[[1858,1859,1860,-155,1861]],"type":"Polygon","properties":{"state":"KY","name":"HAWESVILLE","zip":"42348"}},{"arcs":[[-1839,-1807,1862,1863,-1780]],"type":"Polygon","properties":{"state":"KY","name":"HORSE BRANCH","zip":"42349"}},{"arcs":[[-1833,-1835,1864,1865]],"type":"Polygon","properties":{"state":"KY","name":"ISLAND","zip":"42350"}},{"arcs":[[1866,1867,-1860,1868]],"type":"Polygon","properties":{"state":"KY","name":"LEWISPORT","zip":"42351"}},{"arcs":[[1869,-1854,1870,-1829]],"type":"Polygon","properties":{"state":"KY","name":"LIVERMORE","zip":"42352"}},{"arcs":[[1871,-1800,1872,-1867]],"type":"Polygon","properties":{"state":"KY","name":"MACEO","zip":"42355"}},{"arcs":[[-1857,-1844,-1849,-173,1873]],"type":"Polygon","properties":{"state":"KY","name":"OLATON","zip":"42361"}},{"arcs":[[-1872,-1869,-1859,1874,1875,1876,-1801]],"type":"Polygon","properties":{"state":"KY","name":"PHILPOT","zip":"42366"}},{"arcs":[[1877,-1875,-1862,-154,-1848]],"type":"Polygon","properties":{"state":"KY","name":"REYNOLDS STATION","zip":"42368"}},{"arcs":[[-1841,-1836,-1831,-1804,-1789]],"type":"Polygon","properties":{"state":"KY","name":"ROCKPORT","zip":"42369"}},{"arcs":[[1878,-1823,1879]],"type":"Polygon","properties":{"state":"KY","name":"RUMSEY","zip":"42371"}},{"arcs":[[-1820,1880,1881,1882,-1865]],"type":"Polygon","properties":{"state":"KY","name":"SACRAMENTO","zip":"42372"}},{"arcs":[[-1798,-1802,-1877,1883,-1855,-1870,-1828]],"type":"Polygon","properties":{"state":"KY","name":"UTICA","zip":"42376"}},{"arcs":[[-1876,-1878,-1847,-1856,-1884]],"type":"Polygon","properties":{"state":"KY","name":"WHITESVILLE","zip":"42378"}},{"arcs":[[1884,1885,1886,1887]],"type":"Polygon","properties":{"state":"KY","name":"CLAY","zip":"42404"}},{"arcs":[[1888,1889,1890,1891,1892,1893,1894]],"type":"Polygon","properties":{"state":"KY","name":"CORYDON","zip":"42406"}},{"arcs":[[1895,1896,1897,1898,1899,1900,1901,-1735,-1730]],"type":"Polygon","properties":{"state":"KY","name":"DAWSON SPRINGS","zip":"42408"}},{"arcs":[[1902,1903,-1887,1904,1905]],"type":"Polygon","properties":{"state":"KY","name":"DIXON","zip":"42409"}},{"arcs":[[1906,1907,-1900]],"type":"Polygon","properties":{"state":"KY","name":"EARLINGTON","zip":"42410"}},{"arcs":[[1908,-1537,-1582]],"type":"Polygon","properties":{"state":"KY","name":"FREDONIA","zip":"42411"}},{"arcs":[[1909,1910,-1882,1911]],"type":"Polygon","properties":{"state":"KY","name":"HANSON","zip":"42413"}},{"arcs":[[-1827,1912,-1895,1913,1914,1915,1916,-1794],[1917]],"type":"Polygon","properties":{"state":"KY","name":"HENDERSON","zip":"42420"}},{"arcs":[[1918,1919,-1912,-1881,-1819,-1852,1920,1921,-1907,-1899]],"type":"Polygon","properties":{"state":"KY","name":"MADISONVILLE","zip":"42431"}},{"arcs":[[-1920,1922,1923,-1910]],"type":"Polygon","properties":{"state":"KY","name":"MANITOU","zip":"42436"}},{"arcs":[[1924,1925,1926,1927,-1891,1928,-1905,-1886]],"type":"Polygon","properties":{"state":"KY","name":"MORGANFIELD","zip":"42437"}},{"arcs":[[1929,1930,-1923,-1919,-1898]],"type":"Polygon","properties":{"state":"KY","name":"NEBO","zip":"42441"}},{"arcs":[[1931,-1901,-1908,-1922,1932,-1737]],"type":"Polygon","properties":{"state":"KY","name":"NORTONVILLE","zip":"42442"}},{"arcs":[[-1718,-1532,-1909,-1587,1933,-1896,-1729]],"type":"Polygon","properties":{"state":"KY","name":"PRINCETON","zip":"42445"}},{"arcs":[[-1586,1934,-1930,-1897,-1934]],"type":"Polygon","properties":{"state":"KY","name":"PROVIDENCE","zip":"42450"}},{"arcs":[[-1917,1935,-1915,1936,-1795]],"type":"Polygon","properties":{"state":"KY","name":"REED","zip":"42451"}},{"arcs":[[-1913,-1826,1937,-1889]],"type":"Polygon","properties":{"state":"KY","name":"ROBARDS","zip":"42452"}},{"arcs":[[-1902,-1932,-1736]],"type":"Polygon","properties":{"state":"KY","name":"SAINT CHARLES","zip":"42453"}},{"arcs":[[1938,-1906,-1929,-1890,-1938,-1825]],"type":"Polygon","properties":{"state":"KY","name":"SEBREE","zip":"42455"}},{"arcs":[[-1903,-1939,-1824,-1879,1939]],"type":"Polygon","properties":{"state":"KY","name":"SLAUGHTERS","zip":"42456"}},{"arcs":[[-1936,-1916]],"type":"Polygon","properties":{"state":"KY","name":"SPOTTSVILLE","zip":"42458"}},{"arcs":[[-1925,-1885,1940]],"type":"Polygon","properties":{"state":"KY","name":"STURGIS","zip":"42459"}},{"arcs":[[1941,-1927,1942,-1893]],"type":"Polygon","properties":{"state":"KY","name":"UNIONTOWN","zip":"42461"}},{"arcs":[[-1942,-1892,-1928]],"type":"Polygon","properties":{"state":"KY","name":"WAVERLY","zip":"42462"}},{"arcs":[[-1921,-1851,-1853,-1732,-1933]],"type":"Polygon","properties":{"state":"KY","name":"WHITE PLAINS","zip":"42464"}},{"arcs":[[[1943,-495,-564,1944]],[[-570,1945,-567]]],"type":"MultiPolygon","properties":{"state":"KY","name":"SOMERSET","zip":"42501"}},{"arcs":[[1946,1947,-462,-491,-1944,1948]],"type":"Polygon","properties":{"state":"KY","name":"SOMERSET","zip":"42503"}},{"arcs":[[1949,1950,-509,1951]],"type":"Polygon","properties":{"state":"KY","name":"BETHELRIDGE","zip":"42516"}},{"arcs":[[1952,1953,1954,1955]],"type":"Polygon","properties":{"state":"KY","name":"BRONSTON","zip":"42518"}},{"arcs":[[1956,-1955,1957]],"type":"Polygon","properties":{"state":"KY","name":"BURNSIDE","zip":"42519"}},{"arcs":[[1958,1959,1960]],"type":"Polygon","properties":{"state":"KY","name":"DUNNVILLE","zip":"42528"}},{"arcs":[[1961,1962,1963,-1961,1964,1965,1966,1967,1968,-474,1969,-482,1970,-510,-1951]],"type":"Polygon","properties":{"state":"KY","name":"LIBERTY","zip":"42539"}},{"arcs":[[-1970,-478,-483]],"type":"Polygon","properties":{"state":"KY","name":"MIDDLEBURG","zip":"42541"}},{"arcs":[[1971,-1963,1972,1973,1974,1975]],"type":"Polygon","properties":{"state":"KY","name":"NANCY","zip":"42544"}},{"arcs":[[-1962,-1950,1976,-1947,1977,-1973]],"type":"Polygon","properties":{"state":"KY","name":"SCIENCE HILL","zip":"42553"}},{"arcs":[[-1971,-481,-511]],"type":"Polygon","properties":{"state":"KY","name":"YOSEMITE","zip":"42566"}},{"arcs":[[-508,1978,-463,-1948,-1977,-1952]],"type":"Polygon","properties":{"state":"KY","name":"EUBANK","zip":"42567"}},{"arcs":[[1979,1980,1981,1982,1983,1984]],"type":"Polygon","properties":{"state":"KY","name":"ALBANY","zip":"42602"}},{"arcs":[[1985,-1983,1986]],"type":"Polygon","properties":{"state":"KY","name":"ALPHA","zip":"42603"}},{"arcs":[[1987,1988,1989,1990,1991,1992,-1981]],"type":"Polygon","properties":{"state":"KY","name":"JAMESTOWN","zip":"42629"}},{"arcs":[[-1986,1993,-1953,1994,1995,1996,-1984]],"type":"Polygon","properties":{"state":"KY","name":"MONTICELLO","zip":"42633"}},{"arcs":[[1997,-1956,-1957,1998]],"type":"Polygon","properties":{"state":"KY","name":"PARKERS LAKE","zip":"42634"}},{"arcs":[[1999,2000,2001,-583,2002]],"type":"Polygon","properties":{"state":"KY","name":"PINE KNOT","zip":"42635"}},{"arcs":[[[2003,2004,-1959,-1964,-1972,2005,-1992]],[[-1975,2006]]],"type":"MultiPolygon","properties":{"state":"KY","name":"RUSSELL SPRINGS","zip":"42642"}},{"arcs":[[2007,-2001,2008,-1996]],"type":"Polygon","properties":{"state":"KY","name":"STEARNS","zip":"42647"}},{"arcs":[[-2002,-2008,-1995,-1998,-584]],"type":"Polygon","properties":{"state":"KY","name":"WHITLEY CITY","zip":"42653"}},{"arcs":[[2009,-221,-214,-181,-234,-204,-138,-105,2010,2011,2012]],"type":"Polygon","properties":{"state":"KY","name":"ELIZABETHTOWN","zip":"42701"}},{"arcs":[[2013,2014,2015,-1989]],"type":"Polygon","properties":{"state":"KY","name":"BAKERTON","zip":"42711"}},{"arcs":[[2016,2017,2018,-186,2019]],"type":"Polygon","properties":{"state":"KY","name":"BIG CLIFTY","zip":"42712"}},{"arcs":[[2020,2021,2022]],"type":"Polygon","properties":{"state":"KY","name":"BONNIEVILLE","zip":"42713"}},{"arcs":[[2023,-2015,-1643]],"type":"Polygon","properties":{"state":"KY","name":"BREEDING","zip":"42715"}},{"arcs":[[[2024,2025,2026]],[[2027,2028]]],"type":"MultiPolygon","properties":{"state":"KY","name":"BUFFALO","zip":"42716"}},{"arcs":[[2029,-1688,-1686,2030,-1632,-2014,-1988,-1980]],"type":"Polygon","properties":{"state":"KY","name":"BURKESVILLE","zip":"42717"}},{"arcs":[[2031,-103,-116,-75,-28,2032]],"type":"Polygon","properties":{"state":"KY","name":"CAMPBELLSVILLE","zip":"42718"}},{"arcs":[[-1711,-1793,-1781,-1864,2033,2034,2035]],"type":"Polygon","properties":{"state":"KY","name":"CANEYVILLE","zip":"42721"}},{"arcs":[[2036,2037,2038,2039,2040]],"type":"Polygon","properties":{"state":"KY","name":"CANMER","zip":"42722"}},{"arcs":[[2041,2042,-188,-162,-231,-219,-2010]],"type":"Polygon","properties":{"state":"KY","name":"CECILIA","zip":"42724"}},{"arcs":[[2043,2044,2045,-1772,2046]],"type":"Polygon","properties":{"state":"KY","name":"CLARKSON","zip":"42726"}},{"arcs":[[2047,2048,-1990,-2016,-2024,-1642,2049,2050,2051,2052,2053,-1967,2054,-1965,-1960,-2005,2055]],"type":"Polygon","properties":{"state":"KY","name":"COLUMBIA","zip":"42728"}},{"arcs":[[-2046,2056,-1773]],"type":"Polygon","properties":{"state":"KY","name":"CUB RUN","zip":"42729"}},{"arcs":[[-1685,-1633,-2031]],"type":"Polygon","properties":{"state":"KY","name":"DUBRE","zip":"42731"}},{"arcs":[[-189,-2043,2057,2058,-2020]],"type":"Polygon","properties":{"state":"KY","name":"EASTVIEW","zip":"42732"}},{"arcs":[[-1968,-2054,2059]],"type":"Polygon","properties":{"state":"KY","name":"ELK HORN","zip":"42733"}},{"arcs":[[2060,-2048]],"type":"Polygon","properties":{"state":"KY","name":"FAIRPLAY","zip":"42735"}},{"arcs":[[2061,2062,-2058,-2042,-2013]],"type":"Polygon","properties":{"state":"KY","name":"GLENDALE","zip":"42740"}},{"arcs":[[-2049,-2061,-2056,-2004,-1991]],"type":"Polygon","properties":{"state":"KY","name":"GLENS FORK","zip":"42741"}},{"arcs":[[2063,-2050,-1641]],"type":"Polygon","properties":{"state":"KY","name":"GRADYVILLE","zip":"42742"}},{"arcs":[[2064,-2037,2065,2066,-2052,2067,-1639,-1726]],"type":"Polygon","properties":{"state":"KY","name":"GREENSBURG","zip":"42743"}},{"arcs":[[2068,2069,-2038,-2065,-1725]],"type":"Polygon","properties":{"state":"KY","name":"HARDYVILLE","zip":"42746"}},{"arcs":[[2070,-2011,-104,-2032,2071]],"type":"Polygon","properties":{"state":"KY","name":"HODGENVILLE","zip":"42748"}},{"arcs":[[-1637,-1673,-1630,-1774,2072,-2069,-1724]],"type":"Polygon","properties":{"state":"KY","name":"HORSE CAVE","zip":"42749"}},{"arcs":[[-1966,-2055]],"type":"Polygon","properties":{"state":"KY","name":"KNIFLEY","zip":"42753"}},{"arcs":[[-171,-235,-222,-164,-187,-2019,2073]],"type":"Polygon","properties":{"state":"KY","name":"LEITCHFIELD","zip":"42754"}},{"arcs":[[2074,-2040,2075,-2023,2076,2077,-2026,2078]],"type":"Polygon","properties":{"state":"KY","name":"MAGNOLIA","zip":"42757"}},{"arcs":[[-1640,-2068,-2051,-2064]],"type":"Polygon","properties":{"state":"KY","name":"MILLTOWN","zip":"42761"}},{"arcs":[[-2035,2079]],"type":"Polygon","properties":{"state":"KY","name":"MILLWOOD","zip":"42762"}},{"arcs":[[2080,-2079,-2025,2081,-2028,2082]],"type":"Polygon","properties":{"state":"KY","name":"MOUNT SHERMAN","zip":"42764"}},{"arcs":[[-2045,2083,-2021,-2076,-2039,-2070,-2073,-2057]],"type":"Polygon","properties":{"state":"KY","name":"MUNFORDVILLE","zip":"42765"}},{"arcs":[[2084,-2062,-2012,-2071,2085,2086]],"type":"Polygon","properties":{"state":"KY","name":"SONORA","zip":"42776"}},{"arcs":[[-2041,-2075,-2081,2087,-2066]],"type":"Polygon","properties":{"state":"KY","name":"SUMMERSVILLE","zip":"42782"}},{"arcs":[[-2044,2088,-2077,-2022,-2084]],"type":"Polygon","properties":{"state":"KY","name":"UPTON","zip":"42784"}},{"arcs":[[-2017,-2059,-2063,-2085]],"type":"Polygon","properties":{"state":"KY","name":"WHITE MILLS","zip":"42788"}},{"arcs":[[-862,-818,-854,-781]],"type":"Polygon","properties":{"state":"KY","name":"CINCINNATI","zip":"45275"}}]}},"arcs":[[[30979,14098],[-14,-119],[-31,33],[27,-51],[-45,18]],[[30916,13979],[-59,15],[-5,69]],[[30852,14063],[104,-21],[23,56]],[[30555,13467],[-112,59],[81,79]],[[30524,13605],[130,23]],[[30654,13628],[81,-54]],[[30735,13574],[-81,-104]],[[30654,13470],[-45,-43]],[[30609,13427],[-54,40]],[[30749,14258],[-86,18]],[[30663,14276],[-31,3]],[[30632,14279],[-5,96]],[[30627,14375],[135,46]],[[30762,14421],[36,-56]],[[30798,14365],[-45,-107]],[[30753,14258],[-4,0]],[[30997,14200],[-36,-10]],[[30961,14190],[-18,43]],[[30943,14233],[9,30]],[[30952,14263],[45,-63]],[[30812,13620],[-63,-33]],[[30749,13587],[-14,-13]],[[30654,13628],[63,28],[-27,35]],[[30690,13691],[135,26]],[[30825,13717],[9,0]],[[30834,13717],[0,-13]],[[30834,13704],[-22,-84]],[[30830,13124],[-18,56]],[[30812,13180],[27,107]],[[30839,13287],[140,-97]],[[30979,13190],[-149,-66]],[[30943,14233],[-59,-23]],[[30884,14210],[-59,36]],[[30825,14246],[-72,12]],[[30798,14365],[18,-20]],[[30816,14345],[86,-84],[4,74]],[[30906,14335],[55,-16]],[[30961,14319],[-9,-56]],[[30834,13704],[14,-64]],[[30848,13640],[-36,-20]],[[30497,13612],[-18,59],[85,51],[-31,20]],[[30533,13742],[31,15]],[[30564,13757],[126,-66]],[[30524,13605],[-27,7]],[[30555,14073],[-9,15]],[[30546,14088],[32,76]],[[30578,14164],[27,-28],[22,-7],[108,2]],[[30735,14131],[9,-18]],[[30744,14113],[-27,-76]],[[30717,14037],[-54,26]],[[30663,14063],[-63,-23],[-31,23],[-14,10]],[[30870,14190],[-18,-107]],[[30852,14083],[-63,28]],[[30789,14111],[14,61]],[[30803,14172],[67,18]],[[30695,13879],[-27,18]],[[30668,13897],[-18,38],[58,-2]],[[30708,13933],[50,-38],[-32,0]],[[30726,13895],[-31,-16]],[[30632,13869],[-36,82]],[[30596,13951],[49,33]],[[30645,13984],[-9,-87],[32,0]],[[30695,13879],[-63,-10]],[[30623,14220],[-45,-56]],[[30578,14164],[-81,-20],[9,56]],[[30506,14200],[85,35]],[[30591,14235],[32,-15]],[[30735,14210],[0,-79]],[[30623,14220],[31,38]],[[30654,14258],[81,-48]],[[30672,13244],[-22,76]],[[30650,13320],[90,61]],[[30740,13381],[94,-13]],[[30834,13368],[41,-33],[-36,-48]],[[30812,13180],[-140,64]],[[31064,14113],[-67,-7]],[[30997,14106],[-36,84]],[[30997,14200],[36,20],[31,-107]],[[30650,13320],[-5,3],[-18,5],[-54,-8]],[[30573,13320],[14,38]],[[30587,13358],[4,28]],[[30591,13386],[18,41]],[[30654,13470],[86,-89]],[[30943,13384],[-27,-16]],[[30916,13368],[27,51],[-91,15],[-40,95]],[[30812,13529],[126,25]],[[30938,13554],[9,-137]],[[30947,13417],[-4,-33]],[[30708,14497],[54,-76]],[[30627,14375],[0,112],[81,10]],[[30825,13717],[-40,122]],[[30785,13839],[99,-54]],[[30884,13785],[-50,-68]],[[30533,13742],[-41,13],[9,71]],[[30501,13826],[5,0]],[[30506,13826],[36,0]],[[30542,13826],[45,-15],[-23,-54]],[[30884,14210],[-14,-20]],[[30803,14172],[-59,38]],[[30744,14210],[-4,10]],[[30740,14220],[85,26]],[[30573,13320],[-13,-31]],[[30560,13289],[-50,-22]],[[30510,13267],[-31,12],[36,84],[-108,56]],[[30407,13419],[27,54]],[[30434,13473],[54,-59],[67,53]],[[30591,13386],[-58,-13],[54,-15]],[[30744,14210],[-9,0]],[[30654,14258],[9,18]],[[30749,14258],[-9,-38]],[[30997,14106],[-18,-8]],[[30852,14063],[0,20]],[[30465,14073],[-4,-3]],[[30461,14070],[45,130]],[[30546,14088],[-81,-15]],[[30672,13244],[-72,-46],[-40,91]],[[30916,13979],[0,-51]],[[30916,13928],[-131,-89]],[[30785,13839],[-59,56]],[[30708,13933],[9,104]],[[30744,14113],[45,-2]],[[30645,13984],[18,79]],[[30916,13368],[-82,0]],[[30749,13587],[63,-58]],[[30542,13826],[22,13]],[[30564,13839],[68,30]],[[30906,14360],[0,-25]],[[30816,14345],[90,15]],[[30992,13869],[-108,-84]],[[30916,13928],[76,-59]],[[30591,14235],[41,44]],[[30943,13625],[-5,-71]],[[30848,13640],[95,-5]],[[30943,13635],[0,-10]],[[29992,13770],[-139,43]],[[29853,13813],[-23,59],[108,13],[-31,61],[99,-166]],[[30006,13780],[-14,-10]],[[30434,13473],[-18,35]],[[30416,13508],[-27,46],[99,48]],[[30488,13602],[9,10]],[[30024,13668],[-59,46]],[[29965,13714],[27,56]],[[30006,13780],[157,-71]],[[30163,13709],[0,-41]],[[30163,13668],[-18,5]],[[30145,13673],[-121,-5]],[[30326,13803],[18,10]],[[30344,13813],[63,23]],[[30407,13836],[13,-28]],[[30420,13808],[-94,-5]],[[29808,13638],[-50,-117],[23,-74]],[[29781,13447],[-86,-33]],[[29695,13414],[-18,59]],[[29677,13473],[-18,53]],[[29659,13526],[14,56]],[[29673,13582],[72,79]],[[29745,13661],[63,-23]],[[29907,13391],[0,33]],[[29907,13424],[81,54],[-36,38]],[[29952,13516],[54,20]],[[30006,13536],[40,-46]],[[30046,13490],[-31,-71]],[[30015,13419],[-36,-7]],[[29979,13412],[-18,-3],[-32,-18],[-22,0]],[[30145,13673],[-9,-94],[-58,21]],[[30078,13600],[-54,68]],[[30344,13813],[9,61]],[[30353,13874],[27,3]],[[30380,13877],[31,-13]],[[30411,13864],[-4,-28]],[[29844,13373],[-36,-22],[31,-97]],[[29839,13254],[-94,-28]],[[29745,13226],[-59,69]],[[29686,13295],[9,119]],[[29781,13447],[63,-38]],[[29844,13409],[0,-36]],[[30258,13541],[-50,64]],[[30208,13605],[-22,63]],[[30186,13668],[13,0]],[[30199,13668],[64,-7],[-18,-54],[45,-56]],[[30290,13551],[-32,-10]],[[29952,13516],[-77,43]],[[29875,13559],[23,38]],[[29898,13597],[99,-15]],[[29997,13582],[9,-46]],[[30028,13381],[-36,-8]],[[29992,13373],[-13,39]],[[30015,13419],[27,-13]],[[30042,13406],[-14,-25]],[[30078,13600],[-54,-13]],[[30024,13587],[-77,76]],[[29947,13663],[0,38]],[[29947,13701],[18,13]],[[29808,13638],[-32,20]],[[29776,13658],[50,-18]],[[29826,13640],[72,-43]],[[29875,13559],[-13,-99]],[[29862,13460],[-18,-51]],[[29907,13424],[-41,10]],[[29866,13434],[-4,26]],[[30024,13587],[-27,-5]],[[29826,13640],[18,0]],[[29844,13640],[103,23]],[[30416,13508],[-99,-35],[0,66]],[[30317,13539],[63,30],[-63,94]],[[30317,13663],[63,46],[108,-107]],[[30186,13668],[-23,0]],[[30163,13709],[23,33]],[[30186,13742],[13,-74]],[[29947,13701],[-40,23]],[[29907,13724],[-5,54],[-72,-8]],[[29830,13770],[-18,18]],[[29812,13788],[41,25]],[[30258,13541],[-4,-46]],[[30254,13495],[-46,21]],[[30208,13516],[0,89]],[[29907,13724],[-32,-17]],[[29875,13707],[-45,63]],[[30150,13467],[-104,31]],[[30046,13498],[23,43],[139,-25]],[[30254,13495],[-41,-5],[18,-53],[-81,30]],[[29907,13391],[-50,5]],[[29857,13396],[9,38]],[[30317,13663],[-72,79],[72,33],[-32,15]],[[30285,13790],[41,13]],[[30420,13808],[81,18]],[[29745,13661],[31,0]],[[29776,13661],[0,-3]],[[29776,13661],[36,127]],[[29875,13707],[-31,-67]],[[30046,13498],[0,-8]],[[30186,13742],[68,36]],[[30254,13778],[31,12]],[[30317,13539],[-27,12]],[[29857,13396],[-13,-23]],[[30389,14004],[0,-5]],[[30389,13999],[-18,13]],[[30371,14012],[18,2]],[[30389,14014],[0,-10]],[[30389,13999],[0,-15]],[[30389,13984],[-23,2]],[[30366,13986],[-13,16]],[[30353,14002],[0,5]],[[30353,14007],[9,15]],[[30362,14022],[9,-10]],[[30420,13999],[-13,-18]],[[30407,13981],[-5,-2]],[[30402,13979],[-13,5]],[[30389,14004],[31,-5]],[[30470,13981],[-18,-10]],[[30452,13971],[-27,-18]],[[30425,13953],[-18,28]],[[30420,13999],[18,-5]],[[30438,13994],[32,-13]],[[30420,14035],[18,-41]],[[30389,14014],[31,21]],[[30479,13991],[-9,-10]],[[30420,14035],[23,15]],[[30443,14050],[36,-59]],[[30371,13958],[-18,8]],[[30353,13966],[13,20]],[[30389,13984],[-9,-18]],[[30380,13966],[-9,-13]],[[30371,13953],[0,5]],[[30393,13956],[-13,-31]],[[30380,13925],[-9,28]],[[30380,13966],[13,-10]],[[30353,13966],[-23,8]],[[30330,13974],[23,28]],[[30308,13986],[9,18]],[[30317,14004],[36,3]],[[30330,13974],[-36,-11]],[[30294,13963],[14,23]],[[30317,14004],[45,18]],[[30425,13953],[13,-28]],[[30438,13925],[-49,-46]],[[30389,13879],[-9,46]],[[30393,13956],[9,23]],[[30389,13879],[-9,-2]],[[30353,13874],[-32,23]],[[30321,13897],[5,8]],[[30326,13905],[18,25]],[[30344,13930],[27,28]],[[30344,13930],[9,36]],[[30326,13905],[-59,25]],[[30267,13930],[27,33]],[[30483,13933],[-9,-8]],[[30474,13925],[-22,-10]],[[30452,13915],[-14,10]],[[30452,13971],[36,-28]],[[30488,13943],[-5,-10]],[[30452,13915],[13,-43]],[[30465,13872],[-54,-8]],[[30515,13976],[-27,-33]],[[30479,13991],[36,-15]],[[30510,14017],[5,-41]],[[30443,14050],[18,20]],[[30465,14073],[18,-31]],[[30483,14042],[27,-25]],[[30510,14017],[14,18]],[[30524,14035],[13,17]],[[30537,14052],[36,-73]],[[30573,13979],[-40,0],[-18,-3]],[[30474,13925],[18,-71]],[[30492,13854],[-27,18]],[[30492,13854],[14,-28]],[[30555,14073],[-18,-21]],[[30524,14035],[-41,7]],[[30596,13951],[-23,28]],[[30321,13897],[-58,-30]],[[30263,13867],[4,63]],[[30254,13778],[9,89]],[[30483,13933],[81,-94]],[[31812,13999],[-86,-31],[27,-43]],[[31753,13925],[-13,-10]],[[31740,13915],[-144,214]],[[31596,14129],[67,89]],[[31663,14218],[99,-21]],[[31762,14197],[95,-109]],[[31857,14088],[-63,-33],[18,-56]],[[31825,13661],[50,-155]],[[31875,13506],[-59,2]],[[31816,13508],[-72,71]],[[31744,13579],[27,97]],[[31771,13676],[54,-15]],[[32271,13834],[-59,-46]],[[32212,13788],[-18,119],[-49,-7],[90,25],[36,-91]],[[32046,13577],[-14,-10]],[[32032,13567],[-22,10]],[[32010,13577],[-14,23]],[[31996,13600],[0,99],[-63,-8],[0,49]],[[31933,13740],[32,10]],[[31965,13750],[63,25]],[[32028,13775],[108,23]],[[32136,13798],[4,0]],[[32140,13798],[-9,-104],[-22,-43],[-63,-74]],[[31195,13961],[49,0],[-27,58],[50,3],[0,69]],[[31267,14091],[36,27],[13,-63],[36,46],[5,-77],[40,56]],[[31397,14080],[23,-38]],[[31420,14042],[13,-81]],[[31433,13961],[-180,-74]],[[31253,13887],[-58,74]],[[30943,13384],[58,-46]],[[31001,13338],[-54,-51],[99,-28]],[[31046,13259],[18,-36]],[[31064,13223],[-85,-33]],[[31163,13452],[-135,-23]],[[31028,13429],[-81,-12]],[[30943,13625],[81,36],[126,-71]],[[31150,13590],[40,15]],[[31190,13605],[-4,-49]],[[31186,13556],[22,-81],[-45,-23]],[[31654,13356],[14,43]],[[31668,13399],[0,58]],[[31668,13457],[18,87],[-32,2]],[[31654,13546],[27,49]],[[31681,13595],[63,-16]],[[31816,13508],[-40,-86],[63,-21],[45,59],[9,-51]],[[31893,13409],[-68,-142]],[[31825,13267],[-153,35]],[[31672,13302],[-18,54]],[[31924,13762],[0,-99]],[[31924,13663],[-99,-2]],[[31771,13676],[-13,33]],[[31758,13709],[144,79]],[[31902,13788],[22,-26]],[[30992,13869],[99,-20],[-4,-61]],[[31087,13788],[36,-71]],[[31123,13717],[-180,-82]],[[31996,13600],[-72,63]],[[31924,13762],[9,-22]],[[31253,13887],[-9,-36]],[[31244,13851],[-126,64]],[[31118,13915],[59,46]],[[31177,13961],[18,0]],[[31857,14088],[4,-36]],[[31861,14052],[-49,-53]],[[32136,13798],[27,33],[-122,79]],[[32041,13910],[-13,30]],[[32028,13940],[22,79],[63,-10]],[[32113,14009],[59,130]],[[32172,14139],[85,-64]],[[32257,14075],[77,-132]],[[32334,13943],[36,-23],[-22,-58]],[[32348,13862],[-77,-28]],[[32212,13788],[-27,-5]],[[32185,13783],[-45,15]],[[31821,13892],[81,-104]],[[31758,13709],[-77,155]],[[31681,13864],[59,51]],[[31753,13925],[68,-33]],[[30906,14360],[32,13]],[[30938,14373],[77,53]],[[31015,14426],[85,46]],[[31100,14472],[36,-18]],[[31136,14454],[5,-53]],[[31141,14401],[27,-43]],[[31168,14358],[-207,-39]],[[31240,13551],[36,79],[-54,15]],[[31222,13645],[54,62],[-59,2],[27,41]],[[31244,13750],[41,-18]],[[31285,13732],[36,-20]],[[31321,13712],[85,-122]],[[31406,13590],[-72,-79]],[[31334,13511],[-40,-41],[-54,81]],[[31965,13750],[-5,20]],[[31960,13770],[68,5]],[[31168,14358],[27,-18]],[[31195,14340],[99,-107]],[[31294,14233],[-41,-48]],[[31253,14185],[-76,-5],[-9,-72]],[[31168,14108],[-104,5]],[[31821,13892],[76,69],[5,74]],[[31902,14035],[54,15],[22,-97],[50,-13]],[[32041,13910],[-81,-140]],[[31681,13864],[-158,-48]],[[31523,13816],[-63,69]],[[31460,13885],[-27,76]],[[31420,14042],[135,15],[41,72]],[[31267,14091],[-14,94]],[[31294,14233],[58,38]],[[31352,14271],[86,-107]],[[31438,14164],[-41,-84]],[[31123,13717],[-23,-56],[50,-71]],[[31861,14052],[27,-12]],[[31888,14040],[14,-5]],[[31974,13455],[-14,0]],[[31960,13455],[-18,112],[68,10]],[[32032,13567],[-31,-59]],[[32001,13508],[-27,-53]],[[31177,13961],[-9,147]],[[31960,13455],[-40,-21]],[[31920,13434],[-45,72]],[[31222,13645],[-32,-40]],[[31087,13788],[31,127]],[[31244,13851],[9,3]],[[31253,13854],[-13,-64]],[[31240,13790],[4,-40]],[[31668,13457],[-59,54],[45,35]],[[31654,13356],[-58,40]],[[31596,13396],[72,3]],[[32185,13783],[-4,-79]],[[32181,13704],[-41,-97]],[[32140,13607],[-63,-45]],[[32077,13562],[-31,15]],[[31240,13551],[-54,5]],[[31681,13595],[-149,66]],[[31532,13661],[-18,10]],[[31514,13671],[5,107]],[[31519,13778],[4,38]],[[31839,13020],[-50,-43]],[[31789,12977],[-85,17]],[[31704,12994],[-5,18]],[[31699,13012],[86,69]],[[31785,13081],[54,-61]],[[31672,13302],[-81,-46]],[[31591,13256],[-81,16],[-54,-79]],[[31456,13193],[-23,76]],[[31433,13269],[68,89]],[[31501,13358],[95,38]],[[31451,13170],[-45,-170]],[[31406,13000],[-9,7]],[[31397,13007],[-45,51]],[[31352,13058],[23,87],[76,25]],[[31285,13165],[54,23],[-9,81]],[[31330,13269],[27,36]],[[31357,13305],[76,-36]],[[31456,13193],[-108,-140],[-54,20],[31,56],[-40,36]],[[31046,13333],[-45,5]],[[31001,13338],[27,91]],[[31163,13452],[68,-81]],[[31231,13371],[-54,-31],[13,-48],[-58,18]],[[31132,13310],[-86,23]],[[31073,13106],[-94,84]],[[30979,13190],[130,59],[126,-102]],[[31235,13147],[-4,-25]],[[31231,13122],[-68,-21]],[[31163,13101],[-90,5]],[[31046,13267],[0,66]],[[31132,13310],[-86,-43]],[[31132,13045],[-27,18]],[[31105,13063],[0,18]],[[31105,13081],[58,20]],[[31231,13122],[-14,-79],[-85,2]],[[31397,13389],[18,-41],[-58,-43]],[[31330,13269],[-99,102]],[[31334,13511],[63,-122]],[[31825,13267],[9,-16]],[[31834,13251],[32,-73],[-54,-26],[13,-63],[-139,-79],[-54,48],[-41,198]],[[31726,13190],[0,54],[-45,-28],[45,-26]],[[31510,12893],[-104,107]],[[31451,13170],[59,102],[81,-16],[45,-208]],[[31636,13048],[-99,-99]],[[31537,12949],[-18,-71]],[[31519,12878],[-9,15]],[[31397,13389],[72,25],[32,-56]],[[31046,13267],[0,-8]],[[31920,13434],[-27,-25]],[[31406,13590],[126,71]],[[31726,13190],[-45,26],[45,28],[0,-54]],[[31285,13165],[-36,35],[-59,-55],[-76,101],[-50,-23]],[[31911,13078],[-72,-43]],[[31839,13035],[0,-15]],[[31785,13081],[81,94]],[[31866,13175],[27,-66]],[[31893,13109],[0,-5]],[[31893,13104],[18,-26]],[[31298,13073],[-144,-81]],[[31154,12992],[-22,-5]],[[31132,12987],[-14,25]],[[31118,13012],[41,8],[-27,25]],[[31235,13147],[45,46],[18,-120]],[[31393,13773],[-5,-16]],[[31388,13757],[-49,-15]],[[31339,13742],[13,23]],[[31352,13765],[5,10]],[[31357,13775],[4,10],[0,3],[9,2]],[[31370,13790],[23,-17]],[[31339,13742],[-9,-20]],[[31330,13722],[0,-5]],[[31330,13717],[-32,33]],[[31298,13750],[18,12]],[[31316,13762],[27,18]],[[31343,13780],[5,-2]],[[31348,13778],[4,-13]],[[31316,13762],[-13,31]],[[31303,13793],[18,18]],[[31321,13811],[13,-5]],[[31334,13806],[9,-26]],[[31415,13788],[-22,-15]],[[31370,13790],[-4,21]],[[31366,13811],[45,15]],[[31411,13826],[4,-38]],[[31348,13778],[9,-3]],[[31334,13806],[32,5]],[[31397,13747],[-9,10]],[[31415,13788],[104,-10]],[[31514,13671],[-117,76]],[[31253,13854],[68,-43]],[[31303,13793],[-63,-3]],[[31460,13885],[-49,-59]],[[31298,13750],[-13,-18]],[[31330,13717],[-9,-5]],[[31330,13722],[67,25]],[[31722,12608],[-45,-13]],[[31677,12595],[-59,-58]],[[31618,12537],[-122,12]],[[31496,12549],[23,125]],[[31519,12674],[95,46]],[[31614,12720],[45,10]],[[31659,12730],[90,0]],[[31749,12730],[-18,-25]],[[31731,12705],[13,-87]],[[31744,12618],[-22,-10]],[[31704,12994],[-59,-94],[-108,49]],[[31636,13048],[63,-36]],[[31825,12649],[-81,-31]],[[31731,12705],[49,0]],[[31780,12705],[45,-23]],[[31825,12682],[0,-33]],[[31614,12720],[45,18]],[[31659,12738],[0,-8]],[[31659,12738],[63,38],[27,-46]],[[31505,12755],[14,123]],[[31789,12977],[-22,-82],[85,-79]],[[31852,12816],[-184,18],[-118,-91]],[[31550,12743],[-40,7]],[[31510,12750],[-5,5]],[[31519,12674],[-59,-8],[41,59]],[[31501,12725],[49,18]],[[31852,12816],[-9,-40]],[[31843,12776],[-63,-71]],[[31758,12506],[-5,-33]],[[31753,12473],[-135,64]],[[31677,12595],[18,0]],[[31695,12595],[63,-89]],[[31839,12392],[-59,-36]],[[31780,12356],[-36,43],[32,51]],[[31776,12450],[63,-51]],[[31839,12399],[0,-7]],[[31780,12356],[-27,-56]],[[31753,12300],[-45,0],[-117,3],[-23,0]],[[31568,12303],[-76,142]],[[31492,12445],[-18,64]],[[31474,12509],[22,40]],[[31753,12473],[23,-23]],[[31722,12608],[-27,-13]],[[32348,12544],[-23,8]],[[32325,12552],[18,13]],[[32343,12565],[5,-21]],[[32226,12575],[13,23]],[[32239,12598],[64,28]],[[32303,12626],[72,5]],[[32375,12631],[0,-18]],[[32375,12613],[-23,-13]],[[32352,12600],[-117,-30]],[[32235,12570],[-9,5]],[[32622,12631],[-27,5]],[[32595,12636],[0,46],[41,-36]],[[32636,12646],[-14,-15]],[[32411,12674],[-41,-23]],[[32370,12651],[-49,38]],[[32321,12689],[27,38]],[[32348,12727],[36,16]],[[32384,12743],[40,-18]],[[32424,12725],[5,-3]],[[32429,12722],[-18,-48]],[[32199,12588],[-23,-16]],[[32176,12572],[-36,-20]],[[32140,12552],[32,53]],[[32172,12605],[149,84]],[[32370,12651],[-67,-25]],[[32239,12598],[-40,-10]],[[31992,12410],[-126,-51]],[[31866,12359],[-9,43]],[[31857,12402],[121,66],[-31,-63],[45,5]],[[32307,12488],[23,18]],[[32330,12506],[40,28]],[[32370,12534],[9,-18]],[[32379,12516],[-18,-12]],[[32361,12504],[-31,-51]],[[32330,12453],[-23,35]],[[32330,12506],[-14,10]],[[32316,12516],[9,36]],[[32348,12544],[22,-10]],[[32176,12572],[-9,-81]],[[32167,12491],[-22,8]],[[32145,12499],[-5,53]],[[32447,12544],[-27,-86],[-77,-18]],[[32343,12440],[-13,13]],[[32361,12504],[50,38]],[[32411,12542],[36,2]],[[32456,12651],[-9,0]],[[32447,12651],[0,38]],[[32447,12689],[81,36]],[[32528,12725],[31,18]],[[32559,12743],[14,-8],[63,41],[36,23]],[[32672,12799],[13,-72]],[[32685,12727],[-58,-33]],[[32627,12694],[-72,6],[72,-8]],[[32627,12692],[9,-46]],[[32595,12636],[-40,-18]],[[32555,12618],[-99,33]],[[32226,12575],[-27,13]],[[32735,12839],[4,-73],[-45,-36],[-9,-3]],[[32672,12799],[13,15]],[[32685,12814],[41,20]],[[32726,12834],[9,5]],[[32411,12542],[-32,-26]],[[32343,12565],[9,35]],[[32375,12613],[72,38]],[[32456,12651],[40,-79]],[[32496,12572],[-45,-20],[-4,-8]],[[32307,12488],[9,28]],[[32343,12440],[-95,-33],[-49,-25],[-36,-5]],[[32163,12377],[-9,40]],[[32154,12417],[72,41]],[[32226,12458],[9,112]],[[32622,12631],[-4,-20],[-99,-46]],[[32519,12565],[36,53]],[[32163,12377],[-54,0]],[[32109,12377],[-18,33]],[[32091,12410],[-14,78],[-45,3]],[[32032,12491],[36,20]],[[32068,12511],[72,41]],[[32145,12499],[9,-82]],[[32627,12694],[0,-2]],[[32127,12656],[-9,49]],[[32118,12705],[22,58]],[[32140,12763],[45,41]],[[32185,12804],[95,-15]],[[32280,12789],[14,-18]],[[32294,12771],[54,-44]],[[32172,12605],[-45,51]],[[32167,12491],[59,-33]],[[32370,12651],[5,-20]],[[32280,12822],[0,-33]],[[32185,12804],[63,35]],[[32248,12839],[32,-17]],[[32411,12674],[36,15]],[[31947,12511],[27,31]],[[31974,12542],[18,30]],[[31992,12572],[54,36]],[[32046,12608],[31,38]],[[32077,12646],[5,-13]],[[32082,12633],[-5,-43]],[[32077,12590],[-45,-84]],[[32032,12506],[-85,5]],[[31861,12547],[32,23]],[[31893,12570],[13,7]],[[31906,12577],[-18,-22]],[[31888,12555],[-27,-8]],[[31861,12547],[-22,-8]],[[31839,12539],[-81,-33]],[[31825,12649],[5,-23]],[[31830,12626],[45,-33]],[[31875,12593],[18,-23]],[[32109,12661],[-27,-28]],[[32077,12646],[-13,28]],[[32064,12674],[45,-13]],[[32113,12913],[-22,-112]],[[32091,12801],[-113,10],[0,140]],[[31978,12951],[149,-15]],[[32127,12936],[-14,-23]],[[31875,12593],[-18,40]],[[31857,12633],[45,-10]],[[31902,12623],[4,-46]],[[31839,12539],[9,-112]],[[31848,12427],[-9,-28]],[[31857,12633],[-27,-7]],[[31825,12682],[14,12]],[[31839,12694],[36,0]],[[31875,12694],[13,54]],[[31888,12748],[77,-33]],[[31965,12715],[-54,-87]],[[31911,12628],[-9,-5]],[[32519,12565],[-23,7]],[[31974,12542],[-32,43]],[[31942,12585],[32,20]],[[31974,12605],[9,-5]],[[31983,12600],[9,-28]],[[31974,12605],[45,79]],[[32019,12684],[45,-10]],[[32046,12608],[-63,-8]],[[31938,12522],[-50,33]],[[31906,12577],[32,3]],[[31938,12580],[4,5]],[[31947,12511],[-9,11]],[[31839,12392],[18,10]],[[31866,12359],[4,-64]],[[31870,12295],[-117,5]],[[31839,12694],[13,8]],[[31852,12702],[23,-8]],[[31843,12776],[14,-13]],[[31857,12763],[-5,-61]],[[31911,12628],[27,-48]],[[32032,12491],[0,15]],[[32077,12590],[32,-43],[-41,-36]],[[32104,12791],[14,-86]],[[32127,12656],[-18,5]],[[32019,12684],[-54,31]],[[31888,12748],[-31,15]],[[31839,13035],[103,-74]],[[31942,12961],[36,-10]],[[32091,12801],[13,-10]],[[31992,12410],[99,0]],[[32109,12377],[-113,-67],[-9,-17],[-117,2]],[[31942,12961],[23,107]],[[31965,13068],[22,-2]],[[31987,13066],[27,15]],[[32014,13081],[99,-94]],[[32113,12987],[14,-23]],[[32127,12964],[0,-28]],[[31848,12427],[90,95]],[[32104,12791],[36,-28]],[[31911,13078],[54,-10]],[[31487,14731],[0,-127]],[[31487,14604],[-67,-30]],[[31420,14574],[-23,117]],[[31397,14691],[14,56]],[[31411,14747],[31,53]],[[31442,14800],[5,-3]],[[31447,14797],[40,-66]],[[31789,14462],[-13,43],[-23,-46]],[[31753,14459],[-49,10],[31,18]],[[31735,14487],[-4,54]],[[31731,14541],[85,-11]],[[31816,14530],[-27,-68]],[[31352,14271],[18,48]],[[31370,14319],[189,21]],[[31559,14340],[14,-54],[-122,-53],[32,-79],[-45,10]],[[31586,14345],[-9,96]],[[31577,14441],[64,79],[94,-33]],[[31753,14459],[14,-66]],[[31767,14393],[-14,-38]],[[31753,14355],[-135,-41]],[[31618,14314],[-32,31]],[[31096,14762],[36,124]],[[31132,14886],[45,28]],[[31177,14914],[-32,-15],[68,-81]],[[31213,14818],[0,-18]],[[31213,14800],[-18,-38]],[[31195,14762],[-32,-48],[-63,28]],[[31100,14742],[-4,20]],[[31564,14594],[0,-46]],[[31564,14548],[-122,-56]],[[31442,14492],[-31,82]],[[31411,14574],[9,0]],[[31487,14604],[72,38]],[[31559,14642],[5,-48]],[[31487,14731],[23,11]],[[31510,14742],[49,-100]],[[30906,14421],[-36,-15],[36,-46]],[[30708,14497],[162,-30]],[[30870,14467],[59,-26]],[[30929,14441],[-23,-20]],[[31195,14340],[175,-21]],[[31357,14851],[-5,-20]],[[31352,14831],[-22,-21]],[[31330,14810],[-18,43]],[[31312,14853],[18,16]],[[31330,14869],[22,-5]],[[31352,14864],[5,-13]],[[31361,14825],[-9,6]],[[31357,14851],[4,-26]],[[31348,14698],[4,44]],[[31352,14742],[-22,68]],[[31361,14825],[50,-78]],[[31397,14691],[-49,7]],[[31312,14853],[-9,3]],[[31303,14856],[27,13]],[[31307,14754],[-49,82]],[[31258,14836],[0,10]],[[31258,14846],[45,10]],[[31352,14742],[-45,12]],[[31307,14754],[-27,-12]],[[31280,14742],[-36,61]],[[31244,14803],[-13,30]],[[31231,14833],[27,3]],[[31343,14558],[-4,-43]],[[31339,14515],[-104,31]],[[31235,14546],[32,25]],[[31267,14571],[76,-13]],[[31559,14340],[27,5]],[[31618,14314],[-18,-58],[63,-38]],[[31343,14464],[-4,51]],[[31343,14558],[68,16]],[[31442,14492],[-45,28],[-40,-84]],[[31357,14436],[-14,28]],[[31776,14421],[13,41]],[[31816,14530],[90,-66]],[[31906,14464],[-130,-43]],[[31141,14401],[40,0],[-40,5],[18,43]],[[31159,14449],[-23,66]],[[31136,14515],[-4,5]],[[31132,14520],[54,18]],[[31186,14538],[49,8]],[[31343,14464],[-175,-106]],[[31762,14197],[36,54]],[[31798,14251],[86,-23]],[[31884,14228],[22,-102]],[[31906,14126],[-18,-86]],[[31370,14319],[-13,117]],[[31564,14548],[13,-107]],[[31884,14228],[58,25]],[[31942,14253],[81,33]],[[32023,14286],[50,-84]],[[32073,14202],[27,-25]],[[32100,14177],[-63,-51]],[[32037,14126],[-131,0]],[[31280,14742],[-13,-13]],[[31267,14729],[-14,-26]],[[31253,14703],[-58,59]],[[31213,14800],[31,3]],[[31564,14594],[167,-53]],[[31776,14421],[-9,-28]],[[30988,14457],[-59,-16]],[[30870,14467],[82,56]],[[30952,14523],[36,-66]],[[31159,14449],[-23,5]],[[31100,14472],[36,43]],[[31231,14833],[-18,-15]],[[31177,14914],[81,-68]],[[32037,14126],[-23,-76],[99,-41]],[[31348,14698],[-27,-71]],[[31321,14627],[-54,102]],[[31798,14251],[-27,94]],[[31771,14345],[86,-18],[-18,-56],[76,48],[27,-66]],[[32023,14398],[0,-112]],[[31771,14345],[-18,10]],[[31906,14464],[117,-66]],[[31447,14797],[9,16]],[[31456,14813],[54,-71]],[[31267,14571],[4,31]],[[31271,14602],[50,25]],[[31352,14864],[9,15]],[[31361,14879],[18,-8]],[[31379,14871],[5,-46]],[[31384,14825],[-23,0]],[[31388,14884],[-9,-13]],[[31361,14879],[9,7]],[[31370,14886],[18,-2]],[[31397,14881],[-27,5]],[[31388,14884],[9,-3]],[[31397,14881],[9,-50]],[[31406,14831],[-22,-6]],[[31415,14820],[27,-20]],[[31406,14831],[9,-11]],[[31096,14762],[-45,69],[81,55]],[[30988,14457],[4,-10]],[[30992,14447],[23,-21]],[[30938,14373],[23,30],[-55,18]],[[31415,14820],[41,-7]],[[30992,14447],[45,94],[95,-21]],[[31253,14703],[-81,-68]],[[31172,14635],[-31,-10]],[[31141,14625],[-5,5]],[[31136,14630],[-72,50],[36,62]],[[31186,14538],[-45,87]],[[31172,14635],[99,-33]],[[32100,14177],[72,-38]],[[30952,14523],[162,30],[22,77]],[[32807,14195],[-63,63]],[[32744,14258],[22,28]],[[32766,14286],[63,-86]],[[32829,14200],[-22,-5]],[[32667,14131],[0,3]],[[32667,14134],[32,71]],[[32699,14205],[36,36]],[[32735,14241],[0,7]],[[32735,14248],[9,10]],[[32807,14195],[-59,-82]],[[32748,14113],[-81,18]],[[32667,14134],[-27,79],[59,-8]],[[32654,13714],[-54,18]],[[32600,13732],[-5,2]],[[32595,13734],[23,39],[-59,28]],[[32559,13801],[23,38]],[[32582,13839],[27,30]],[[32609,13869],[90,-68]],[[32699,13801],[0,-117]],[[32699,13684],[-45,30]],[[32321,14225],[0,3]],[[32321,14228],[-50,81],[63,3]],[[32334,14312],[-13,-87]],[[32838,14169],[14,-129],[-5,-41],[-13,3]],[[32834,14002],[-77,12]],[[32757,14014],[-9,99]],[[32829,14200],[9,-31]],[[32667,13971],[-45,38]],[[32622,14009],[5,28]],[[32627,14037],[22,3]],[[32649,14040],[36,-44]],[[32685,13996],[-18,-25]],[[32276,14088],[45,140]],[[32321,14225],[40,-20]],[[32361,14205],[-18,-109],[-67,-8]],[[32501,14449],[-9,-23]],[[32492,14426],[-9,31]],[[32483,14457],[18,30]],[[32501,14487],[0,-38]],[[32735,14241],[-23,53]],[[32712,14294],[45,-8],[-22,-38]],[[32334,14312],[-31,48]],[[32303,14360],[112,28]],[[32415,14388],[41,-43]],[[32456,14345],[-63,-82]],[[32393,14263],[-32,-58]],[[32514,13956],[-40,68],[31,56],[-121,145],[99,0]],[[32483,14225],[166,-89]],[[32649,14136],[0,-96]],[[32627,14037],[-45,15],[40,-43]],[[32667,13971],[-85,-46]],[[32582,13925],[-68,31]],[[32667,14131],[-18,5]],[[32483,14225],[-90,38]],[[32456,14345],[27,58]],[[32483,14403],[4,23]],[[32487,14426],[99,-30],[32,51]],[[32618,14447],[31,-105],[63,-23]],[[32712,14319],[0,-10]],[[32712,14309],[0,-15]],[[32415,13745],[36,132],[131,-38]],[[32559,13801],[-54,-46]],[[32505,13755],[-90,-10]],[[32595,13734],[-63,-25]],[[32532,13709],[-27,46]],[[32514,13956],[-130,63],[-50,-76]],[[32257,14075],[19,13]],[[32415,14388],[14,28]],[[32429,14416],[54,-13]],[[32757,14014],[-72,-18]],[[32712,14309],[36,-2]],[[32748,14307],[18,-21]],[[32492,14426],[-5,0]],[[32429,14416],[54,41]],[[32415,13745],[-63,30],[-4,87]],[[32582,13925],[27,-56]],[[32528,14492],[-27,-43]],[[32501,14487],[27,5]],[[32528,14492],[81,28],[9,-73]],[[32073,14202],[112,130],[-63,56],[63,41]],[[32185,14429],[118,-69]],[[32757,14014],[-4,-173]],[[32753,13841],[-54,-40]],[[32712,14319],[36,-12]],[[32023,14398],[90,66],[72,-35]],[[32753,13841],[67,-43],[-45,-163]],[[32775,13635],[-76,49]],[[32762,13534],[-5,15]],[[32757,13549],[-4,30]],[[32753,13579],[13,28]],[[32766,13607],[14,-17]],[[32780,13590],[4,-64]],[[32784,13526],[-22,8]],[[32807,13457],[-5,3]],[[32802,13460],[-9,58]],[[32793,13518],[90,72]],[[32883,13590],[-9,-67]],[[32874,13523],[-49,-78]],[[32825,13445],[-18,12]],[[32645,13521],[-9,-5]],[[32636,13516],[-32,23]],[[32604,13539],[50,28]],[[32654,13567],[4,-31]],[[32658,13536],[-13,-15]],[[32600,13442],[40,25]],[[32640,13467],[23,36]],[[32663,13503],[13,8]],[[32676,13511],[18,-3]],[[32694,13508],[14,-25]],[[32708,13483],[-9,-51]],[[32699,13432],[-99,10]],[[32645,13625],[-14,-13]],[[32631,13612],[-22,-10]],[[32609,13602],[-54,38]],[[32555,13640],[-18,49]],[[32537,13689],[63,43]],[[32654,13714],[-14,-56]],[[32640,13658],[5,-33]],[[32663,13503],[-18,18]],[[32658,13536],[32,-7]],[[32690,13529],[-14,-18]],[[32938,13643],[0,-69]],[[32938,13574],[-64,-51]],[[32883,13590],[-36,83]],[[32847,13673],[68,18]],[[32915,13691],[23,-48]],[[32537,13689],[-5,20]],[[32640,13467],[-4,49]],[[32847,13673],[-9,-33]],[[32838,13640],[-63,-5]],[[32834,14002],[-5,-69],[-22,-41],[67,-74],[68,-96],[-27,-31]],[[32992,13569],[18,-20],[49,-46],[-18,-20]],[[33041,13483],[-13,0]],[[33028,13483],[-54,71]],[[32974,13554],[18,15]],[[32703,13526],[32,18]],[[32735,13544],[22,5]],[[32762,13534],[-59,-8]],[[32564,13529],[-45,73]],[[32519,13602],[36,38]],[[32609,13602],[-18,-63]],[[32591,13539],[-27,-10]],[[32744,13577],[-14,13]],[[32730,13590],[5,10]],[[32735,13600],[-36,30],[9,-43]],[[32708,13587],[0,-15]],[[32708,13572],[-18,-43]],[[32654,13567],[4,28]],[[32658,13595],[5,40]],[[32663,13635],[-23,23]],[[32775,13635],[-9,-28]],[[32753,13579],[-9,-2]],[[32568,13455],[-4,74]],[[32591,13539],[13,0]],[[32600,13442],[-32,13]],[[32865,13424],[-40,21]],[[32938,13574],[36,-20]],[[33028,13483],[-63,-69]],[[32965,13414],[-100,10]],[[32838,13640],[-58,-50]],[[32663,13635],[-18,-10]],[[32631,13612],[27,-17]],[[32708,13587],[27,13]],[[32730,13590],[-22,-18]],[[32744,13577],[-9,-33]],[[32703,13526],[-9,-18]],[[32793,13518],[-9,8]],[[32802,13460],[-94,23]],[[32834,13366],[0,-21]],[[32834,13345],[-23,8]],[[32811,13353],[-67,-2]],[[32744,13351],[-5,2]],[[32739,13353],[-4,89]],[[32735,13442],[63,-2]],[[32798,13440],[36,-74]],[[32938,13643],[27,0],[27,-74]],[[32032,13417],[-40,28]],[[31992,13445],[58,48]],[[32050,13493],[27,69]],[[32140,13607],[113,3]],[[32253,13610],[-68,-64],[68,-45]],[[32253,13501],[0,-79]],[[32253,13422],[-77,-33]],[[32176,13389],[-58,-13]],[[32118,13376],[-86,41]],[[31974,13455],[18,-10]],[[31992,13445],[-9,-67],[49,39]],[[32118,13376],[-45,-135]],[[32073,13241],[-239,10]],[[32023,13180],[-130,-76]],[[31893,13109],[31,117]],[[31924,13226],[104,48],[67,-89]],[[32095,13185],[-72,-5]],[[32158,13104],[-63,-41]],[[32095,13063],[5,3]],[[32100,13066],[9,79]],[[32109,13145],[54,10]],[[32163,13155],[-5,-51]],[[32451,13228],[-22,-91]],[[32429,13137],[-32,2]],[[32397,13139],[-58,16]],[[32339,13155],[-59,66]],[[32280,13221],[5,53],[166,-46]],[[32330,13493],[-9,-41]],[[32321,13452],[-68,49]],[[32253,13610],[77,-117]],[[32023,13180],[-36,-114]],[[32176,13389],[54,-54],[95,18]],[[32325,13353],[72,20]],[[32397,13373],[117,-58]],[[32514,13315],[50,-79]],[[32564,13236],[-86,-36],[-193,74],[-41,-63],[45,-100],[-77,-45],[9,79],[-112,0],[-36,96]],[[32321,13452],[9,-46]],[[32330,13406],[-77,16]],[[32312,13129],[-23,-12]],[[32289,13117],[-45,89],[36,15]],[[32339,13155],[-23,-26]],[[32316,13129],[-4,0]],[[32095,13063],[18,-76]],[[32014,13081],[86,-15]],[[32050,13493],[-49,15]],[[32095,13185],[14,-40]],[[32325,13353],[27,36]],[[32352,13389],[45,-16]],[[32339,13096],[-23,33]],[[32397,13139],[-36,-30]],[[32361,13109],[-22,-13]],[[32203,13081],[-45,23]],[[32163,13155],[45,-21],[-9,-2],[4,-51]],[[32330,13406],[22,-17]],[[31866,13175],[-32,76],[90,-25]],[[32316,13503],[72,71]],[[32388,13574],[18,-38],[-90,-33]],[[32181,13704],[104,-13],[-32,-81]],[[32595,13386],[-85,13],[58,23]],[[32568,13422],[27,-36]],[[32595,13386],[5,-25]],[[32600,13361],[0,-23]],[[32600,13338],[-86,-23]],[[32330,13493],[-14,10]],[[32388,13574],[32,64],[99,-36]],[[32568,13455],[0,-33]],[[32847,13200],[-27,82]],[[32820,13282],[14,63]],[[32834,13366],[31,58]],[[32965,13414],[31,-33]],[[32996,13381],[18,-92]],[[33014,13289],[-63,11],[32,-33]],[[32983,13267],[-45,10],[27,-77],[13,-33],[9,0]],[[32987,13167],[27,-28]],[[33014,13139],[-54,-48],[-41,74],[-22,-89],[54,-18],[-86,-38],[-67,91],[81,-2],[-45,33],[13,58]],[[33095,13401],[0,-15]],[[33095,13386],[-31,5]],[[33064,13391],[4,23]],[[33068,13414],[27,-13]],[[32924,12969],[-41,20]],[[32883,12989],[9,21]],[[32892,13010],[68,-10],[-36,-31]],[[33059,13094],[-58,-11]],[[33001,13083],[22,34]],[[33023,13117],[36,-23]],[[33041,13483],[27,-69]],[[33064,13391],[-18,-30]],[[33046,13361],[-18,17]],[[33028,13378],[-32,3]],[[33158,13366],[-4,-28]],[[33154,13338],[-50,5]],[[33104,13343],[-40,-3]],[[33064,13340],[-9,23]],[[33055,13363],[40,23]],[[33095,13401],[63,-35]],[[33014,13289],[14,89]],[[33046,13361],[9,2]],[[33064,13340],[0,-17]],[[33064,13323],[0,-36]],[[33064,13287],[-50,2]],[[32892,13010],[0,5]],[[32892,13015],[59,43]],[[32951,13058],[0,38]],[[32951,13096],[14,13]],[[32965,13109],[36,-26]],[[33059,13094],[14,7]],[[33073,13101],[9,-25]],[[33082,13076],[22,-8]],[[33104,13068],[-45,-43],[-58,-41],[-73,-25]],[[32928,12959],[-4,10]],[[33109,13132],[-14,30]],[[33095,13162],[18,-2]],[[33113,13160],[27,5]],[[33140,13165],[-31,-33]],[[33199,13241],[-32,28]],[[33167,13269],[5,38]],[[33172,13307],[31,8]],[[33203,13315],[5,0],[13,-28]],[[33221,13287],[-22,-46]],[[33122,13305],[-18,30]],[[33104,13335],[0,8]],[[33154,13338],[-9,-13]],[[33145,13325],[-9,-20]],[[33136,13305],[-14,0]],[[33104,13335],[-40,-12]],[[32735,12878],[40,27]],[[32775,12905],[-9,11],[18,20],[5,28]],[[32789,12964],[58,81]],[[32847,13045],[45,-30]],[[32883,12989],[-22,-68]],[[32861,12921],[-81,-61]],[[32780,12860],[-45,2]],[[32735,12862],[0,16]],[[32987,13167],[-4,100]],[[33064,13287],[4,-18]],[[33068,13269],[23,-23]],[[33091,13246],[4,3]],[[33095,13249],[23,-8]],[[33118,13241],[9,-5]],[[33127,13236],[18,-58]],[[33145,13178],[-117,10],[0,48],[-27,-74],[72,-63],[-59,40]],[[33073,13104],[9,-28]],[[33073,13101],[0,3]],[[33068,13269],[36,26]],[[33104,13295],[-13,-49]],[[33172,13307],[-27,18]],[[33158,13366],[5,20],[9,-35],[31,-36]],[[33055,13139],[40,23]],[[33109,13132],[27,-38]],[[33136,13094],[-5,0],[-27,-26]],[[33073,13104],[-18,35]],[[33127,13236],[40,33]],[[33199,13241],[36,-56]],[[33235,13185],[-90,-7]],[[33055,13139],[-54,23],[27,74],[85,-76]],[[33104,13295],[18,10]],[[33136,13305],[-23,-28]],[[33113,13277],[-18,-28]],[[33118,13241],[-5,36]],[[32965,13109],[58,8]],[[32825,13129],[9,13]],[[32834,13142],[45,-25],[-54,12]],[[32951,13058],[-54,18],[22,89],[32,-69]],[[32928,12959],[-58,-31],[-9,-7]],[[33185,13142],[-49,-48]],[[33140,13165],[45,-23]],[[33221,13287],[50,-3],[58,-12],[-94,-87]],[[32789,12964],[-18,-10]],[[32771,12954],[-18,15]],[[32753,12969],[-23,31]],[[32730,13000],[18,12]],[[32748,13012],[41,64]],[[32789,13076],[9,35]],[[32798,13111],[49,-66]],[[32717,13330],[22,23]],[[32744,13351],[4,-8]],[[32748,13343],[-31,-13]],[[32807,13457],[-9,-17]],[[32735,13442],[-36,-10]],[[32811,13340],[-40,-5],[13,-53]],[[32784,13282],[-31,-3]],[[32753,13279],[-5,64]],[[32811,13353],[0,-13]],[[32748,13259],[36,13]],[[32784,13272],[18,0]],[[32802,13272],[5,-44],[-41,11]],[[32766,13239],[-18,20]],[[32789,13076],[-54,43]],[[32735,13119],[45,-10]],[[32780,13109],[4,13]],[[32784,13122],[14,-11]],[[32820,13282],[-13,10]],[[32807,13292],[4,48]],[[32748,13012],[-36,84]],[[32712,13096],[23,23]],[[32748,13259],[5,20]],[[32784,13282],[0,-10]],[[32681,13256],[-14,-10]],[[32667,13246],[-13,3]],[[32654,13249],[0,40]],[[32654,13289],[27,-33]],[[32663,13200],[-5,-2]],[[32658,13198],[-49,10]],[[32609,13208],[-27,13]],[[32582,13221],[63,10],[22,5],[32,-36]],[[32699,13200],[-36,0]],[[32766,13183],[-58,-26]],[[32708,13157],[-9,0]],[[32699,13157],[0,26]],[[32699,13183],[0,17]],[[32699,13200],[67,-17]],[[32600,13338],[0,-26]],[[32600,13312],[9,-61]],[[32609,13251],[-45,-15]],[[32748,13218],[0,5]],[[32748,13223],[18,16]],[[32802,13272],[5,20]],[[32847,13200],[-99,18]],[[32712,13096],[0,51]],[[32712,13147],[68,-38]],[[32699,13183],[-36,17]],[[32654,13289],[0,3]],[[32654,13292],[58,-5],[-31,-31]],[[32775,13183],[9,-61]],[[32712,13147],[-4,10]],[[32766,13183],[9,0]],[[32748,13218],[-81,28]],[[32654,13292],[63,38]],[[32748,13259],[0,-36]],[[32654,13249],[-45,2]],[[32600,13312],[0,49]],[[32825,13129],[-27,-18]],[[32775,13183],[72,17],[-13,-58]],[[32699,13157],[-18,-7]],[[32681,13150],[-27,-5]],[[32654,13145],[4,53]],[[32303,12944],[22,61]],[[32325,13005],[-9,25]],[[32316,13030],[-36,28]],[[32280,13058],[-32,23],[64,48]],[[32339,13096],[90,-76]],[[32429,13020],[0,-8]],[[32429,13012],[13,-51]],[[32442,12961],[-18,-30]],[[32424,12931],[-4,0]],[[32420,12931],[-54,-28]],[[32366,12903],[-63,41]],[[32433,13083],[-27,13]],[[32406,13096],[27,8]],[[32433,13104],[0,-21]],[[32127,12964],[9,8]],[[32136,12972],[27,-56],[-50,-3]],[[32325,13005],[-22,7]],[[32303,13012],[13,18]],[[32163,13022],[-27,-50]],[[32158,13104],[50,-41]],[[32208,13063],[9,-2]],[[32217,13061],[-5,-16]],[[32212,13045],[-49,-23]],[[32519,13127],[13,-41]],[[32532,13086],[-76,15]],[[32456,13101],[-14,0]],[[32442,13101],[77,26]],[[32433,13083],[5,-10]],[[32438,13073],[-9,-53]],[[32361,13109],[45,-13]],[[32271,12951],[-41,43]],[[32230,12994],[23,18]],[[32253,13012],[50,0]],[[32303,12944],[-32,7]],[[32523,13012],[-9,-7]],[[32514,13005],[-45,7]],[[32469,13012],[45,46]],[[32514,13058],[9,-46]],[[32208,13063],[4,5]],[[32212,13068],[77,49]],[[32280,13058],[-63,3]],[[32230,12994],[-67,28]],[[32212,13045],[41,-33]],[[32388,12776],[59,-8],[-45,54]],[[32402,12822],[85,73]],[[32487,12895],[59,-30]],[[32546,12865],[9,-28]],[[32555,12837],[-45,-13],[-18,-18],[-27,-38]],[[32465,12768],[-41,-43]],[[32384,12743],[4,33]],[[32465,12768],[-36,-46]],[[32429,13137],[4,-33]],[[32438,13073],[18,28]],[[32532,13086],[0,-3]],[[32532,13083],[-18,-25]],[[32469,13012],[-40,0]],[[32433,13104],[9,-3]],[[32203,13081],[9,-13]],[[32442,12961],[5,3]],[[32447,12964],[22,-31]],[[32469,12933],[-45,-2]],[[32271,12951],[0,-84]],[[32271,12867],[-23,-28]],[[32523,12959],[18,-8]],[[32541,12951],[-18,-25]],[[32523,12926],[-76,38]],[[32514,13005],[9,-46]],[[32442,12913],[-22,18]],[[32469,12933],[-27,-20]],[[32388,12776],[0,25]],[[32388,12801],[5,18]],[[32393,12819],[9,3]],[[32370,12837],[-81,13],[59,28]],[[32348,12878],[22,-36],[0,-5]],[[32451,13228],[36,-25]],[[32487,13203],[32,-76]],[[32546,13020],[-23,-61]],[[32523,13012],[23,8]],[[32523,12926],[0,-5]],[[32523,12921],[-13,-18]],[[32510,12903],[-68,10]],[[32348,12878],[18,25]],[[32510,12903],[-23,-8]],[[32393,12819],[-23,18]],[[32271,12867],[9,-45]],[[32388,12801],[-94,-30]],[[32546,12865],[18,13]],[[32564,12878],[4,0]],[[32568,12878],[23,-23]],[[32591,12855],[-5,-16]],[[32586,12839],[-22,-7]],[[32564,12832],[-9,5]],[[32618,12933],[0,26]],[[32618,12959],[4,10]],[[32622,12969],[59,20]],[[32681,12989],[36,5]],[[32717,12994],[13,6]],[[32753,12969],[-23,-13]],[[32730,12956],[-45,-30]],[[32685,12926],[-27,0]],[[32658,12926],[-40,7]],[[32658,12926],[-49,-13]],[[32609,12913],[9,20]],[[32658,13122],[-22,-41]],[[32636,13081],[-32,-28]],[[32604,13053],[-22,36]],[[32582,13089],[-18,40]],[[32564,13129],[54,18]],[[32618,13147],[22,-13]],[[32640,13134],[18,-12]],[[32465,12768],[31,-15]],[[32496,12753],[32,-28]],[[32564,12832],[18,-56],[-86,-23]],[[32595,12987],[9,-13]],[[32604,12974],[-40,-13]],[[32564,12961],[-18,59]],[[32532,13083],[50,6]],[[32604,13053],[-9,-66]],[[32609,12913],[-14,-2]],[[32595,12911],[-9,17]],[[32586,12928],[32,31]],[[32735,12878],[0,20]],[[32735,12898],[40,7]],[[32564,12878],[-14,27]],[[32550,12905],[36,23]],[[32595,12911],[5,-28]],[[32600,12883],[-32,-5]],[[32681,12989],[-45,79]],[[32636,13068],[36,21]],[[32672,13089],[45,-95]],[[32487,13203],[95,18]],[[32609,13208],[-45,-79]],[[32523,12921],[27,-16]],[[32586,12839],[45,-53],[-72,-43]],[[32564,12961],[-23,-10]],[[32636,13068],[-41,-81]],[[32636,13081],[0,-13]],[[32685,12814],[32,30]],[[32717,12844],[9,-10]],[[32739,12911],[-9,-8]],[[32730,12903],[-45,23]],[[32730,12956],[9,-45]],[[32658,13198],[-40,-51]],[[32735,12898],[4,13]],[[32753,12969],[18,-15]],[[32622,12969],[-18,5]],[[32658,13122],[18,7]],[[32676,13129],[-4,-40]],[[32600,12883],[-9,-28]],[[32735,12898],[-5,5]],[[32717,12844],[18,18]],[[32780,12860],[-45,-21]],[[32654,13145],[-14,-11]],[[32681,13150],[-5,-21]],[[27993,12666],[0,8]],[[27993,12674],[-9,20]],[[27984,12694],[54,56]],[[28038,12750],[27,107]],[[28065,12857],[99,-46]],[[28164,12811],[-63,-132]],[[28101,12679],[-9,-18]],[[28092,12661],[-99,5]],[[28173,12661],[-72,18]],[[28164,12811],[22,-20]],[[28186,12791],[64,-46]],[[28250,12745],[0,-58]],[[28250,12687],[0,-26]],[[28250,12661],[-77,0]],[[28376,12460],[76,-63]],[[28452,12397],[-36,-41],[-72,43],[50,-10],[-14,59],[-36,-26]],[[28344,12422],[0,41]],[[28344,12463],[32,-3]],[[27795,12476],[-18,33]],[[27777,12509],[130,68]],[[27907,12577],[86,-43]],[[27993,12534],[-41,-46]],[[27952,12488],[-157,-12]],[[27777,12509],[-23,-5]],[[27754,12504],[23,160]],[[27777,12664],[81,-26]],[[27858,12638],[49,-61]],[[27831,12717],[-68,-12]],[[27763,12705],[-49,53],[63,109]],[[27777,12867],[36,-28]],[[27813,12839],[54,-48],[-18,-64]],[[27849,12727],[-18,-10]],[[28448,12478],[-54,56],[-54,-71]],[[28340,12463],[-77,31]],[[28263,12494],[-13,7]],[[28250,12501],[0,160]],[[28250,12687],[108,23]],[[28358,12710],[81,-87]],[[28439,12623],[63,-86],[-54,-59]],[[28173,12661],[13,-61]],[[28186,12600],[-117,26]],[[28069,12626],[23,35]],[[28335,12895],[-27,-25]],[[28308,12870],[-58,107]],[[28250,12977],[126,61]],[[28376,13038],[49,-31],[-85,-40],[-5,-72]],[[28250,12745],[103,38]],[[28353,12783],[45,-28]],[[28398,12755],[-40,-45]],[[27993,12387],[0,-71]],[[27993,12316],[0,-46]],[[27993,12270],[-86,76],[-36,-43],[-103,38]],[[27768,12341],[-14,8]],[[27754,12349],[41,127]],[[27952,12488],[27,-78]],[[27979,12410],[14,-23]],[[27754,12349],[0,155]],[[27858,12638],[135,36]],[[27993,12666],[31,-66]],[[28024,12600],[-4,-2]],[[28020,12598],[-27,-64]],[[28376,12460],[135,3]],[[28511,12463],[-59,-66]],[[28614,12860],[-36,-61],[135,-120]],[[28713,12679],[-72,-41]],[[28641,12638],[-49,92],[49,41],[-27,-38],[-63,68]],[[28551,12801],[-40,69]],[[28511,12870],[27,13]],[[28538,12883],[76,-23]],[[28020,12598],[18,-61]],[[28038,12537],[-59,-127]],[[28245,12209],[-59,135]],[[28186,12344],[64,68]],[[28250,12412],[18,-33]],[[28268,12379],[-23,-97]],[[28245,12282],[0,-73]],[[27993,12270],[72,-16]],[[28065,12254],[40,11]],[[28105,12265],[5,-56]],[[28110,12209],[-72,2],[-180,0],[-104,0],[14,130]],[[28398,12755],[18,-22]],[[28416,12733],[23,-110]],[[28475,12872],[-23,-132]],[[28452,12740],[-36,-7]],[[28353,12783],[0,3]],[[28353,12786],[54,94],[63,20]],[[28470,12900],[5,-28]],[[28349,13132],[72,-56]],[[28421,13076],[-45,-38]],[[28250,12977],[22,150],[77,5]],[[28344,12463],[-4,0]],[[28448,12478],[18,36],[49,-8],[0,-43]],[[28515,12463],[-4,0]],[[28497,12244],[-9,-38]],[[28488,12206],[-63,3],[-180,0]],[[28245,12282],[32,-50],[220,12]],[[27754,12211],[-175,0],[-50,-5],[194,155],[31,-150]],[[27466,12206],[-32,0],[27,74],[5,-74]],[[28186,12600],[23,-61]],[[28209,12539],[-171,-2]],[[28024,12600],[45,26]],[[27849,12727],[94,34],[-58,35],[9,74],[-81,-31]],[[27777,12867],[72,72],[130,-28]],[[27979,12911],[59,-161]],[[27984,12694],[-153,23]],[[28250,12412],[13,82]],[[28344,12422],[-76,-43]],[[28475,12872],[36,-2]],[[28551,12801],[-49,-79],[-50,18]],[[28614,12626],[-108,-41]],[[28506,12585],[-54,117],[59,-10],[31,74],[72,-140]],[[28186,12791],[91,13]],[[28277,12804],[76,-18]],[[28695,13012],[-148,-68],[-9,-61]],[[28470,12900],[-13,8]],[[28457,12908],[31,130],[-67,38]],[[28349,13132],[220,74],[180,-79]],[[28749,13127],[32,-18]],[[28781,13109],[-86,-97]],[[28186,12344],[-54,-49]],[[28132,12295],[-67,102],[-72,-10]],[[28209,12539],[41,-38]],[[28506,12272],[-9,-28]],[[28515,12463],[54,-102],[-54,-2],[-9,-87]],[[28506,12272],[32,69],[36,-43],[4,-5],[-18,-87],[-9,0],[-63,0]],[[28457,12908],[-122,-13]],[[28245,12209],[-9,0],[-9,0],[-86,0],[-31,0]],[[28105,12265],[27,30]],[[28277,12804],[31,66]],[[27993,12316],[72,-62]],[[27979,12911],[86,-54]],[[27777,12664],[-14,41]],[[29961,12735],[-117,-33]],[[29844,12702],[-68,-99]],[[29776,12603],[-67,5]],[[29709,12608],[54,13],[0,76],[-95,43]],[[29668,12740],[32,165]],[[29700,12905],[117,-12]],[[29817,12893],[58,2]],[[29875,12895],[90,-28]],[[29965,12867],[9,-63]],[[29974,12804],[-13,-69]],[[30001,12621],[-27,-36]],[[29974,12585],[-99,38]],[[29875,12623],[-31,79]],[[29961,12735],[40,-114]],[[29875,12623],[5,-122]],[[29880,12501],[-9,-10]],[[29871,12491],[-45,25]],[[29826,12516],[-50,87]],[[30087,12349],[-194,12]],[[29893,12361],[14,41]],[[29907,12402],[67,43],[113,-96]],[[29974,12585],[-94,-84]],[[30159,12473],[-18,71]],[[30141,12544],[36,18]],[[30177,12562],[72,-25]],[[30249,12537],[-14,-15]],[[30235,12522],[-76,-49]],[[30190,12796],[14,64],[-68,-3]],[[30136,12857],[9,64]],[[30145,12921],[194,-33],[36,-64]],[[30375,12824],[-185,-28]],[[30614,12656],[-36,-63]],[[30578,12593],[-63,58],[0,-91]],[[30515,12560],[-36,20],[-23,13],[9,61],[-81,40]],[[30384,12694],[-4,33]],[[30380,12727],[54,-10],[-14,84]],[[30420,12801],[5,0]],[[30425,12801],[49,49]],[[30474,12850],[90,-11]],[[30564,12839],[14,-28]],[[30578,12811],[18,-45]],[[30596,12766],[22,-94]],[[30618,12672],[-4,-16]],[[30258,12504],[-23,18]],[[30249,12537],[9,-33]],[[30181,12341],[0,51]],[[30181,12392],[23,43],[-45,38]],[[30258,12504],[5,-23]],[[30263,12481],[58,-87]],[[30321,12394],[-81,-2],[-5,-54]],[[30235,12338],[-54,3]],[[29893,12361],[-27,0],[-207,0],[-40,0],[-27,0]],[[29592,12361],[9,77]],[[29601,12438],[22,58]],[[29623,12496],[77,3],[-9,43]],[[29691,12542],[135,-26]],[[29871,12491],[36,-89]],[[30384,12331],[-31,2],[-36,0],[-82,5]],[[30321,12394],[41,16],[22,-79]],[[30177,12562],[-45,33]],[[30132,12595],[-54,56]],[[30078,12651],[54,51]],[[30132,12702],[58,94]],[[30375,12824],[5,-97]],[[30384,12694],[-54,-117],[36,-25]],[[30366,12552],[-9,-5]],[[30357,12547],[-76,-51]],[[30281,12496],[-18,-15]],[[30573,12326],[-63,0],[-36,2]],[[30474,12328],[32,74],[67,-76]],[[30181,12341],[-67,5]],[[30114,12346],[9,79],[58,-33]],[[30375,12824],[45,-23]],[[30141,12544],[-9,51]],[[30357,12547],[-36,-87],[-40,36]],[[30028,12651],[-27,-30]],[[29974,12804],[41,2],[13,-155]],[[30096,12783],[27,31],[-50,0]],[[30073,12814],[-13,58]],[[30060,12872],[76,-15]],[[30132,12702],[-36,81]],[[30096,12783],[-23,31]],[[30114,12346],[-27,3]],[[30028,12651],[50,0]],[[30515,12560],[-5,-21]],[[30510,12539],[-9,-5]],[[30501,12534],[-135,18]],[[30501,12534],[99,-86],[23,-120]],[[30623,12328],[-50,-2]],[[30474,12328],[-90,3]],[[29691,12542],[-36,28],[54,38]],[[29965,12867],[81,26]],[[30046,12893],[14,-21]],[[29592,12361],[-172,-5],[-4,0],[-14,0]],[[29402,12356],[32,26]],[[29434,12382],[40,68]],[[29474,12450],[127,-12]],[[29402,12356],[-63,-2]],[[29339,12354],[-31,94]],[[29308,12448],[40,63]],[[29348,12511],[14,-84],[72,-45]],[[29623,12496],[-68,13],[37,61],[-46,28],[100,129]],[[29646,12727],[13,-7]],[[29659,12720],[50,-112]],[[30024,13063],[-32,-61]],[[29992,13002],[-67,5]],[[29925,13007],[0,49]],[[29925,13056],[99,7]],[[29875,12895],[18,112],[-63,10]],[[29830,13017],[-9,33]],[[29821,13050],[68,3]],[[29889,13053],[36,3]],[[29925,13007],[13,-35],[23,-5],[27,20]],[[29988,12987],[58,-94]],[[28880,12488],[-5,-73]],[[28875,12415],[-9,-66]],[[28866,12349],[-81,-3],[-81,33],[-54,188],[68,10],[-72,0],[-5,61]],[[28713,12679],[108,13]],[[28821,12692],[63,-61]],[[28884,12631],[-4,-89]],[[28880,12542],[0,-54]],[[28659,12384],[-72,5],[-81,196]],[[28614,12626],[45,-242]],[[30425,12801],[-14,94]],[[30411,12895],[50,0]],[[30461,12895],[13,-45]],[[28948,12677],[-9,-23]],[[28939,12654],[-55,-23]],[[28821,12692],[41,94]],[[28862,12786],[41,-5]],[[28903,12781],[45,-104]],[[29056,12801],[103,46]],[[29159,12847],[0,-13]],[[29159,12834],[18,-61],[-90,-104],[-54,74],[-85,-66]],[[28903,12781],[18,79]],[[28921,12860],[58,-23]],[[28979,12837],[72,15],[5,-51]],[[29254,12514],[-77,46]],[[29177,12560],[0,43]],[[29177,12603],[27,191]],[[29204,12794],[99,-31]],[[29303,12763],[54,-43]],[[29357,12720],[-72,-92],[77,-2]],[[29362,12626],[0,-56]],[[29362,12570],[0,-18]],[[29362,12552],[-14,-41]],[[29308,12448],[-54,66]],[[29002,12382],[63,-31]],[[29065,12351],[-158,-2],[-41,0]],[[28875,12415],[0,-5],[55,-54],[72,26]],[[28939,12654],[-59,-112]],[[29339,12354],[-58,0],[-27,0],[-41,0]],[[29213,12354],[41,160]],[[28993,12468],[9,-86]],[[28880,12488],[113,-20]],[[29159,12834],[45,-40]],[[29177,12603],[-45,-107],[-90,-15],[9,-46]],[[29051,12435],[-58,33]],[[29700,12905],[-36,46],[36,28]],[[29700,12979],[108,-2]],[[29808,12977],[40,-13],[-31,-71]],[[29303,12763],[54,18]],[[29357,12781],[104,20]],[[29461,12801],[40,36],[-36,68]],[[29465,12905],[23,-2]],[[29488,12903],[31,-15]],[[29519,12888],[82,-143]],[[29601,12745],[-145,-45],[-94,-130]],[[29362,12626],[-5,94]],[[29988,12987],[4,15]],[[30024,13063],[4,-2]],[[30028,13061],[5,-3]],[[30033,13058],[112,-114]],[[30145,12944],[0,-23]],[[29668,12740],[-9,-20]],[[29646,12727],[-45,18]],[[29519,12888],[64,23],[-64,66]],[[29519,12977],[64,79]],[[29583,13056],[27,-8]],[[29610,13048],[144,63]],[[29754,13111],[9,-2]],[[29763,13109],[-63,-130]],[[29132,12384],[14,-30]],[[29146,12354],[-5,0],[-76,-3]],[[29051,12435],[81,-51]],[[29362,12552],[22,-79],[63,49],[27,-72]],[[29177,12560],[18,-77],[-63,-99]],[[29488,12903],[-5,36]],[[29483,12939],[5,2]],[[29488,12941],[31,36]],[[29808,12977],[22,40]],[[29213,12354],[-67,0]],[[29763,13109],[58,-59]],[[29087,13422],[108,99],[-40,38]],[[29155,13559],[13,76]],[[29168,13635],[149,-117]],[[29317,13518],[-5,-86]],[[29312,13432],[-99,-69]],[[29213,13363],[-126,59]],[[29371,13577],[67,-38]],[[29438,13539],[-72,-94]],[[29366,13445],[-54,-13]],[[29317,13518],[54,59]],[[29488,12941],[-54,125]],[[29434,13066],[40,99]],[[29474,13165],[127,33]],[[29601,13198],[-37,-74]],[[29564,13124],[19,-68]],[[29398,12913],[-27,-38]],[[29371,12875],[-45,33]],[[29326,12908],[36,-8],[18,23]],[[29380,12923],[18,-10]],[[29461,12801],[-32,71],[-85,-76]],[[29344,12796],[27,79]],[[29398,12913],[40,15]],[[29438,12928],[27,-23]],[[29240,13020],[-31,-23]],[[29209,12997],[-90,48]],[[29119,13045],[40,33]],[[29159,13078],[108,59]],[[29267,13137],[-27,-117]],[[29380,12923],[58,5]],[[29263,13228],[-131,34]],[[29132,13262],[-18,43]],[[29114,13305],[-94,81]],[[29020,13386],[31,20]],[[29051,13406],[36,16]],[[29213,13363],[126,-61]],[[29339,13302],[-40,-84]],[[29299,13218],[-36,10]],[[29434,13066],[-32,0]],[[29402,13066],[-103,-3],[27,122]],[[29326,13185],[-27,33]],[[29299,13218],[175,-53]],[[29267,13137],[59,48]],[[29402,13066],[23,-74]],[[29425,12992],[-95,-51]],[[29330,12941],[-40,23],[0,10],[-50,46]],[[29564,13124],[55,-15],[-9,-61]],[[29326,12908],[4,33]],[[29425,12992],[58,-53]],[[29560,13262],[-9,30]],[[29551,13292],[72,-10]],[[29623,13282],[-63,-20]],[[29357,12781],[-13,15]],[[29551,13292],[-14,64]],[[29537,13356],[55,43]],[[29592,13399],[85,74]],[[29686,13295],[-63,-13]],[[29209,12997],[-54,-71]],[[29155,12926],[-50,71]],[[29105,12997],[14,48]],[[29159,12847],[-4,79]],[[29380,13221],[-5,74]],[[29375,13295],[63,-21],[-4,54]],[[29434,13328],[103,28]],[[29560,13262],[18,-39]],[[29578,13223],[-81,-71],[-117,69]],[[29555,13490],[-49,77]],[[29506,13567],[54,53],[-18,74],[36,-10]],[[29578,13684],[95,-31],[0,-71]],[[29659,13526],[-104,-36]],[[29601,13198],[139,23]],[[29740,13221],[-36,-46],[50,-64]],[[29267,13137],[-67,56]],[[29200,13193],[99,25]],[[29443,13539],[22,56],[-40,73]],[[29425,13668],[121,74],[32,-58]],[[29506,13567],[-63,-28]],[[29339,13302],[36,-7]],[[29380,13221],[-81,-3]],[[29443,13539],[-5,0]],[[29371,13577],[54,91]],[[29745,13226],[-167,-3]],[[29555,13490],[-22,-23]],[[29533,13467],[-104,-116]],[[29429,13351],[-63,94]],[[29592,13399],[-59,68]],[[29128,13216],[4,46]],[[29263,13228],[-45,-48],[-90,36]],[[29159,13078],[-31,100]],[[29128,13178],[0,25]],[[29128,13203],[72,-10]],[[29429,13351],[5,-23]],[[28691,13137],[18,155]],[[28709,13292],[76,31],[23,-56]],[[28808,13267],[-5,-89]],[[28803,13178],[-112,-41]],[[28930,13414],[0,-33]],[[28930,13381],[-55,-3]],[[28875,13378],[-58,31]],[[28817,13409],[9,155],[-41,0]],[[28785,13564],[9,48]],[[28794,13612],[81,28],[28,-81]],[[28903,13559],[-64,-53],[77,2],[14,-94]],[[28862,12786],[-72,74],[22,170]],[[28812,13030],[23,-2]],[[28835,13028],[72,-31]],[[28907,12997],[68,-33]],[[28975,12964],[18,-3]],[[28993,12961],[-23,-38]],[[28970,12923],[-86,-48],[37,-15]],[[28934,13272],[-18,-97]],[[28916,13175],[-54,43],[4,-61],[-63,21]],[[28808,13267],[54,94]],[[28862,13361],[72,-89]],[[28975,12964],[18,58],[45,-35],[-41,-26]],[[28997,12961],[-4,0]],[[28695,13012],[-40,-53],[40,-69],[-81,-30]],[[28984,13109],[40,51],[-49,46]],[[28975,13206],[153,-3]],[[29128,13178],[-144,-69]],[[29051,13406],[36,18],[-99,74],[-58,-84]],[[28903,13559],[54,51],[-9,107],[72,-69]],[[29020,13648],[36,-18]],[[29056,13630],[9,-66],[27,28]],[[29092,13592],[63,-33]],[[28961,13701],[18,-33],[27,-17],[-45,50]],[[28907,12997],[45,56],[-49,30],[18,56]],[[28921,13139],[63,-30]],[[29105,12997],[-40,-58]],[[29065,12939],[-68,22]],[[28921,13139],[18,54]],[[28939,13193],[36,13]],[[28709,13292],[-180,137]],[[28529,13429],[94,92]],[[28623,13521],[86,-48]],[[28709,13473],[94,-72],[-31,-43],[45,51]],[[28875,13378],[-13,-17]],[[28835,13028],[4,96],[59,41]],[[28898,13165],[41,28]],[[28979,12837],[-9,86]],[[29065,12939],[31,-89],[-40,-49]],[[28781,13109],[31,-79]],[[28749,13127],[27,61],[90,-31],[-4,61],[36,-53]],[[29092,13592],[-36,38]],[[29020,13648],[63,36],[85,-49]],[[29020,13386],[-90,-5]],[[29114,13305],[-180,-33]],[[29128,13216],[-212,-41]],[[28691,13137],[-113,48],[-49,244]],[[28785,13564],[-76,-91]],[[28623,13521],[81,25],[5,122],[85,-56]],[[31267,12725],[-5,94],[68,53],[180,21]],[[31505,12755],[-81,-86],[-40,58],[-45,-63],[-68,53],[-4,8]],[[31501,12725],[9,25]],[[31204,12829],[108,76]],[[31312,12905],[36,105],[49,-3]],[[31267,12725],[-68,-20],[5,124]],[[31181,12961],[-36,-33]],[[31145,12928],[-13,59]],[[31154,12992],[27,-31]],[[31289,12542],[-90,41],[45,66],[-27,51]],[[31217,12700],[54,-13]],[[31271,12687],[23,-102]],[[31294,12585],[-5,-43]],[[31420,12666],[-126,-81]],[[31271,12687],[32,40],[31,-63],[36,46],[50,-44]],[[31006,12844],[-72,67]],[[30934,12911],[-14,73]],[[30920,12984],[81,-43],[5,-97]],[[31145,12928],[-31,-30]],[[31114,12898],[-54,-43]],[[31060,12855],[-54,-11]],[[30920,12984],[-14,8]],[[30906,12992],[-45,30]],[[30861,13022],[-22,16]],[[30839,13038],[49,91]],[[30888,13129],[91,61]],[[31073,13106],[32,-25]],[[31105,13063],[13,-51]],[[31051,12755],[9,100]],[[31114,12898],[76,-69]],[[31190,12829],[41,-63],[-50,2],[9,-68],[-58,-41],[22,58],[-31,-48],[-23,46]],[[31100,12715],[-40,30]],[[31060,12745],[-9,10]],[[31181,12961],[131,-56]],[[31204,12829],[-14,0]],[[31298,13073],[54,-15]],[[30758,12338],[13,110],[63,33],[-36,91]],[[30798,12572],[45,-7]],[[30843,12565],[23,-71]],[[30866,12494],[-5,-51],[91,-13]],[[30952,12430],[31,-104]],[[30983,12326],[-86,7],[-139,5]],[[31060,12534],[-41,-132],[-67,28]],[[30866,12494],[59,101],[54,-109],[-36,99],[117,-51]],[[30798,12572],[-27,23]],[[30771,12595],[14,49]],[[30785,12644],[9,30]],[[30794,12674],[9,38]],[[30803,12712],[153,15]],[[30956,12727],[5,-61],[-64,23],[46,-61],[-100,-63]],[[31060,12534],[-126,51],[13,66],[90,-43],[-22,66],[49,-74],[14,84],[139,16]],[[31289,12542],[-9,-28]],[[31280,12514],[-144,-201]],[[31136,12313],[-4,0],[-149,13]],[[31474,12509],[-99,-33],[-86,66]],[[31420,12666],[94,-2],[-40,-155]],[[31339,12305],[-68,3]],[[31271,12308],[95,79],[18,7],[36,36]],[[31420,12430],[72,15]],[[31568,12303],[-27,0],[-90,2],[-81,0],[-31,0]],[[30803,12712],[18,28]],[[30821,12740],[113,171]],[[31051,12755],[-72,-83],[-23,55]],[[31100,12715],[-31,-87],[-41,66],[-58,-53],[90,104]],[[31280,12514],[41,-71],[99,-13]],[[31271,12308],[-135,5]],[[30222,13356],[32,68],[-104,43]],[[30407,13419],[-95,-114]],[[30312,13305],[-22,-5]],[[30290,13300],[9,73],[-77,-17]],[[30771,12595],[-13,-58],[-81,7],[13,59],[-76,53]],[[30614,12656],[94,-7]],[[30708,12649],[77,-5]],[[30141,13256],[4,-48]],[[30145,13208],[-54,-20],[-40,71]],[[30051,13259],[-81,66],[22,48]],[[30028,13381],[113,-125]],[[30321,13086],[-54,-69],[-45,122]],[[30222,13139],[122,0]],[[30344,13139],[-23,-53]],[[30618,12672],[90,-23]],[[30452,13223],[-9,-17]],[[30443,13206],[-54,28]],[[30389,13234],[63,-11]],[[30515,13137],[-27,74]],[[30488,13211],[76,-5],[-49,-69]],[[30758,12338],[-9,0],[-126,-10]],[[30510,12539],[68,54]],[[30515,13231],[-5,36]],[[30830,13124],[-122,-109],[-18,-97],[-90,94],[0,79],[-99,23],[63,86],[-49,31]],[[29740,13221],[144,13]],[[29884,13234],[-36,-51],[54,-38]],[[29902,13145],[-13,-92]],[[30438,13007],[-4,-53]],[[30434,12954],[-68,63]],[[30366,13017],[5,31]],[[30371,13048],[36,0]],[[30407,13048],[31,-41]],[[30222,13356],[-63,-41]],[[30159,13315],[-32,86],[-85,5]],[[30150,13183],[4,-38]],[[30154,13145],[-18,-56]],[[30136,13089],[-103,-31]],[[30028,13061],[-49,104],[72,25],[-50,89],[149,-96]],[[30753,12773],[-40,21],[22,-61]],[[30735,12733],[59,-59]],[[30596,12766],[27,35]],[[30623,12801],[31,49]],[[30654,12850],[32,73]],[[30686,12923],[49,94]],[[30735,13017],[104,21]],[[30861,13022],[-85,-117],[130,87]],[[30821,12740],[-68,33]],[[30136,13089],[9,-145]],[[30159,13315],[9,-31]],[[30168,13284],[-27,-28]],[[30735,13017],[153,112]],[[30753,12773],[-18,-40]],[[30290,13300],[-104,-28]],[[30186,13272],[-18,12]],[[30578,12811],[45,-10]],[[30461,12895],[-27,59]],[[30438,13007],[95,49],[-27,50]],[[30506,13106],[94,-15],[0,-79],[86,-89]],[[30654,12850],[-90,-11]],[[30411,12895],[-63,5],[-4,89]],[[30344,12989],[22,28]],[[30348,13223],[-36,82]],[[30515,13231],[-122,33],[-22,-81],[-23,40]],[[30145,12944],[199,45]],[[30051,13259],[-50,20],[41,-119],[-63,5],[49,-36],[-9,-76],[-130,0],[31,132],[-81,69]],[[30488,13122],[-81,-74]],[[30371,13048],[-50,38]],[[30344,13139],[-5,41]],[[30339,13180],[50,54]],[[30443,13206],[45,-84]],[[29884,13234],[18,-89]],[[30515,13134],[-27,-12]],[[30452,13223],[36,-12]],[[30515,13137],[0,-3]],[[30154,13145],[68,-6]],[[30145,13208],[41,64]],[[30348,13223],[-9,-43]],[[30339,13180],[-76,71],[-73,-73],[-45,30]],[[30515,13134],[-9,-28]],[[30150,13183],[113,68],[76,-71]]]}