{"type":"Topology","transform":{"scale":[0.0012831345112129487,0.0009745357309423489],"translate":[-124.73273099999999,24.60334863324381]},"objects":{"area":{"type":"GeometryCollection","geometries":[{"arcs":[[0]],"type":"Polygon","properties":{"state":"LA","name":"MARSH ISLAND","zip":"00116"}},{"arcs":[[1]],"type":"Polygon","properties":{"state":"LA","name":"CHANDELEUR ISLANDS","zip":"00122"}},{"arcs":[[2,3,4,5,6,7,8]],"type":"Polygon","properties":{"state":"LA","name":"METAIRIE","zip":"70001"}},{"arcs":[[9,-6,10,11]],"type":"Polygon","properties":{"state":"LA","name":"METAIRIE","zip":"70002"}},{"arcs":[[12,13,14,15,-4,16]],"type":"Polygon","properties":{"state":"LA","name":"METAIRIE","zip":"70003"}},{"arcs":[[17,-7,-10,18,19]],"type":"Polygon","properties":{"state":"LA","name":"METAIRIE","zip":"70005"}},{"arcs":[[-5,-16,20,-11]],"type":"Polygon","properties":{"state":"LA","name":"METAIRIE","zip":"70006"}},{"arcs":[[21,22,23,24,25,26,27]],"type":"Polygon","properties":{"state":"LA","name":"DES ALLEMANDS","zip":"70030"}},{"arcs":[[28,29,-26,30,31,32]],"type":"Polygon","properties":{"state":"LA","name":"AMA","zip":"70031"}},{"arcs":[[33,34,35,36]],"type":"Polygon","properties":{"state":"LA","name":"ARABI","zip":"70032"}},{"arcs":[[37,38,39,40,41]],"type":"Polygon","properties":{"state":"LA","name":"BARATARIA","zip":"70036"}},{"arcs":[[42,43,44,45,46,47,48]],"type":"Polygon","properties":{"state":"LA","name":"BELLE CHASSE","zip":"70037"}},{"arcs":[[49,50,51,-31,-25]],"type":"Polygon","properties":{"state":"LA","name":"BOUTTE","zip":"70039"}},{"arcs":[[52,53,54,55]],"type":"Polygon","properties":{"state":"LA","name":"BRAITHWAITE","zip":"70040"}},{"arcs":[[56,57,58,59]],"type":"Polygon","properties":{"state":"LA","name":"BURAS","zip":"70041"}},{"arcs":[[60,61,-34,62,63]],"type":"Polygon","properties":{"state":"LA","name":"CHALMETTE","zip":"70043"}},{"arcs":[[64,65,66,67]],"type":"Polygon","properties":{"state":"LA","name":"DESTREHAN","zip":"70047"}},{"arcs":[[68,69,70,71,72]],"type":"Polygon","properties":{"state":"LA","name":"EDGARD","zip":"70049"}},{"arcs":[[73,74,75,76,77,78,79,80]],"type":"Polygon","properties":{"state":"LA","name":"GARYVILLE","zip":"70051"}},{"arcs":[[81,82,83,84,85,-77]],"type":"Polygon","properties":{"state":"LA","name":"GRAMERCY","zip":"70052"}},{"arcs":[[86,87,88,89]],"type":"Polygon","properties":{"state":"LA","name":"GRETNA","zip":"70053"}},{"arcs":[[90,-87,91,92,-47]],"type":"Polygon","properties":{"state":"LA","name":"GRETNA","zip":"70056"}},{"arcs":[[93,-23,94,-72,95,96,97,-51]],"type":"Polygon","properties":{"state":"LA","name":"HAHNVILLE","zip":"70057"}},{"arcs":[[98,99,-88,-91,-46]],"type":"Polygon","properties":{"state":"LA","name":"HARVEY","zip":"70058"}},{"arcs":[[100,101,102,103,-13]],"type":"Polygon","properties":{"state":"LA","name":"KENNER","zip":"70062"}},{"arcs":[[104,105,-14,-104]],"type":"Polygon","properties":{"state":"LA","name":"KENNER","zip":"70065"}},{"arcs":[[-71,106,-96]],"type":"Polygon","properties":{"state":"LA","name":"KILLONA","zip":"70066"}},{"arcs":[[-38,107,-44,108,109]],"type":"Polygon","properties":{"state":"LA","name":"LAFITTE","zip":"70067"}},{"arcs":[[110,111,112,-81,113]],"type":"Polygon","properties":{"state":"LA","name":"LA PLACE","zip":"70068"}},{"arcs":[[-98,114,-32,-52]],"type":"Polygon","properties":{"state":"LA","name":"LULING","zip":"70070"}},{"arcs":[[115,-84,116]],"type":"Polygon","properties":{"state":"LA","name":"LUTCHER","zip":"70071"}},{"arcs":[[-42,117,118,119,-99,-45,-108]],"type":"Polygon","properties":{"state":"LA","name":"MARRERO","zip":"70072"}},{"arcs":[[-61,120,121,122,123]],"type":"Polygon","properties":{"state":"LA","name":"MERAUX","zip":"70075"}},{"arcs":[[-82,-76,124]],"type":"Polygon","properties":{"state":"LA","name":"MOUNT AIRY","zip":"70076"}},{"arcs":[[-111,125,-67,126]],"type":"Polygon","properties":{"state":"LA","name":"NORCO","zip":"70079"}},{"arcs":[[-94,-50,-24]],"type":"Polygon","properties":{"state":"LA","name":"PARADIS","zip":"70080"}},{"arcs":[[[-53,127]],[[128]]],"type":"MultiPolygon","properties":{"state":"LA","name":"PILOTTOWN","zip":"70081"}},{"arcs":[[-109,-43,129,-57,130]],"type":"Polygon","properties":{"state":"LA","name":"PORT SULPHUR","zip":"70083"}},{"arcs":[[-74,-113,131]],"type":"Polygon","properties":{"state":"LA","name":"RESERVE","zip":"70084"}},{"arcs":[[-55,132,133,134]],"type":"Polygon","properties":{"state":"LA","name":"SAINT BERNARD","zip":"70085"}},{"arcs":[[135,136,137,138,139,140]],"type":"Polygon","properties":{"state":"LA","name":"SAINT JAMES","zip":"70086"}},{"arcs":[[-105,-103,141,-65,142]],"type":"Polygon","properties":{"state":"LA","name":"SAINT ROSE","zip":"70087"}},{"arcs":[[143,-136,144,-69]],"type":"Polygon","properties":{"state":"LA","name":"VACHERIE","zip":"70090"}},{"arcs":[[-59,145]],"type":"Polygon","properties":{"state":"LA","name":"VENICE","zip":"70091"}},{"arcs":[[-123,146,-134,147]],"type":"Polygon","properties":{"state":"LA","name":"VIOLET","zip":"70092"}},{"arcs":[[-29,148,-119,149]],"type":"Polygon","properties":{"state":"LA","name":"WESTWEGO","zip":"70094"}},{"arcs":[[150,151,152,153]],"type":"Polygon","properties":{"state":"LA","name":"NEW ORLEANS","zip":"70112"}},{"arcs":[[154,155,156,157,-152]],"type":"Polygon","properties":{"state":"LA","name":"NEW ORLEANS","zip":"70113"}},{"arcs":[[158,-92,-90,159]],"type":"Polygon","properties":{"state":"LA","name":"NEW ORLEANS","zip":"70114"}},{"arcs":[[160,161,-156,162,163]],"type":"Polygon","properties":{"state":"LA","name":"NEW ORLEANS","zip":"70115"}},{"arcs":[[164,-154,165,166,167]],"type":"Polygon","properties":{"state":"LA","name":"NEW ORLEANS","zip":"70116"}},{"arcs":[[168,169,170,-36,171,-167]],"type":"Polygon","properties":{"state":"LA","name":"NEW ORLEANS","zip":"70117"}},{"arcs":[[172,-161,173,174,-8,-18,175,176]],"type":"Polygon","properties":{"state":"LA","name":"NEW ORLEANS","zip":"70118"}},{"arcs":[[177,-177,178,179,-169,-166,-153,-158]],"type":"Polygon","properties":{"state":"LA","name":"NEW ORLEANS","zip":"70119"}},{"arcs":[[180,-9,-175,181]],"type":"Polygon","properties":{"state":"LA","name":"NEW ORLEANS","zip":"70121"}},{"arcs":[[182,-170,-180,183,184,185]],"type":"Polygon","properties":{"state":"LA","name":"NEW ORLEANS","zip":"70122"}},{"arcs":[[-101,-17,-3,-181,186]],"type":"Polygon","properties":{"state":"LA","name":"NEW ORLEANS","zip":"70123"}},{"arcs":[[-184,-179,-176,-20,187]],"type":"Polygon","properties":{"state":"LA","name":"NEW ORLEANS","zip":"70124"}},{"arcs":[[-162,-173,-178,-157]],"type":"Polygon","properties":{"state":"LA","name":"NEW ORLEANS","zip":"70125"}},{"arcs":[[-37,-171,-183,188,189,190,191,-63]],"type":"Polygon","properties":{"state":"LA","name":"NEW ORLEANS","zip":"70126"}},{"arcs":[[192,-191,193,194]],"type":"Polygon","properties":{"state":"LA","name":"NEW ORLEANS","zip":"70127"}},{"arcs":[[195,-195,196]],"type":"Polygon","properties":{"state":"LA","name":"NEW ORLEANS","zip":"70128"}},{"arcs":[[-64,-192,-193,-196,197,-121]],"type":"Polygon","properties":{"state":"LA","name":"NEW ORLEANS","zip":"70129"}},{"arcs":[[-163,-155,-151,-165,198]],"type":"Polygon","properties":{"state":"LA","name":"NEW ORLEANS","zip":"70130"}},{"arcs":[[-48,-93,-159,199]],"type":"Polygon","properties":{"state":"LA","name":"NEW ORLEANS","zip":"70131"}},{"arcs":[[-189,-186,200]],"type":"Polygon","properties":{"state":"LA","name":"NEW ORLEANS","zip":"70148"}},{"arcs":[[201,202,203,-137,-144,-73,-95,-22,204,205,206,207,208]],"type":"Polygon","properties":{"state":"LA","name":"THIBODAUX","zip":"70301"}},{"arcs":[[209,210,211,212,213]],"type":"Polygon","properties":{"state":"LA","name":"PIERRE PART","zip":"70339"}},{"arcs":[[214,215,-139,216,-213]],"type":"Polygon","properties":{"state":"LA","name":"BELLE ROSE","zip":"70341"}},{"arcs":[[217,218,219]],"type":"Polygon","properties":{"state":"LA","name":"BERWICK","zip":"70342"}},{"arcs":[[220,221,222,223,224]],"type":"Polygon","properties":{"state":"LA","name":"BOURG","zip":"70343"}},{"arcs":[[225,226,227,-221]],"type":"Polygon","properties":{"state":"LA","name":"CHAUVIN","zip":"70344"}},{"arcs":[[228,229,-40,230,231,232]],"type":"Polygon","properties":{"state":"LA","name":"CUT OFF","zip":"70345"}},{"arcs":[[233,234,-140,-216]],"type":"Polygon","properties":{"state":"LA","name":"DONALDSONVILLE","zip":"70346"}},{"arcs":[[235,-233,236,237,238,239,240,-227]],"type":"Polygon","properties":{"state":"LA","name":"DULAC","zip":"70353"}},{"arcs":[[241,-237,-232,242]],"type":"Polygon","properties":{"state":"LA","name":"GALLIANO","zip":"70354"}},{"arcs":[[243,244]],"type":"Polygon","properties":{"state":"LA","name":"GHEENS","zip":"70355"}},{"arcs":[[245,-209,246,247,248,-220]],"type":"Polygon","properties":{"state":"LA","name":"GIBSON","zip":"70356"}},{"arcs":[[-238,-242,249]],"type":"Polygon","properties":{"state":"LA","name":"GOLDEN MEADOW","zip":"70357"}},{"arcs":[[250,251,-207,252]],"type":"Polygon","properties":{"state":"LA","name":"GRAY","zip":"70359"}},{"arcs":[[253,-251,254,255,256,-248]],"type":"Polygon","properties":{"state":"LA","name":"HOUMA","zip":"70360"}},{"arcs":[[-241,257,-256,258,-222,-228]],"type":"Polygon","properties":{"state":"LA","name":"HOUMA","zip":"70363"}},{"arcs":[[-253,-206,259,260,-223,-259,-255]],"type":"Polygon","properties":{"state":"LA","name":"HOUMA","zip":"70364"}},{"arcs":[[261,262,-203]],"type":"Polygon","properties":{"state":"LA","name":"LABADIEVILLE","zip":"70372"}},{"arcs":[[263,-244,264,265,-229,266,-224,-261]],"type":"Polygon","properties":{"state":"LA","name":"LOCKPORT","zip":"70374"}},{"arcs":[[-225,-267,-236,-226]],"type":"Polygon","properties":{"state":"LA","name":"MONTEGUT","zip":"70377"}},{"arcs":[[267,268,-210,269,-262,-202,-246,-219]],"type":"Polygon","properties":{"state":"LA","name":"MORGAN CITY","zip":"70380"}},{"arcs":[[-217,-138,-204,-263,-270,-214]],"type":"Polygon","properties":{"state":"LA","name":"NAPOLEONVILLE","zip":"70390"}},{"arcs":[[270,271,272,-268,-218]],"type":"Polygon","properties":{"state":"LA","name":"PATTERSON","zip":"70392"}},{"arcs":[[-264,-260,-205,-28,273,-265,-245]],"type":"Polygon","properties":{"state":"LA","name":"RACELAND","zip":"70394"}},{"arcs":[[-208,-252,-254,-247]],"type":"Polygon","properties":{"state":"LA","name":"SCHRIEVER","zip":"70395"}},{"arcs":[[-240,274,-249,-257,-258]],"type":"Polygon","properties":{"state":"LA","name":"THERIOT","zip":"70397"}},{"arcs":[[275,276,277,278,279]],"type":"Polygon","properties":{"state":"LA","name":"HAMMOND","zip":"70401"}},{"arcs":[[280,281,-277,282,283,284]],"type":"Polygon","properties":{"state":"LA","name":"HAMMOND","zip":"70403"}},{"arcs":[[285,286,287,288,289,290]],"type":"Polygon","properties":{"state":"LA","name":"ABITA SPRINGS","zip":"70420"}},{"arcs":[[291,292,293,294,295,296,297,298,299,300,301,302,303]],"type":"Polygon","properties":{"state":"LA","name":"AMITE","zip":"70422"}},{"arcs":[[304,305,306,307,308]],"type":"Polygon","properties":{"state":"LA","name":"ANGIE","zip":"70426"}},{"arcs":[[309,310,311,-306]],"type":"Polygon","properties":{"state":"LA","name":"BOGALUSA","zip":"70427"}},{"arcs":[[312,313,-311,314,315,-290]],"type":"Polygon","properties":{"state":"LA","name":"BUSH","zip":"70431"}},{"arcs":[[316,317,318,-288,319]],"type":"Polygon","properties":{"state":"LA","name":"COVINGTON","zip":"70433"}},{"arcs":[[320,321,322,-313,-289,-319]],"type":"Polygon","properties":{"state":"LA","name":"COVINGTON","zip":"70435"}},{"arcs":[[323,324,325,-300]],"type":"Polygon","properties":{"state":"LA","name":"FLUKER","zip":"70436"}},{"arcs":[[326,327,-322]],"type":"Polygon","properties":{"state":"LA","name":"FOLSOM","zip":"70437"}},{"arcs":[[-314,-323,-328,328,-303,329,330,331,-307,-312]],"type":"Polygon","properties":{"state":"LA","name":"FRANKLINTON","zip":"70438"}},{"arcs":[[-299,332,333,334,335,-324]],"type":"Polygon","properties":{"state":"LA","name":"GREENSBURG","zip":"70441"}},{"arcs":[[336,337,338,-292,339]],"type":"Polygon","properties":{"state":"LA","name":"INDEPENDENCE","zip":"70443"}},{"arcs":[[-302,340,-325,-336,341,342,-330]],"type":"Polygon","properties":{"state":"LA","name":"KENTWOOD","zip":"70444"}},{"arcs":[[343,344,-286,345,346,347]],"type":"Polygon","properties":{"state":"LA","name":"LACOMBE","zip":"70445"}},{"arcs":[[-340,-304,-329,-327,-321,348,349,-280]],"type":"Polygon","properties":{"state":"LA","name":"LORANGER","zip":"70446"}},{"arcs":[[350,-317,351,352]],"type":"Polygon","properties":{"state":"LA","name":"MADISONVILLE","zip":"70447"}},{"arcs":[[353,-344,354]],"type":"Polygon","properties":{"state":"LA","name":"MANDEVILLE","zip":"70448"}},{"arcs":[[-79,355,356,357,358,359]],"type":"Polygon","properties":{"state":"LA","name":"MAUREPAS","zip":"70449"}},{"arcs":[[-343,360,-331]],"type":"Polygon","properties":{"state":"LA","name":"MOUNT HERMON","zip":"70450"}},{"arcs":[[361,-346,-291,-316,362,363,364]],"type":"Polygon","properties":{"state":"LA","name":"PEARL RIVER","zip":"70452"}},{"arcs":[[365,-294]],"type":"Polygon","properties":{"state":"LA","name":"PINE GROVE","zip":"70453"}},{"arcs":[[366,-284,367,-349,-318,-351,368]],"type":"Polygon","properties":{"state":"LA","name":"PONCHATOULA","zip":"70454"}},{"arcs":[[-283,-276,-350,-368]],"type":"Polygon","properties":{"state":"LA","name":"ROBERT","zip":"70455"}},{"arcs":[[-326,-341,-301]],"type":"Polygon","properties":{"state":"LA","name":"ROSELAND","zip":"70456"}},{"arcs":[[369,370,371,-365]],"type":"Polygon","properties":{"state":"LA","name":"SLIDELL","zip":"70458"}},{"arcs":[[-347,-362,-372,372]],"type":"Polygon","properties":{"state":"LA","name":"SLIDELL","zip":"70460"}},{"arcs":[[373,-370,-364]],"type":"Polygon","properties":{"state":"LA","name":"SLIDELL","zip":"70461"}},{"arcs":[[374,375,-285,-367,376,-359]],"type":"Polygon","properties":{"state":"LA","name":"SPRINGFIELD","zip":"70462"}},{"arcs":[[377,-337,-279]],"type":"Polygon","properties":{"state":"LA","name":"TICKFAW","zip":"70466"}},{"arcs":[[378,-309]],"type":"Polygon","properties":{"state":"LA","name":"ANGIE","zip":"70467"}},{"arcs":[[-320,-287,-345,-354,379,-352]],"type":"Polygon","properties":{"state":"LA","name":"MANDEVILLE","zip":"70471"}},{"arcs":[[380,381,382,383,384]],"type":"Polygon","properties":{"state":"LA","name":"LAFAYETTE","zip":"70501"}},{"arcs":[[385,386,-382,387]],"type":"Polygon","properties":{"state":"LA","name":"LAFAYETTE","zip":"70503"}},{"arcs":[[388,389,390,391,-383,-387]],"type":"Polygon","properties":{"state":"LA","name":"LAFAYETTE","zip":"70506"}},{"arcs":[[392,393,394,-384,-392]],"type":"Polygon","properties":{"state":"LA","name":"LAFAYETTE","zip":"70507"}},{"arcs":[[395,396,397,-388,-381,398]],"type":"Polygon","properties":{"state":"LA","name":"LAFAYETTE","zip":"70508"}},{"arcs":[[399,400,401,402,403]],"type":"Polygon","properties":{"state":"LA","name":"ABBEVILLE","zip":"70510"}},{"arcs":[[404,405,406,407,408]],"type":"Polygon","properties":{"state":"LA","name":"ARNAUDVILLE","zip":"70512"}},{"arcs":[[409,410]],"type":"Polygon","properties":{"state":"LA","name":"BALDWIN","zip":"70514"}},{"arcs":[[411,412,413,414,415,416]],"type":"Polygon","properties":{"state":"LA","name":"BASILE","zip":"70515"}},{"arcs":[[417,418,419,420]],"type":"Polygon","properties":{"state":"LA","name":"BRANCH","zip":"70516"}},{"arcs":[[421,422,-399,-385,-395,423,-409]],"type":"Polygon","properties":{"state":"LA","name":"BREAUX BRIDGE","zip":"70517"}},{"arcs":[[424,-396,-423,425,426]],"type":"Polygon","properties":{"state":"LA","name":"BROUSSARD","zip":"70518"}},{"arcs":[[-394,427,428,429,-405,-424]],"type":"Polygon","properties":{"state":"LA","name":"CARENCRO","zip":"70520"}},{"arcs":[[430,431,-418,432,433,434,435,-429]],"type":"Polygon","properties":{"state":"LA","name":"CHURCH POINT","zip":"70525"}},{"arcs":[[436,437,438,439,440,441,-420]],"type":"Polygon","properties":{"state":"LA","name":"CROWLEY","zip":"70526"}},{"arcs":[[442,443,444,-390]],"type":"Polygon","properties":{"state":"LA","name":"DUSON","zip":"70529"}},{"arcs":[[445,446,447,448,-440]],"type":"Polygon","properties":{"state":"LA","name":"EGAN","zip":"70531"}},{"arcs":[[449,450,451,-415]],"type":"Polygon","properties":{"state":"LA","name":"ELTON","zip":"70532"}},{"arcs":[[452,-403,453,454]],"type":"Polygon","properties":{"state":"LA","name":"ERATH","zip":"70533"}},{"arcs":[[455,-412,456,457,-433,-421,-442]],"type":"Polygon","properties":{"state":"LA","name":"EUNICE","zip":"70535"}},{"arcs":[[458,459,-448]],"type":"Polygon","properties":{"state":"LA","name":"EVANGELINE","zip":"70537"}},{"arcs":[[460,-272,461,462,463,-410]],"type":"Polygon","properties":{"state":"LA","name":"FRANKLIN","zip":"70538"}},{"arcs":[[464,465,466,467,468,469,470,471]],"type":"Polygon","properties":{"state":"LA","name":"GUEYDAN","zip":"70542"}},{"arcs":[[-449,-460,472,-413,-456,-441]],"type":"Polygon","properties":{"state":"LA","name":"IOTA","zip":"70543"}},{"arcs":[[473,474,475,476,477,-211,-269,-273,-461,-411,-464]],"type":"Polygon","properties":{"state":"LA","name":"JEANERETTE","zip":"70544"}},{"arcs":[[478,479,-450,-414,-473,-459,-447,480,-468,481]],"type":"Polygon","properties":{"state":"LA","name":"JENNINGS","zip":"70546"}},{"arcs":[[482,-470,483,-438,484,485,-400,486,487,488]],"type":"Polygon","properties":{"state":"LA","name":"KAPLAN","zip":"70548"}},{"arcs":[[489,490,491,492,-482,-467,493]],"type":"Polygon","properties":{"state":"LA","name":"LAKE ARTHUR","zip":"70549"}},{"arcs":[[494,495,-476]],"type":"Polygon","properties":{"state":"LA","name":"LOREAUVILLE","zip":"70552"}},{"arcs":[[496,497,498,-457,-417]],"type":"Polygon","properties":{"state":"LA","name":"MAMOU","zip":"70554"}},{"arcs":[[499,-401,-486,500,-443,-389,-386,-398]],"type":"Polygon","properties":{"state":"LA","name":"MAURICE","zip":"70555"}},{"arcs":[[-469,-481,-446,-439,-484]],"type":"Polygon","properties":{"state":"LA","name":"MORSE","zip":"70559"}},{"arcs":[[501,-427,502,503,-474,-463,504,-455]],"type":"Polygon","properties":{"state":"LA","name":"NEW IBERIA","zip":"70560"}},{"arcs":[[505,-495,-475,-504]],"type":"Polygon","properties":{"state":"LA","name":"NEW IBERIA","zip":"70563"}},{"arcs":[[506,507,508,-407,509,-435]],"type":"Polygon","properties":{"state":"LA","name":"OPELOUSAS","zip":"70570"}},{"arcs":[[510,-408,-509,511,512,513]],"type":"Polygon","properties":{"state":"LA","name":"PORT BARRE","zip":"70577"}},{"arcs":[[-419,-432,514,-444,-501,-485,-437]],"type":"Polygon","properties":{"state":"LA","name":"RAYNE","zip":"70578"}},{"arcs":[[515,-477,-496,-506,-503,-426,-422,-511,516,517,518,519,520]],"type":"Polygon","properties":{"state":"LA","name":"SAINT MARTINVILLE","zip":"70582"}},{"arcs":[[-391,-445,-515,-431,-428,-393]],"type":"Polygon","properties":{"state":"LA","name":"SCOTT","zip":"70583"}},{"arcs":[[-436,-510,-406,-430]],"type":"Polygon","properties":{"state":"LA","name":"SUNSET","zip":"70584"}},{"arcs":[[521,522,523,524,525,526,527,-507,-434,-458,-499]],"type":"Polygon","properties":{"state":"LA","name":"VILLE PLATTE","zip":"70586"}},{"arcs":[[528,-512,-508,-528,529,530,531]],"type":"Polygon","properties":{"state":"LA","name":"WASHINGTON","zip":"70589"}},{"arcs":[[-493,532,533,-479]],"type":"Polygon","properties":{"state":"LA","name":"WELSH","zip":"70591"}},{"arcs":[[-454,-402,-500,-397,-425,-502]],"type":"Polygon","properties":{"state":"LA","name":"YOUNGSVILLE","zip":"70592"}},{"arcs":[[534,535,536,537,538]],"type":"Polygon","properties":{"state":"LA","name":"LAKE CHARLES","zip":"70601"}},{"arcs":[[539,540,541,-536,542,543]],"type":"Polygon","properties":{"state":"LA","name":"LAKE CHARLES","zip":"70605"}},{"arcs":[[544,545,546,-543,-535,547,548]],"type":"Polygon","properties":{"state":"LA","name":"LAKE CHARLES","zip":"70607"}},{"arcs":[[549,-538,550,551,552,553,554,555]],"type":"Polygon","properties":{"state":"LA","name":"LAKE CHARLES","zip":"70611"}},{"arcs":[[556,-548,-539,-550]],"type":"Polygon","properties":{"state":"LA","name":"LAKE CHARLES","zip":"70615"}},{"arcs":[[557,-545,558,-491,559]],"type":"Polygon","properties":{"state":"LA","name":"BELL CITY","zip":"70630"}},{"arcs":[[560,561,562,563,564,565,-546,-558,566,-494,-466]],"type":"Polygon","properties":{"state":"LA","name":"CAMERON","zip":"70631"}},{"arcs":[[-562,567,568]],"type":"Polygon","properties":{"state":"LA","name":"CREOLE","zip":"70632"}},{"arcs":[[569,570,571,572,-553,573,574]],"type":"Polygon","properties":{"state":"LA","name":"DEQUINCY","zip":"70633"}},{"arcs":[[575,576,577,578,579,580,581,582]],"type":"Polygon","properties":{"state":"LA","name":"DERIDDER","zip":"70634"}},{"arcs":[[583,584,585,-576,586,587,588]],"type":"Polygon","properties":{"state":"LA","name":"DRY CREEK","zip":"70637"}},{"arcs":[[589,590,-580]],"type":"Polygon","properties":{"state":"LA","name":"EVANS","zip":"70639"}},{"arcs":[[-561,-465,591,-471,-483,592,-488,593,-568]],"type":"Polygon","properties":{"state":"LA","name":"GRAND CHENIER","zip":"70643"}},{"arcs":[[-565,594,595,-540,596]],"type":"Polygon","properties":{"state":"LA","name":"HACKBERRY","zip":"70645"}},{"arcs":[[-557,-556,597,-533,-492,-559,-549]],"type":"Polygon","properties":{"state":"LA","name":"IOWA","zip":"70647"}},{"arcs":[[598,599,-589,600,601,-451,-480,-534,-598,-555]],"type":"Polygon","properties":{"state":"LA","name":"KINDER","zip":"70648"}},{"arcs":[[-490,-567,-560]],"type":"Polygon","properties":{"state":"LA","name":"LACASSINE","zip":"70650"}},{"arcs":[[602,-572,603,-577,-586]],"type":"Polygon","properties":{"state":"LA","name":"LONGVILLE","zip":"70652"}},{"arcs":[[604,-579,605]],"type":"Polygon","properties":{"state":"LA","name":"MERRYVILLE","zip":"70653"}},{"arcs":[[606,607,-601,-588,608,609]],"type":"Polygon","properties":{"state":"LA","name":"MITTIE","zip":"70654"}},{"arcs":[[-416,-452,-602,-608,610,-497]],"type":"Polygon","properties":{"state":"LA","name":"OBERLIN","zip":"70655"}},{"arcs":[[611,-582,612,613,614,615,616,617,-610]],"type":"Polygon","properties":{"state":"LA","name":"PITKIN","zip":"70656"}},{"arcs":[[-603,-585,618,-599,-554,-573]],"type":"Polygon","properties":{"state":"LA","name":"RAGLEY","zip":"70657"}},{"arcs":[[-619,-584,-600]],"type":"Polygon","properties":{"state":"LA","name":"REEVES","zip":"70658"}},{"arcs":[[619,620,-606,-578,-604,-571]],"type":"Polygon","properties":{"state":"LA","name":"SINGER","zip":"70660"}},{"arcs":[[621,-620,-570,622]],"type":"Polygon","properties":{"state":"LA","name":"STARKS","zip":"70661"}},{"arcs":[[-587,-583,-612,-609]],"type":"Polygon","properties":{"state":"LA","name":"SUGARTOWN","zip":"70662"}},{"arcs":[[623,624,-574,-552,625]],"type":"Polygon","properties":{"state":"LA","name":"SULPHUR","zip":"70663"}},{"arcs":[[626,-624,627,-541,-596]],"type":"Polygon","properties":{"state":"LA","name":"SULPHUR","zip":"70665"}},{"arcs":[[-564,628,-623,-575,-625,-627,-595]],"type":"Polygon","properties":{"state":"LA","name":"VINTON","zip":"70668"}},{"arcs":[[-628,-626,-551,-537,-542]],"type":"Polygon","properties":{"state":"LA","name":"WESTLAKE","zip":"70669"}},{"arcs":[[629,630,-296,631,632]],"type":"Polygon","properties":{"state":"LA","name":"DENHAM SPRINGS","zip":"70706"}},{"arcs":[[633,634,635,636]],"type":"Polygon","properties":{"state":"LA","name":"ADDIS","zip":"70710"}},{"arcs":[[637,-338,-378,-278,-282]],"type":"Polygon","properties":{"state":"LA","name":"ALBANY","zip":"70711"}},{"arcs":[[638,639]],"type":"Polygon","properties":{"state":"LA","name":"ANGOLA","zip":"70712"}},{"arcs":[[640,641,642,643,644]],"type":"Polygon","properties":{"state":"LA","name":"BAKER","zip":"70714"}},{"arcs":[[645,646,647,648,649,650,651,652]],"type":"Polygon","properties":{"state":"LA","name":"BATCHELOR","zip":"70715"}},{"arcs":[[653,654,655,656]],"type":"Polygon","properties":{"state":"LA","name":"BLANKS","zip":"70717"}},{"arcs":[[657,658,659,-636]],"type":"Polygon","properties":{"state":"LA","name":"BRUSLY","zip":"70719"}},{"arcs":[[660,661,662,663]],"type":"Polygon","properties":{"state":"LA","name":"BUECHE","zip":"70720"}},{"arcs":[[664,665,666]],"type":"Polygon","properties":{"state":"LA","name":"CARVILLE","zip":"70721"}},{"arcs":[[667,668,669,670,671,-333,-298]],"type":"Polygon","properties":{"state":"LA","name":"CLINTON","zip":"70722"}},{"arcs":[[672,673,674,675]],"type":"Polygon","properties":{"state":"LA","name":"CONVENT","zip":"70723"}},{"arcs":[[676,677,678,-675,679]],"type":"Polygon","properties":{"state":"LA","name":"DARROW","zip":"70725"}},{"arcs":[[680,681,682,683,-633,684,685,686,687]],"type":"Polygon","properties":{"state":"LA","name":"DENHAM SPRINGS","zip":"70726"}},{"arcs":[[688,689,690]],"type":"Polygon","properties":{"state":"LA","name":"ERWINVILLE","zip":"70729"}},{"arcs":[[691,692,-670,693]],"type":"Polygon","properties":{"state":"LA","name":"ETHEL","zip":"70730"}},{"arcs":[[694,-655,695,696,697]],"type":"Polygon","properties":{"state":"LA","name":"FORDOCHE","zip":"70732"}},{"arcs":[[698,699,-687,700,-357]],"type":"Polygon","properties":{"state":"LA","name":"FRENCH SETTLEMENT","zip":"70733"}},{"arcs":[[701,-677,702,-666,703,704]],"type":"Polygon","properties":{"state":"LA","name":"GEISMAR","zip":"70734"}},{"arcs":[[705,706,707,-662]],"type":"Polygon","properties":{"state":"LA","name":"GLYNN","zip":"70736"}},{"arcs":[[708,-678,-702,709,710]],"type":"Polygon","properties":{"state":"LA","name":"GONZALES","zip":"70737"}},{"arcs":[[711,712,713,-630,-684,714]],"type":"Polygon","properties":{"state":"LA","name":"GREENWELL SPRINGS","zip":"70739"}},{"arcs":[[715,716,717,-658,-635,718,-520]],"type":"Polygon","properties":{"state":"LA","name":"GROSSE TETE","zip":"70740"}},{"arcs":[[-376,719,720,-293,-339,-638,-281]],"type":"Polygon","properties":{"state":"LA","name":"HOLDEN","zip":"70744"}},{"arcs":[[721,722,723,724,725,726,727,-692]],"type":"Polygon","properties":{"state":"LA","name":"JACKSON","zip":"70748"}},{"arcs":[[728,729,730,-707,731,732]],"type":"Polygon","properties":{"state":"LA","name":"JARREAU","zip":"70749"}},{"arcs":[[733,734,-690,735,736,-733]],"type":"Polygon","properties":{"state":"LA","name":"LAKELAND","zip":"70752"}},{"arcs":[[737,738,739,740,-650]],"type":"Polygon","properties":{"state":"LA","name":"LETTSWORTH","zip":"70753"}},{"arcs":[[-358,-701,-686,741,-720,-375]],"type":"Polygon","properties":{"state":"LA","name":"LIVINGSTON","zip":"70754"}},{"arcs":[[-695,742,743,744,745,746,747,-656]],"type":"Polygon","properties":{"state":"LA","name":"LIVONIA","zip":"70755"}},{"arcs":[[748,-518,749,-696,-654]],"type":"Polygon","properties":{"state":"LA","name":"LOTTIE","zip":"70756"}},{"arcs":[[750,-716,-519,-749,-657,-748,751,752]],"type":"Polygon","properties":{"state":"LA","name":"MARINGOUIN","zip":"70757"}},{"arcs":[[-698,753,-647,754,-743]],"type":"Polygon","properties":{"state":"LA","name":"MORGANZA","zip":"70759"}},{"arcs":[[755,-744,-755,-646,756]],"type":"Polygon","properties":{"state":"LA","name":"NEW ROADS","zip":"70760"}},{"arcs":[[757,-334,-672,758,-727]],"type":"Polygon","properties":{"state":"LA","name":"NORWOOD","zip":"70761"}},{"arcs":[[759,-729,-737,760,-746]],"type":"Polygon","properties":{"state":"LA","name":"OSCAR","zip":"70762"}},{"arcs":[[761,-676,762,763,-85,-116,764]],"type":"Polygon","properties":{"state":"LA","name":"PAULINA","zip":"70763"}},{"arcs":[[-719,-634,765,766,-521]],"type":"Polygon","properties":{"state":"LA","name":"PLAQUEMINE","zip":"70764"}},{"arcs":[[767,-753,768,-691,-735,769,-664,770,-659,-718]],"type":"Polygon","properties":{"state":"LA","name":"PORT ALLEN","zip":"70767"}},{"arcs":[[771,-710,-705,772,773,774,775,-688,-700]],"type":"Polygon","properties":{"state":"LA","name":"PRAIRIEVILLE","zip":"70769"}},{"arcs":[[776,777,-668,-297,-631,-714,778]],"type":"Polygon","properties":{"state":"LA","name":"PRIDE","zip":"70770"}},{"arcs":[[-768,-717,-751]],"type":"Polygon","properties":{"state":"LA","name":"ROSEDALE","zip":"70772"}},{"arcs":[[-734,-732,-706,-661,-770]],"type":"Polygon","properties":{"state":"LA","name":"ROUGON","zip":"70773"}},{"arcs":[[-764,779,-711,-772,-699,-356,-78,-86]],"type":"Polygon","properties":{"state":"LA","name":"SAINT AMANT","zip":"70774"}},{"arcs":[[[-639,780,-725,781]],[[-652,782]]],"type":"MultiPolygon","properties":{"state":"LA","name":"SAINT FRANCISVILLE","zip":"70775"}},{"arcs":[[-665,783,784,785,-773,-704]],"type":"Polygon","properties":{"state":"LA","name":"SAINT GABRIEL","zip":"70776"}},{"arcs":[[786,-722,-694,-669,-778]],"type":"Polygon","properties":{"state":"LA","name":"SLAUGHTER","zip":"70777"}},{"arcs":[[-679,-709,-780,-763]],"type":"Polygon","properties":{"state":"LA","name":"SORRENTO","zip":"70778"}},{"arcs":[[787,-785,788]],"type":"Polygon","properties":{"state":"LA","name":"SUNSHINE","zip":"70780"}},{"arcs":[[-761,-736,-689,-769,-752,-747]],"type":"Polygon","properties":{"state":"LA","name":"TORBERT","zip":"70781"}},{"arcs":[[-760,-745,-756,789,-730]],"type":"Polygon","properties":{"state":"LA","name":"VENTRESS","zip":"70783"}},{"arcs":[[-295,-366,-721,-742,-685,-632]],"type":"Polygon","properties":{"state":"LA","name":"WALKER","zip":"70785"}},{"arcs":[[-212,-478,-516,-767,790,-234,-215]],"type":"Polygon","properties":{"state":"LA","name":"WHITE CASTLE","zip":"70788"}},{"arcs":[[-693,-728,-759,-671]],"type":"Polygon","properties":{"state":"LA","name":"WILSON","zip":"70789"}},{"arcs":[[791,-645,792,-723,-787,-777]],"type":"Polygon","properties":{"state":"LA","name":"ZACHARY","zip":"70791"}},{"arcs":[[-762,793,-673]],"type":"Polygon","properties":{"state":"LA","name":"UNCLE SAM","zip":"70792"}},{"arcs":[[794,795,796,797,798]],"type":"Polygon","properties":{"state":"LA","name":"BATON ROUGE","zip":"70802"}},{"arcs":[[799,800,801,-798]],"type":"Polygon","properties":{"state":"LA","name":"BATON ROUGE","zip":"70803"}},{"arcs":[[802,-795,803,804,805,806,807]],"type":"Polygon","properties":{"state":"LA","name":"BATON ROUGE","zip":"70805"}},{"arcs":[[808,809,810,-796,-803]],"type":"Polygon","properties":{"state":"LA","name":"BATON ROUGE","zip":"70806"}},{"arcs":[[-643,811,-805,812]],"type":"Polygon","properties":{"state":"LA","name":"BATON ROUGE","zip":"70807"}},{"arcs":[[813,814,815,-800,-797,-811]],"type":"Polygon","properties":{"state":"LA","name":"BATON ROUGE","zip":"70808"}},{"arcs":[[816,-775,817,-814,-810,818,819]],"type":"Polygon","properties":{"state":"LA","name":"BATON ROUGE","zip":"70809"}},{"arcs":[[820,-815,-818,-774,-786,-788,821]],"type":"Polygon","properties":{"state":"LA","name":"BATON ROUGE","zip":"70810"}},{"arcs":[[822,823,824,-806,-812,-642]],"type":"Polygon","properties":{"state":"LA","name":"BATON ROUGE","zip":"70811"}},{"arcs":[[-825,825,-807]],"type":"Polygon","properties":{"state":"LA","name":"BATON ROUGE","zip":"70812"}},{"arcs":[[826,827,-808,-826,-824,828,-712]],"type":"Polygon","properties":{"state":"LA","name":"BATON ROUGE","zip":"70814"}},{"arcs":[[-809,-828,829,830,-819]],"type":"Polygon","properties":{"state":"LA","name":"BATON ROUGE","zip":"70815"}},{"arcs":[[-831,831,-682,832,-820]],"type":"Polygon","properties":{"state":"LA","name":"BATON ROUGE","zip":"70816"}},{"arcs":[[-833,-681,-776,-817]],"type":"Polygon","properties":{"state":"LA","name":"BATON ROUGE","zip":"70817"}},{"arcs":[[-829,-823,-641,-792,-779,-713]],"type":"Polygon","properties":{"state":"LA","name":"BATON ROUGE","zip":"70818"}},{"arcs":[[-827,-715,-683,-832,-830]],"type":"Polygon","properties":{"state":"LA","name":"BATON ROUGE","zip":"70819"}},{"arcs":[[-801,-816,-821,833]],"type":"Polygon","properties":{"state":"LA","name":"BATON ROUGE","zip":"70820"}},{"arcs":[[834,835,836,837,838,839,840]],"type":"Polygon","properties":{"state":"LA","name":"ARCADIA","zip":"71001"}},{"arcs":[[841,842,843,-839]],"type":"Polygon","properties":{"state":"LA","name":"ATHENS","zip":"71003"}},{"arcs":[[844,845,846,847,848,849,850]],"type":"Polygon","properties":{"state":"LA","name":"BELCHER","zip":"71004"}},{"arcs":[[851,-851,852,853,854,855,856,857]],"type":"Polygon","properties":{"state":"LA","name":"BENTON","zip":"71006"}},{"arcs":[[858,859,860,861]],"type":"Polygon","properties":{"state":"LA","name":"BETHANY","zip":"71007"}},{"arcs":[[862,863,864,865,-837,866]],"type":"Polygon","properties":{"state":"LA","name":"BIENVILLE","zip":"71008"}},{"arcs":[[867,868,869,870,871,-865]],"type":"Polygon","properties":{"state":"LA","name":"CASTOR","zip":"71016"}},{"arcs":[[872,873,874,-854]],"type":"Polygon","properties":{"state":"LA","name":"COTTON VALLEY","zip":"71018"}},{"arcs":[[875,876,877,878,879,880,881,882,883,884,885,-869,886]],"type":"Polygon","properties":{"state":"LA","name":"COUSHATTA","zip":"71019"}},{"arcs":[[887,888,889,890,891,892]],"type":"Polygon","properties":{"state":"LA","name":"DOYLINE","zip":"71023"}},{"arcs":[[893,894,895,896,897]],"type":"Polygon","properties":{"state":"LA","name":"DUBBERLY","zip":"71024"}},{"arcs":[[898,899,900,901,902,-882]],"type":"Polygon","properties":{"state":"LA","name":"FRIERSON","zip":"71027"}},{"arcs":[[903,-842,-838,-866,-872,904,-894]],"type":"Polygon","properties":{"state":"LA","name":"GIBSLAND","zip":"71028"}},{"arcs":[[905,-849,906,907,908]],"type":"Polygon","properties":{"state":"LA","name":"GILLIAM","zip":"71029"}},{"arcs":[[909,910,911,-901]],"type":"Polygon","properties":{"state":"LA","name":"GLOSTER","zip":"71030"}},{"arcs":[[912,913,914,915,916]],"type":"Polygon","properties":{"state":"LA","name":"GOLDONNA","zip":"71031"}},{"arcs":[[917,918,919,-910,-900]],"type":"Polygon","properties":{"state":"LA","name":"GRAND CANE","zip":"71032"}},{"arcs":[[920,921,922,-861]],"type":"Polygon","properties":{"state":"LA","name":"GREENWOOD","zip":"71033"}},{"arcs":[[923,924,925,-857,926,927,-891,928]],"type":"Polygon","properties":{"state":"LA","name":"HAUGHTON","zip":"71037"}},{"arcs":[[929,930,931,932,933,934,935,936,937,938]],"type":"Polygon","properties":{"state":"LA","name":"HAYNESVILLE","zip":"71038"}},{"arcs":[[939,940,-888,941,-896]],"type":"Polygon","properties":{"state":"LA","name":"HEFLIN","zip":"71039"}},{"arcs":[[-844,942,-932,943,944,945,-840]],"type":"Polygon","properties":{"state":"LA","name":"HOMER","zip":"71040"}},{"arcs":[[946,947,-908]],"type":"Polygon","properties":{"state":"LA","name":"HOSSTON","zip":"71043"}},{"arcs":[[-948,948,949,950,951,-909]],"type":"Polygon","properties":{"state":"LA","name":"IDA","zip":"71044"}},{"arcs":[[952,-940,-895,-905,-871]],"type":"Polygon","properties":{"state":"LA","name":"JAMESTOWN","zip":"71045"}},{"arcs":[[953,954,955,-911,-920,956]],"type":"Polygon","properties":{"state":"LA","name":"KEATCHIE","zip":"71046"}},{"arcs":[[957,-955,958,-859,959,960,961]],"type":"Polygon","properties":{"state":"LA","name":"KEITHVILLE","zip":"71047"}},{"arcs":[[-931,962,-944]],"type":"Polygon","properties":{"state":"LA","name":"LISBON","zip":"71048"}},{"arcs":[[963,964,-957,-919]],"type":"Polygon","properties":{"state":"LA","name":"LOGANSPORT","zip":"71049"}},{"arcs":[[965,966,-929,-890,967,-885]],"type":"Polygon","properties":{"state":"LA","name":"ELM GROVE","zip":"71051"}},{"arcs":[[968,969,970,-964,-918,-899,-881]],"type":"Polygon","properties":{"state":"LA","name":"MANSFIELD","zip":"71052"}},{"arcs":[[971,-892,-928,972,-855,-875,973,974,-933,-943,-843,-904,-898]],"type":"Polygon","properties":{"state":"LA","name":"MINDEN","zip":"71055"}},{"arcs":[[975,976,977,-846,978,979]],"type":"Polygon","properties":{"state":"LA","name":"MOORINGSPORT","zip":"71060"}},{"arcs":[[980,-847,-978]],"type":"Polygon","properties":{"state":"LA","name":"OIL CITY","zip":"71061"}},{"arcs":[[981,982,983,-969,-880]],"type":"Polygon","properties":{"state":"LA","name":"PELICAN","zip":"71063"}},{"arcs":[[-906,-952,984,985,986,-873,-853,-850]],"type":"Polygon","properties":{"state":"LA","name":"PLAIN DEALING","zip":"71064"}},{"arcs":[[987,988,989,-983]],"type":"Polygon","properties":{"state":"LA","name":"PLEASANT HILL","zip":"71065"}},{"arcs":[[-856,-973,-927]],"type":"Polygon","properties":{"state":"LA","name":"PRINCETON","zip":"71067"}},{"arcs":[[-886,-968,-889,-941,-953,-870]],"type":"Polygon","properties":{"state":"LA","name":"RINGGOLD","zip":"71068"}},{"arcs":[[990,991,-950]],"type":"Polygon","properties":{"state":"LA","name":"RODESSA","zip":"71069"}},{"arcs":[[-868,-864,992,-915,993,-887]],"type":"Polygon","properties":{"state":"LA","name":"SALINE","zip":"71070"}},{"arcs":[[-874,-987,994,995,-974]],"type":"Polygon","properties":{"state":"LA","name":"SAREPTA","zip":"71071"}},{"arcs":[[-975,-996,996,997,-934]],"type":"Polygon","properties":{"state":"LA","name":"SHONGALOO","zip":"71072"}},{"arcs":[[-893,-972,-897,-942]],"type":"Polygon","properties":{"state":"LA","name":"SIBLEY","zip":"71073"}},{"arcs":[[-986,998,-997,-995]],"type":"Polygon","properties":{"state":"LA","name":"SPRINGHILL","zip":"71075"}},{"arcs":[[-956,-958,999,-902,-912]],"type":"Polygon","properties":{"state":"LA","name":"STONEWALL","zip":"71078"}},{"arcs":[[1000,-939]],"type":"Polygon","properties":{"state":"LA","name":"SUMMERFIELD","zip":"71079"}},{"arcs":[[-977,1001,-991,-949,-947,-907,-848,-981]],"type":"Polygon","properties":{"state":"LA","name":"VIVIAN","zip":"71082"}},{"arcs":[[1002,1003,1004,1005,1006]],"type":"Polygon","properties":{"state":"LA","name":"SHREVEPORT","zip":"71101"}},{"arcs":[[1007,1008,1009,-1003,1010,1011]],"type":"Polygon","properties":{"state":"LA","name":"SHREVEPORT","zip":"71103"}},{"arcs":[[-1007,1012,1013,1014,-1011]],"type":"Polygon","properties":{"state":"LA","name":"SHREVEPORT","zip":"71104"}},{"arcs":[[1015,-1014,1016,1017]],"type":"Polygon","properties":{"state":"LA","name":"SHREVEPORT","zip":"71105"}},{"arcs":[[1018,-883,-903,-1000,-962,1019,1020,-1015,-1016]],"type":"Polygon","properties":{"state":"LA","name":"SHREVEPORT","zip":"71106"}},{"arcs":[[-1010,1021,-979,-845,-852,1022,-1004]],"type":"Polygon","properties":{"state":"LA","name":"SHREVEPORT","zip":"71107"}},{"arcs":[[1023,-1012,-1021,1024]],"type":"Polygon","properties":{"state":"LA","name":"SHREVEPORT","zip":"71108"}},{"arcs":[[1025,1026,-1008,-1024]],"type":"Polygon","properties":{"state":"LA","name":"SHREVEPORT","zip":"71109"}},{"arcs":[[1027,1028,-925]],"type":"Polygon","properties":{"state":"LA","name":"BARKSDALE AFB","zip":"71110"}},{"arcs":[[-858,-926,-1029,1029,-1005,-1023]],"type":"Polygon","properties":{"state":"LA","name":"BOSSIER CITY","zip":"71111"}},{"arcs":[[-967,1030,-1017,-1013,-1006,-1030,-1028,-924]],"type":"Polygon","properties":{"state":"LA","name":"BOSSIER CITY","zip":"71112"}},{"arcs":[[-884,-1019,-1018,-1031,-966]],"type":"Polygon","properties":{"state":"LA","name":"SHREVEPORT","zip":"71115"}},{"arcs":[[-961,1031,-1025,-1020]],"type":"Polygon","properties":{"state":"LA","name":"SHREVEPORT","zip":"71118"}},{"arcs":[[1032,-922,1033,-980,-1022,-1009,-1027]],"type":"Polygon","properties":{"state":"LA","name":"SHREVEPORT","zip":"71119"}},{"arcs":[[-1033,-1026,-1032,-960,-862,-923]],"type":"Polygon","properties":{"state":"LA","name":"SHREVEPORT","zip":"71129"}},{"arcs":[[1034,1035,1036,1037]],"type":"Polygon","properties":{"state":"LA","name":"MONROE","zip":"71201"}},{"arcs":[[1038,-1035,1039,1040,1041]],"type":"Polygon","properties":{"state":"LA","name":"MONROE","zip":"71202"}},{"arcs":[[1042,1043,-1040,-1038,1044,1045,1046,1047,1048]],"type":"Polygon","properties":{"state":"LA","name":"MONROE","zip":"71203"}},{"arcs":[[1049,1050,1051,1052]],"type":"Polygon","properties":{"state":"LA","name":"BASKIN","zip":"71219"}},{"arcs":[[1053,1054,1055,-1048,1056,1057,1058,1059,1060,1061]],"type":"Polygon","properties":{"state":"LA","name":"BASTROP","zip":"71220"}},{"arcs":[[-963,-930,-1001,-938,1062,1063,1064,1065,-945]],"type":"Polygon","properties":{"state":"LA","name":"BERNICE","zip":"71222"}},{"arcs":[[1066,-1062,1067]],"type":"Polygon","properties":{"state":"LA","name":"BONITA","zip":"71223"}},{"arcs":[[1068,1069,1070,1071,1072]],"type":"Polygon","properties":{"state":"LA","name":"CALHOUN","zip":"71225"}},{"arcs":[[1073,1074,1075,1076,1077,1078,1079]],"type":"Polygon","properties":{"state":"LA","name":"CHATHAM","zip":"71226"}},{"arcs":[[1080,-1076,1081,1082,1083,1084,1085,-1071]],"type":"Polygon","properties":{"state":"LA","name":"CHOUDRANT","zip":"71227"}},{"arcs":[[-1056,1086,-1049]],"type":"Polygon","properties":{"state":"LA","name":"COLLINSTON","zip":"71229"}},{"arcs":[[1087,1088,1089,1090,1091,-1052]],"type":"Polygon","properties":{"state":"LA","name":"DELHI","zip":"71232"}},{"arcs":[[1092,1093,-1072,-1086]],"type":"Polygon","properties":{"state":"LA","name":"DOWNSVILLE","zip":"71234"}},{"arcs":[[1094,-841,-946,-1066,1095,-1084,1096]],"type":"Polygon","properties":{"state":"LA","name":"DUBACH","zip":"71235"}},{"arcs":[[1097,1098,1099,1100,-1089]],"type":"Polygon","properties":{"state":"LA","name":"EPPS","zip":"71237"}},{"arcs":[[1101,-1077,-1081,-1070,1102]],"type":"Polygon","properties":{"state":"LA","name":"EROS","zip":"71238"}},{"arcs":[[-1096,-1065,1103,1104,-1058,1105,-1046,1106,-1093,-1085]],"type":"Polygon","properties":{"state":"LA","name":"FARMERVILLE","zip":"71241"}},{"arcs":[[1107,1108,1109]],"type":"Polygon","properties":{"state":"LA","name":"FORT NECESSITY","zip":"71243"}},{"arcs":[[1110,1111,-1068,-1061,1112]],"type":"Polygon","properties":{"state":"LA","name":"JONES","zip":"71250"}},{"arcs":[[1113,1114,-993,-863,1115,-1074]],"type":"Polygon","properties":{"state":"LA","name":"JONESBORO","zip":"71251"}},{"arcs":[[1116,1117,1118,1119]],"type":"Polygon","properties":{"state":"LA","name":"LAKE PROVIDENCE","zip":"71254"}},{"arcs":[[1120,1121,-1063,-937]],"type":"Polygon","properties":{"state":"LA","name":"LILLIE","zip":"71256"}},{"arcs":[[1122,1123,1124,-1050]],"type":"Polygon","properties":{"state":"LA","name":"MANGHAM","zip":"71259"}},{"arcs":[[-1105,1125,1126,-1059]],"type":"Polygon","properties":{"state":"LA","name":"MARION","zip":"71260"}},{"arcs":[[-1067,-1112,1127,1128,1129,-1054]],"type":"Polygon","properties":{"state":"LA","name":"MER ROUGE","zip":"71261"}},{"arcs":[[-1111,1130,-1118,1131,-1128]],"type":"Polygon","properties":{"state":"LA","name":"OAK GROVE","zip":"71263"}},{"arcs":[[-1055,-1130,1132,1133,-1043,-1087]],"type":"Polygon","properties":{"state":"LA","name":"OAK RIDGE","zip":"71264"}},{"arcs":[[1134,-1133,-1129,-1132,-1117,1135,-1099]],"type":"Polygon","properties":{"state":"LA","name":"PIONEER","zip":"71266"}},{"arcs":[[-1116,-867,-836,1136,1137,-1082,-1075]],"type":"Polygon","properties":{"state":"LA","name":"QUITMAN","zip":"71268"}},{"arcs":[[-1044,-1134,-1135,-1098,-1088,-1051,-1125,1138,-1041]],"type":"Polygon","properties":{"state":"LA","name":"RAYVILLE","zip":"71269"}},{"arcs":[[1139,-1097,-1083,-1138]],"type":"Polygon","properties":{"state":"LA","name":"RUSTON","zip":"71270"}},{"arcs":[[-1137,-835,-1095,-1140]],"type":"Polygon","properties":{"state":"LA","name":"SIMSBORO","zip":"71275"}},{"arcs":[[[1140]],[[-1101,1141,1142,1143,-1090]]],"type":"MultiPolygon","properties":{"state":"LA","name":"SONDHEIMER","zip":"71276"}},{"arcs":[[1144,1145,-1126,-1104,-1064,-1122]],"type":"Polygon","properties":{"state":"LA","name":"SPEARSVILLE","zip":"71277"}},{"arcs":[[-1106,-1057,-1047]],"type":"Polygon","properties":{"state":"LA","name":"STERLINGTON","zip":"71280"}},{"arcs":[[[1146,1147,-1091,-1144,1148]],[[1149]],[[1150]]],"type":"MultiPolygon","properties":{"state":"LA","name":"TALLULAH","zip":"71282"}},{"arcs":[[-1100,-1136,-1120,1151,-1142]],"type":"Polygon","properties":{"state":"LA","name":"TRANSYLVANIA","zip":"71286"}},{"arcs":[[-1094,-1107,-1045,-1037,1152,-1073]],"type":"Polygon","properties":{"state":"LA","name":"WEST MONROE","zip":"71291"}},{"arcs":[[-1069,-1153,-1036,-1039,1153,-1103]],"type":"Polygon","properties":{"state":"LA","name":"WEST MONROE","zip":"71292"}},{"arcs":[[1154,1155,-1123,-1053,-1092,-1148,1156,1157,1158,-1109,1159]],"type":"Polygon","properties":{"state":"LA","name":"WINNSBORO","zip":"71295"}},{"arcs":[[1160,1161,1162,1163,1164]],"type":"Polygon","properties":{"state":"LA","name":"ALEXANDRIA","zip":"71301"}},{"arcs":[[1165,1166,1167,-1165]],"type":"Polygon","properties":{"state":"LA","name":"ALEXANDRIA","zip":"71302"}},{"arcs":[[1168,1169,1170,1171,-1163]],"type":"Polygon","properties":{"state":"LA","name":"ALEXANDRIA","zip":"71303"}},{"arcs":[[1172,1173,1174]],"type":"Polygon","properties":{"state":"LA","name":"ACME","zip":"71316"}},{"arcs":[[1175,1176,1177,1178,1179,1180,-530,-527]],"type":"Polygon","properties":{"state":"LA","name":"BUNKIE","zip":"71322"}},{"arcs":[[1181,1182,1183]],"type":"Polygon","properties":{"state":"LA","name":"CENTER POINT","zip":"71323"}},{"arcs":[[1184,-525,1185,1186,1187,-1177]],"type":"Polygon","properties":{"state":"LA","name":"CHENEYVILLE","zip":"71325"}},{"arcs":[[1188,1189,1190,1191,1192]],"type":"Polygon","properties":{"state":"LA","name":"CLAYTON","zip":"71326"}},{"arcs":[[1193,1194,1195,1196,1197,-1179]],"type":"Polygon","properties":{"state":"LA","name":"COTTONPORT","zip":"71327"}},{"arcs":[[1198,1199,1200,1201,-1183]],"type":"Polygon","properties":{"state":"LA","name":"DEVILLE","zip":"71328"}},{"arcs":[[-1202,1202,1203,1204,1205,-1184]],"type":"Polygon","properties":{"state":"LA","name":"EFFIE","zip":"71331"}},{"arcs":[[-1198,1206,1207,-1180]],"type":"Polygon","properties":{"state":"LA","name":"EVERGREEN","zip":"71333"}},{"arcs":[[1208,1209,1210,1211,-1193,1212,1213]],"type":"Polygon","properties":{"state":"LA","name":"FERRIDAY","zip":"71334"}},{"arcs":[[1214,-1190,1215,1216,-1158,1217]],"type":"Polygon","properties":{"state":"LA","name":"GILBERT","zip":"71336"}},{"arcs":[[1218,1219,1220,1221,1222,-1160,-1108,1223]],"type":"Polygon","properties":{"state":"LA","name":"HARRISONBURG","zip":"71340"}},{"arcs":[[1224,-1194,-1178,1225]],"type":"Polygon","properties":{"state":"LA","name":"HESSMER","zip":"71341"}},{"arcs":[[1226,1227,1228,-1221,1229,-1203,-1201]],"type":"Polygon","properties":{"state":"LA","name":"JENA","zip":"71342"}},{"arcs":[[1230,-1204,-1230,-1220,1231,-1211,1232,-1174]],"type":"Polygon","properties":{"state":"LA","name":"JONESVILLE","zip":"71343"}},{"arcs":[[1233,-1187,1234,1235,-1161,-1168]],"type":"Polygon","properties":{"state":"LA","name":"LECOMPTE","zip":"71346"}},{"arcs":[[1236,1237,-1195,-1225]],"type":"Polygon","properties":{"state":"LA","name":"MANSURA","zip":"71350"}},{"arcs":[[-1188,-1234,-1167,1238,-1205,-1231,-1173,1239,1240,-1237,-1226]],"type":"Polygon","properties":{"state":"LA","name":"MARKSVILLE","zip":"71351"}},{"arcs":[[-750,-517,-514,1241,1242,1243,-648,-754,-697]],"type":"Polygon","properties":{"state":"LA","name":"MELVILLE","zip":"71353"}},{"arcs":[[1244,-1240,-1175,-1233,-1210,1245,1246,-740],[1247]],"type":"Polygon","properties":{"state":"LA","name":"MONTEREY","zip":"71354"}},{"arcs":[[1248,-1196,-1238,-1241,-1245,-739,1249]],"type":"Polygon","properties":{"state":"LA","name":"MOREAUVILLE","zip":"71355"}},{"arcs":[[1250,-531,-1181,-1208]],"type":"Polygon","properties":{"state":"LA","name":"MORROW","zip":"71356"}},{"arcs":[[[1251,-1218,-1157,-1147,1252]],[[1253]],[[1254]]],"type":"MultiPolygon","properties":{"state":"LA","name":"NEWELLTON","zip":"71357"}},{"arcs":[[1255,-1242,-513,-529]],"type":"Polygon","properties":{"state":"LA","name":"PALMETTO","zip":"71358"}},{"arcs":[[-1206,-1239,-1166,-1164,-1172,1256,1257,1258,1259,-1199,-1182]],"type":"Polygon","properties":{"state":"LA","name":"PINEVILLE","zip":"71360"}},{"arcs":[[-1256,-532,-1251,-1207,-1197,-1249,1260,-1243]],"type":"Polygon","properties":{"state":"LA","name":"PLAUCHEVILLE","zip":"71362"}},{"arcs":[[1261,-1191,-1215,-1252,1262]],"type":"Polygon","properties":{"state":"LA","name":"SAINT JOSEPH","zip":"71366"}},{"arcs":[[-1185,-1176,-526]],"type":"Polygon","properties":{"state":"LA","name":"SAINT LANDRY","zip":"71367"}},{"arcs":[[-1212,-1232,-1219,1263,-1216,-1189]],"type":"Polygon","properties":{"state":"LA","name":"SICILY ISLAND","zip":"71368"}},{"arcs":[[-1261,-1250,-738,-649,-1244]],"type":"Polygon","properties":{"state":"LA","name":"SIMMESPORT","zip":"71369"}},{"arcs":[[1264,1265,1266,1267,-1228]],"type":"Polygon","properties":{"state":"LA","name":"TROUT","zip":"71371"}},{"arcs":[[-1209,1268,-1246]],"type":"Polygon","properties":{"state":"LA","name":"VIDALIA","zip":"71373"}},{"arcs":[[[-1213,-1192,-1262,1269]],[[1270]],[[1271]]],"type":"MultiPolygon","properties":{"state":"LA","name":"WATERPROOF","zip":"71375"}},{"arcs":[[-1224,-1110,-1159,-1217,-1264]],"type":"Polygon","properties":{"state":"LA","name":"WISNER","zip":"71378"}},{"arcs":[[1272,1273,1274,1275]],"type":"Polygon","properties":{"state":"LA","name":"ANACOCO","zip":"71403"}},{"arcs":[[1276,1277,1278,1279]],"type":"Polygon","properties":{"state":"LA","name":"ATLANTA","zip":"71404"}},{"arcs":[[1280,1281,-989,1282,1283]],"type":"Polygon","properties":{"state":"LA","name":"BELMONT","zip":"71406"}},{"arcs":[[1284,1285]],"type":"Polygon","properties":{"state":"LA","name":"BENTLEY","zip":"71407"}},{"arcs":[[1286,1287,1288,1289,-1257,-1171,1290,1291]],"type":"Polygon","properties":{"state":"LA","name":"BOYCE","zip":"71409"}},{"arcs":[[1292,-876,-994,-914]],"type":"Polygon","properties":{"state":"LA","name":"CAMPTI","zip":"71411"}},{"arcs":[[1293,1294,1295,1296,1297,1298]],"type":"Polygon","properties":{"state":"LA","name":"CLOUTIERVILLE","zip":"71416"}},{"arcs":[[1299,-1294,1300,1301,-1258,-1290]],"type":"Polygon","properties":{"state":"LA","name":"COLFAX","zip":"71417"}},{"arcs":[[-1156,1302,-1078,-1102,-1154,-1042,-1139,-1124]],"type":"Polygon","properties":{"state":"LA","name":"COLUMBIA","zip":"71418"}},{"arcs":[[1303,1304,1305,-970,-984,-990,-1282]],"type":"Polygon","properties":{"state":"LA","name":"CONVERSE","zip":"71419"}},{"arcs":[[1306,1307,-916,-1115]],"type":"Polygon","properties":{"state":"LA","name":"DODSON","zip":"71422"}},{"arcs":[[1308,-1259,-1302,1309,-1277,1310,1311,1312,-1286]],"type":"Polygon","properties":{"state":"LA","name":"DRY PRONG","zip":"71423"}},{"arcs":[[1313,1314,-1291,-1170,1315,1316,1317,1318]],"type":"Polygon","properties":{"state":"LA","name":"ELMER","zip":"71424"}},{"arcs":[[1319,1320,1321]],"type":"Polygon","properties":{"state":"LA","name":"FLATWOODS","zip":"71427"}},{"arcs":[[1322,-1274,1323,1324,1325,1326]],"type":"Polygon","properties":{"state":"LA","name":"FLORIEN","zip":"71429"}},{"arcs":[[-524,1327,-1317,1328,-1235,-1186]],"type":"Polygon","properties":{"state":"LA","name":"FOREST HILL","zip":"71430"}},{"arcs":[[1329,-1312,1330,1331,-1266]],"type":"Polygon","properties":{"state":"LA","name":"GEORGETOWN","zip":"71432"}},{"arcs":[[1332,-1318,-1328,-523,1333,-617]],"type":"Polygon","properties":{"state":"LA","name":"GLENMORA","zip":"71433"}},{"arcs":[[1334,1335,-1079,-1303,-1155,-1223]],"type":"Polygon","properties":{"state":"LA","name":"GRAYSON","zip":"71435"}},{"arcs":[[-616,1336,1337,-1319,-1333]],"type":"Polygon","properties":{"state":"LA","name":"HINESTON","zip":"71438"}},{"arcs":[[1338,-1275,-1323,1339]],"type":"Polygon","properties":{"state":"LA","name":"HORNBECK","zip":"71439"}},{"arcs":[[-1339,1340,1341,1342,-1288,1343,-1337,-615,1344,-613,-581,-591,-1276]],"type":"Polygon","properties":{"state":"LA","name":"LEESVILLE","zip":"71446"}},{"arcs":[[1345,-1320,1346,-1295,-1300,-1289,-1343]],"type":"Polygon","properties":{"state":"LA","name":"LENA","zip":"71447"}},{"arcs":[[1347,1348,-1284,1349,1350,-1325]],"type":"Polygon","properties":{"state":"LA","name":"MANY","zip":"71449"}},{"arcs":[[1351,-1350,-1283,-988,-982,-879]],"type":"Polygon","properties":{"state":"LA","name":"MARTHAVILLE","zip":"71450"}},{"arcs":[[-1301,-1299,1352,1353,-1278,-1310]],"type":"Polygon","properties":{"state":"LA","name":"MONTGOMERY","zip":"71454"}},{"arcs":[[-1342,1354,-1321,-1346]],"type":"Polygon","properties":{"state":"LA","name":"MORA","zip":"71455"}},{"arcs":[[1355,-1353,-1298]],"type":"Polygon","properties":{"state":"LA","name":"NATCHEZ","zip":"71456"}},{"arcs":[[1356,-877,-1293,-913,1357,-1279,-1354,-1356,-1297,1358]],"type":"Polygon","properties":{"state":"LA","name":"NATCHITOCHES","zip":"71457"}},{"arcs":[[-1345,-614]],"type":"Polygon","properties":{"state":"LA","name":"LEESVILLE","zip":"71459"}},{"arcs":[[1359,1360,-1305]],"type":"Polygon","properties":{"state":"LA","name":"NOBLE","zip":"71462"}},{"arcs":[[-618,-1334,-522,-498,-611,-607]],"type":"Polygon","properties":{"state":"LA","name":"OAKDALE","zip":"71463"}},{"arcs":[[-1229,-1268,1361,1362,1363,-1335,-1222]],"type":"Polygon","properties":{"state":"LA","name":"OLLA","zip":"71465"}},{"arcs":[[1364,-1292,-1315]],"type":"Polygon","properties":{"state":"LA","name":"OTIS","zip":"71466"}},{"arcs":[[-1260,-1309,-1285,-1313,-1330,-1265,-1227,-1200]],"type":"Polygon","properties":{"state":"LA","name":"POLLOCK","zip":"71467"}},{"arcs":[[1365,-1359,-1296,-1347,-1322,-1355,-1341,-1340,-1327]],"type":"Polygon","properties":{"state":"LA","name":"PROVENCAL","zip":"71468"}},{"arcs":[[-1352,-878,-1357,-1366,-1326,-1351]],"type":"Polygon","properties":{"state":"LA","name":"ROBELINE","zip":"71469"}},{"arcs":[[-1338,-1344,-1287,-1365,-1314]],"type":"Polygon","properties":{"state":"LA","name":"SIEPER","zip":"71472"}},{"arcs":[[-1114,-1080,-1336,-1364,1366,-1307]],"type":"Polygon","properties":{"state":"LA","name":"SIKES","zip":"71473"}},{"arcs":[[-1332,1367,-1362,-1267]],"type":"Polygon","properties":{"state":"LA","name":"TULLOS","zip":"71479"}},{"arcs":[[-1311,-1280,-1358,-917,-1308,-1367,-1363,-1368,-1331]],"type":"Polygon","properties":{"state":"LA","name":"WINNFIELD","zip":"71483"}},{"arcs":[[-1329,-1316,-1169,-1162,-1236]],"type":"Polygon","properties":{"state":"LA","name":"WOODWORTH","zip":"71485"}},{"arcs":[[-1360,-1304,-1281,-1349,1368]],"type":"Polygon","properties":{"state":"LA","name":"ZWOLLE","zip":"71486"}},{"arcs":[[1369,-1145,-1121,-936]],"type":"Polygon","properties":{"state":"LA","name":"JUNCTION CITY","zip":"71749"}}]}},"arcs":[[[25651,5002],[-167,102],[257,-8],[-90,-94]],[[27961,5310],[27,162],[-49,120],[49,-112],[-27,-170]],[[26930,5508],[-22,3]],[[26908,5511],[4,28]],[[26912,5539],[18,-3]],[[26930,5536],[27,0]],[[26957,5536],[14,-25]],[[26971,5511],[0,-6]],[[26971,5505],[-41,3]],[[26957,5556],[0,-20]],[[26930,5536],[-4,25]],[[26926,5561],[31,-5]],[[26885,5513],[5,33]],[[26890,5546],[9,26]],[[26899,5572],[9,-3]],[[26908,5569],[4,-30]],[[26908,5511],[-23,2]],[[26971,5513],[0,-2]],[[26957,5556],[18,5]],[[26975,5561],[-4,-48]],[[26908,5569],[18,-8]],[[26624,5279],[67,110]],[[26691,5389],[23,5]],[[26714,5394],[31,0]],[[26745,5394],[27,0]],[[26772,5394],[99,-92]],[[26871,5302],[-72,-76]],[[26799,5226],[-94,109],[-81,-56]],[[26853,5500],[77,-139]],[[26930,5361],[-59,-59]],[[26772,5394],[18,33]],[[26790,5427],[59,-16],[-41,56]],[[26808,5467],[45,33]],[[27097,5521],[-23,-43]],[[27074,5478],[-13,7]],[[27061,5485],[9,26]],[[27070,5511],[27,10]],[[26957,5272],[-13,-168]],[[26944,5104],[-23,109]],[[26921,5213],[0,3]],[[26921,5216],[27,56]],[[26948,5272],[9,0]],[[27097,5203],[-32,-51]],[[27065,5152],[-54,153]],[[27011,5305],[5,50]],[[27016,5355],[22,26]],[[27038,5381],[23,48]],[[27061,5429],[72,-28]],[[27133,5401],[-86,-89],[50,-109]],[[26745,5394],[-13,30]],[[26732,5424],[9,28]],[[26741,5452],[49,-25]],[[27538,4875],[-5,-8]],[[27533,4867],[-432,318],[-45,130],[90,89]],[[27146,5404],[315,-247]],[[27461,5157],[-175,-25],[252,-257]],[[27317,4819],[36,160]],[[27353,4979],[208,-165]],[[27561,4814],[-68,-107]],[[27493,4707],[-176,112]],[[27146,5539],[-31,-77]],[[27115,5462],[-41,16]],[[27097,5521],[13,-3]],[[27110,5518],[36,21]],[[26804,5592],[-5,-117]],[[26799,5475],[-36,41]],[[26763,5516],[32,78]],[[26795,5594],[9,-2]],[[26556,5424],[-22,148]],[[26534,5572],[162,-5]],[[26696,5567],[-45,-11]],[[26651,5556],[-5,-129]],[[26646,5427],[-90,-3]],[[26624,5638],[-14,-46]],[[26610,5592],[-27,-18]],[[26583,5574],[-31,38]],[[26552,5612],[18,97]],[[26570,5709],[4,56]],[[26574,5765],[32,-13]],[[26606,5752],[18,-35]],[[26624,5717],[0,-79]],[[26552,5612],[0,-20]],[[26552,5592],[-14,-8]],[[26538,5584],[-49,59]],[[26489,5643],[-32,35]],[[26457,5678],[113,31]],[[27034,5457],[0,-46]],[[27034,5411],[-18,41]],[[27016,5452],[9,26]],[[27025,5478],[9,-21]],[[27038,5381],[-4,30]],[[27034,5457],[22,-20]],[[27056,5437],[5,-8]],[[26732,5424],[-18,-30]],[[26691,5389],[-45,38]],[[26651,5556],[67,-25]],[[26718,5531],[41,-41]],[[26759,5490],[-18,-38]],[[27016,5355],[-18,89]],[[26998,5444],[18,8]],[[26885,5513],[-5,-8]],[[26880,5505],[-31,6]],[[26849,5511],[0,33]],[[26849,5544],[41,2]],[[26849,5544],[0,43]],[[26849,5587],[50,-15]],[[26696,5567],[22,-36]],[[26957,5272],[54,33]],[[27065,5152],[23,-170]],[[27088,4982],[-144,122]],[[26750,5620],[-41,-81]],[[26709,5539],[-36,53]],[[26673,5592],[-49,46]],[[26624,5717],[198,124],[-72,-221]],[[26759,5490],[49,-23]],[[26525,5572],[-36,71]],[[26538,5584],[-13,-12]],[[26948,5272],[-9,89]],[[26939,5361],[32,83]],[[26971,5444],[27,0]],[[27146,5539],[32,2]],[[27178,5541],[13,-53]],[[27191,5488],[-58,-36]],[[27133,5452],[-18,10]],[[26583,5574],[-31,18]],[[26750,5620],[45,-26]],[[26763,5516],[-54,23]],[[27538,4875],[104,-8],[0,-150],[-109,150]],[[27687,4661],[-45,46],[108,43],[-63,-89]],[[27097,5203],[256,-224]],[[27317,4819],[-112,15],[4,155],[-121,-7]],[[26673,5592],[-63,0]],[[27146,5404],[0,7]],[[27146,5411],[77,59]],[[27223,5470],[157,-61],[131,183],[72,-173],[-59,-66],[109,-59],[-149,18],[13,-104],[-153,76],[117,-127]],[[26457,5539],[45,-92]],[[26502,5447],[-121,-8]],[[26381,5439],[-59,105]],[[26322,5544],[-4,61]],[[26318,5605],[36,43]],[[26354,5648],[103,-109]],[[26849,5511],[-50,-36]],[[26804,5592],[45,-5]],[[26556,5424],[-54,23]],[[26457,5539],[77,33]],[[27561,4814],[13,-130],[-81,23]],[[27191,5488],[32,-18]],[[27146,5411],[-13,41]],[[26853,5500],[118,-56]],[[26939,5361],[-9,0]],[[27016,5495],[-5,-10]],[[27011,5485],[-9,8]],[[27002,5493],[5,10]],[[27007,5503],[9,-8]],[[27011,5485],[-9,-18]],[[27002,5467],[-9,11]],[[26993,5478],[5,15]],[[26998,5493],[4,0]],[[27056,5480],[0,-43]],[[27025,5478],[31,2]],[[26975,5447],[5,33]],[[26980,5480],[13,-2]],[[27002,5467],[9,-12]],[[27011,5455],[-36,-8]],[[27020,5493],[-4,2]],[[27007,5503],[18,13]],[[27025,5516],[0,-18]],[[27025,5498],[-5,-5]],[[27025,5516],[0,7]],[[27025,5523],[9,0]],[[27034,5523],[36,-12]],[[27061,5485],[-36,13]],[[26984,5503],[-4,-23]],[[26975,5447],[-13,41]],[[26962,5488],[9,17]],[[26971,5513],[9,5]],[[26980,5518],[4,-15]],[[26998,5493],[-14,10]],[[26980,5518],[22,13]],[[27002,5531],[23,-8]],[[26935,5483],[-5,25]],[[26962,5488],[-27,-5]],[[27029,5567],[5,-44]],[[27002,5531],[0,33]],[[27002,5564],[27,10]],[[27029,5574],[0,-7]],[[26935,5483],[-55,22]],[[26975,5561],[27,3]],[[27029,5567],[14,5]],[[27043,5572],[27,10]],[[27070,5582],[18,-36]],[[27088,5546],[22,-28]],[[27101,5559],[-13,-13]],[[27070,5582],[18,10]],[[27088,5592],[13,-33]],[[27110,5615],[-9,-56]],[[27088,5592],[22,23]],[[27110,5615],[248,76],[-180,-150]],[[27020,5493],[-9,-38]],[[27056,5480],[77,-79]],[[27029,5574],[14,-2]],[[26286,5244],[9,20]],[[26295,5264],[86,160]],[[26381,5424],[0,15]],[[26624,5279],[-81,26],[-5,-87]],[[26538,5218],[-54,-5]],[[26484,5213],[-40,46]],[[26444,5259],[-131,-13]],[[26313,5246],[-27,-2]],[[26205,5358],[-113,150]],[[26092,5508],[23,56]],[[26115,5564],[67,28]],[[26182,5592],[0,-48]],[[26182,5544],[23,-186]],[[26182,5592],[23,10]],[[26205,5602],[113,3]],[[26322,5544],[-140,0]],[[26092,5071],[-9,140]],[[26083,5211],[140,-56]],[[26223,5155],[-131,-84]],[[26610,5043],[-4,17]],[[26606,5060],[-45,69]],[[26561,5129],[49,-25]],[[26610,5104],[36,-56]],[[26646,5048],[-36,-5]],[[26610,5043],[-18,-143]],[[26592,4900],[-40,-137],[-5,145]],[[26547,4908],[59,152]],[[26718,4938],[104,247]],[[26822,5185],[99,31]],[[26921,5213],[-22,-188]],[[26899,5025],[-163,-104]],[[26736,4921],[-18,17]],[[26205,5602],[36,150]],[[26241,5752],[113,-104]],[[26592,4900],[126,38]],[[26736,4921],[36,-100]],[[26772,4821],[-13,-38]],[[26759,4783],[-41,87],[-126,-38],[63,-89],[-189,-125],[-144,79]],[[26322,4697],[176,211]],[[26498,4908],[49,0]],[[26957,4987],[-185,-166]],[[26899,5025],[58,-38]],[[26700,5221],[-4,-26],[-36,16],[-5,0]],[[26655,5211],[45,10]],[[26223,5155],[63,89]],[[26313,5246],[63,-86]],[[26376,5160],[9,-97]],[[26385,5063],[0,-81],[-293,89]],[[26957,4987],[63,-13],[23,-150],[-81,13],[58,-112],[-22,-46],[-118,-79],[-9,171],[-81,91],[-31,-79]],[[26466,5198],[-22,-26]],[[26444,5172],[0,87]],[[26484,5213],[-18,-15]],[[26376,5160],[68,12]],[[26466,5198],[50,-71]],[[26516,5127],[-54,-67]],[[26462,5060],[-77,3]],[[26498,4908],[-36,152]],[[26516,5127],[45,2]],[[26538,5218],[95,-84]],[[26633,5134],[-23,-30]],[[26295,5264],[-31,81]],[[26264,5345],[117,79]],[[26633,5134],[22,77]],[[26700,5221],[99,2]],[[26799,5223],[23,-38]],[[26718,4938],[-72,110]],[[26083,5211],[-67,86]],[[26016,5297],[-95,196],[171,15]],[[26205,5358],[59,-13]],[[26092,5071],[-135,5]],[[25957,5076],[41,157]],[[25998,5233],[18,64]],[[26799,5226],[0,-3]],[[26322,4697],[-311,147],[90,56],[95,-127],[-104,298]],[[26786,6088],[0,-31]],[[26786,6057],[-158,-2]],[[26628,6055],[0,7]],[[26628,6062],[131,61]],[[26759,6123],[27,-35]],[[26619,5996],[-13,31]],[[26606,6027],[22,28]],[[26786,6057],[18,-25]],[[26804,6032],[-158,-48]],[[26646,5984],[-27,12]],[[27164,6032],[-49,-41]],[[27115,5991],[-86,0]],[[27029,5991],[0,41]],[[27029,6032],[59,61]],[[27088,6093],[85,-8]],[[27173,6085],[-9,-53]],[[26705,6240],[-131,-35]],[[26574,6205],[-99,0]],[[26475,6205],[5,89],[-36,-89]],[[26444,6205],[-41,0]],[[26403,6205],[-13,38]],[[26390,6243],[18,33]],[[26408,6276],[4,18]],[[26412,6294],[216,89]],[[26628,6383],[0,-31]],[[26628,6352],[95,-2]],[[26723,6350],[126,0]],[[26849,6350],[18,-79]],[[26867,6271],[-27,-38],[-72,20],[-63,-13]],[[27268,6518],[-36,-120]],[[27232,6398],[-63,36]],[[27169,6434],[-99,-3],[45,135]],[[27115,6566],[121,0]],[[27236,6566],[32,-48]],[[27232,6398],[-36,-104],[4,-122]],[[27200,6172],[-135,51]],[[27065,6223],[104,211]],[[27088,6093],[-77,142]],[[27011,6235],[54,-12]],[[27200,6172],[9,-10],[14,-49]],[[27223,6113],[-50,-28]],[[26971,5968],[-91,64]],[[26880,6032],[0,23]],[[26880,6055],[149,-23]],[[27029,5991],[-58,-23]],[[26880,6055],[-4,43]],[[26876,6098],[68,-10],[31,155]],[[26975,6243],[36,-8]],[[26628,6383],[0,30]],[[26628,6413],[50,-30]],[[26678,6383],[-50,-31]],[[26876,6098],[-5,122]],[[26871,6220],[104,23]],[[26871,6220],[-4,51]],[[26849,6350],[-36,114]],[[26813,6464],[99,-25],[-9,124]],[[26903,6563],[212,3]],[[26412,6294],[-13,213]],[[26399,6507],[27,56]],[[26426,6563],[121,0]],[[26547,6563],[81,-150]],[[26759,6123],[-140,-7]],[[26619,6116],[-54,-23]],[[26565,6093],[9,112]],[[26705,6240],[54,-117]],[[26723,6350],[-45,33]],[[26547,6563],[95,0],[157,0]],[[26799,6563],[14,-99]],[[27056,5867],[32,68]],[[27088,5935],[27,56]],[[27164,6032],[45,-97]],[[27209,5935],[-54,-135]],[[27155,5800],[-99,67]],[[26880,6055],[-27,2]],[[26853,6057],[-67,31]],[[26880,5910],[0,122]],[[26971,5968],[-27,-43]],[[26944,5925],[-64,-15]],[[26975,5915],[113,20]],[[27056,5867],[-81,48]],[[26574,5765],[-139,56]],[[26435,5821],[67,15]],[[26502,5836],[41,31]],[[26543,5867],[90,-26]],[[26633,5841],[-27,-89]],[[26799,6563],[68,0],[36,0]],[[27254,5874],[-45,61]],[[27223,6113],[90,-127],[40,-94]],[[27353,5892],[-81,-25]],[[27272,5867],[-18,7]],[[26475,6205],[-31,0]],[[26700,5892],[-54,92]],[[26804,6032],[49,25]],[[26880,5910],[-180,-18]],[[27272,5867],[-45,-112]],[[27227,5755],[-54,38]],[[27173,5793],[81,81]],[[27173,5793],[-18,7]],[[27353,5892],[0,-66],[32,-74],[9,-23],[-167,26]],[[26543,5867],[18,99]],[[26561,5966],[58,30]],[[26700,5892],[-67,-51]],[[26628,6062],[-9,54]],[[27236,6566],[23,0],[22,0],[-13,-48]],[[26975,5915],[-31,10]],[[25529,5755],[-22,-5]],[[25507,5750],[-14,10]],[[25493,5760],[-13,35]],[[25480,5795],[45,21]],[[25525,5816],[4,-61]],[[25453,5684],[-32,-18]],[[25421,5666],[72,94]],[[25507,5750],[-54,-66]],[[25421,5666],[-4,0]],[[25417,5666],[-5,89]],[[25412,5755],[54,35]],[[25466,5790],[14,5]],[[25466,5790],[-36,54]],[[25430,5844],[99,-5]],[[25529,5839],[-4,-23]],[[25538,5719],[-13,-38]],[[25525,5681],[-77,-38]],[[25448,5643],[5,41]],[[25529,5755],[9,-36]],[[25268,5058],[50,231],[-108,89],[144,194]],[[25354,5572],[94,30]],[[25448,5602],[63,-53]],[[25511,5549],[-103,-249]],[[25408,5300],[-63,-26],[157,-132],[-234,-84]],[[25538,5907],[-63,18]],[[25475,5925],[9,36]],[[25484,5961],[45,106]],[[25529,6067],[131,-124]],[[25660,5943],[-122,-36]],[[25872,5383],[-63,-91],[31,117]],[[25840,5409],[32,-26]],[[25115,6118],[-58,-104],[67,-74]],[[25124,5940],[-103,-35]],[[25021,5905],[18,43]],[[25039,5948],[-14,130]],[[25025,6078],[27,33]],[[25052,6111],[63,7]],[[25282,5971],[45,-104]],[[25327,5867],[-99,15]],[[25228,5882],[-27,58]],[[25201,5940],[81,31]],[[25660,5943],[108,-153],[-198,-58]],[[25570,5732],[-32,-13]],[[25529,5839],[9,68]],[[25552,5597],[-27,84]],[[25570,5732],[18,-112]],[[25588,5620],[-36,-23]],[[25430,5844],[-13,0]],[[25417,5844],[18,30]],[[25435,5874],[40,51]],[[25417,5844],[-36,-5]],[[25381,5839],[-54,28]],[[25282,5971],[-14,119]],[[25268,6090],[45,8]],[[25313,6098],[81,-127]],[[25394,5971],[41,-97]],[[25228,5882],[40,-221]],[[25268,5661],[-40,-44]],[[25228,5617],[-81,125]],[[25147,5742],[-23,79]],[[25124,5821],[63,119]],[[25187,5940],[14,0]],[[25417,5666],[-32,0]],[[25385,5666],[-76,43],[63,91]],[[25372,5800],[40,-45]],[[25147,5742],[-81,18]],[[25066,5760],[0,20]],[[25066,5780],[31,36]],[[25097,5816],[27,5]],[[25039,5948],[-144,3]],[[24895,5951],[45,170]],[[24940,6121],[85,-43]],[[25534,5366],[-126,-66]],[[25511,5549],[18,7]],[[25529,5556],[-9,-63],[5,-46],[9,-81]],[[25187,5940],[-63,0]],[[25115,6118],[95,-28],[18,92]],[[25228,6182],[40,-92]],[[25066,5780],[9,41]],[[25075,5821],[22,-5]],[[25872,5383],[126,-150]],[[25957,5076],[-94,-31],[-9,122],[-81,-5],[36,104],[-189,3]],[[25620,5269],[58,56]],[[25678,5325],[162,84]],[[24886,5508],[0,5]],[[24886,5513],[0,13]],[[24886,5526],[112,89]],[[24998,5615],[23,18]],[[25021,5633],[171,-41]],[[25192,5592],[-5,-170],[-157,33]],[[25030,5455],[-32,7]],[[24998,5462],[-112,46]],[[25075,5821],[-54,84]],[[25678,5325],[23,191]],[[25701,5516],[72,40]],[[25773,5556],[31,54]],[[25804,5610],[198,-13]],[[26002,5597],[113,-33]],[[24931,5719],[13,26],[-22,152],[-27,23]],[[24895,5920],[0,31]],[[25066,5760],[-45,-127]],[[24998,5615],[-67,104]],[[25030,5305],[0,150]],[[25192,5592],[36,25]],[[25268,5661],[54,-23]],[[25322,5638],[32,-66]],[[25268,5058],[-238,48]],[[25030,5106],[0,194]],[[25030,5300],[90,-100],[90,66],[-180,39]],[[24840,5577],[-22,45]],[[24818,5622],[-9,28]],[[24809,5650],[9,36]],[[24818,5686],[113,33]],[[24886,5526],[-46,51]],[[25773,5556],[-54,44],[58,45]],[[25777,5645],[27,-35]],[[25052,6111],[-9,127]],[[25043,6238],[0,63]],[[25043,6301],[135,0],[50,-119]],[[25448,5643],[0,-41]],[[25322,5638],[63,28]],[[25529,5556],[23,41]],[[25588,5620],[68,-33]],[[25656,5587],[45,-71]],[[25620,5269],[22,94],[-108,3]],[[25656,5587],[121,58]],[[25313,6098],[45,117]],[[25358,6215],[135,-41]],[[25493,6174],[36,-107]],[[25484,5961],[-90,10]],[[25746,5943],[-86,0]],[[25493,6174],[109,-15]],[[25602,6159],[9,5]],[[25611,6164],[135,-221]],[[25381,5839],[-9,-39]],[[25984,5643],[18,-46]],[[25746,5943],[-45,104]],[[25701,6047],[40,0]],[[25741,6047],[45,-135]],[[25786,5912],[131,-139]],[[25917,5773],[67,-130]],[[25043,6301],[0,156]],[[25043,6457],[99,58]],[[25142,6515],[63,46]],[[25205,6561],[32,-64]],[[25237,6497],[112,-150]],[[25349,6347],[27,-20]],[[25376,6327],[-18,-112]],[[25588,6299],[-72,-43],[86,-97]],[[25376,6327],[108,-89],[-45,155]],[[25439,6393],[63,-13]],[[25502,6380],[86,-81]],[[24818,5686],[-32,196]],[[24786,5882],[109,38]],[[24588,5739],[-22,0]],[[24566,5739],[-50,3]],[[24516,5742],[54,64]],[[24570,5806],[14,25]],[[24584,5831],[4,-92]],[[24480,5592],[-18,0]],[[24462,5592],[27,135]],[[24489,5727],[27,15]],[[24566,5739],[0,-12],[0,-8],[-59,-130]],[[24507,5589],[-27,3]],[[24629,5658],[9,-112]],[[24638,5546],[-117,-46]],[[24521,5500],[-14,89]],[[24588,5739],[41,-10]],[[24629,5729],[0,-71]],[[24642,5851],[-58,-20]],[[24570,5806],[-54,35]],[[24516,5841],[-22,71]],[[24494,5912],[54,39]],[[24548,5951],[81,-6]],[[24629,5945],[31,-17]],[[24660,5928],[-18,-77]],[[24642,5851],[-13,-122]],[[24732,5577],[-94,-31]],[[24629,5658],[180,-8]],[[24818,5622],[-86,-45]],[[24886,5513],[-212,-122]],[[24674,5391],[-117,-81]],[[24557,5310],[-478,-87],[-54,104],[90,51],[0,148],[27,28],[27,35]],[[24169,5589],[82,3]],[[24251,5592],[-23,-94],[176,-87]],[[24404,5411],[117,-40],[0,129]],[[24732,5577],[108,0]],[[24674,5391],[108,-48],[-63,-41],[63,-74]],[[24782,5228],[-225,82]],[[24327,5862],[0,89]],[[24327,5951],[104,119]],[[24431,6070],[117,-10]],[[24548,6060],[0,-109]],[[24494,5912],[-153,-53]],[[24341,5859],[-14,3]],[[24714,6329],[-99,-114]],[[24615,6215],[-144,33]],[[24471,6248],[-108,3]],[[24363,6251],[59,193],[-126,-15]],[[24296,6429],[63,33]],[[24359,6462],[36,84],[22,-82],[198,59]],[[24615,6523],[-31,-79],[94,-5]],[[24678,6439],[36,-110]],[[24746,6182],[-54,-31]],[[24692,6151],[-63,0]],[[24629,6151],[-14,64]],[[24714,6329],[36,-20]],[[24750,6309],[63,-53]],[[24813,6256],[-67,-74]],[[24296,6429],[31,200]],[[24327,6629],[32,-167]],[[24886,5508],[-18,-140],[117,-5],[-45,66],[58,33]],[[25030,5305],[0,-5]],[[25030,5106],[-248,122]],[[24251,5592],[67,-3]],[[24318,5589],[144,3]],[[24480,5592],[-76,-181]],[[24660,5928],[126,-46]],[[24629,5945],[76,44]],[[24705,5989],[95,58],[-54,135]],[[24813,6256],[9,-89]],[[24822,6167],[118,-46]],[[24629,6151],[-81,-91]],[[24431,6070],[40,178]],[[24178,6060],[-13,58],[86,181],[9,18],[36,112]],[[24363,6251],[-144,-107],[63,-66],[-76,-100],[-28,82]],[[24836,6378],[0,-133]],[[24836,6245],[-14,-78]],[[24750,6309],[0,76]],[[24750,6385],[86,-7]],[[24836,6245],[207,-7]],[[24750,6385],[-72,54]],[[24615,6523],[18,56]],[[24633,6579],[-9,91]],[[24624,6670],[167,13]],[[24791,6683],[99,-51]],[[24890,6632],[72,-173]],[[24962,6459],[-126,-81]],[[24692,6151],[-63,-137],[76,-25]],[[24327,5951],[-176,0]],[[24151,5951],[27,109]],[[24178,5770],[5,66],[-45,97],[13,18]],[[24327,5862],[-149,-92]],[[24476,5760],[-135,-23]],[[24341,5737],[0,122]],[[24516,5841],[-40,-81]],[[24318,5589],[23,148]],[[24476,5760],[13,-33]],[[24169,5589],[14,79],[-5,102]],[[26304,6088],[45,104]],[[26349,6192],[41,51]],[[26403,6205],[-27,-107]],[[26376,6098],[-72,-10]],[[26173,5869],[-139,26]],[[26034,5895],[-14,17]],[[26020,5912],[77,3]],[[26097,5915],[76,-46]],[[26606,6027],[-41,66]],[[25867,6563],[-81,-56]],[[25786,6507],[14,56],[67,0]],[[26255,6134],[-41,-51]],[[26214,6083],[-50,28]],[[26164,6111],[-90,40]],[[26074,6151],[-4,3]],[[26070,6154],[185,-20]],[[25872,6289],[-5,-18]],[[25867,6271],[-153,-5]],[[25714,6266],[-58,142]],[[25656,6408],[9,21]],[[25665,6429],[103,104]],[[25768,6533],[14,-51]],[[25782,6482],[72,-84],[-45,76]],[[25809,6474],[67,-15],[-4,-170]],[[25782,6047],[9,61]],[[25791,6108],[45,0]],[[25836,6108],[18,-25]],[[25854,6083],[-72,-36]],[[26020,5912],[-40,49]],[[25980,5961],[135,-23]],[[26115,5938],[-18,-23]],[[26007,6121],[13,43]],[[26020,6164],[27,38]],[[26047,6202],[0,-79]],[[26047,6123],[-40,-2]],[[26191,5737],[55,28]],[[26246,5765],[0,-5]],[[26246,5760],[-55,-23]],[[26408,6276],[-81,-3]],[[26327,6273],[-77,89]],[[26250,6362],[-13,89]],[[26237,6451],[45,72]],[[26282,6523],[117,-16]],[[26453,5584],[-5,-40]],[[26448,5544],[-90,112]],[[26358,5656],[32,7]],[[26390,5663],[63,-79]],[[26291,5686],[27,56]],[[26318,5742],[49,-33]],[[26367,5709],[23,-46]],[[26358,5656],[-67,30]],[[26376,5892],[-63,61]],[[26313,5953],[-13,61]],[[26300,6014],[0,3]],[[26300,6017],[4,71]],[[26376,6098],[36,-117]],[[26412,5981],[27,-79]],[[26439,5902],[-18,-38]],[[26421,5864],[-45,28]],[[25966,6093],[-27,28]],[[25939,6121],[36,-13]],[[25975,6108],[-9,-15]],[[26137,6304],[59,170]],[[26196,6474],[41,-23]],[[26250,6362],[-113,-58]],[[25858,6195],[-22,-87]],[[25791,6108],[-81,-18]],[[25710,6090],[9,133],[0,2]],[[25719,6225],[139,-30]],[[26435,5821],[-9,18]],[[26426,5839],[-5,25]],[[26439,5902],[63,-66]],[[26309,5798],[9,-56]],[[26291,5686],[-45,74]],[[26246,5765],[22,74]],[[26268,5839],[41,-41]],[[26020,6164],[-13,26]],[[26007,6190],[22,17]],[[26029,6207],[18,-5]],[[26385,5757],[-18,-48]],[[26309,5798],[81,30]],[[26390,5828],[-5,-71]],[[26264,6047],[-14,10]],[[26250,6057],[23,56]],[[26273,6113],[76,79]],[[26300,6017],[-36,30]],[[25786,5912],[149,56]],[[25935,5968],[18,36]],[[25953,6004],[27,-43]],[[26034,5895],[-117,-122]],[[26561,5966],[-90,170]],[[26471,6136],[4,69]],[[26137,6304],[-18,-31]],[[26119,6273],[-58,-61]],[[26061,6212],[-63,105]],[[25998,6317],[67,246]],[[26065,6563],[32,0],[54,0]],[[26151,6563],[40,-81]],[[26191,6482],[5,-8]],[[25957,6156],[-36,23]],[[25921,6179],[95,54]],[[26016,6233],[13,-26]],[[26007,6190],[-27,-36]],[[25980,6154],[-23,2]],[[25980,6154],[0,-33]],[[25980,6121],[-5,-13]],[[25939,6121],[-9,0]],[[25930,6121],[27,35]],[[25665,6429],[4,117]],[[25669,6546],[54,63]],[[25723,6609],[54,-51]],[[25777,6558],[-9,-25]],[[26412,5981],[59,155]],[[25858,6195],[18,25]],[[25876,6220],[36,-13]],[[25912,6207],[-4,-12]],[[25908,6195],[0,-89]],[[25908,6106],[13,-33]],[[25921,6073],[-67,10]],[[25782,6047],[-41,0]],[[25701,6047],[9,43]],[[25939,6019],[-4,-51]],[[25921,6073],[9,-11]],[[25930,6062],[9,-43]],[[25719,6225],[-5,41]],[[25867,6271],[9,-51]],[[26016,6256],[-104,-49]],[[25872,6289],[144,-33]],[[26151,6563],[153,0],[54,0],[68,0]],[[26282,6523],[-91,-41]],[[25908,6195],[13,-16]],[[25930,6121],[-22,-15]],[[26493,5556],[-40,28]],[[26390,5663],[18,3]],[[26408,5666],[49,12]],[[26525,5572],[-32,-16]],[[26173,5869],[-67,-28],[81,-58]],[[26187,5783],[-126,-33],[4,-140],[-81,33]],[[25953,6004],[-14,15]],[[25930,6062],[36,31]],[[25980,6121],[27,0]],[[26047,6123],[86,-56],[-18,-129]],[[26426,5839],[-36,-11]],[[26268,5839],[5,28]],[[26273,5867],[13,17]],[[26286,5884],[5,3]],[[26291,5887],[85,5]],[[26259,6136],[14,130]],[[26273,6266],[54,7]],[[26273,6113],[-14,23]],[[26408,5666],[-23,91]],[[25867,6563],[198,0]],[[25998,6317],[-167,-10],[59,127],[-104,73]],[[25782,6482],[27,-8]],[[26191,5737],[-18,91]],[[26173,5828],[18,31]],[[26191,5859],[82,8]],[[26273,6266],[-154,7]],[[26182,5864],[9,-5]],[[26173,5828],[-63,18],[72,18]],[[26016,6256],[0,-23]],[[26187,5783],[54,-31]],[[26259,6136],[-4,-2]],[[26070,6154],[-9,58]],[[26493,5556],[-45,-12]],[[26137,6019],[41,3]],[[26178,6022],[-18,-38]],[[26160,5984],[-5,-18]],[[26155,5966],[-18,2]],[[26137,5968],[0,51]],[[26155,5966],[-9,-13]],[[26146,5953],[-13,3]],[[26133,5956],[4,12]],[[26205,6022],[-27,0]],[[26137,6019],[0,38]],[[26137,6057],[32,3]],[[26169,6060],[13,-3]],[[26182,6057],[14,-23]],[[26196,6034],[9,-12]],[[26205,6022],[18,-41]],[[26223,5981],[-36,0]],[[26187,5981],[-27,3]],[[26164,6111],[5,-51]],[[26137,6057],[0,16],[-9,5],[-54,73]],[[26187,5981],[18,-36]],[[26205,5945],[-9,-33]],[[26196,5912],[-50,41]],[[26250,5943],[41,-56]],[[26286,5884],[-81,61]],[[26223,5981],[5,0]],[[26228,5981],[22,-38]],[[26173,5887],[23,25]],[[26182,5864],[-9,23]],[[26214,6083],[32,-31]],[[26246,6052],[-23,-2]],[[26223,6050],[-41,7]],[[26223,6050],[-27,-16]],[[26264,6047],[0,-23]],[[26264,6024],[-59,-2]],[[26246,6052],[4,5]],[[26264,6024],[4,-23]],[[26268,6001],[-40,-20]],[[26268,6001],[32,13]],[[26313,5953],[-63,-10]],[[26173,5887],[-40,69]],[[24904,8219],[-82,-196]],[[24822,8023],[-9,-8]],[[24813,8015],[-54,49]],[[24759,8064],[-31,124]],[[24728,8188],[63,3],[-23,114]],[[24768,8305],[95,16]],[[24863,8321],[41,-102]],[[24728,8188],[-117,3]],[[24611,8191],[27,66]],[[24638,8257],[130,48]],[[24120,8333],[-68,-23]],[[24052,8310],[-27,0]],[[24025,8310],[45,59],[-63,10]],[[24007,8379],[63,59]],[[24070,8438],[32,-34]],[[24102,8404],[18,-7]],[[24120,8397],[0,-64]],[[24142,8237],[-22,96]],[[24120,8397],[140,53]],[[24260,8450],[126,-79]],[[24386,8371],[0,-91]],[[24386,8280],[-9,0]],[[24377,8280],[-126,-76]],[[24251,8204],[-109,33]],[[23940,7949],[-23,-2]],[[23917,7947],[0,25]],[[23917,7972],[59,18]],[[23976,7990],[-36,-41]],[[24854,7853],[-5,-28]],[[24849,7825],[-99,-23]],[[24750,7802],[-4,224]],[[24746,8026],[13,38]],[[24813,8015],[41,-162]],[[24750,7802],[-135,-135]],[[24615,7667],[-49,165]],[[24566,7832],[45,92]],[[24611,7924],[18,79]],[[24629,8003],[117,23]],[[24260,8450],[94,69]],[[24354,8519],[72,-5]],[[24426,8514],[32,-229],[-72,86]],[[24642,7563],[-99,-74]],[[24543,7489],[-31,-15]],[[24512,7474],[-81,-13]],[[24431,7461],[-45,3]],[[24386,7464],[-5,96]],[[24381,7560],[-81,227]],[[24300,7787],[-49,45]],[[24251,7832],[58,3]],[[24309,7835],[54,-3]],[[24363,7832],[36,0]],[[24399,7832],[167,0]],[[24615,7667],[27,-104]],[[24458,8059],[-9,-49]],[[24449,8010],[-9,0]],[[24440,8010],[-45,0]],[[24395,8010],[-14,130]],[[24381,8140],[90,0]],[[24471,8140],[-13,-81]],[[24593,8171],[18,-166]],[[24611,8005],[-63,8]],[[24548,8013],[0,69]],[[24548,8082],[-14,81]],[[24534,8163],[59,8]],[[24300,7787],[-54,-16]],[[24246,7771],[-99,-28]],[[24147,7743],[4,87]],[[24151,7830],[0,109]],[[24151,7939],[100,-107]],[[24593,8171],[18,20]],[[24629,8003],[-18,2]],[[24088,8506],[14,-102]],[[24070,8438],[0,2]],[[24070,8440],[9,69]],[[24079,8509],[9,-3]],[[24147,7743],[-72,8]],[[24075,7751],[-23,33]],[[24052,7784],[99,46]],[[24786,7441],[-45,23]],[[24741,7464],[-27,63]],[[24714,7527],[5,122],[158,92]],[[24877,7741],[13,-102]],[[24890,7639],[-104,-198]],[[24246,7771],[-207,-218]],[[24039,7553],[-18,134]],[[24021,7687],[54,64]],[[23917,7972],[0,21],[0,81]],[[23917,8074],[81,-28]],[[23998,8046],[-22,-56]],[[24296,8031],[-32,71]],[[24264,8102],[-18,43]],[[24246,8145],[5,59]],[[24377,8280],[-99,-64],[103,-40]],[[24381,8176],[0,-36]],[[24395,8010],[-99,21]],[[24863,8527],[0,-56]],[[24863,8471],[-108,-51]],[[24755,8420],[-180,-79]],[[24575,8341],[-32,140]],[[24543,8481],[0,155]],[[24543,8636],[198,-3],[199,-2]],[[24940,8631],[4,-15]],[[24944,8616],[0,-128]],[[24944,8488],[-45,51]],[[24899,8539],[27,79],[-63,-91]],[[24548,8013],[-14,-8]],[[24534,8005],[-85,5]],[[24458,8059],[90,23]],[[24638,8257],[-63,84]],[[24755,8420],[185,-5]],[[24940,8415],[4,-46]],[[24944,8369],[-81,-48]],[[24070,8440],[-40,56]],[[24030,8496],[49,13]],[[24030,8496],[-72,51]],[[23958,8547],[13,89]],[[23971,8636],[126,0]],[[24097,8636],[-9,-130]],[[24611,7924],[-77,81]],[[23917,7731],[0,30],[0,61]],[[23917,7822],[122,5]],[[24039,7827],[13,-43]],[[24021,7687],[-104,44]],[[24142,7939],[-103,-112]],[[23917,7822],[0,125]],[[23940,7949],[130,44]],[[24070,7993],[54,-31]],[[24124,7962],[18,-23]],[[24863,8471],[77,-56]],[[24039,7553],[-9,-56]],[[24030,7497],[-113,101],[0,133]],[[24363,7832],[-103,148]],[[24260,7980],[36,51]],[[24440,8010],[-41,-178]],[[24381,7560],[-175,-99]],[[24206,7461],[-136,-20]],[[24070,7441],[-40,56]],[[24534,8163],[-63,-23]],[[24381,8176],[5,104]],[[24426,8514],[14,23]],[[24440,8537],[103,-56]],[[23917,8120],[0,180],[0,66]],[[23917,8366],[23,8]],[[23940,8374],[85,-64]],[[24052,8310],[-81,-190]],[[23971,8120],[-54,0]],[[23940,8374],[67,5]],[[24386,7464],[0,-33]],[[24386,7431],[-122,0]],[[24264,7431],[-58,30]],[[24097,8636],[5,0],[185,0]],[[24287,8636],[40,-61]],[[24327,8575],[27,-56]],[[24386,7431],[-41,-100]],[[24345,7331],[-76,18]],[[24269,7349],[-5,82]],[[23958,8547],[-41,5]],[[23917,8552],[0,71],[0,13],[54,0]],[[24849,7825],[28,-84]],[[24714,7527],[-72,36]],[[24327,8575],[95,20]],[[24422,8595],[18,-58]],[[24422,8595],[13,41]],[[24435,8636],[108,0]],[[24287,8636],[63,0],[72,0],[13,0]],[[24142,7939],[9,0]],[[24899,8539],[-36,-12]],[[23917,8366],[0,127],[0,59]],[[24142,8099],[-18,16]],[[24124,8115],[27,10]],[[24151,8125],[14,-13]],[[24165,8112],[9,-13]],[[24174,8099],[-32,0]],[[24124,8074],[-9,33]],[[24115,8107],[-9,10]],[[24106,8117],[18,-2]],[[24142,8099],[0,-25]],[[24142,8074],[-18,0]],[[24174,8099],[13,-5]],[[24187,8094],[-31,-20]],[[24156,8074],[-14,0]],[[24165,8013],[-9,61]],[[24187,8094],[10,-51]],[[24197,8043],[-32,-30]],[[24165,8013],[144,-178]],[[24124,7962],[5,58]],[[24129,8020],[13,54]],[[24106,8117],[-135,3]],[[24142,8237],[9,-112]],[[24084,8020],[40,54]],[[24129,8020],[-45,0]],[[24084,8020],[-14,39]],[[24070,8059],[45,48]],[[24264,8102],[-31,41]],[[24233,8143],[13,2]],[[24233,8143],[-68,-31]],[[24260,7980],[-63,63]],[[24070,7993],[14,27]],[[24070,8059],[-72,-13]],[[23917,8074],[0,46]],[[25444,8102],[-23,-8]],[[25421,8094],[-4,5]],[[25417,8099],[-9,61]],[[25408,8160],[36,-58]],[[25381,7873],[40,221]],[[25444,8102],[117,-15]],[[25561,8087],[-77,-214]],[[25484,7873],[-103,0]],[[25584,8132],[-5,-23]],[[25579,8109],[-18,-22]],[[25408,8160],[-41,79]],[[25367,8239],[45,43]],[[25412,8282],[95,33]],[[25507,8315],[54,-48]],[[25561,8267],[23,-135]],[[25683,7835],[13,99]],[[25696,7934],[63,38]],[[25759,7972],[36,-68]],[[25795,7904],[-112,-69]],[[25692,8455],[-14,-140]],[[25678,8315],[-22,-2]],[[25656,8313],[-95,-46]],[[25507,8315],[-45,61]],[[25462,8376],[4,21]],[[25466,8397],[-9,229]],[[25457,8626],[104,-3],[158,0]],[[25719,8623],[4,-48]],[[25723,8575],[-31,-120]],[[24944,8488],[54,13]],[[24998,8501],[108,-58]],[[25106,8443],[-22,-112]],[[25084,8331],[-140,38]],[[25818,8516],[-126,-61]],[[25723,8575],[95,-59]],[[25295,8115],[-22,-54]],[[25273,8061],[-86,13]],[[25187,8074],[18,91]],[[25205,8165],[99,23]],[[25304,8188],[-9,-73]],[[25147,7741],[-63,178]],[[25084,7919],[-9,40]],[[25075,7959],[90,6]],[[25165,7965],[103,-123]],[[25268,7842],[0,-63]],[[25268,7779],[0,-38]],[[25268,7741],[-121,0]],[[25187,8074],[-22,-109]],[[25075,7959],[-9,26]],[[25066,7985],[27,264]],[[25093,8249],[0,44]],[[25093,8293],[67,7]],[[25160,8300],[45,-135]],[[25656,8313],[-72,-181]],[[25759,7972],[68,206]],[[25827,8178],[117,10]],[[25944,8188],[-14,-45]],[[25930,8143],[41,-105],[-95,-142]],[[25876,7896],[-81,8]],[[25160,8300],[149,15],[31,-99]],[[25340,8216],[-36,-28]],[[24917,8232],[-13,-13]],[[25084,8331],[9,-38]],[[25093,8249],[-176,-17]],[[25827,8178],[0,69]],[[25827,8247],[148,-21]],[[25975,8226],[5,-10]],[[25980,8216],[-36,-28]],[[25286,7873],[-18,-31]],[[25273,8061],[13,-188]],[[25106,8443],[32,106]],[[25138,8549],[180,-165],[148,13]],[[25462,8376],[-50,-94]],[[25367,8239],[-27,-23]],[[25683,7476],[-59,71]],[[25624,7547],[68,82],[0,-112]],[[25692,7517],[-9,-41]],[[25948,8623],[-49,-122]],[[25899,8501],[-81,15]],[[25719,8623],[27,0],[184,0],[18,0]],[[25147,7741],[-41,0]],[[25106,7741],[-229,0]],[[24854,7853],[230,66]],[[25993,8308],[27,76]],[[26020,8384],[63,237]],[[26083,8621],[72,0],[5,-8],[-32,-84],[54,41],[46,-66],[-73,-138],[82,-45]],[[26237,8321],[-244,-13]],[[24944,8616],[14,7]],[[24958,8623],[40,-122]],[[25683,7835],[-90,-89]],[[25593,7746],[-41,38]],[[25552,7784],[77,209],[67,-59]],[[25138,8549],[31,79]],[[25169,8628],[90,-2],[198,0]],[[25899,8501],[-72,-137]],[[25827,8364],[-27,-59]],[[25800,8305],[-122,10]],[[25948,8623],[135,-2]],[[26020,8384],[-193,-20]],[[25800,8305],[-9,-30]],[[25791,8275],[-212,-166]],[[25827,8247],[-36,28]],[[25993,8308],[-18,-82]],[[24822,8023],[82,33]],[[24904,8056],[49,-109],[113,38]],[[25552,7784],[-68,89]],[[24904,8056],[40,56],[0,36],[-27,84]],[[26219,8153],[-19,40],[68,61],[-13,-73],[22,-97],[-58,69]],[[25980,8216],[189,3]],[[26169,8219],[31,-59]],[[26200,8160],[-270,-17]],[[24958,8623],[0,8]],[[24958,8631],[94,0],[72,-3],[45,0]],[[26191,7807],[-288,-8]],[[25903,7799],[-27,97]],[[26200,8160],[163,-236],[-72,-137],[-5,2],[-95,18]],[[26273,8038],[22,16],[9,-3],[9,-8],[5,-17],[-18,-18],[-27,30]],[[26363,7942],[13,7],[-4,-12],[-9,5]],[[26237,8321],[-68,-102]],[[25417,8099],[-122,16]],[[25381,7873],[-95,0]],[[25597,7560],[-31,102]],[[25566,7662],[27,84]],[[25903,7799],[5,-117]],[[25908,7682],[-189,-56]],[[25719,7626],[-27,-109]],[[25624,7547],[-27,13]],[[25138,6769],[-5,-15]],[[25133,6754],[-22,18]],[[25111,6772],[45,127]],[[25156,6899],[13,-18]],[[25169,6881],[-31,-112]],[[25169,6881],[162,-203]],[[25331,6678],[-9,0]],[[25322,6678],[-184,91]],[[25111,6772],[-54,2]],[[25057,6774],[-18,39]],[[25039,6813],[94,94]],[[25133,6907],[23,-8]],[[25759,6759],[-121,79]],[[25638,6838],[18,107]],[[25656,6945],[103,-186]],[[25349,6347],[-58,181]],[[25291,6528],[40,112]],[[25331,6640],[63,-56]],[[25394,6584],[32,-59]],[[25426,6525],[18,-114]],[[25444,6411],[-5,-18]],[[25358,6787],[-31,38]],[[25327,6825],[45,10]],[[25372,6835],[-14,-48]],[[25291,6528],[-54,-31]],[[25205,6561],[0,25]],[[25205,6586],[104,61]],[[25309,6647],[22,-7]],[[25759,7326],[63,145]],[[25822,7471],[27,15]],[[25849,7486],[135,-25]],[[25984,7461],[-22,-125]],[[25962,7336],[-203,-10]],[[25394,6584],[45,0]],[[25439,6584],[59,5]],[[25498,6589],[31,-15]],[[25529,6574],[-36,-105]],[[25493,6469],[-67,56]],[[25327,6825],[-72,41],[36,170]],[[25291,7036],[67,18]],[[25358,7054],[86,-145]],[[25444,6909],[-72,-74]],[[25444,6909],[58,-10]],[[25502,6899],[14,-99]],[[25516,6800],[-117,-31]],[[25399,6769],[-41,18]],[[25493,6469],[18,-33]],[[25511,6436],[-67,-25]],[[25890,7189],[-72,-28]],[[25818,7161],[-140,-51]],[[25678,7110],[72,209]],[[25750,7319],[9,7]],[[25962,7336],[18,-5]],[[25980,7331],[-9,-134],[-81,-8]],[[25903,7593],[-54,-107]],[[25822,7471],[-36,89]],[[25786,7560],[-67,66]],[[25908,7682],[-5,-89]],[[25683,7461],[9,-109]],[[25692,7352],[-190,-183]],[[25502,7169],[0,162],[0,38]],[[25502,7369],[5,145]],[[25507,7514],[90,46]],[[25683,7476],[0,-15]],[[25408,6660],[31,-76]],[[25331,6640],[77,20]],[[25358,7054],[-85,112]],[[25273,7166],[126,0],[-23,155]],[[25376,7321],[126,48]],[[25502,7169],[0,-270]],[[25638,6838],[-122,-38]],[[25692,7352],[58,-33]],[[25678,7110],[50,-81],[-108,43],[36,-127]],[[25322,6678],[-13,-31]],[[25205,6586],[-63,69]],[[25142,6655],[-9,99]],[[25408,6660],[94,-20]],[[25502,6640],[-4,-51]],[[25331,6678],[68,91]],[[25759,6759],[-22,-38]],[[25737,6721],[-235,-81]],[[25611,6164],[58,183]],[[25669,6347],[-18,61]],[[25651,6408],[5,0]],[[25723,6609],[14,112]],[[25818,7161],[67,-56]],[[25885,7105],[27,-168],[-18,3],[-22,38],[0,23],[13,-105],[0,-2],[5,-3],[-108,-56],[67,-228],[-72,-49]],[[25849,6952],[18,-38],[5,-2],[0,-5],[-23,45]],[[25557,6576],[-28,-2]],[[25669,6546],[-112,30]],[[25511,6436],[-9,-56]],[[26133,7525],[-230,68]],[[26191,7807],[9,-89],[28,-79],[-64,23],[64,-53],[-95,-84]],[[26250,7718],[0,18],[0,10],[36,10],[-36,-38]],[[26264,7710],[4,-2],[0,-3],[-9,-15],[-27,-15],[32,35]],[[25588,6299],[81,48]],[[25133,6907],[-117,58]],[[25016,6965],[90,26]],[[25106,6991],[27,20]],[[25133,7011],[158,25]],[[25557,6576],[94,-168]],[[26083,7461],[-99,0]],[[26133,7525],[-50,-64]],[[25683,7461],[103,99]],[[25273,7166],[-63,36]],[[25210,7202],[18,180]],[[25228,7382],[63,13]],[[25291,7395],[85,-74]],[[25890,7189],[81,-18],[-86,-66]],[[26083,7461],[-103,-130]],[[26061,7438],[27,-7],[-9,-39],[-18,46]],[[26007,7331],[0,11],[76,10],[-18,-23],[-58,2]],[[24327,6629],[-40,117],[-5,49]],[[24282,6795],[122,89]],[[24404,6884],[103,-31]],[[24507,6853],[-180,-224]],[[25030,7382],[-27,-91]],[[25003,7291],[-172,63]],[[24831,7354],[23,71]],[[24854,7425],[176,-43]],[[24336,7273],[-67,69]],[[24269,7342],[0,7]],[[24345,7331],[9,-43]],[[24354,7288],[-18,-15]],[[25147,7120],[-23,-63]],[[25124,7057],[-45,45],[68,18]],[[24872,6807],[-9,6]],[[24863,6813],[-14,28]],[[24849,6841],[131,129]],[[24980,6970],[36,-5]],[[25039,6813],[-90,-13]],[[24949,6800],[-77,7]],[[24741,7464],[-198,25]],[[24886,7176],[63,-81]],[[24949,7095],[-154,15],[-18,-102]],[[24777,7008],[-67,92]],[[24710,7100],[22,53]],[[24732,7153],[77,84]],[[24809,7237],[77,-61]],[[24980,6970],[-31,125]],[[24886,7176],[117,61]],[[25003,7237],[103,-246]],[[25566,7662],[-154,-43],[-144,160]],[[24269,7342],[-68,-62]],[[24201,7280],[-32,6]],[[24169,7286],[-4,-6],[-36,28],[-59,133]],[[25106,7741],[-4,-173]],[[25102,7568],[-212,71]],[[25124,7057],[9,-46]],[[25003,7237],[0,54]],[[25030,7382],[99,0]],[[25129,7382],[13,-114]],[[25142,7268],[5,-148]],[[24913,6693],[18,64]],[[24931,6757],[18,43]],[[25057,6774],[-27,-66]],[[25030,6708],[-9,3]],[[25021,6711],[-77,-46]],[[24944,6665],[-31,28]],[[24831,6978],[-9,-54]],[[24822,6924],[-22,34]],[[24800,6958],[31,20]],[[24548,6937],[-104,41],[-40,-94]],[[24282,6795],[-9,117]],[[24273,6912],[36,168],[81,-16],[95,51]],[[24485,7115],[40,0]],[[24525,7115],[23,-178]],[[25142,6515],[-121,196]],[[25030,6708],[112,-53]],[[25210,7202],[-68,66]],[[25129,7382],[40,18]],[[25169,7400],[59,-18]],[[24890,6632],[54,33]],[[25043,6457],[-63,96],[-18,-94]],[[25507,7514],[-77,0],[-126,61],[-36,92]],[[25268,7667],[0,74]],[[24791,6683],[72,51]],[[24863,6734],[50,-41]],[[24552,6937],[-45,-84]],[[24548,6937],[4,0]],[[24552,6937],[185,-2]],[[24737,6935],[112,-89]],[[24849,6846],[0,-5]],[[24863,6813],[0,-79]],[[24624,6670],[-76,-68],[85,-23]],[[24849,6846],[-27,78]],[[24831,6978],[-54,30]],[[24273,6912],[0,117],[-104,43],[109,38],[-72,5]],[[24206,7115],[130,158]],[[24354,7288],[63,8]],[[24417,7296],[-36,-66],[104,-115]],[[24431,7461],[-14,-165]],[[24809,7237],[-59,54]],[[24750,7291],[81,63]],[[24737,6935],[63,23]],[[24732,7153],[18,138]],[[24696,7176],[-198,104],[81,97],[-67,97]],[[24786,7441],[68,-16]],[[24710,7100],[-14,76]],[[24201,7280],[-63,-111]],[[24138,7169],[31,117]],[[25291,7395],[-41,135],[-94,-31]],[[25156,7499],[-59,61]],[[25097,7560],[171,0],[0,107]],[[24931,6757],[-59,50]],[[24525,7115],[27,117],[18,-117],[126,61]],[[25097,7560],[5,8]],[[25169,7400],[-13,99]],[[24206,7115],[18,112],[-86,-58]],[[24940,8631],[18,0]]]}