{"type":"Topology","transform":{"scale":[0.0012831345112129487,0.0009745357309423489],"translate":[-124.73273099999999,24.60334863324381]},"objects":{"area":{"type":"GeometryCollection","geometries":[{"arcs":[[0]],"type":"Polygon","properties":{"state":"MD","name":"ASSATEAGUE ISLAND NTL SE","zip":"00152"}},{"arcs":[[1,2,3,4,5,6,7,8,9]],"type":"Polygon","properties":{"state":"MD","name":"WALDORF","zip":"20601"}},{"arcs":[[10,11,-6,12]],"type":"Polygon","properties":{"state":"MD","name":"WALDORF","zip":"20602"}},{"arcs":[[13,14,-7,-12]],"type":"Polygon","properties":{"state":"MD","name":"WALDORF","zip":"20603"}},{"arcs":[[15,16,17,18,-8,-15]],"type":"Polygon","properties":{"state":"MD","name":"ACCOKEEK","zip":"20607"}},{"arcs":[[19,-2,20,21]],"type":"Polygon","properties":{"state":"MD","name":"AQUASCO","zip":"20608"}},{"arcs":[[22,23,24,25]],"type":"Polygon","properties":{"state":"MD","name":"AVENUE","zip":"20609"}},{"arcs":[[26,27,28]],"type":"Polygon","properties":{"state":"MD","name":"BEL ALTON","zip":"20611"}},{"arcs":[[-21,-10,29,30,31,32,33,34]],"type":"Polygon","properties":{"state":"MD","name":"BRANDYWINE","zip":"20613"}},{"arcs":[[35,36,-16]],"type":"Polygon","properties":{"state":"MD","name":"BRYANS ROAD","zip":"20616"}},{"arcs":[[37,38,-4]],"type":"Polygon","properties":{"state":"MD","name":"BRYANTOWN","zip":"20617"}},{"arcs":[[39,-23,40]],"type":"Polygon","properties":{"state":"MD","name":"BUSHWOOD","zip":"20618"}},{"arcs":[[41,42,43,44,45,46]],"type":"Polygon","properties":{"state":"MD","name":"CALIFORNIA","zip":"20619"}},{"arcs":[[47,48,49,-47]],"type":"Polygon","properties":{"state":"MD","name":"CALLAWAY","zip":"20620"}},{"arcs":[[-40,50,51,52,-24]],"type":"Polygon","properties":{"state":"MD","name":"CHAPTICO","zip":"20621"}},{"arcs":[[53,54,55,56,57]],"type":"Polygon","properties":{"state":"MD","name":"CHARLOTTE HALL","zip":"20622"}},{"arcs":[[58,59,-31]],"type":"Polygon","properties":{"state":"MD","name":"CHELTENHAM","zip":"20623"}},{"arcs":[[-53,60,61,62,-25]],"type":"Polygon","properties":{"state":"MD","name":"CLEMENTS","zip":"20624"}},{"arcs":[[63,64,65,66]],"type":"Polygon","properties":{"state":"MD","name":"DAMERON","zip":"20628"}},{"arcs":[[67,68,69]],"type":"Polygon","properties":{"state":"MD","name":"DRAYDEN","zip":"20630"}},{"arcs":[[70,-29,71]],"type":"Polygon","properties":{"state":"MD","name":"FAULKNER","zip":"20632"}},{"arcs":[[-69,72,-48,-46,73,74]],"type":"Polygon","properties":{"state":"MD","name":"GREAT MILLS","zip":"20634"}},{"arcs":[[-43,75,76,77]],"type":"Polygon","properties":{"state":"MD","name":"HOLLYWOOD","zip":"20636"}},{"arcs":[[78,-56,79,-38,-3,-20,80]],"type":"Polygon","properties":{"state":"MD","name":"HUGHESVILLE","zip":"20637"}},{"arcs":[[81,82,-35,83,84,85,86]],"type":"Polygon","properties":{"state":"MD","name":"HUNTINGTOWN","zip":"20639"}},{"arcs":[[-36,87,88,89,90],[91]],"type":"Polygon","properties":{"state":"MD","name":"INDIAN HEAD","zip":"20640"}},{"arcs":[[92,93,94,-89,95,96,97,-13,-5,-39,-80,-55,-72,-28]],"type":"Polygon","properties":{"state":"MD","name":"LA PLATA","zip":"20646"}},{"arcs":[[98,99,100,-62,101,-76,-42,-50]],"type":"Polygon","properties":{"state":"MD","name":"LEONARDTOWN","zip":"20650"}},{"arcs":[[-66,102,103,-74,-45,104,105,106]],"type":"Polygon","properties":{"state":"MD","name":"LEXINGTON PARK","zip":"20653"}},{"arcs":[[107,108]],"type":"Polygon","properties":{"state":"MD","name":"LUSBY","zip":"20657"}},{"arcs":[[-92]],"type":"Polygon","properties":{"state":"MD","name":"MARBURY","zip":"20658"}},{"arcs":[[-61,-52,109,-57,-79,110,-77,-102]],"type":"Polygon","properties":{"state":"MD","name":"MECHANICSVILLE","zip":"20659"}},{"arcs":[[111,112,-90,-95]],"type":"Polygon","properties":{"state":"MD","name":"NANJEMOY","zip":"20662"}},{"arcs":[[113,-27,-71,-54,114]],"type":"Polygon","properties":{"state":"MD","name":"NEWBURG","zip":"20664"}},{"arcs":[[-106,115]],"type":"Polygon","properties":{"state":"MD","name":"PATUXENT RIVER","zip":"20670"}},{"arcs":[[116,-97]],"type":"Polygon","properties":{"state":"MD","name":"POMFRET","zip":"20675"}},{"arcs":[[117,118,119,120]],"type":"Polygon","properties":{"state":"MD","name":"PORT REPUBLIC","zip":"20676"}},{"arcs":[[121,-93,-114,122]],"type":"Polygon","properties":{"state":"MD","name":"PORT TOBACCO","zip":"20677"}},{"arcs":[[-82,123,-118,124]],"type":"Polygon","properties":{"state":"MD","name":"PRINCE FREDERICK","zip":"20678"}},{"arcs":[[125,126,127,-64,128]],"type":"Polygon","properties":{"state":"MD","name":"RIDGE","zip":"20680"}},{"arcs":[[-103,-65,-128,129]],"type":"Polygon","properties":{"state":"MD","name":"SAINT INIGOES","zip":"20684"}},{"arcs":[[-120,130,-108,131]],"type":"Polygon","properties":{"state":"MD","name":"SAINT LEONARD","zip":"20685"}},{"arcs":[[-126,132]],"type":"Polygon","properties":{"state":"MD","name":"SCOTLAND","zip":"20687"}},{"arcs":[[133,134,-85]],"type":"Polygon","properties":{"state":"MD","name":"SUNDERLAND","zip":"20689"}},{"arcs":[[-100,135,136]],"type":"Polygon","properties":{"state":"MD","name":"TALL TIMBERS","zip":"20690"}},{"arcs":[[-99,-49,-73,-68,137,-136]],"type":"Polygon","properties":{"state":"MD","name":"VALLEY LEE","zip":"20692"}},{"arcs":[[-94,-122,138,-112]],"type":"Polygon","properties":{"state":"MD","name":"WELCOME","zip":"20693"}},{"arcs":[[-96,-88,-14,-11,-98,-117]],"type":"Polygon","properties":{"state":"MD","name":"WHITE PLAINS","zip":"20695"}},{"arcs":[[139,140,141]],"type":"Polygon","properties":{"state":"MD","name":"ANNAPOLIS JUNCTION","zip":"20701"}},{"arcs":[[142,143,144,145,146,147,148,149,150]],"type":"Polygon","properties":{"state":"MD","name":"BELTSVILLE","zip":"20705"}},{"arcs":[[151,152,153,154,155,156,157,158,159,-144,160]],"type":"Polygon","properties":{"state":"MD","name":"LANHAM","zip":"20706"}},{"arcs":[[161,-150,162,163,164]],"type":"Polygon","properties":{"state":"MD","name":"LAUREL","zip":"20707"}},{"arcs":[[-162,165,166,167,168,-151]],"type":"Polygon","properties":{"state":"MD","name":"LAUREL","zip":"20708"}},{"arcs":[[169,170,171]],"type":"Polygon","properties":{"state":"MD","name":"BLADENSBURG","zip":"20710"}},{"arcs":[[172,173,174,175,176,177]],"type":"Polygon","properties":{"state":"MD","name":"LOTHIAN","zip":"20711"}},{"arcs":[[178,179,180]],"type":"Polygon","properties":{"state":"MD","name":"MOUNT RAINIER","zip":"20712"}},{"arcs":[[181,182,183,184]],"type":"Polygon","properties":{"state":"MD","name":"NORTH BEACH","zip":"20714"}},{"arcs":[[185,186,187,188,189,190]],"type":"Polygon","properties":{"state":"MD","name":"BOWIE","zip":"20715"}},{"arcs":[[191,192,-187,193,194]],"type":"Polygon","properties":{"state":"MD","name":"BOWIE","zip":"20716"}},{"arcs":[[195,-168,196,-188,-193,197,-152]],"type":"Polygon","properties":{"state":"MD","name":"BOWIE","zip":"20720"}},{"arcs":[[198,-153,-198,-192]],"type":"Polygon","properties":{"state":"MD","name":"BOWIE","zip":"20721"}},{"arcs":[[199,200,-181,201]],"type":"Polygon","properties":{"state":"MD","name":"BRENTWOOD","zip":"20722"}},{"arcs":[[202,203,-164,204,205,206,207,208,209]],"type":"Polygon","properties":{"state":"MD","name":"LAUREL","zip":"20723"}},{"arcs":[[-204,-140,210,211,-166,-165]],"type":"Polygon","properties":{"state":"MD","name":"LAUREL","zip":"20724"}},{"arcs":[[-86,-135,212,-182,213]],"type":"Polygon","properties":{"state":"MD","name":"CHESAPEAKE BEACH","zip":"20732"}},{"arcs":[[214,215,216]],"type":"Polygon","properties":{"state":"MD","name":"CHURCHTON","zip":"20733"}},{"arcs":[[217,218,219,220,-59,-30,-9,-19]],"type":"Polygon","properties":{"state":"MD","name":"CLINTON","zip":"20735"}},{"arcs":[[-84,-34,221,222,-183,-213,-134]],"type":"Polygon","properties":{"state":"MD","name":"OWINGS","zip":"20736"}},{"arcs":[[223,224,225,-157,226,-171]],"type":"Polygon","properties":{"state":"MD","name":"RIVERDALE","zip":"20737"}},{"arcs":[[-226,227,228,-147,229,-158]],"type":"Polygon","properties":{"state":"MD","name":"COLLEGE PARK","zip":"20740"}},{"arcs":[[230,231,232,233,234,235]],"type":"Polygon","properties":{"state":"MD","name":"CAPITOL HEIGHTS","zip":"20743"}},{"arcs":[[236,237,-218,-18,238]],"type":"Polygon","properties":{"state":"MD","name":"FORT WASHINGTON","zip":"20744"}},{"arcs":[[239,240,-237,241]],"type":"Polygon","properties":{"state":"MD","name":"OXON HILL","zip":"20745"}},{"arcs":[[242,243,244,245,246,-231]],"type":"Polygon","properties":{"state":"MD","name":"SUITLAND","zip":"20746"}},{"arcs":[[247,-243,-236,248]],"type":"Polygon","properties":{"state":"MD","name":"DISTRICT HEIGHTS","zip":"20747"}},{"arcs":[[249,-219,-238,-241,250,-246]],"type":"Polygon","properties":{"state":"MD","name":"TEMPLE HILLS","zip":"20748"}},{"arcs":[[251,-178,252,-215,253]],"type":"Polygon","properties":{"state":"MD","name":"DEALE","zip":"20751"}},{"arcs":[[254,-174,255,256,-222,-33]],"type":"Polygon","properties":{"state":"MD","name":"DUNKIRK","zip":"20754"}},{"arcs":[[-212,257,258,259,-197,-167]],"type":"Polygon","properties":{"state":"MD","name":"FORT GEORGE G MEADE","zip":"20755"}},{"arcs":[[-223,-257,260,261,-184]],"type":"Polygon","properties":{"state":"MD","name":"FRIENDSHIP","zip":"20758"}},{"arcs":[[262,263,264,-206,265]],"type":"Polygon","properties":{"state":"MD","name":"FULTON","zip":"20759"}},{"arcs":[[-245,266,-220,-250]],"type":"Polygon","properties":{"state":"MD","name":"ANDREWS AIR FORCE BASE","zip":"20762"}},{"arcs":[[-203,267,-141]],"type":"Polygon","properties":{"state":"MD","name":"SAVAGE","zip":"20763"}},{"arcs":[[-143,-169,-196,-161]],"type":"Polygon","properties":{"state":"MD","name":"GLENN DALE","zip":"20769"}},{"arcs":[[268,-159,-230,-146]],"type":"Polygon","properties":{"state":"MD","name":"GREENBELT","zip":"20770"}},{"arcs":[[-269,-145,-160]],"type":"Polygon","properties":{"state":"MD","name":"GREENBELT","zip":"20771"}},{"arcs":[[-255,-32,-60,-221,-267,-244,-248,269,270,-175]],"type":"Polygon","properties":{"state":"MD","name":"UPPER MARLBORO","zip":"20772"}},{"arcs":[[271,-154,-199,-195,272,273,-270,-249,-235]],"type":"Polygon","properties":{"state":"MD","name":"UPPER MARLBORO","zip":"20774"}},{"arcs":[[274,-176,-271,-274,275,276,277]],"type":"Polygon","properties":{"state":"MD","name":"HARWOOD","zip":"20776"}},{"arcs":[[278,279,280,-264]],"type":"Polygon","properties":{"state":"MD","name":"HIGHLAND","zip":"20777"}},{"arcs":[[-253,-177,-275,281,-216]],"type":"Polygon","properties":{"state":"MD","name":"WEST RIVER","zip":"20778"}},{"arcs":[[-261,-256,-173,-252,282]],"type":"Polygon","properties":{"state":"MD","name":"TRACYS LANDING","zip":"20779"}},{"arcs":[[-200,283,-224,-170,284,285,-233]],"type":"Polygon","properties":{"state":"MD","name":"HYATTSVILLE","zip":"20781"}},{"arcs":[[-180,286,287,-228,-225,-284,-202]],"type":"Polygon","properties":{"state":"MD","name":"HYATTSVILLE","zip":"20782"}},{"arcs":[[288,289,290,-148,-229,-288,291]],"type":"Polygon","properties":{"state":"MD","name":"HYATTSVILLE","zip":"20783"}},{"arcs":[[-172,-227,-156,292,-285]],"type":"Polygon","properties":{"state":"MD","name":"HYATTSVILLE","zip":"20784"}},{"arcs":[[-293,-155,-272,-234,-286]],"type":"Polygon","properties":{"state":"MD","name":"HYATTSVILLE","zip":"20785"}},{"arcs":[[-268,-210,293,294,295,-258,-211,-142]],"type":"Polygon","properties":{"state":"MD","name":"JESSUP","zip":"20794"}},{"arcs":[[296,297,298,299]],"type":"Polygon","properties":{"state":"MD","name":"GLEN ECHO","zip":"20812"}},{"arcs":[[300,301,302,303]],"type":"Polygon","properties":{"state":"MD","name":"BETHESDA","zip":"20814"}},{"arcs":[[304,-301,305,306,307,308]],"type":"Polygon","properties":{"state":"MD","name":"CHEVY CHASE","zip":"20815"}},{"arcs":[[309,-297,310,-309]],"type":"Polygon","properties":{"state":"MD","name":"BETHESDA","zip":"20816"}},{"arcs":[[-311,-300,311,312,313,314,-302,-305]],"type":"Polygon","properties":{"state":"MD","name":"BETHESDA","zip":"20817"}},{"arcs":[[-312,-299,315]],"type":"Polygon","properties":{"state":"MD","name":"CABIN JOHN","zip":"20818"}},{"arcs":[[316,317,318,319,320]],"type":"Polygon","properties":{"state":"MD","name":"OLNEY","zip":"20832"}},{"arcs":[[321,322,-319,323,324,325,326,327,328,329,-280]],"type":"Polygon","properties":{"state":"MD","name":"BROOKEVILLE","zip":"20833"}},{"arcs":[[330,331,332,333,334,335,336]],"type":"Polygon","properties":{"state":"MD","name":"POOLESVILLE","zip":"20837"}},{"arcs":[[337,338,339]],"type":"Polygon","properties":{"state":"MD","name":"BARNESVILLE","zip":"20838"}},{"arcs":[[340,-335]],"type":"Polygon","properties":{"state":"MD","name":"BEALLSVILLE","zip":"20839"}},{"arcs":[[341,-338,342,343,344,-337]],"type":"Polygon","properties":{"state":"MD","name":"BOYDS","zip":"20841"}},{"arcs":[[-336,-341,-334,345,346,347,348,349,350,-339,-342]],"type":"Polygon","properties":{"state":"MD","name":"DICKERSON","zip":"20842"}},{"arcs":[[351,352,353,354,355,356,357]],"type":"Polygon","properties":{"state":"MD","name":"ROCKVILLE","zip":"20850"}},{"arcs":[[358,-356,359]],"type":"Polygon","properties":{"state":"MD","name":"ROCKVILLE","zip":"20851"}},{"arcs":[[360,-357,-359,361,362,363,-303,-315]],"type":"Polygon","properties":{"state":"MD","name":"ROCKVILLE","zip":"20852"}},{"arcs":[[-355,364,-317,365,-362,-360]],"type":"Polygon","properties":{"state":"MD","name":"ROCKVILLE","zip":"20853"}},{"arcs":[[-314,366,-332,367,368,-358,-361]],"type":"Polygon","properties":{"state":"MD","name":"POTOMAC","zip":"20854"}},{"arcs":[[369,370,371,-324,-318,-365,-354]],"type":"Polygon","properties":{"state":"MD","name":"DERWOOD","zip":"20855"}},{"arcs":[[372,373,-320,-323,374]],"type":"Polygon","properties":{"state":"MD","name":"SANDY SPRING","zip":"20860"}},{"arcs":[[-322,-279,375,-375]],"type":"Polygon","properties":{"state":"MD","name":"ASHTON","zip":"20861"}},{"arcs":[[376,-266,-205,-163,377]],"type":"Polygon","properties":{"state":"MD","name":"BURTONSVILLE","zip":"20866"}},{"arcs":[[-351,378,379,380,-343,-340]],"type":"Polygon","properties":{"state":"MD","name":"CLARKSBURG","zip":"20871"}},{"arcs":[[381,382,383,384,385,-380]],"type":"Polygon","properties":{"state":"MD","name":"DAMASCUS","zip":"20872"}},{"arcs":[[386,-368,-331,-345,387,388]],"type":"Polygon","properties":{"state":"MD","name":"GERMANTOWN","zip":"20874"}},{"arcs":[[389,390,-388,-344,-381,-386,391,392]],"type":"Polygon","properties":{"state":"MD","name":"GERMANTOWN","zip":"20876"}},{"arcs":[[-353,393,394,395,396,-370]],"type":"Polygon","properties":{"state":"MD","name":"GAITHERSBURG","zip":"20877"}},{"arcs":[[-369,-387,397,-394,-352]],"type":"Polygon","properties":{"state":"MD","name":"GAITHERSBURG","zip":"20878"}},{"arcs":[[[398,-393,399]],[[-397,400,401,-371]],[[-389,-391,402,-395,-398]]],"type":"MultiPolygon","properties":{"state":"MD","name":"GAITHERSBURG","zip":"20879"}},{"arcs":[[403,-400,-392,-385,404,405,-325,-372,-402]],"type":"Polygon","properties":{"state":"MD","name":"GAITHERSBURG","zip":"20882"}},{"arcs":[[-396,-403,-390,-399,-404,-401]],"type":"Polygon","properties":{"state":"MD","name":"MONTGOMERY VILLAGE","zip":"20886"}},{"arcs":[[406,-306,-304,-364,407,408]],"type":"Polygon","properties":{"state":"MD","name":"KENSINGTON","zip":"20895"}},{"arcs":[[409,410,411,412,413]],"type":"Polygon","properties":{"state":"MD","name":"SILVER SPRING","zip":"20901"}},{"arcs":[[414,-409,415,416,-412]],"type":"Polygon","properties":{"state":"MD","name":"SILVER SPRING","zip":"20902"}},{"arcs":[[417,-414,418,-290]],"type":"Polygon","properties":{"state":"MD","name":"SILVER SPRING","zip":"20903"}},{"arcs":[[-417,419,420,-378,-149,-291,-419,-413]],"type":"Polygon","properties":{"state":"MD","name":"SILVER SPRING","zip":"20904"}},{"arcs":[[-421,421,-373,-376,-263,-377]],"type":"Polygon","properties":{"state":"MD","name":"SILVER SPRING","zip":"20905"}},{"arcs":[[-408,-363,-366,-321,-374,-422,-420,-416]],"type":"Polygon","properties":{"state":"MD","name":"SILVER SPRING","zip":"20906"}},{"arcs":[[-407,-415,-411,422,423,-307]],"type":"Polygon","properties":{"state":"MD","name":"SILVER SPRING","zip":"20910"}},{"arcs":[[424,-423,-410,-418,-289]],"type":"Polygon","properties":{"state":"MD","name":"TAKOMA PARK","zip":"20912"}},{"arcs":[[425,426,427,428,429,430]],"type":"Polygon","properties":{"state":"MD","name":"ABERDEEN","zip":"21001"}},{"arcs":[[-430,431,432]],"type":"Polygon","properties":{"state":"MD","name":"ABERDEEN PROVING GROUND","zip":"21005"}},{"arcs":[[433,434,435,436,437]],"type":"Polygon","properties":{"state":"MD","name":"ABINGDON","zip":"21009"}},{"arcs":[[438,439,440]],"type":"Polygon","properties":{"state":"MD","name":"GUNPOWDER","zip":"21010"}},{"arcs":[[441,442,443,444]],"type":"Polygon","properties":{"state":"MD","name":"ARNOLD","zip":"21012"}},{"arcs":[[445,446,447,448,449,450]],"type":"Polygon","properties":{"state":"MD","name":"BALDWIN","zip":"21013"}},{"arcs":[[451,452,453,454]],"type":"Polygon","properties":{"state":"MD","name":"BEL AIR","zip":"21014"}},{"arcs":[[455,-436,456,-452,457,458,459,460,-427]],"type":"Polygon","properties":{"state":"MD","name":"BEL AIR","zip":"21015"}},{"arcs":[[-437,-456,-426,461]],"type":"Polygon","properties":{"state":"MD","name":"BELCAMP","zip":"21017"}},{"arcs":[[462,463,-428,-461]],"type":"Polygon","properties":{"state":"MD","name":"CHURCHVILLE","zip":"21028"}},{"arcs":[[464,-207,-265,-281,-330,465,466]],"type":"Polygon","properties":{"state":"MD","name":"CLARKSVILLE","zip":"21029"}},{"arcs":[[467,468,469,470,471]],"type":"Polygon","properties":{"state":"MD","name":"COCKEYSVILLE","zip":"21030"}},{"arcs":[[472,473,474,475,476]],"type":"Polygon","properties":{"state":"MD","name":"CROWNSVILLE","zip":"21032"}},{"arcs":[[477,478,479,480,481,-463,-460]],"type":"Polygon","properties":{"state":"MD","name":"DARLINGTON","zip":"21034"}},{"arcs":[[482,-276,-273,-194,-186,483,-474,484,485]],"type":"Polygon","properties":{"state":"MD","name":"DAVIDSONVILLE","zip":"21035"}},{"arcs":[[-329,486,487,-466]],"type":"Polygon","properties":{"state":"MD","name":"DAYTON","zip":"21036"}},{"arcs":[[-483,488,-277]],"type":"Polygon","properties":{"state":"MD","name":"EDGEWATER","zip":"21037"}},{"arcs":[[489,-434,490,-440]],"type":"Polygon","properties":{"state":"MD","name":"EDGEWOOD","zip":"21040"}},{"arcs":[[491,-467,-488,492,493,494,495,496]],"type":"Polygon","properties":{"state":"MD","name":"ELLICOTT CITY","zip":"21042"}},{"arcs":[[497,-497,498,499,500]],"type":"Polygon","properties":{"state":"MD","name":"ELLICOTT CITY","zip":"21043"}},{"arcs":[[501,-208,-465,-492,502]],"type":"Polygon","properties":{"state":"MD","name":"COLUMBIA","zip":"21044"}},{"arcs":[[503,504,-503,-498]],"type":"Polygon","properties":{"state":"MD","name":"COLUMBIA","zip":"21045"}},{"arcs":[[-209,-502,-505,505,-294]],"type":"Polygon","properties":{"state":"MD","name":"COLUMBIA","zip":"21046"}},{"arcs":[[506,507,-451,508,509,510,-454]],"type":"Polygon","properties":{"state":"MD","name":"FALLSTON","zip":"21047"}},{"arcs":[[511,512,513,514,515]],"type":"Polygon","properties":{"state":"MD","name":"FINKSBURG","zip":"21048"}},{"arcs":[[-511,516,517,-458,-455]],"type":"Polygon","properties":{"state":"MD","name":"FOREST HILL","zip":"21050"}},{"arcs":[[518,519,520]],"type":"Polygon","properties":{"state":"MD","name":"FREELAND","zip":"21053"}},{"arcs":[[521,522,523,524,-475,-484,-191]],"type":"Polygon","properties":{"state":"MD","name":"GAMBRILLS","zip":"21054"}},{"arcs":[[525,526,527,528,529,-448,530,531]],"type":"Polygon","properties":{"state":"MD","name":"GLEN ARM","zip":"21057"}},{"arcs":[[532,533,534,535,536,537,538]],"type":"Polygon","properties":{"state":"MD","name":"GLEN BURNIE","zip":"21060"}},{"arcs":[[539,540,541,542,543,544,545,-534]],"type":"Polygon","properties":{"state":"MD","name":"GLEN BURNIE","zip":"21061"}},{"arcs":[[546,-469]],"type":"Polygon","properties":{"state":"MD","name":"GLYNDON","zip":"21071"}},{"arcs":[[547,548,549,550,-515]],"type":"Polygon","properties":{"state":"MD","name":"HAMPSTEAD","zip":"21074"}},{"arcs":[[-504,-501,551,552,553,-295,-506]],"type":"Polygon","properties":{"state":"MD","name":"ELKRIDGE","zip":"21075"}},{"arcs":[[[-554,554,555,556,557,558,-296]],[[559,-543,560]]],"type":"MultiPolygon","properties":{"state":"MD","name":"HANOVER","zip":"21076"}},{"arcs":[[557,561,562]],"type":"Polygon","properties":{"state":"MD","name":"HARMANS","zip":"21077"}},{"arcs":[[-464,-482,563,564,565,-432,-429]],"type":"Polygon","properties":{"state":"MD","name":"HAVRE DE GRACE","zip":"21078"}},{"arcs":[[566,-531,-447]],"type":"Polygon","properties":{"state":"MD","name":"HYDES","zip":"21082"}},{"arcs":[[-510,567,568,569,-517]],"type":"Polygon","properties":{"state":"MD","name":"JARRETTSVILLE","zip":"21084"}},{"arcs":[[-439,570,571,572,-507,-453,-457,-435,-490]],"type":"Polygon","properties":{"state":"MD","name":"JOPPA","zip":"21085"}},{"arcs":[[573,-532,-567,-446,-508,-573,574]],"type":"Polygon","properties":{"state":"MD","name":"KINGSVILLE","zip":"21087"}},{"arcs":[[575,576,-545,577,-556]],"type":"Polygon","properties":{"state":"MD","name":"LINTHICUM HEIGHTS","zip":"21090"}},{"arcs":[[578,579,580,581,582,-472,583]],"type":"Polygon","properties":{"state":"MD","name":"LUTHERVILLE TIMONIUM","zip":"21093"}},{"arcs":[[584,585,586,-520,587,-549]],"type":"Polygon","properties":{"state":"MD","name":"MANCHESTER","zip":"21102"}},{"arcs":[[588,589,590,591,592,593,-494]],"type":"Polygon","properties":{"state":"MD","name":"MARRIOTTSVILLE","zip":"21104"}},{"arcs":[[-476,-525,594,-541,595,596,597]],"type":"Polygon","properties":{"state":"MD","name":"MILLERSVILLE","zip":"21108"}},{"arcs":[[598,599,600,601,-568,-509,-450]],"type":"Polygon","properties":{"state":"MD","name":"MONKTON","zip":"21111"}},{"arcs":[[602,-189,-260,603,-523]],"type":"Polygon","properties":{"state":"MD","name":"ODENTON","zip":"21113"}},{"arcs":[[-190,-603,-522]],"type":"Polygon","properties":{"state":"MD","name":"CROFTON","zip":"21114"}},{"arcs":[[604,605,-592,606,-582]],"type":"Polygon","properties":{"state":"MD","name":"OWINGS MILLS","zip":"21117"}},{"arcs":[[607,-550,-588,-519,608,609,-601,610]],"type":"Polygon","properties":{"state":"MD","name":"PARKTON","zip":"21120"}},{"arcs":[[611,-596,-540,-533,612]],"type":"Polygon","properties":{"state":"MD","name":"PASADENA","zip":"21122"}},{"arcs":[[613,614,615,-526,-574]],"type":"Polygon","properties":{"state":"MD","name":"PERRY HALL","zip":"21128"}},{"arcs":[[-471,616,-599,-449,-530,617,-584]],"type":"Polygon","properties":{"state":"MD","name":"PHOENIX","zip":"21131"}},{"arcs":[[618,619,620,621]],"type":"Polygon","properties":{"state":"MD","name":"PYLESVILLE","zip":"21132"}},{"arcs":[[622,623,-593,-606,624]],"type":"Polygon","properties":{"state":"MD","name":"RANDALLSTOWN","zip":"21133"}},{"arcs":[[625,-512,626,627,-547,-468,-583,-607,-591]],"type":"Polygon","properties":{"state":"MD","name":"REISTERSTOWN","zip":"21136"}},{"arcs":[[-259,-559,561,-561,-542,-595,-524,-604]],"type":"Polygon","properties":{"state":"MD","name":"SEVERN","zip":"21144"}},{"arcs":[[-597,-612,628,-442,629]],"type":"Polygon","properties":{"state":"MD","name":"SEVERNA PARK","zip":"21146"}},{"arcs":[[-628,630,-611,-600,-617,-470]],"type":"Polygon","properties":{"state":"MD","name":"SPARKS GLENCOE","zip":"21152"}},{"arcs":[[-570,631,-622,632,-478,-459,-518]],"type":"Polygon","properties":{"state":"MD","name":"STREET","zip":"21154"}},{"arcs":[[-551,-608,-631,-627,-516]],"type":"Polygon","properties":{"state":"MD","name":"UPPERCO","zip":"21155"}},{"arcs":[[633,634,635,-585,-548,-514,636,637]],"type":"Polygon","properties":{"state":"MD","name":"WESTMINSTER","zip":"21157"}},{"arcs":[[638,639,640,-586,-636,641]],"type":"Polygon","properties":{"state":"MD","name":"WESTMINSTER","zip":"21158"}},{"arcs":[[-633,-621,642,643,-479]],"type":"Polygon","properties":{"state":"MD","name":"WHITEFORD","zip":"21160"}},{"arcs":[[644,-619,-632,-569,-602,-610]],"type":"Polygon","properties":{"state":"MD","name":"WHITE HALL","zip":"21161"}},{"arcs":[[-575,-572,645,646,647,-614]],"type":"Polygon","properties":{"state":"MD","name":"WHITE MARSH","zip":"21162"}},{"arcs":[[-594,-624,648,-495]],"type":"Polygon","properties":{"state":"MD","name":"WOODSTOCK","zip":"21163"}},{"arcs":[[649,650,651,652,653]],"type":"Polygon","properties":{"state":"MD","name":"BALTIMORE","zip":"21201"}},{"arcs":[[654,655,656,657,658,659,-653]],"type":"Polygon","properties":{"state":"MD","name":"BALTIMORE","zip":"21202"}},{"arcs":[[660,661,-580,662,663]],"type":"Polygon","properties":{"state":"MD","name":"TOWSON","zip":"21204"}},{"arcs":[[664,-657,665,666,667,668]],"type":"Polygon","properties":{"state":"MD","name":"BALTIMORE","zip":"21205"}},{"arcs":[[669,670,671,672,673,674,-667]],"type":"Polygon","properties":{"state":"MD","name":"BALTIMORE","zip":"21206"}},{"arcs":[[675,676,677,678,679,680]],"type":"Polygon","properties":{"state":"MD","name":"GWYNN OAK","zip":"21207"}},{"arcs":[[681,-625,-605,-581,-662,682,683,-677]],"type":"Polygon","properties":{"state":"MD","name":"PIKESVILLE","zip":"21208"}},{"arcs":[[684,685,686,-683,-661,687]],"type":"Polygon","properties":{"state":"MD","name":"BALTIMORE","zip":"21209"}},{"arcs":[[688,-685,689,690]],"type":"Polygon","properties":{"state":"MD","name":"BALTIMORE","zip":"21210"}},{"arcs":[[691,692,693,-686,-689]],"type":"Polygon","properties":{"state":"MD","name":"BALTIMORE","zip":"21211"}},{"arcs":[[-688,-664,694,695,-690]],"type":"Polygon","properties":{"state":"MD","name":"BALTIMORE","zip":"21212"}},{"arcs":[[696,-670,-666,-656]],"type":"Polygon","properties":{"state":"MD","name":"BALTIMORE","zip":"21213"}},{"arcs":[[697,698,699,700,-672]],"type":"Polygon","properties":{"state":"MD","name":"BALTIMORE","zip":"21214"}},{"arcs":[[701,702,-678,-684,-687,-694]],"type":"Polygon","properties":{"state":"MD","name":"BALTIMORE","zip":"21215"}},{"arcs":[[703,704,-679,-703,705]],"type":"Polygon","properties":{"state":"MD","name":"BALTIMORE","zip":"21216"}},{"arcs":[[706,-706,-702,-693,-651]],"type":"Polygon","properties":{"state":"MD","name":"BALTIMORE","zip":"21217"}},{"arcs":[[-655,-652,-692,-691,-696,707,708,-698,-671,-697]],"type":"Polygon","properties":{"state":"MD","name":"BALTIMORE","zip":"21218"}},{"arcs":[[709,710]],"type":"Polygon","properties":{"state":"MD","name":"SPARROWS POINT","zip":"21219"}},{"arcs":[[711,712,-647,713]],"type":"Polygon","properties":{"state":"MD","name":"MIDDLE RIVER","zip":"21220"}},{"arcs":[[714,-712,715]],"type":"Polygon","properties":{"state":"MD","name":"ESSEX","zip":"21221"}},{"arcs":[[716,717,-710,718]],"type":"Polygon","properties":{"state":"MD","name":"DUNDALK","zip":"21222"}},{"arcs":[[719,-704,-707,-650,720,721]],"type":"Polygon","properties":{"state":"MD","name":"BALTIMORE","zip":"21223"}},{"arcs":[[722,-669,723,724,-717,725]],"type":"Polygon","properties":{"state":"MD","name":"BALTIMORE","zip":"21224"}},{"arcs":[[-546,-577,726,727,728,729,-535]],"type":"Polygon","properties":{"state":"MD","name":"BROOKLYN","zip":"21225"}},{"arcs":[[[-536,-730,730]],[[-538,731]]],"type":"MultiPolygon","properties":{"state":"MD","name":"CURTIS BAY","zip":"21226"}},{"arcs":[[-576,-555,-553,732,733,-722,734,-727]],"type":"Polygon","properties":{"state":"MD","name":"HALETHORPE","zip":"21227"}},{"arcs":[[735,-681,736,-733,-552,-500]],"type":"Polygon","properties":{"state":"MD","name":"CATONSVILLE","zip":"21228"}},{"arcs":[[-680,-705,-720,-734,-737]],"type":"Polygon","properties":{"state":"MD","name":"BALTIMORE","zip":"21229"}},{"arcs":[[-728,-735,-721,-654,-660,737]],"type":"Polygon","properties":{"state":"MD","name":"BALTIMORE","zip":"21230"}},{"arcs":[[-665,-723,738,-658]],"type":"Polygon","properties":{"state":"MD","name":"BALTIMORE","zip":"21231"}},{"arcs":[[739,-673,-701,740,741,-528]],"type":"Polygon","properties":{"state":"MD","name":"PARKVILLE","zip":"21234"}},{"arcs":[[742,-674,-740,-527,-616]],"type":"Polygon","properties":{"state":"MD","name":"NOTTINGHAM","zip":"21236"}},{"arcs":[[-724,-668,-675,-743,-615,-648,-713,-715,743]],"type":"Polygon","properties":{"state":"MD","name":"ROSEDALE","zip":"21237"}},{"arcs":[[744,-708,-695,745,-741,-700]],"type":"Polygon","properties":{"state":"MD","name":"BALTIMORE","zip":"21239"}},{"arcs":[[-557,-578,-544,-560,562]],"type":"Polygon","properties":{"state":"MD","name":"BALTIMORE","zip":"21240"}},{"arcs":[[-496,-649,-623,-682,-676,-736,-499]],"type":"Polygon","properties":{"state":"MD","name":"WINDSOR MILL","zip":"21244"}},{"arcs":[[-745,-699,-709]],"type":"Polygon","properties":{"state":"MD","name":"BALTIMORE","zip":"21251"}},{"arcs":[[-579,-618,-529,-742,-746,-663]],"type":"Polygon","properties":{"state":"MD","name":"TOWSON","zip":"21286"}},{"arcs":[[[-444,746]],[[-485,-473,747,748,749]]],"type":"MultiPolygon","properties":{"state":"MD","name":"ANNAPOLIS","zip":"21401"}},{"arcs":[[-749,750]],"type":"Polygon","properties":{"state":"MD","name":"ANNAPOLIS","zip":"21403"}},{"arcs":[[751,752,753,754,755,756,757]],"type":"Polygon","properties":{"state":"MD","name":"CUMBERLAND","zip":"21502"}},{"arcs":[[758,759,760,761,762]],"type":"Polygon","properties":{"state":"MD","name":"ACCIDENT","zip":"21520"}},{"arcs":[[763,764,765,766,767]],"type":"Polygon","properties":{"state":"MD","name":"BARTON","zip":"21521"}},{"arcs":[[768,-763,769]],"type":"Polygon","properties":{"state":"MD","name":"BITTINGER","zip":"21522"}},{"arcs":[[770,771,-766,772,773]],"type":"Polygon","properties":{"state":"MD","name":"BLOOMINGTON","zip":"21523"}},{"arcs":[[774,775,776,-756]],"type":"Polygon","properties":{"state":"MD","name":"FLINTSTONE","zip":"21530"}},{"arcs":[[777,778,779,780,-761]],"type":"Polygon","properties":{"state":"MD","name":"FRIENDSVILLE","zip":"21531"}},{"arcs":[[781,782,783,784,785,-753]],"type":"Polygon","properties":{"state":"MD","name":"FROSTBURG","zip":"21532"}},{"arcs":[[786,-770,-762,-781,787,-784,788,-768]],"type":"Polygon","properties":{"state":"MD","name":"GRANTSVILLE","zip":"21536"}},{"arcs":[[789,790,791]],"type":"Polygon","properties":{"state":"MD","name":"KITZMILLER","zip":"21538"}},{"arcs":[[792,793,-764,-789,-783]],"type":"Polygon","properties":{"state":"MD","name":"LONACONING","zip":"21539"}},{"arcs":[[794,-774,795]],"type":"Polygon","properties":{"state":"MD","name":"LUKE","zip":"21540"}},{"arcs":[[796,797,-778,-760]],"type":"Polygon","properties":{"state":"MD","name":"MC HENRY","zip":"21541"}},{"arcs":[[798,-754,-786]],"type":"Polygon","properties":{"state":"MD","name":"MOUNT SAVAGE","zip":"21545"}},{"arcs":[[799,-779,-798,800,-790]],"type":"Polygon","properties":{"state":"MD","name":"OAKLAND","zip":"21550"}},{"arcs":[[-777,801,802,-757]],"type":"Polygon","properties":{"state":"MD","name":"OLDTOWN","zip":"21555"}},{"arcs":[[803,-793,-782,-752,804]],"type":"Polygon","properties":{"state":"MD","name":"RAWLINGS","zip":"21557"}},{"arcs":[[-797,-759,-769,-787,-767,-772,805,-791,-801]],"type":"Polygon","properties":{"state":"MD","name":"SWANTON","zip":"21561"}},{"arcs":[[-773,-765,-794,-804,806,-796]],"type":"Polygon","properties":{"state":"MD","name":"WESTERNPORT","zip":"21562"}},{"arcs":[[807,808,809,810,811,812,813,814,815,816,817]],"type":"Polygon","properties":{"state":"MD","name":"EASTON","zip":"21601"}},{"arcs":[[818,819,820,821]],"type":"Polygon","properties":{"state":"MD","name":"BARCLAY","zip":"21607"}},{"arcs":[[822,823,824,825]],"type":"Polygon","properties":{"state":"MD","name":"BETTERTON","zip":"21610"}},{"arcs":[[826,827]],"type":"Polygon","properties":{"state":"MD","name":"BOZMAN","zip":"21612"}},{"arcs":[[828,829,830,831,832,833,834,835]],"type":"Polygon","properties":{"state":"MD","name":"CAMBRIDGE","zip":"21613"}},{"arcs":[[836,837,838,839,840]],"type":"Polygon","properties":{"state":"MD","name":"CENTREVILLE","zip":"21617"}},{"arcs":[[841,842]],"type":"Polygon","properties":{"state":"MD","name":"CHESTER","zip":"21619"}},{"arcs":[[843,844,845,846,847,848,849,850]],"type":"Polygon","properties":{"state":"MD","name":"CHESTERTOWN","zip":"21620"}},{"arcs":[[851,852,853,854,855,856,-829]],"type":"Polygon","properties":{"state":"MD","name":"CHURCH CREEK","zip":"21622"}},{"arcs":[[857,-837,858,-850,859]],"type":"Polygon","properties":{"state":"MD","name":"CHURCH HILL","zip":"21623"}},{"arcs":[[860,-812,861,862]],"type":"Polygon","properties":{"state":"MD","name":"CORDOVA","zip":"21625"}},{"arcs":[[863,864,865,-852,-836,866]],"type":"Polygon","properties":{"state":"MD","name":"CRAPO","zip":"21626"}},{"arcs":[[-861,867,868,869,870,871,872,-813]],"type":"Polygon","properties":{"state":"MD","name":"DENTON","zip":"21629"}},{"arcs":[[873,874,875,-832,876]],"type":"Polygon","properties":{"state":"MD","name":"EAST NEW MARKET","zip":"21631"}},{"arcs":[[877,878,-872,879,880]],"type":"Polygon","properties":{"state":"MD","name":"FEDERALSBURG","zip":"21632"}},{"arcs":[[881,882,883,884,885,886,887]],"type":"Polygon","properties":{"state":"MD","name":"GALENA","zip":"21635"}},{"arcs":[[888,889,890,891]],"type":"Polygon","properties":{"state":"MD","name":"GOLDSBORO","zip":"21636"}},{"arcs":[[892,893]],"type":"Polygon","properties":{"state":"MD","name":"GRASONVILLE","zip":"21638"}},{"arcs":[[894,-870,895,-890]],"type":"Polygon","properties":{"state":"MD","name":"GREENSBORO","zip":"21639"}},{"arcs":[[896,897,-838,-822,898,899,-892]],"type":"Polygon","properties":{"state":"MD","name":"HENDERSON","zip":"21640"}},{"arcs":[[900,-878,901,-874,902]],"type":"Polygon","properties":{"state":"MD","name":"HURLOCK","zip":"21643"}},{"arcs":[[-858,903,-819]],"type":"Polygon","properties":{"state":"MD","name":"INGLESIDE","zip":"21644"}},{"arcs":[[904,-847,905,906,-826,907,-884]],"type":"Polygon","properties":{"state":"MD","name":"KENNEDYVILLE","zip":"21645"}},{"arcs":[[908,909,910,911]],"type":"Polygon","properties":{"state":"MD","name":"MCDANIEL","zip":"21647"}},{"arcs":[[912,-856,913]],"type":"Polygon","properties":{"state":"MD","name":"MADISON","zip":"21648"}},{"arcs":[[914,-899,-821,915]],"type":"Polygon","properties":{"state":"MD","name":"MARYDEL","zip":"21649"}},{"arcs":[[916,-882,917]],"type":"Polygon","properties":{"state":"MD","name":"MASSEY","zip":"21650"}},{"arcs":[[-905,-883,-917,918,919,-848]],"type":"Polygon","properties":{"state":"MD","name":"MILLINGTON","zip":"21651"}},{"arcs":[[-817,920,921]],"type":"Polygon","properties":{"state":"MD","name":"OXFORD","zip":"21654"}},{"arcs":[[-814,-873,-879,-901,922]],"type":"Polygon","properties":{"state":"MD","name":"PRESTON","zip":"21655"}},{"arcs":[[923,924,-839,-898,925,-868,-863,926]],"type":"Polygon","properties":{"state":"MD","name":"QUEEN ANNE","zip":"21657"}},{"arcs":[[927,928,-893,929,-840,-925]],"type":"Polygon","properties":{"state":"MD","name":"QUEENSTOWN","zip":"21658"}},{"arcs":[[930,-875,-902,-881,931,932,933]],"type":"Polygon","properties":{"state":"MD","name":"RHODESDALE","zip":"21659"}},{"arcs":[[-897,-891,-896,-869,-926]],"type":"Polygon","properties":{"state":"MD","name":"RIDGELY","zip":"21660"}},{"arcs":[[-844,934]],"type":"Polygon","properties":{"state":"MD","name":"ROCK HALL","zip":"21661"}},{"arcs":[[-808,935]],"type":"Polygon","properties":{"state":"MD","name":"ROYAL OAK","zip":"21662"}},{"arcs":[[-810,936,-827,937,-911,938]],"type":"Polygon","properties":{"state":"MD","name":"SAINT MICHAELS","zip":"21663"}},{"arcs":[[939,940,941,942]],"type":"Polygon","properties":{"state":"MD","name":"SHERWOOD","zip":"21665"}},{"arcs":[[-842,943]],"type":"Polygon","properties":{"state":"MD","name":"STEVENSVILLE","zip":"21666"}},{"arcs":[[944,-823,-907]],"type":"Polygon","properties":{"state":"MD","name":"STILL POND","zip":"21667"}},{"arcs":[[-820,-904,-860,-849,-920,945,-916]],"type":"Polygon","properties":{"state":"MD","name":"SUDLERSVILLE","zip":"21668"}},{"arcs":[[-854,946]],"type":"Polygon","properties":{"state":"MD","name":"TAYLORS ISLAND","zip":"21669"}},{"arcs":[[-940,947]],"type":"Polygon","properties":{"state":"MD","name":"TILGHMAN","zip":"21671"}},{"arcs":[[948,-864,949]],"type":"Polygon","properties":{"state":"MD","name":"TODDVILLE","zip":"21672"}},{"arcs":[[-921,-816,950]],"type":"Polygon","properties":{"state":"MD","name":"TRAPPE","zip":"21673"}},{"arcs":[[-865,-949,951]],"type":"Polygon","properties":{"state":"MD","name":"WINGATE","zip":"21675"}},{"arcs":[[-909,952,-942,953]],"type":"Polygon","properties":{"state":"MD","name":"WITTMAN","zip":"21676"}},{"arcs":[[-857,-913,954,-830]],"type":"Polygon","properties":{"state":"MD","name":"WOOLFORD","zip":"21677"}},{"arcs":[[-824,-945,-906,-846,955]],"type":"Polygon","properties":{"state":"MD","name":"WORTON","zip":"21678"}},{"arcs":[[-928,-924,956]],"type":"Polygon","properties":{"state":"MD","name":"WYE MILLS","zip":"21679"}},{"arcs":[[957,958,959,960,961,962,963,964,965]],"type":"Polygon","properties":{"state":"MD","name":"FREDERICK","zip":"21701"}},{"arcs":[[966,967,968,969,-959]],"type":"Polygon","properties":{"state":"MD","name":"FREDERICK","zip":"21702"}},{"arcs":[[970,971,972,973,-967,-958]],"type":"Polygon","properties":{"state":"MD","name":"FREDERICK","zip":"21703"}},{"arcs":[[974,-349,975,-971,-966]],"type":"Polygon","properties":{"state":"MD","name":"FREDERICK","zip":"21704"}},{"arcs":[[976,977,-972,-976,-348,978]],"type":"Polygon","properties":{"state":"MD","name":"ADAMSTOWN","zip":"21710"}},{"arcs":[[979,980,981,982]],"type":"Polygon","properties":{"state":"MD","name":"BIG POOL","zip":"21711"}},{"arcs":[[983,984,985,986,987,988,989]],"type":"Polygon","properties":{"state":"MD","name":"BOONSBORO","zip":"21713"}},{"type":null,"properties":{"state":"MD","name":"BURKITTSVILLE","zip":"21718"}},{"arcs":[[990,991,992]],"type":"Polygon","properties":{"state":"MD","name":"CASCADE","zip":"21719"}},{"arcs":[[993,994,995,996,-980]],"type":"Polygon","properties":{"state":"MD","name":"CLEAR SPRING","zip":"21722"}},{"arcs":[[997,998,999,1000]],"type":"Polygon","properties":{"state":"MD","name":"COOKSVILLE","zip":"21723"}},{"arcs":[[1001,1002,1003,1004,1005,1006]],"type":"Polygon","properties":{"state":"MD","name":"EMMITSBURG","zip":"21727"}},{"arcs":[[1007,1008,1009,-986]],"type":"Polygon","properties":{"state":"MD","name":"FAIRPLAY","zip":"21733"}},{"arcs":[[1010,1011,-487,-328]],"type":"Polygon","properties":{"state":"MD","name":"GLENELG","zip":"21737"}},{"arcs":[[-327,1012,-999,1013,-1011]],"type":"Polygon","properties":{"state":"MD","name":"GLENWOOD","zip":"21738"}},{"arcs":[[1014,-995,1015,1016,1017,-987,-1010]],"type":"Polygon","properties":{"state":"MD","name":"HAGERSTOWN","zip":"21740"}},{"arcs":[[1018,-1017,1019]],"type":"Polygon","properties":{"state":"MD","name":"HAGERSTOWN","zip":"21742"}},{"arcs":[[1020,1021,-982,1022]],"type":"Polygon","properties":{"state":"MD","name":"HANCOCK","zip":"21750"}},{"arcs":[[-350,-975,1023,1024,-382,-379]],"type":"Polygon","properties":{"state":"MD","name":"IJAMSVILLE","zip":"21754"}},{"arcs":[[1025,1026,1027,1028,1029,1030,1031,-973,-978]],"type":"Polygon","properties":{"state":"MD","name":"JEFFERSON","zip":"21755"}},{"arcs":[[1032,1033,-984,1034]],"type":"Polygon","properties":{"state":"MD","name":"KEEDYSVILLE","zip":"21756"}},{"arcs":[[1035,1036,1037,-1006,1038]],"type":"Polygon","properties":{"state":"MD","name":"KEYMAR","zip":"21757"}},{"arcs":[[1039,-1033,1040,-1029,1041]],"type":"Polygon","properties":{"state":"MD","name":"KNOXVILLE","zip":"21758"}},{"arcs":[[-776,1042,-1021,1043,-802]],"type":"Polygon","properties":{"state":"MD","name":"LITTLE ORLEANS","zip":"21766"}},{"arcs":[[1044,-989,1045,-968,-974,-1032,1046]],"type":"Polygon","properties":{"state":"MD","name":"MIDDLETOWN","zip":"21769"}},{"arcs":[[-1025,1047,1048,-383]],"type":"Polygon","properties":{"state":"MD","name":"MONROVIA","zip":"21770"}},{"arcs":[[1049,-405,-384,-1049,1050,-964,1051,1052,-634]],"type":"Polygon","properties":{"state":"MD","name":"MOUNT AIRY","zip":"21771"}},{"arcs":[[-1018,1053,1054,-969,-1046,-988]],"type":"Polygon","properties":{"state":"MD","name":"MYERSVILLE","zip":"21773"}},{"arcs":[[-1048,-1024,-965,-1051]],"type":"Polygon","properties":{"state":"MD","name":"NEW MARKET","zip":"21774"}},{"arcs":[[-1053,1055,-642,-635]],"type":"Polygon","properties":{"state":"MD","name":"NEW WINDSOR","zip":"21776"}},{"arcs":[[1056,-1026,-977]],"type":"Polygon","properties":{"state":"MD","name":"POINT OF ROCKS","zip":"21777"}},{"arcs":[[1057,1058,-1007,-1038]],"type":"Polygon","properties":{"state":"MD","name":"ROCKY RIDGE","zip":"21778"}},{"arcs":[[-1030,-1041,-1035,-990,-1045,1059]],"type":"Polygon","properties":{"state":"MD","name":"ROHRERSVILLE","zip":"21779"}},{"arcs":[[1060,-993,1061,-1003,1062]],"type":"Polygon","properties":{"state":"MD","name":"SABILLASVILLE","zip":"21780"}},{"arcs":[[-1040,1063,1064,-1008,-985,-1034]],"type":"Polygon","properties":{"state":"MD","name":"SHARPSBURG","zip":"21782"}},{"arcs":[[1065,-1054,-1019,1066,-991,-1061]],"type":"Polygon","properties":{"state":"MD","name":"SMITHSBURG","zip":"21783"}},{"arcs":[[1067,-637,-513,-626,-590,1068,-1001]],"type":"Polygon","properties":{"state":"MD","name":"SYKESVILLE","zip":"21784"}},{"arcs":[[-1005,1069,-640,1070,-1039]],"type":"Polygon","properties":{"state":"MD","name":"TANEYTOWN","zip":"21787"}},{"arcs":[[-1055,-1066,-1063,-1002,-1059,1071,1072,-960,-970]],"type":"Polygon","properties":{"state":"MD","name":"THURMONT","zip":"21788"}},{"arcs":[[-1027,-1057,-979,-347,1073]],"type":"Polygon","properties":{"state":"MD","name":"TUSCARORA","zip":"21790"}},{"arcs":[[1074,-1036,-1071,-639,-1056,-1052,-963]],"type":"Polygon","properties":{"state":"MD","name":"UNION BRIDGE","zip":"21791"}},{"arcs":[[-1073,1075,-961]],"type":"Polygon","properties":{"state":"MD","name":"WALKERSVILLE","zip":"21793"}},{"arcs":[[-998,-1069,-589,-493,-1012,-1014]],"type":"Polygon","properties":{"state":"MD","name":"WEST FRIENDSHIP","zip":"21794"}},{"arcs":[[-996,-1015,-1009,-1065,1076]],"type":"Polygon","properties":{"state":"MD","name":"WILLIAMSPORT","zip":"21795"}},{"arcs":[[-326,-406,-1050,-638,-1068,-1000,-1013]],"type":"Polygon","properties":{"state":"MD","name":"WOODBINE","zip":"21797"}},{"arcs":[[-1072,-1058,-1037,-1075,-962,-1076]],"type":"Polygon","properties":{"state":"MD","name":"WOODSBORO","zip":"21798"}},{"arcs":[[1077,1078,1079,1080,1081,1082,1083]],"type":"Polygon","properties":{"state":"MD","name":"SALISBURY","zip":"21801"}},{"arcs":[[1084,1085,1086,1087,-1078,1088,1089]],"type":"Polygon","properties":{"state":"MD","name":"SALISBURY","zip":"21804"}},{"arcs":[[1090,1091,1092,1093,1094,1095,1096]],"type":"Polygon","properties":{"state":"MD","name":"BERLIN","zip":"21811"}},{"arcs":[[1097,-1095,1098]],"type":"Polygon","properties":{"state":"MD","name":"BISHOPVILLE","zip":"21813"}},{"arcs":[[1099,1100,1101]],"type":"Polygon","properties":{"state":"MD","name":"BIVALVE","zip":"21814"}},{"arcs":[[1102,1103]],"type":"Polygon","properties":{"state":"MD","name":"CRISFIELD","zip":"21817"}},{"arcs":[[1104,1105]],"type":"Polygon","properties":{"state":"MD","name":"DEAL ISLAND","zip":"21821"}},{"arcs":[[1106,1107,1108,1109,-1080,1110,-1087]],"type":"Polygon","properties":{"state":"MD","name":"EDEN","zip":"21822"}},{"arcs":[[-1079,-1088,-1111]],"type":"Polygon","properties":{"state":"MD","name":"FRUITLAND","zip":"21826"}},{"arcs":[[1111,1112,1113,1114]],"type":"Polygon","properties":{"state":"MD","name":"GIRDLETREE","zip":"21829"}},{"arcs":[[1115,1116,1117,-1082,1118,1119]],"type":"Polygon","properties":{"state":"MD","name":"HEBRON","zip":"21830"}},{"arcs":[[1120,-833,-876,-931]],"type":"Polygon","properties":{"state":"MD","name":"LINKWOOD","zip":"21835"}},{"arcs":[[1121,-1116,1122,1123,-933,1124]],"type":"Polygon","properties":{"state":"MD","name":"MARDELA SPRINGS","zip":"21837"}},{"arcs":[[1125,1126,1127,-1103,1128]],"type":"Polygon","properties":{"state":"MD","name":"MARION STATION","zip":"21838"}},{"arcs":[[-1100,1129,1130]],"type":"Polygon","properties":{"state":"MD","name":"NANTICOKE","zip":"21840"}},{"arcs":[[1131,-1097,1132]],"type":"Polygon","properties":{"state":"MD","name":"NEWARK","zip":"21841"}},{"arcs":[[1133]],"type":"Polygon","properties":{"state":"MD","name":"OCEAN CITY","zip":"21842"}},{"arcs":[[1134,-1090,1135,1136]],"type":"Polygon","properties":{"state":"MD","name":"PARSONSBURG","zip":"21849"}},{"arcs":[[1137,-1085,-1135,1138,1139,-1092]],"type":"Polygon","properties":{"state":"MD","name":"PITTSVILLE","zip":"21850"}},{"arcs":[[1140,1141,-1127,1142,1143,1144,-1113]],"type":"Polygon","properties":{"state":"MD","name":"POCOMOKE CITY","zip":"21851"}},{"arcs":[[1145,1146,-1105,1147,-1108,1148,-1144]],"type":"Polygon","properties":{"state":"MD","name":"PRINCESS ANNE","zip":"21853"}},{"arcs":[[1149,1150,-1119,-1081,-1110,1151]],"type":"Polygon","properties":{"state":"MD","name":"QUANTICO","zip":"21856"}},{"arcs":[[-1149,-1107,-1086,-1138,-1091,-1132,1152,-1114,-1145]],"type":"Polygon","properties":{"state":"MD","name":"SNOW HILL","zip":"21863"}},{"arcs":[[-1112,1153,-1141]],"type":"Polygon","properties":{"state":"MD","name":"STOCKTON","zip":"21864"}},{"arcs":[[-1102,1154,-1150,1155,-1130]],"type":"Polygon","properties":{"state":"MD","name":"TYASKIN","zip":"21865"}},{"arcs":[[-1121,-934,-1124,1156,-834]],"type":"Polygon","properties":{"state":"MD","name":"VIENNA","zip":"21869"}},{"arcs":[[-1126,1157,-1146,-1143]],"type":"Polygon","properties":{"state":"MD","name":"WESTOVER","zip":"21871"}},{"arcs":[[1158,1159,-1099,-1094]],"type":"Polygon","properties":{"state":"MD","name":"WHALEYVILLE","zip":"21872"}},{"arcs":[[-1140,1160,-1159,-1093]],"type":"Polygon","properties":{"state":"MD","name":"WILLARDS","zip":"21874"}},{"arcs":[[[1161,-1117,-1122]],[[-1084,1162,-1136,-1089]]],"type":"MultiPolygon","properties":{"state":"MD","name":"DELMAR","zip":"21875"}},{"arcs":[[1163,1164,1165,1166,1167,1168]],"type":"Polygon","properties":{"state":"MD","name":"NORTH EAST","zip":"21901"}},{"arcs":[[1169,-1164,1170,1171,-565]],"type":"Polygon","properties":{"state":"MD","name":"PERRYVILLE","zip":"21903"}},{"arcs":[[-1170,-564,-481,1172,1173,1174,-1165]],"type":"Polygon","properties":{"state":"MD","name":"PORT DEPOSIT","zip":"21904"}},{"arcs":[[1175,1176,1177,1178,-1166,-1175]],"type":"Polygon","properties":{"state":"MD","name":"RISING SUN","zip":"21911"}},{"arcs":[[1179,-887,1180,1181,1182]],"type":"Polygon","properties":{"state":"MD","name":"WARWICK","zip":"21912"}},{"arcs":[[-1169,1183,-1171]],"type":"Polygon","properties":{"state":"MD","name":"CHARLESTOWN","zip":"21914"}},{"arcs":[[1184,1185,-1183,1186]],"type":"Polygon","properties":{"state":"MD","name":"CHESAPEAKE CITY","zip":"21915"}},{"arcs":[[1187,-1176,-1174]],"type":"Polygon","properties":{"state":"MD","name":"COLORA","zip":"21917"}},{"arcs":[[-644,1188,-1177,-1188,-1173,-480]],"type":"Polygon","properties":{"state":"MD","name":"CONOWINGO","zip":"21918"}},{"arcs":[[-1181,-886,1189]],"type":"Polygon","properties":{"state":"MD","name":"EARLEVILLE","zip":"21919"}},{"arcs":[[-1179,1190,-1185,1191,-1167]],"type":"Polygon","properties":{"state":"MD","name":"ELKTON","zip":"21921"}}]}},"arcs":[[[38571,13775],[-9,0],[131,303],[-122,-303]],[[37405,14322],[-5,-3]],[[37400,14319],[-54,-7]],[[37346,14312],[-31,10]],[[37315,14322],[-5,5]],[[37310,14327],[-40,64]],[[37270,14391],[-72,28]],[[37198,14419],[18,35]],[[37216,14454],[18,15]],[[37234,14469],[171,-147]],[[37274,14309],[-27,51]],[[37247,14360],[23,31]],[[37310,14327],[-36,-18]],[[37247,14360],[-85,20]],[[37162,14380],[36,39]],[[37162,14380],[-23,74]],[[37139,14454],[59,5]],[[37198,14459],[13,5]],[[37211,14464],[5,-10]],[[37432,14307],[-32,12]],[[37405,14322],[-9,61],[58,-3]],[[37454,14380],[-22,-73]],[[37369,14014],[18,36]],[[37387,14050],[18,15]],[[37405,14065],[9,-15]],[[37414,14050],[-18,-33],[-5,-21],[-4,-7],[-14,15],[-4,10]],[[37207,14218],[-9,5]],[[37198,14223],[27,5]],[[37225,14228],[-18,-10]],[[37234,14469],[76,33]],[[37310,14502],[27,3]],[[37337,14505],[95,-31]],[[37432,14474],[9,-25]],[[37441,14449],[4,-56]],[[37445,14393],[9,-13]],[[37162,14380],[-45,13]],[[37117,14393],[22,61]],[[37346,14312],[-67,-23]],[[37279,14289],[36,33]],[[37346,14057],[41,-7]],[[37369,14014],[-23,43]],[[37562,14007],[-31,48]],[[37531,14055],[49,23]],[[37580,14078],[18,-8]],[[37598,14070],[5,-33]],[[37603,14037],[-14,-46]],[[37589,13991],[-27,16]],[[37589,13991],[-9,-28]],[[37580,13963],[-4,0]],[[37576,13963],[-14,44]],[[37346,14057],[9,59]],[[37355,14116],[36,5]],[[37391,14121],[14,-56]],[[37261,14141],[-14,31]],[[37247,14172],[68,71]],[[37315,14243],[112,20]],[[37427,14263],[-112,-48],[-14,-69]],[[37301,14146],[-40,-5]],[[37310,14502],[14,18]],[[37324,14520],[13,-15]],[[37391,14121],[36,-10]],[[37427,14111],[-13,-43]],[[37414,14068],[0,-18]],[[37702,13872],[-13,33]],[[37689,13905],[-5,13]],[[37684,13918],[18,12]],[[37702,13930],[0,-58]],[[37589,13918],[5,33]],[[37594,13951],[22,7]],[[37616,13958],[0,-81],[-27,41]],[[37247,14172],[-40,46]],[[37225,14228],[22,-56]],[[37594,13951],[-14,12]],[[37603,14037],[4,-63]],[[37607,13974],[9,-16]],[[37531,14055],[-68,46],[0,5],[5,5]],[[37468,14111],[49,48]],[[37517,14159],[63,-81]],[[37432,14258],[-5,5]],[[37315,14243],[-36,46]],[[37432,14307],[0,-49]],[[37576,14335],[-104,-8]],[[37472,14327],[-18,53]],[[37445,14393],[59,33]],[[37504,14426],[36,-23]],[[37540,14403],[40,-25]],[[37580,14378],[-4,-43]],[[37162,14380],[-5,-22]],[[37157,14358],[-49,-6],[-32,-101]],[[37076,14251],[-85,2]],[[36991,14253],[126,140]],[[37081,14307],[13,53],[-45,-36],[32,-17]],[[37198,14223],[-27,86],[-36,-61]],[[37135,14248],[-36,-18]],[[37099,14230],[-23,21]],[[37157,14358],[9,0]],[[37166,14358],[5,-46],[45,43]],[[37216,14355],[58,-46]],[[37576,13963],[-14,-35]],[[37562,13928],[-9,0]],[[37553,13928],[-108,58],[41,56],[-68,-56],[-4,82]],[[37427,14111],[41,0]],[[37684,13918],[-22,7]],[[37662,13925],[-32,36],[-9,5],[-14,8]],[[37598,14070],[23,-20]],[[37621,14050],[50,-33]],[[37671,14017],[31,-87]],[[37603,14200],[22,10]],[[37625,14210],[59,-69],[-31,-66],[-23,31],[-18,0],[-9,94]],[[37355,14116],[-54,30]],[[37432,14258],[85,-99]],[[37099,14230],[13,-63]],[[37112,14167],[-81,-49],[-40,135]],[[37189,14205],[9,18]],[[37261,14141],[67,-114],[-67,18],[18,18],[-90,142]],[[37621,14050],[68,5],[-18,-38]],[[37166,14358],[50,-3]],[[37513,14238],[63,61]],[[37576,14299],[18,-56]],[[37594,14243],[-72,-30]],[[37522,14213],[-9,25]],[[37171,14202],[-36,46]],[[37189,14205],[-18,-3]],[[37576,14335],[0,-36]],[[37513,14238],[-36,-10],[-5,99]],[[37720,13841],[-40,-2]],[[37680,13839],[-5,51]],[[37675,13890],[14,15]],[[37702,13872],[18,-31]],[[37675,13890],[-27,-33],[14,68]],[[37594,14243],[31,-33]],[[37603,14200],[-14,-54],[-31,39],[-9,-5],[-27,33]],[[37720,13841],[9,-56],[-49,54]],[[37504,14426],[36,5]],[[37540,14431],[0,-28]],[[37562,13928],[14,-10]],[[37576,13918],[4,-16],[-18,-5],[-9,31]],[[37589,13918],[-13,0]],[[37171,14202],[-59,-35]],[[37373,14889],[-31,8]],[[37342,14897],[4,17]],[[37346,14914],[27,-25]],[[37346,14780],[-13,-8]],[[37333,14772],[-9,-8]],[[37324,14764],[-18,13]],[[37306,14777],[-32,20]],[[37274,14797],[-27,6]],[[37247,14803],[-9,17]],[[37238,14820],[18,28]],[[37256,14848],[41,-7]],[[37297,14841],[49,-61]],[[37346,14729],[-9,-10]],[[37337,14719],[-13,0]],[[37324,14719],[-9,-8]],[[37315,14711],[-14,10]],[[37301,14721],[-13,8]],[[37288,14729],[-5,13],[0,2],[-4,0]],[[37279,14744],[9,20]],[[37288,14764],[22,0]],[[37310,14764],[14,0]],[[37333,14772],[13,-43]],[[37328,14871],[-31,-30]],[[37256,14848],[32,61]],[[37288,14909],[36,-30]],[[37324,14879],[4,-8]],[[37328,14871],[5,-28]],[[37333,14843],[31,-25]],[[37364,14818],[-13,-41]],[[37351,14777],[-5,3]],[[37256,14708],[9,16]],[[37265,14724],[5,2]],[[37270,14726],[-14,-18]],[[37522,14556],[-9,-3]],[[37513,14553],[-68,-38]],[[37445,14515],[-9,99]],[[37436,14614],[81,-17]],[[37517,14597],[14,-11]],[[37531,14586],[-9,-30]],[[37234,14703],[-18,16]],[[37216,14719],[13,7]],[[37229,14726],[5,-23]],[[37562,14467],[-4,0]],[[37558,14467],[0,20]],[[37558,14487],[0,8]],[[37558,14495],[4,-28]],[[37432,14747],[9,-21]],[[37441,14726],[-45,-5]],[[37396,14721],[0,87]],[[37396,14808],[31,-46]],[[37427,14762],[5,0]],[[37432,14762],[0,-15]],[[37405,14673],[-9,46]],[[37396,14719],[0,2]],[[37441,14726],[13,-48]],[[37454,14678],[-49,-5]],[[37346,14729],[5,48]],[[37364,14818],[32,-10]],[[37396,14719],[-59,0]],[[37405,14673],[-72,-5],[-9,51]],[[37234,14721],[13,-33]],[[37247,14688],[-13,15]],[[37229,14726],[5,-5]],[[37337,14912],[5,-15]],[[37342,14897],[-18,-18]],[[37288,14909],[-23,0]],[[37265,14909],[18,23]],[[37283,14932],[0,23]],[[37283,14955],[9,-10]],[[37292,14945],[32,-20]],[[37324,14925],[13,-13]],[[37373,14889],[0,-3]],[[37373,14886],[-40,-43]],[[37540,14431],[18,36]],[[37562,14467],[18,-89]],[[37558,14553],[-9,31]],[[37549,14584],[13,10]],[[37562,14594],[9,0],[18,-15],[-31,-26]],[[37211,14464],[50,84]],[[37261,14548],[18,8]],[[37279,14556],[27,0]],[[37306,14556],[18,-36]],[[37441,14449],[54,66]],[[37495,14515],[63,-28]],[[37265,14724],[-18,12]],[[37247,14736],[0,8]],[[37247,14744],[32,0]],[[37288,14729],[-18,-3]],[[37247,14744],[-13,13]],[[37234,14757],[13,46]],[[37274,14797],[14,-33]],[[37265,14630],[-22,2]],[[37243,14632],[4,5],[0,51]],[[37247,14688],[14,-2]],[[37261,14686],[58,-28]],[[37319,14658],[-4,-31]],[[37315,14627],[-50,3]],[[37180,14546],[49,38]],[[37229,14584],[32,-36]],[[37198,14459],[-18,87]],[[37189,14579],[27,25]],[[37216,14604],[13,-20]],[[37180,14546],[9,33]],[[37265,14630],[32,-31]],[[37297,14599],[9,0]],[[37306,14599],[-32,-25]],[[37274,14574],[-40,51]],[[37234,14625],[9,7]],[[37306,14612],[-9,-13]],[[37315,14627],[-9,-15]],[[37274,14574],[5,-18]],[[37216,14604],[4,8],[14,13]],[[37540,14546],[-18,10]],[[37531,14586],[18,-2]],[[37558,14553],[-18,-7]],[[37432,14474],[13,41]],[[37513,14553],[4,-35]],[[37517,14518],[-22,-3]],[[37373,14886],[32,21]],[[37405,14907],[13,-21]],[[37418,14886],[-22,-78]],[[37517,14518],[27,-3]],[[37544,14515],[14,-20]],[[37238,14907],[-9,15]],[[37229,14922],[14,59]],[[37243,14981],[40,-49]],[[37265,14909],[-27,-2]],[[37306,14599],[0,-43]],[[37337,14912],[9,2]],[[37306,14777],[4,-13]],[[37306,14612],[135,13]],[[37441,14625],[-5,-11]],[[37319,14658],[-4,40],[0,8],[0,5]],[[37454,14678],[0,-13]],[[37454,14665],[-13,-40]],[[37549,14612],[-32,-15]],[[37454,14665],[72,15]],[[37526,14680],[18,-25]],[[37544,14655],[5,-43]],[[37229,14922],[-27,23]],[[37202,14945],[0,15]],[[37202,14960],[41,21]],[[37549,14612],[13,-18]],[[37540,14546],[4,-31]],[[37234,14721],[13,15]],[[37256,14708],[5,-5]],[[37261,14703],[0,-17]],[[37216,14719],[-5,7],[-9,8]],[[37202,14734],[32,23]],[[37198,14736],[9,28]],[[37207,14764],[22,36]],[[37229,14800],[9,20]],[[37202,14734],[-4,2]],[[37301,14721],[-40,-18]],[[37324,14925],[40,30]],[[37364,14955],[18,-15]],[[37382,14940],[23,-33]],[[37090,14744],[0,-8]],[[37090,14736],[-5,6]],[[37085,14742],[0,2]],[[37085,14744],[5,0]],[[37139,14780],[-22,-31]],[[37117,14749],[-14,56]],[[37103,14805],[23,-2]],[[37126,14803],[13,-23]],[[37117,14742],[0,7]],[[37139,14780],[14,5]],[[37153,14785],[13,-21]],[[37166,14764],[-9,-5],[-27,-30]],[[37130,14729],[-13,13]],[[37130,14729],[-22,-23],[-18,30]],[[37090,14744],[27,-2]],[[37085,14744],[-22,-2]],[[37063,14742],[-14,0]],[[37049,14742],[27,55]],[[37076,14797],[27,8]],[[37085,14742],[-22,0]],[[37144,14899],[-23,28]],[[37121,14927],[-4,31]],[[37117,14958],[49,-13]],[[37166,14945],[0,-41]],[[37166,14904],[-22,-5]],[[37202,14945],[-13,-3]],[[37189,14942],[-23,3]],[[37117,14958],[-5,2]],[[37112,14960],[32,46],[-32,38]],[[37112,15044],[45,3]],[[37157,15047],[9,-13]],[[37166,15034],[5,-20]],[[37171,15014],[22,-28]],[[37193,14986],[5,-16],[4,-10]],[[36941,14904],[4,-53]],[[36945,14851],[-13,-8]],[[36932,14843],[-122,51]],[[36810,14894],[36,41]],[[36846,14935],[41,15]],[[36887,14950],[18,-15]],[[36905,14935],[36,-31]],[[36945,15021],[-36,-23]],[[36909,14998],[18,28]],[[36927,15026],[18,-5]],[[36846,14935],[23,58],[18,-43]],[[36905,14935],[4,63]],[[36945,15021],[55,-20]],[[37000,15001],[-9,-20]],[[36991,14981],[-50,-77]],[[36810,14894],[18,130]],[[36828,15024],[5,12]],[[36833,15036],[85,31]],[[36918,15067],[5,-3]],[[36923,15064],[31,3]],[[36954,15067],[-27,-41]],[[37009,14846],[45,40]],[[37054,14886],[4,8]],[[37058,14894],[45,-18]],[[37103,14876],[0,-7]],[[37103,14869],[-13,-13]],[[37090,14856],[-14,-15]],[[37076,14841],[-67,5]],[[37117,14846],[-27,10]],[[37103,14869],[14,-23]],[[37076,14797],[0,44]],[[37117,14846],[13,-10]],[[37130,14836],[0,-23]],[[37130,14813],[-4,-10]],[[37103,14876],[18,51]],[[37144,14899],[-14,-63]],[[37049,14742],[-117,101]],[[36945,14851],[28,0]],[[36973,14851],[36,-5]],[[37058,14894],[32,38]],[[37090,14932],[4,26]],[[37094,14958],[18,2]],[[37189,14914],[-9,-12]],[[37180,14902],[-14,2]],[[37189,14942],[0,-28]],[[37229,14922],[-40,-8]],[[37238,14858],[-9,34],[9,12],[0,3]],[[37256,14848],[-18,10]],[[36954,15067],[37,20]],[[36991,15087],[31,-53]],[[37022,15034],[-22,-33]],[[36991,15087],[4,5]],[[36995,15092],[36,21]],[[37031,15113],[36,-51]],[[37067,15062],[-31,-43]],[[37036,15019],[-14,15]],[[37018,14937],[-45,-86]],[[36991,14981],[22,-39]],[[37013,14942],[5,-5]],[[37031,14965],[-4,-7]],[[37027,14958],[-14,-16]],[[37036,15019],[4,-38]],[[37040,14981],[-9,-16]],[[37054,14886],[-23,39]],[[37031,14925],[9,7]],[[37040,14932],[9,10]],[[37049,14942],[41,-10]],[[37018,14937],[13,-12]],[[37045,14975],[-14,-10]],[[37040,14981],[5,-6]],[[37049,14942],[32,23]],[[37081,14965],[13,-7]],[[37027,14958],[13,-26]],[[37081,14965],[-9,5],[0,-2],[-27,7]],[[37067,15062],[23,2]],[[37090,15064],[22,-20]],[[37153,14797],[0,-12]],[[37130,14813],[5,5]],[[37135,14818],[18,-21]],[[37202,14772],[-9,-3]],[[37193,14769],[-18,21]],[[37175,14790],[18,38]],[[37193,14828],[14,-18]],[[37207,14810],[-5,-38]],[[37175,14790],[-22,7]],[[37135,14818],[40,23]],[[37175,14841],[18,-13]],[[37207,14764],[-5,8]],[[37207,14810],[22,-10]],[[37175,14841],[5,17]],[[37180,14858],[58,0]],[[37180,14858],[0,44]],[[37193,14769],[-13,-12]],[[37180,14757],[-14,7]],[[37198,14736],[0,3],[-18,18]],[[37810,15263],[-22,5]],[[37788,15268],[-9,43]],[[37779,15311],[49,41]],[[37828,15352],[45,-41]],[[37873,15311],[-67,-102]],[[37806,15209],[4,54]],[[37873,15311],[5,-13]],[[37878,15298],[45,-73],[-81,-61],[-41,33],[32,-38],[-32,-26],[5,76]],[[37783,15235],[-54,0]],[[37729,15235],[-18,38]],[[37711,15273],[63,-10]],[[37774,15263],[9,-15]],[[37783,15248],[0,-13]],[[37711,15174],[18,15]],[[37729,15189],[59,31]],[[37788,15220],[-27,-138],[-50,92]],[[37562,14820],[9,18]],[[37571,14838],[45,-20]],[[37616,14818],[-31,-23]],[[37585,14795],[-23,25]],[[37653,15263],[-9,0]],[[37644,15263],[-14,-3],[-5,16],[-54,-3]],[[37571,15273],[-9,3]],[[37562,15276],[9,48]],[[37571,15324],[-4,7]],[[37567,15331],[86,-68]],[[37711,15367],[27,-66],[-31,-15]],[[37707,15286],[-18,12]],[[37689,15298],[-18,26]],[[37671,15324],[40,43]],[[37788,15268],[-14,-5]],[[37711,15273],[-4,13]],[[37711,15367],[18,36]],[[37729,15403],[50,-13]],[[37779,15390],[0,-8]],[[37779,15382],[0,-71]],[[37810,15263],[-27,-15]],[[37779,15382],[27,11]],[[37806,15393],[22,-41]],[[37265,15009],[18,-54]],[[37193,14986],[27,35]],[[37220,15021],[45,-12]],[[37427,15248],[0,33]],[[37427,15281],[-13,40]],[[37414,15321],[81,-12]],[[37495,15309],[31,-61]],[[37526,15248],[-99,0]],[[37540,14805],[-54,-2],[18,-44]],[[37504,14759],[-14,3]],[[37490,14762],[-18,53]],[[37472,14815],[36,36]],[[37508,14851],[32,-46]],[[37779,15390],[-18,81]],[[37761,15471],[45,23]],[[37806,15494],[45,-53]],[[37851,15441],[18,-33]],[[37869,15408],[-63,-15]],[[37522,14706],[4,-26]],[[37432,14747],[58,15]],[[37504,14759],[4,-5]],[[37508,14754],[5,-25],[13,-21],[-4,-2]],[[37171,15014],[40,30]],[[37211,15044],[9,-23]],[[37522,14706],[76,-48],[-54,-3]],[[37729,15189],[0,46]],[[37783,15235],[5,-15]],[[37328,15019],[-63,-10]],[[37211,15044],[41,43]],[[37252,15087],[27,-2]],[[37279,15085],[58,15]],[[37337,15100],[9,-8]],[[37346,15092],[-18,-73]],[[37360,14975],[-32,44]],[[37346,15092],[14,-7]],[[37360,15085],[36,-66]],[[37396,15019],[-36,-44]],[[37310,14981],[-18,-36]],[[37328,15019],[-18,-38]],[[37360,14975],[0,-15]],[[37360,14960],[-50,21]],[[37360,14960],[4,-5]],[[37689,15298],[-9,-30]],[[37680,15268],[-27,-5]],[[37567,15331],[18,46]],[[37585,15377],[22,-23]],[[37607,15354],[64,-30]],[[37297,15309],[-9,-84]],[[37288,15225],[-41,28]],[[37247,15253],[36,94]],[[37283,15347],[18,-5]],[[37301,15342],[-4,-33]],[[37607,15354],[64,54]],[[37671,15408],[58,-5]],[[37468,15512],[-72,-61]],[[37396,15451],[-23,61]],[[37373,15512],[14,0],[81,0]],[[37432,14762],[13,41]],[[37445,14803],[0,61]],[[37445,14864],[23,-3]],[[37468,14861],[4,-46]],[[37621,15220],[-14,-16]],[[37607,15204],[-18,-7]],[[37589,15197],[-27,10]],[[37562,15207],[-13,25]],[[37549,15232],[13,44]],[[37571,15273],[54,-28]],[[37625,15245],[-4,-25]],[[37544,14920],[-31,-8]],[[37513,14912],[-14,74]],[[37499,14986],[18,5]],[[37517,14991],[14,-13]],[[37531,14978],[-18,-46],[22,38]],[[37535,14970],[18,-30]],[[37553,14940],[-9,-20]],[[37513,14912],[0,-3]],[[37513,14909],[-36,-7]],[[37477,14902],[-32,28]],[[37445,14930],[9,10]],[[37454,14940],[14,28]],[[37468,14968],[13,15]],[[37481,14983],[18,3]],[[37427,15281],[-67,-11],[54,51]],[[37283,15347],[0,94]],[[37283,15441],[90,-10]],[[37373,15431],[-9,-26]],[[37364,15405],[-63,-63]],[[37396,15019],[18,-13]],[[37414,15006],[22,-13]],[[37436,14993],[-54,-53]],[[37436,14993],[5,5]],[[37441,14998],[0,-38]],[[37441,14960],[0,-5]],[[37441,14955],[-5,-30]],[[37436,14925],[-31,-18]],[[37436,14935],[18,5]],[[37445,14930],[-9,5]],[[37436,14925],[0,10]],[[37436,14935],[5,20]],[[37869,15408],[27,-38]],[[37896,15370],[22,-39]],[[37918,15331],[-40,-33]],[[37644,15263],[-19,-18]],[[37585,15377],[-9,26]],[[37576,15403],[22,40]],[[37598,15443],[73,-35]],[[37711,15174],[-18,13]],[[37693,15187],[-18,7]],[[37675,15194],[9,15],[-4,26],[0,33]],[[37662,15199],[-41,21]],[[37675,15194],[-13,5]],[[37441,14998],[40,5]],[[37481,15003],[0,-20]],[[37468,14968],[-27,-8]],[[37544,15232],[-31,-35]],[[37513,15197],[-54,-13]],[[37459,15184],[-36,15]],[[37423,15199],[0,46]],[[37423,15245],[4,3]],[[37526,15248],[18,-16]],[[37283,15441],[-31,23]],[[37252,15464],[-18,48]],[[37234,15512],[31,0],[41,0],[67,0]],[[37396,15451],[-23,-20]],[[37252,15087],[-14,3]],[[37238,15090],[50,89]],[[37288,15179],[4,0]],[[37292,15179],[14,0]],[[37306,15179],[-5,-28]],[[37301,15151],[-22,-66]],[[37468,14861],[9,41]],[[37513,14909],[22,-33]],[[37535,14876],[-31,-18]],[[37504,14858],[4,-7]],[[37571,15324],[-72,-3]],[[37499,15321],[-49,44]],[[37450,15365],[13,38]],[[37463,15403],[113,0]],[[37445,14803],[-18,-41]],[[37418,14886],[27,-22]],[[37423,15199],[-50,-25]],[[37373,15174],[-67,5]],[[37292,15179],[131,66]],[[37396,15382],[-32,23]],[[37468,15512],[36,0],[31,0]],[[37535,15512],[-72,-109]],[[37450,15365],[-54,17]],[[37562,14879],[-27,-3]],[[37544,14920],[63,22],[41,-81],[-86,18]],[[37662,15199],[-18,-40]],[[37644,15159],[-14,5]],[[37630,15164],[-23,40]],[[37495,15309],[4,12]],[[37549,15232],[-5,0]],[[37594,15471],[-9,41]],[[37585,15512],[9,0],[63,0]],[[37657,15512],[63,-36]],[[37720,15476],[-126,-5]],[[37382,15151],[-40,-23]],[[37342,15128],[-41,23]],[[37373,15174],[9,-23]],[[37288,15179],[0,46]],[[37297,15309],[99,40]],[[37396,15349],[18,-28]],[[37562,14879],[9,-41]],[[37562,14820],[-58,38]],[[37396,15349],[0,33]],[[37598,15443],[-4,28]],[[37720,15476],[41,-5]],[[37144,15225],[-14,17]],[[37130,15242],[45,105]],[[37175,15347],[77,117]],[[37247,15253],[-90,-31]],[[37157,15222],[-13,3]],[[37121,15357],[-4,58]],[[37117,15415],[31,97]],[[37148,15512],[36,0],[50,0]],[[37175,15347],[-54,10]],[[37657,15512],[14,0],[121,0],[5,0]],[[37797,15512],[9,-18]],[[37535,15512],[23,0],[27,0]],[[37693,15187],[-31,-28]],[[37662,15159],[-28,-11]],[[37634,15148],[10,11]],[[37342,15128],[-5,-28]],[[37486,15067],[0,10]],[[37486,15077],[9,15]],[[37495,15092],[4,0]],[[37499,15092],[0,-30]],[[37499,15062],[-13,5]],[[37499,15092],[14,0]],[[37513,15092],[0,-7]],[[37513,15085],[0,-10]],[[37513,15075],[0,-13]],[[37513,15062],[-5,0]],[[37508,15062],[-9,0]],[[37477,15166],[-18,15]],[[37459,15181],[0,3]],[[37513,15197],[-5,-31]],[[37508,15166],[-4,0],[-9,5],[-18,-5]],[[37522,15077],[-9,-2]],[[37513,15085],[40,13]],[[37553,15098],[5,-11]],[[37558,15087],[9,-10]],[[37567,15077],[-45,0]],[[37553,15098],[-22,17]],[[37531,15115],[0,3]],[[37531,15118],[22,25]],[[37553,15143],[9,0]],[[37562,15143],[23,-2]],[[37585,15141],[-27,-54]],[[37400,15080],[-4,63]],[[37396,15143],[22,-5]],[[37418,15138],[27,-30]],[[37445,15108],[0,-21]],[[37445,15087],[-31,-17]],[[37414,15070],[-14,10]],[[37396,15143],[-14,8]],[[37459,15181],[-27,-28]],[[37432,15153],[-14,-15]],[[37481,15164],[0,-33]],[[37481,15131],[-13,-13]],[[37468,15118],[-36,35]],[[37477,15166],[4,-2]],[[37495,15118],[-14,13]],[[37481,15164],[14,-36]],[[37495,15128],[0,-10]],[[37495,15118],[0,-26]],[[37495,15092],[-23,8]],[[37472,15100],[-4,18]],[[37508,15166],[5,-41]],[[37513,15125],[-18,3]],[[37513,15092],[18,23]],[[37531,15118],[0,2]],[[37531,15120],[-5,8]],[[37526,15128],[5,23]],[[37531,15151],[22,-8]],[[37472,15100],[-4,-2]],[[37468,15098],[-23,10]],[[37472,15075],[-13,0]],[[37459,15075],[-14,12]],[[37468,15098],[4,-23]],[[37486,15077],[-14,-2]],[[37513,15125],[9,3]],[[37522,15128],[9,-8]],[[37598,15029],[27,10]],[[37625,15039],[46,-23],[-37,-43],[-36,56]],[[37634,15108],[-27,12]],[[37607,15120],[27,28]],[[37662,15159],[58,-41],[-86,-10]],[[37603,15103],[4,17]],[[37634,15108],[32,-79],[-63,74]],[[37558,15044],[45,26]],[[37603,15070],[22,-31]],[[37598,15029],[-40,15]],[[37459,15049],[0,26]],[[37486,15067],[-23,-20]],[[37463,15047],[-4,2]],[[37522,15064],[0,13]],[[37567,15077],[18,10]],[[37585,15087],[18,-17]],[[37558,15044],[-36,20]],[[37481,15003],[9,18]],[[37490,15021],[0,15]],[[37490,15036],[18,-12]],[[37508,15024],[9,-33]],[[37508,15024],[23,-46]],[[37535,14970],[27,21],[-9,-51]],[[37414,15006],[9,15],[4,21],[9,2]],[[37436,15044],[23,5]],[[37463,15047],[27,-26]],[[37360,15085],[40,-5]],[[37414,15070],[22,-26]],[[37508,15062],[-18,-26]],[[37522,15064],[-9,-2]],[[37589,15197],[-27,-54]],[[37531,15151],[-5,13]],[[37526,15164],[36,43]],[[37630,15164],[-45,-23]],[[37603,15103],[-18,-16]],[[37526,15128],[-4,0]],[[37508,15166],[18,-2]],[[37616,14818],[55,-33],[-50,-16],[-18,-2],[-18,28]],[[37540,14805],[54,-41],[0,-7],[9,-8],[-18,-7]],[[37585,14742],[-14,-13]],[[37571,14729],[-9,10],[-18,-3],[-36,18]],[[37585,14742],[36,-64],[-50,51]],[[35761,15349],[-40,21]],[[35721,15370],[40,81]],[[35761,15451],[41,64]],[[35802,15515],[45,0],[63,0],[18,0]],[[35928,15515],[-14,-87]],[[35914,15428],[-40,-71],[31,-33]],[[35905,15324],[-49,28],[-41,35],[36,16],[-36,15],[-54,-69]],[[35459,15370],[-31,-3]],[[35428,15367],[-59,15]],[[35369,15382],[14,97]],[[35383,15479],[49,20],[18,-76]],[[35450,15423],[9,-53]],[[35563,15426],[99,-125]],[[35662,15301],[-54,10]],[[35608,15311],[-81,-2]],[[35527,15309],[-23,35]],[[35504,15344],[68,23],[-9,59]],[[35459,15331],[0,39]],[[35450,15423],[41,-10],[-32,-82]],[[35590,15265],[-9,-7]],[[35581,15258],[-54,51]],[[35608,15311],[-18,-43]],[[35590,15268],[0,-3]],[[35928,15515],[108,0],[85,0]],[[36121,15515],[-58,-67]],[[36063,15448],[-149,-20]],[[35369,15382],[-90,-43]],[[35279,15339],[-9,5]],[[35270,15344],[0,74],[0,94],[63,0],[59,3]],[[35392,15515],[-9,-36]],[[35721,15370],[-18,-23]],[[35703,15347],[-95,129]],[[35608,15476],[0,39]],[[35608,15515],[50,0],[36,0]],[[35694,15515],[67,-64]],[[35504,15344],[-45,-13]],[[35392,15515],[90,0],[31,0],[95,0]],[[35608,15476],[-45,-50]],[[35459,15143],[-36,66]],[[35423,15209],[95,-17]],[[35518,15192],[-59,-49]],[[35703,15347],[-36,-49]],[[35667,15298],[-5,3]],[[35599,15265],[-5,-10],[-4,10]],[[35590,15268],[9,-3]],[[35428,15367],[-23,-81]],[[35405,15286],[-126,53]],[[35694,15515],[99,0],[9,0]],[[35459,15143],[-31,-33],[-167,-127],[0,94],[5,56],[4,211]],[[35405,15286],[18,-77]],[[36063,15448],[-27,-55],[49,-16]],[[36085,15377],[0,-30],[-72,-36],[-49,5],[-54,5],[-5,3]],[[35662,15230],[5,68]],[[35761,15349],[-49,-66],[-50,-53]],[[35581,15258],[-41,-56],[-22,-10]],[[35662,15230],[-50,28],[-13,7]],[[37837,14482],[-4,8]],[[37833,14490],[0,23]],[[37833,14513],[9,7]],[[37842,14520],[40,33],[-45,-10],[-4,84],[99,28]],[[37932,14655],[54,-81],[63,25]],[[38049,14599],[9,-15]],[[38058,14584],[-77,-61]],[[37981,14523],[-9,-38]],[[37972,14485],[-58,-28]],[[37914,14457],[-5,23]],[[37909,14480],[-40,-6],[54,23],[-32,46],[-54,-61]],[[38076,14869],[-14,53]],[[38062,14922],[81,-13]],[[38143,14909],[-18,-12]],[[38125,14897],[-49,-28]],[[37936,15131],[-18,-8]],[[37918,15123],[-22,33]],[[37896,15156],[49,-13]],[[37945,15143],[-9,-12]],[[37770,14561],[9,2]],[[37779,14563],[-9,-89],[0,87]],[[37891,14113],[-36,145]],[[37855,14258],[0,3]],[[37855,14261],[27,46],[-67,0],[22,43],[-40,-48],[-14,53],[-18,-61],[-9,97],[216,-72]],[[37972,14319],[36,-5]],[[38008,14314],[9,-35]],[[38017,14279],[-45,-49],[86,-40],[-86,-59]],[[37972,14131],[-27,-53]],[[37945,14078],[-54,35]],[[37950,14932],[18,-71],[108,8]],[[38076,14869],[-14,-74]],[[38062,14795],[-144,-66]],[[37918,14729],[-67,58]],[[37851,14787],[13,66],[59,-22],[-59,33],[86,68]],[[37743,14747],[13,22]],[[37756,14769],[27,-76],[-22,43],[-14,-63],[-4,74]],[[37846,14958],[-76,-3]],[[37770,14955],[90,102]],[[37860,15057],[67,-38],[36,45]],[[37963,15064],[59,-40]],[[38022,15024],[18,0],[9,-13],[9,-33]],[[38058,14978],[-41,-23]],[[38017,14955],[-49,-18]],[[37968,14937],[-36,51],[13,-38],[-99,-79],[41,82],[-32,-49],[-9,54]],[[37891,14113],[-13,-50]],[[37878,14063],[-122,114]],[[37756,14177],[9,33]],[[37765,14210],[-9,18]],[[37756,14228],[54,-28],[27,63]],[[37837,14263],[18,-5]],[[38044,14912],[32,-43]],[[37950,14932],[18,5]],[[38017,14955],[-22,-48],[49,5]],[[38017,14688],[32,-89]],[[37932,14655],[-9,8]],[[37923,14663],[94,25]],[[37932,14060],[-36,0]],[[37896,14060],[0,-3]],[[37896,14057],[-18,6]],[[37945,14078],[-13,-18]],[[38017,14688],[0,8]],[[38017,14696],[90,-18],[9,46]],[[38116,14724],[72,-36]],[[38188,14688],[5,-51],[4,-46]],[[38197,14591],[-94,-58]],[[38103,14533],[-5,61],[-40,-10]],[[38022,14393],[40,-35]],[[38062,14358],[-18,-39]],[[38044,14319],[-36,-5]],[[37972,14319],[50,74]],[[38157,14396],[-72,66]],[[38085,14462],[18,71]],[[38197,14591],[0,-58],[9,-84],[0,-51]],[[38206,14398],[-49,-2]],[[38166,15082],[-50,8]],[[38116,15090],[-72,-33]],[[38044,15057],[0,68]],[[38044,15125],[27,21]],[[38071,15146],[54,15]],[[38125,15161],[36,0]],[[38161,15161],[5,-79]],[[38179,14831],[5,-64]],[[38184,14767],[-99,20]],[[38085,14787],[-9,5]],[[38076,14792],[103,39]],[[37824,14736],[9,-68]],[[37833,14668],[-45,79],[36,-11]],[[38184,14767],[4,-18],[0,-61]],[[38116,14724],[-31,63]],[[38076,14792],[-14,0]],[[38062,14792],[0,3]],[[38125,14897],[54,-39]],[[38179,14858],[0,-10],[0,-17]],[[38026,14441],[59,21]],[[38157,14396],[-95,-38]],[[38022,14393],[4,48]],[[38044,14912],[18,10]],[[38044,15057],[-22,-33]],[[37963,15064],[-18,31]],[[37945,15095],[-9,36]],[[37945,15143],[99,-18]],[[37756,14569],[-18,0]],[[37738,14569],[14,28]],[[37752,14597],[22,-28]],[[37774,14569],[-18,0]],[[37819,14286],[18,-23]],[[37756,14228],[63,58]],[[38175,14955],[0,-35],[4,-62]],[[38143,14909],[-9,56],[41,-10]],[[38166,15057],[-50,33]],[[38166,15082],[0,-25]],[[38166,15057],[4,-31]],[[38170,15026],[-112,-48]],[[37914,14457],[-9,-18]],[[37905,14439],[-63,18],[67,23]],[[38026,14441],[-45,82]],[[37918,14673],[0,41]],[[37918,14714],[0,15]],[[38062,14792],[-45,-96]],[[37923,14663],[-5,10]],[[37918,14714],[-18,0]],[[37900,14714],[0,-54],[-49,18],[4,71],[-36,-127],[14,46]],[[37824,14736],[27,51]],[[38058,14302],[-14,17]],[[38206,14398],[5,-76]],[[38211,14322],[-41,-36]],[[38170,14286],[-112,16]],[[37846,14958],[-45,-130],[-31,127]],[[37837,14482],[-13,-48],[-32,43],[41,13]],[[37833,14513],[-54,50]],[[37770,14561],[4,8]],[[37752,14597],[31,35],[59,-112]],[[37725,14485],[-5,2]],[[37720,14487],[0,56]],[[37720,14543],[14,-5]],[[37734,14538],[-9,-53]],[[37743,14747],[-54,-140],[54,206],[13,-44]],[[37945,15095],[-27,28]],[[38170,15026],[0,-48],[5,-23]],[[37756,14177],[-31,81],[40,-48]],[[37725,14485],[-9,-51],[4,53]],[[37918,14032],[-22,28]],[[37932,14060],[22,-92],[-36,64]],[[37972,14485],[45,-46],[-58,-99],[0,43],[-68,-8],[18,49],[-45,-23],[41,38]],[[37918,14032],[-22,25]],[[37756,14569],[-22,-31]],[[37720,14543],[18,26]],[[37819,14286],[36,-25]],[[37860,15057],[-27,43],[63,56]],[[37918,14673],[-18,41]],[[36882,15184],[-22,15]],[[36860,15199],[13,112]],[[36873,15311],[32,-18]],[[36905,15293],[-9,-43],[54,-13],[23,69]],[[36973,15306],[40,-36]],[[37013,15270],[-4,-38]],[[37009,15232],[-5,-12]],[[37004,15220],[-59,-44]],[[36945,15176],[-63,8]],[[36860,15199],[-54,8]],[[36806,15207],[0,66]],[[36806,15273],[4,79]],[[36810,15352],[63,-41]],[[36882,15184],[-18,-71]],[[36864,15113],[-72,-28]],[[36792,15085],[14,117]],[[36806,15202],[0,5]],[[36945,15176],[-22,-112]],[[36918,15067],[-54,46]],[[36792,15054],[-4,13]],[[36788,15067],[4,18]],[[36833,15036],[-41,18]],[[36455,15515],[-9,-120]],[[36446,15395],[-104,76]],[[36342,15471],[54,44]],[[36396,15515],[59,0]],[[36689,15253],[-72,43]],[[36617,15296],[-18,13]],[[36599,15309],[54,35]],[[36653,15344],[72,26],[4,-46]],[[36729,15324],[-13,-33]],[[36716,15291],[0,-41]],[[36716,15250],[-27,3]],[[36815,15474],[-9,38]],[[36806,15512],[18,0],[9,0]],[[36833,15512],[-18,-38]],[[36455,15515],[85,0]],[[36540,15515],[32,-64],[-32,-3]],[[36540,15448],[-22,-43]],[[36518,15405],[-72,-10]],[[37207,15103],[-9,-18]],[[37198,15085],[-14,5]],[[37184,15090],[5,28]],[[37189,15118],[18,-15]],[[36932,15436],[-50,38]],[[36882,15474],[-4,38]],[[36878,15512],[113,0],[4,0]],[[36995,15512],[-4,-69]],[[36991,15443],[-32,-15]],[[36959,15428],[-27,8]],[[36599,15309],[-32,2]],[[36567,15311],[36,46]],[[36603,15357],[50,-13]],[[37166,15034],[36,33]],[[37202,15067],[9,-23]],[[37157,15047],[27,43]],[[37198,15085],[4,-18]],[[36603,15357],[-63,91]],[[36540,15515],[90,-3]],[[36630,15512],[-9,-18],[0,-2],[126,-115]],[[36747,15377],[-18,-53]],[[36774,15512],[-90,-94],[63,-41]],[[36630,15512],[5,0],[139,0]],[[36162,15428],[-9,87]],[[36153,15515],[180,0],[63,0]],[[36342,15471],[-180,-43]],[[36945,15176],[28,-7]],[[36973,15169],[22,-77]],[[36788,15067],[-9,-13]],[[36779,15054],[-5,0]],[[36774,15054],[-13,36]],[[36761,15090],[-68,76]],[[36693,15166],[9,8]],[[36702,15174],[0,18]],[[36702,15192],[104,10]],[[36684,15197],[-22,-28]],[[36662,15169],[-45,127]],[[36689,15253],[-5,-56]],[[37031,15382],[-18,-45]],[[37013,15337],[-59,20]],[[36954,15357],[5,71]],[[36991,15443],[67,0],[-27,-61]],[[36621,15143],[41,26]],[[36684,15197],[9,-31]],[[36761,15090],[-32,-5],[-27,7],[-81,51]],[[36121,15515],[5,0],[27,0]],[[36162,15428],[0,-2],[-77,-49]],[[36702,15189],[14,61]],[[36716,15291],[90,-18]],[[36702,15192],[0,-3]],[[36973,15169],[40,-5]],[[37013,15164],[18,-51]],[[37144,15225],[-27,-51],[36,-31],[-63,-79]],[[37013,15164],[-9,56]],[[37009,15232],[54,49]],[[37063,15281],[67,-39]],[[36747,15377],[63,23]],[[36810,15400],[0,-48]],[[37063,15281],[58,76]],[[36792,15054],[-13,0]],[[36954,15357],[-40,8]],[[36914,15365],[18,71]],[[36702,15189],[0,-15]],[[36815,15426],[0,48]],[[36833,15512],[9,0],[36,0]],[[36882,15474],[-67,-48]],[[36621,15143],[-63,173]],[[36558,15316],[9,-5]],[[36815,15426],[-5,-26]],[[36774,15512],[32,0]],[[37189,15118],[-32,104]],[[37238,15090],[-31,13]],[[36995,15512],[41,0],[112,0]],[[37117,15415],[-86,-33]],[[36914,15365],[9,-54]],[[36923,15311],[-18,-18]],[[36828,15024],[-54,30]],[[37013,15270],[0,67]],[[36923,15311],[50,-5]],[[36558,15316],[-31,-10],[27,84],[-36,15]],[[38319,14182],[-41,-97]],[[38278,14085],[-13,-12]],[[38265,14073],[-63,23]],[[38202,14096],[0,15]],[[38202,14111],[54,28],[-14,79]],[[38242,14218],[27,0]],[[38269,14218],[50,-36]],[[38418,14063],[-9,-23]],[[38409,14040],[-81,-13]],[[38328,14027],[-45,36]],[[38283,14063],[-5,22]],[[38319,14182],[45,-10]],[[38364,14172],[-27,-15],[81,-94]],[[38477,14017],[0,35]],[[38477,14052],[18,28]],[[38495,14080],[18,46]],[[38513,14126],[58,43]],[[38571,14169],[36,-10]],[[38607,14159],[50,-61],[22,-20],[-67,-117],[-27,33]],[[38585,13994],[-23,53],[-85,-30]],[[38562,14210],[126,0],[-31,-3],[22,-61],[-72,13]],[[38571,14169],[-9,41]],[[38071,14042],[-18,-7]],[[38053,14035],[9,30]],[[38062,14065],[9,-23]],[[38121,13773],[4,-59]],[[38125,13714],[-27,-46],[-4,82],[-36,-31],[63,54]],[[38085,13948],[9,-28]],[[38094,13920],[-77,8],[68,20]],[[38328,14027],[-18,-53]],[[38310,13974],[-144,66]],[[38166,14040],[0,25]],[[38166,14065],[36,31]],[[38265,14073],[18,-10]],[[38481,13813],[-58,3]],[[38423,13816],[13,43]],[[38436,13859],[63,-2]],[[38499,13857],[-18,-44]],[[38107,14149],[108,69]],[[38215,14218],[5,0]],[[38220,14218],[22,0]],[[38202,14111],[-99,25]],[[38103,14136],[4,13]],[[38058,14302],[-41,-23]],[[38215,14246],[0,-28]],[[38107,14149],[14,94]],[[38121,14243],[49,43]],[[38211,14322],[4,-41],[0,-35]],[[38170,13836],[86,-68]],[[38256,13768],[18,-28]],[[38274,13740],[-149,-26]],[[38121,13773],[49,63]],[[38071,14042],[5,-33]],[[38076,14009],[-23,26]],[[38558,13961],[-81,56]],[[38585,13994],[-27,-33]],[[38706,14210],[14,0],[-27,-130],[13,130]],[[38432,14210],[-14,-147]],[[38364,14172],[50,41]],[[38414,14213],[9,-3],[9,0]],[[38477,14052],[-68,-12]],[[38432,14210],[22,0]],[[38454,14210],[41,-130]],[[38423,13816],[-23,-61]],[[38400,13755],[-126,-15]],[[38256,13768],[-18,89],[45,-18],[18,61]],[[38301,13900],[32,33]],[[38333,13933],[103,-74]],[[38301,13900],[-131,5]],[[38170,13905],[-76,15]],[[38085,13948],[81,92]],[[38310,13974],[23,-41]],[[38134,14017],[18,51],[-81,17]],[[38071,14085],[32,51]],[[38166,14065],[-32,-48]],[[38558,13961],[-59,-104]],[[38481,13813],[-18,-51],[-45,-5],[-18,-2]],[[38062,14065],[9,20]],[[38134,14017],[-58,-8]],[[38121,14243],[-104,-254],[-54,76],[59,38],[-50,28]],[[38170,13836],[-99,-13],[99,82]],[[38513,14126],[-18,84]],[[38495,14210],[67,0]],[[38454,14210],[41,0]],[[38215,14246],[5,-28]],[[38269,14218],[145,-5]],[[37986,15365],[-18,7]],[[37968,15372],[18,38]],[[37986,15410],[-5,72],[50,10]],[[38031,15492],[-18,-54],[54,-81],[-32,-56]],[[38035,15301],[-67,-64],[36,128]],[[38004,15365],[-18,0]],[[37896,15370],[72,2]],[[37986,15365],[4,-11]],[[37990,15354],[-72,-23]],[[37851,15441],[45,-13]],[[37896,15428],[31,33]],[[37927,15461],[59,-51]],[[37927,15461],[-54,15]],[[37873,15476],[-13,36]],[[37860,15512],[13,3],[135,0],[18,0]],[[38026,15515],[5,-23]],[[38152,15281],[9,-105],[0,-15]],[[38125,15161],[-45,20],[9,6],[-4,53]],[[38085,15240],[0,8]],[[38085,15248],[67,33]],[[38004,15365],[-14,-11]],[[38071,15306],[81,18]],[[38152,15324],[0,-3],[0,-40]],[[38085,15248],[-45,25],[31,33]],[[37896,15428],[-23,48]],[[37797,15512],[9,0],[54,0]],[[38071,15146],[-121,35],[67,77],[68,-18]],[[38026,15515],[50,0],[27,0],[40,0],[0,-72],[0,-15],[9,-102],[0,-2]],[[38071,15306],[32,61],[-68,-66]]]}