{"type":"Topology","transform":{"scale":[0.0012831345112129487,0.0009745357309423489],"translate":[-124.73273099999999,24.60334863324381]},"objects":{"area":{"type":"GeometryCollection","geometries":[{"arcs":[[0,1,2]],"type":"Polygon","properties":{"state":"MI","name":"ALGONAC","zip":"48001"}},{"arcs":[[3,4,5,6]],"type":"Polygon","properties":{"state":"MI","name":"ALLENTON","zip":"48002"}},{"arcs":[[7,8,9,10,-5]],"type":"Polygon","properties":{"state":"MI","name":"ALMONT","zip":"48003"}},{"arcs":[[11,12,-4,13]],"type":"Polygon","properties":{"state":"MI","name":"ARMADA","zip":"48005"}},{"arcs":[[14,15,16,17,18,19]],"type":"Polygon","properties":{"state":"MI","name":"AVOCA","zip":"48006"}},{"arcs":[[20,21,22,23,24]],"type":"Polygon","properties":{"state":"MI","name":"BIRMINGHAM","zip":"48009"}},{"arcs":[[25,26,27,-6,-11]],"type":"Polygon","properties":{"state":"MI","name":"CAPAC","zip":"48014"}},{"arcs":[[28,29,30,31]],"type":"Polygon","properties":{"state":"MI","name":"CENTER LINE","zip":"48015"}},{"arcs":[[32,33,34]],"type":"Polygon","properties":{"state":"MI","name":"CLAWSON","zip":"48017"}},{"arcs":[[35,36,37,38,39]],"type":"Polygon","properties":{"state":"MI","name":"EASTPOINTE","zip":"48021"}},{"arcs":[[40,-15,41,-28]],"type":"Polygon","properties":{"state":"MI","name":"EMMETT","zip":"48022"}},{"arcs":[[42,43,44,-1,45]],"type":"Polygon","properties":{"state":"MI","name":"FAIR HAVEN","zip":"48023"}},{"arcs":[[46,47,48,49,-21,50]],"type":"Polygon","properties":{"state":"MI","name":"FRANKLIN","zip":"48025"}},{"arcs":[[51,52,53,54]],"type":"Polygon","properties":{"state":"MI","name":"FRASER","zip":"48026"}},{"arcs":[[55,56,-19,57]],"type":"Polygon","properties":{"state":"MI","name":"GOODELLS","zip":"48027"}},{"arcs":[[58]],"type":"Polygon","properties":{"state":"MI","name":"HARSENS ISLAND","zip":"48028"}},{"arcs":[[59,60,61,62]],"type":"Polygon","properties":{"state":"MI","name":"HAZEL PARK","zip":"48030"}},{"arcs":[[63,64,-17,65,66,67]],"type":"Polygon","properties":{"state":"MI","name":"JEDDO","zip":"48032"}},{"arcs":[[68,69,70,71,-48,72,73]],"type":"Polygon","properties":{"state":"MI","name":"SOUTHFIELD","zip":"48034"}},{"arcs":[[74,75,-55,76,77,78]],"type":"Polygon","properties":{"state":"MI","name":"CLINTON TOWNSHIP","zip":"48035"}},{"arcs":[[79,80,81,-78,82]],"type":"Polygon","properties":{"state":"MI","name":"CLINTON TOWNSHIP","zip":"48036"}},{"arcs":[[83,84,85,-80]],"type":"Polygon","properties":{"state":"MI","name":"CLINTON TOWNSHIP","zip":"48038"}},{"arcs":[[-2,-45,86,87]],"type":"Polygon","properties":{"state":"MI","name":"MARINE CITY","zip":"48039"}},{"arcs":[[88,89,90,91]],"type":"Polygon","properties":{"state":"MI","name":"MARYSVILLE","zip":"48040"}},{"arcs":[[-42,-20,-57,92,-7]],"type":"Polygon","properties":{"state":"MI","name":"MEMPHIS","zip":"48041"}},{"arcs":[[93,94,95,96,-81]],"type":"Polygon","properties":{"state":"MI","name":"MACOMB","zip":"48042"}},{"arcs":[[97,-94,-86]],"type":"Polygon","properties":{"state":"MI","name":"MACOMB","zip":"48044"}},{"arcs":[[-79,-82,98,99,100]],"type":"Polygon","properties":{"state":"MI","name":"HARRISON TOWNSHIP","zip":"48045"}},{"arcs":[[-100,101,102,-43,103]],"type":"Polygon","properties":{"state":"MI","name":"NEW BALTIMORE","zip":"48047"}},{"arcs":[[104,105,106,107,-103]],"type":"Polygon","properties":{"state":"MI","name":"NEW HAVEN","zip":"48048"}},{"arcs":[[108,-18,-65,109,110]],"type":"Polygon","properties":{"state":"MI","name":"NORTH STREET","zip":"48049"}},{"arcs":[[111,-107,112,113]],"type":"Polygon","properties":{"state":"MI","name":"NEW HAVEN","zip":"48050"}},{"arcs":[[-97,-105,-102,-99]],"type":"Polygon","properties":{"state":"MI","name":"NEW BALTIMORE","zip":"48051"}},{"arcs":[[114,115,116,-87]],"type":"Polygon","properties":{"state":"MI","name":"EAST CHINA","zip":"48054"}},{"arcs":[[-64,117,118,119,-110]],"type":"Polygon","properties":{"state":"MI","name":"FORT GRATIOT","zip":"48059"}},{"arcs":[[120,-111,-120,121,-91]],"type":"Polygon","properties":{"state":"MI","name":"PORT HURON","zip":"48060"}},{"arcs":[[122,-114,-14,-93,123]],"type":"Polygon","properties":{"state":"MI","name":"RICHMOND","zip":"48062"}},{"arcs":[[124,-124,-56,125]],"type":"Polygon","properties":{"state":"MI","name":"COLUMBUS","zip":"48063"}},{"arcs":[[-44,-108,-112,-123,-125,-115]],"type":"Polygon","properties":{"state":"MI","name":"CASCO","zip":"48064"}},{"arcs":[[126,-8,-13,127]],"type":"Polygon","properties":{"state":"MI","name":"ROMEO","zip":"48065"}},{"arcs":[[128,-38,129,130,-52,-76,131]],"type":"Polygon","properties":{"state":"MI","name":"ROSEVILLE","zip":"48066"}},{"arcs":[[132,133,134,135,136,137]],"type":"Polygon","properties":{"state":"MI","name":"ROYAL OAK","zip":"48067"}},{"arcs":[[138,-138,139]],"type":"Polygon","properties":{"state":"MI","name":"PLEASANT RIDGE","zip":"48069"}},{"arcs":[[140,141,-133]],"type":"Polygon","properties":{"state":"MI","name":"HUNTINGTON WOODS","zip":"48070"}},{"arcs":[[142,-61,-136,143,144,145]],"type":"Polygon","properties":{"state":"MI","name":"MADISON HEIGHTS","zip":"48071"}},{"arcs":[[146,147,148,-134,-142]],"type":"Polygon","properties":{"state":"MI","name":"BERKLEY","zip":"48072"}},{"arcs":[[-135,-149,149,-51,-25,150,-33,-144]],"type":"Polygon","properties":{"state":"MI","name":"ROYAL OAK","zip":"48073"}},{"arcs":[[-109,-121,-90,151,-58]],"type":"Polygon","properties":{"state":"MI","name":"SMITHS CREEK","zip":"48074"}},{"arcs":[[152,153,154,155,-74]],"type":"Polygon","properties":{"state":"MI","name":"SOUTHFIELD","zip":"48075"}},{"arcs":[[156,-153,-73,-47,-150,-148]],"type":"Polygon","properties":{"state":"MI","name":"SOUTHFIELD","zip":"48076"}},{"arcs":[[-116,-126,-152,-89,157]],"type":"Polygon","properties":{"state":"MI","name":"SAINT CLAIR","zip":"48079"}},{"arcs":[[158,159,160,161,-39]],"type":"Polygon","properties":{"state":"MI","name":"SAINT CLAIR SHORES","zip":"48080"}},{"arcs":[[-159,-129,162,163]],"type":"Polygon","properties":{"state":"MI","name":"SAINT CLAIR SHORES","zip":"48081"}},{"arcs":[[-132,-75,164,-163]],"type":"Polygon","properties":{"state":"MI","name":"SAINT CLAIR SHORES","zip":"48082"}},{"arcs":[[-35,165,166,167,-145]],"type":"Polygon","properties":{"state":"MI","name":"TROY","zip":"48083"}},{"arcs":[[-151,-24,168,169,-166,-34]],"type":"Polygon","properties":{"state":"MI","name":"TROY","zip":"48084"}},{"arcs":[[170,171,172,173,-167]],"type":"Polygon","properties":{"state":"MI","name":"TROY","zip":"48085"}},{"arcs":[[174,175,176,-53,-131]],"type":"Polygon","properties":{"state":"MI","name":"WARREN","zip":"48088"}},{"arcs":[[177,178,179,-29,180,-175,-130,-37]],"type":"Polygon","properties":{"state":"MI","name":"WARREN","zip":"48089"}},{"arcs":[[-143,181,-30,-180,182,-62]],"type":"Polygon","properties":{"state":"MI","name":"WARREN","zip":"48091"}},{"arcs":[[-182,-146,183,184,185,-31]],"type":"Polygon","properties":{"state":"MI","name":"WARREN","zip":"48092"}},{"arcs":[[-32,-186,186,-176,-181]],"type":"Polygon","properties":{"state":"MI","name":"WARREN","zip":"48093"}},{"arcs":[[187,188,189,190,191]],"type":"Polygon","properties":{"state":"MI","name":"WASHINGTON","zip":"48094"}},{"arcs":[[192,-190,193,194,-128]],"type":"Polygon","properties":{"state":"MI","name":"WASHINGTON","zip":"48095"}},{"arcs":[[-96,-191,-193,-12,-113,-106]],"type":"Polygon","properties":{"state":"MI","name":"RAY","zip":"48096"}},{"arcs":[[-27,195,196,197,198,-66,-16,-41]],"type":"Polygon","properties":{"state":"MI","name":"YALE","zip":"48097"}},{"arcs":[[199,200,-171,-170]],"type":"Polygon","properties":{"state":"MI","name":"TROY","zip":"48098"}},{"arcs":[[201,202,203,204,205,206,207]],"type":"Polygon","properties":{"state":"MI","name":"ALLEN PARK","zip":"48101"}},{"arcs":[[208,209,210,211,212,213,214]],"type":"Polygon","properties":{"state":"MI","name":"ANN ARBOR","zip":"48103"}},{"arcs":[[215,216,-212]],"type":"Polygon","properties":{"state":"MI","name":"ANN ARBOR","zip":"48104"}},{"arcs":[[217,218,219,-216,-211,220,221,222,223]],"type":"Polygon","properties":{"state":"MI","name":"ANN ARBOR","zip":"48105"}},{"arcs":[[224,225,-213,-217,-220]],"type":"Polygon","properties":{"state":"MI","name":"ANN ARBOR","zip":"48108"}},{"arcs":[[226,227,228,229,230,231,232]],"type":"Polygon","properties":{"state":"MI","name":"BELLEVILLE","zip":"48111"}},{"arcs":[[233,234,235,236]],"type":"Polygon","properties":{"state":"MI","name":"BRIGHTON","zip":"48114"}},{"arcs":[[237,238,-235,239,240,241,242]],"type":"Polygon","properties":{"state":"MI","name":"BRIGHTON","zip":"48116"}},{"arcs":[[243,244,245,-228,246,247,248]],"type":"Polygon","properties":{"state":"MI","name":"CARLETON","zip":"48117"}},{"arcs":[[249,250,251,252,-209,253]],"type":"Polygon","properties":{"state":"MI","name":"CHELSEA","zip":"48118"}},{"arcs":[[254,255,256,-205,257,258]],"type":"Polygon","properties":{"state":"MI","name":"DEARBORN","zip":"48120"}},{"arcs":[[259,260,-206,-257]],"type":"Polygon","properties":{"state":"MI","name":"MELVINDALE","zip":"48122"}},{"arcs":[[261,262,263,-258,-204]],"type":"Polygon","properties":{"state":"MI","name":"DEARBORN","zip":"48124"}},{"arcs":[[264,265,266,267,-262,-203]],"type":"Polygon","properties":{"state":"MI","name":"DEARBORN HEIGHTS","zip":"48125"}},{"arcs":[[268,269,270,271,-259,-264]],"type":"Polygon","properties":{"state":"MI","name":"DEARBORN","zip":"48126"}},{"arcs":[[272,273,274,275,276,277,-268]],"type":"Polygon","properties":{"state":"MI","name":"DEARBORN HEIGHTS","zip":"48127"}},{"arcs":[[-278,-269,-263]],"type":"Polygon","properties":{"state":"MI","name":"DEARBORN","zip":"48128"}},{"arcs":[[-210,-253,278,279,280,-221]],"type":"Polygon","properties":{"state":"MI","name":"DEXTER","zip":"48130"}},{"arcs":[[281,282,283,284,285,286,287,288]],"type":"Polygon","properties":{"state":"MI","name":"DUNDEE","zip":"48131"}},{"arcs":[[289,290,291,292]],"type":"Polygon","properties":{"state":"MI","name":"ERIE","zip":"48133"}},{"arcs":[[293,294,-248,295,296,297]],"type":"Polygon","properties":{"state":"MI","name":"FLAT ROCK","zip":"48134"}},{"arcs":[[298,299,-274,300]],"type":"Polygon","properties":{"state":"MI","name":"GARDEN CITY","zip":"48135"}},{"arcs":[[301,302,303,304,305,-279,-252]],"type":"Polygon","properties":{"state":"MI","name":"GREGORY","zip":"48137"}},{"arcs":[[306,307,-282,308,309]],"type":"Polygon","properties":{"state":"MI","name":"IDA","zip":"48140"}},{"arcs":[[310,-301,-273,-267]],"type":"Polygon","properties":{"state":"MI","name":"INKSTER","zip":"48141"}},{"arcs":[[311,312,313]],"type":"Polygon","properties":{"state":"MI","name":"LAMBERTVILLE","zip":"48144"}},{"arcs":[[-310,314,315,316,-291]],"type":"Polygon","properties":{"state":"MI","name":"LA SALLE","zip":"48145"}},{"arcs":[[-261,317,318,319,320,-207]],"type":"Polygon","properties":{"state":"MI","name":"LINCOLN PARK","zip":"48146"}},{"arcs":[[321,322,323,324]],"type":"Polygon","properties":{"state":"MI","name":"LIVONIA","zip":"48150"}},{"arcs":[[325,326,327,328,329]],"type":"Polygon","properties":{"state":"MI","name":"LIVONIA","zip":"48152"}},{"arcs":[[330,331,-330,332,333,-324]],"type":"Polygon","properties":{"state":"MI","name":"LIVONIA","zip":"48154"}},{"arcs":[[-317,334,-292]],"type":"Polygon","properties":{"state":"MI","name":"LUNA PIER","zip":"48157"}},{"arcs":[[335,336,337,338,-254,-215,339]],"type":"Polygon","properties":{"state":"MI","name":"MANCHESTER","zip":"48158"}},{"arcs":[[340,-287,341,342,-246]],"type":"Polygon","properties":{"state":"MI","name":"MAYBEE","zip":"48159"}},{"arcs":[[-286,343,344,345,346,-342]],"type":"Polygon","properties":{"state":"MI","name":"MILAN","zip":"48160"}},{"arcs":[[-309,-289,347,348,-315]],"type":"Polygon","properties":{"state":"MI","name":"MONROE","zip":"48161"}},{"arcs":[[349,350,-348,-288,-341,-245]],"type":"Polygon","properties":{"state":"MI","name":"MONROE","zip":"48162"}},{"arcs":[[-227,351,-296,-247]],"type":"Polygon","properties":{"state":"MI","name":"NEW BOSTON","zip":"48164"}},{"arcs":[[352,353,-241,354,355]],"type":"Polygon","properties":{"state":"MI","name":"NEW HUDSON","zip":"48165"}},{"arcs":[[-244,356,357,-350]],"type":"Polygon","properties":{"state":"MI","name":"NEWPORT","zip":"48166"}},{"arcs":[[358,359,360,361,362,-326,-332]],"type":"Polygon","properties":{"state":"MI","name":"NORTHVILLE","zip":"48167"}},{"arcs":[[363,-238,364,-280,-306]],"type":"Polygon","properties":{"state":"MI","name":"PINCKNEY","zip":"48169"}},{"arcs":[[365,366,-224,367,-359,-331,-323]],"type":"Polygon","properties":{"state":"MI","name":"PLYMOUTH","zip":"48170"}},{"arcs":[[368,-294,369,370]],"type":"Polygon","properties":{"state":"MI","name":"ROCKWOOD","zip":"48173"}},{"arcs":[[371,372,-297,-352,-233,373,374,375]],"type":"Polygon","properties":{"state":"MI","name":"ROMULUS","zip":"48174"}},{"arcs":[[376,377,-340,-214,-226,378,-345]],"type":"Polygon","properties":{"state":"MI","name":"SALINE","zip":"48176"}},{"arcs":[[379,-242,-354,380,381,-360,-368,-223]],"type":"Polygon","properties":{"state":"MI","name":"SOUTH LYON","zip":"48178"}},{"arcs":[[-249,-295,-369,382,-357]],"type":"Polygon","properties":{"state":"MI","name":"SOUTH ROCKWOOD","zip":"48179"}},{"arcs":[[383,-376,-265,-202,384]],"type":"Polygon","properties":{"state":"MI","name":"TAYLOR","zip":"48180"}},{"arcs":[[385,-313,386,387,-307,-290]],"type":"Polygon","properties":{"state":"MI","name":"TEMPERANCE","zip":"48182"}},{"arcs":[[-298,-373,388,389,-370]],"type":"Polygon","properties":{"state":"MI","name":"TRENTON","zip":"48183"}},{"arcs":[[390,391,-374]],"type":"Polygon","properties":{"state":"MI","name":"WAYNE","zip":"48184"}},{"arcs":[[392,393,-322,-275,-300]],"type":"Polygon","properties":{"state":"MI","name":"WESTLAND","zip":"48185"}},{"arcs":[[-375,-392,394,-393,-299,-311,-266]],"type":"Polygon","properties":{"state":"MI","name":"WESTLAND","zip":"48186"}},{"arcs":[[395,396,-366,-394]],"type":"Polygon","properties":{"state":"MI","name":"CANTON","zip":"48187"}},{"arcs":[[-232,397,-396,-395,-391]],"type":"Polygon","properties":{"state":"MI","name":"CANTON","zip":"48188"}},{"arcs":[[-365,-243,-380,-222,-281]],"type":"Polygon","properties":{"state":"MI","name":"WHITMORE LAKE","zip":"48189"}},{"arcs":[[-347,398,-229,-343]],"type":"Polygon","properties":{"state":"MI","name":"WILLIS","zip":"48191"}},{"arcs":[[-389,-372,-384,399,-320,400,401]],"type":"Polygon","properties":{"state":"MI","name":"WYANDOTTE","zip":"48192"}},{"arcs":[[-385,-208,-321,-400]],"type":"Polygon","properties":{"state":"MI","name":"SOUTHGATE","zip":"48195"}},{"arcs":[[-225,-219,402,-230,-399,-346,-379]],"type":"Polygon","properties":{"state":"MI","name":"YPSILANTI","zip":"48197"}},{"arcs":[[-231,-403,-218,-367,-397,-398]],"type":"Polygon","properties":{"state":"MI","name":"YPSILANTI","zip":"48198"}},{"arcs":[[403,404,405,406,407]],"type":"Polygon","properties":{"state":"MI","name":"DETROIT","zip":"48201"}},{"arcs":[[408,-406,409,410,411,412]],"type":"Polygon","properties":{"state":"MI","name":"DETROIT","zip":"48202"}},{"arcs":[[413,-412,414,415,416,417,-63,418,419]],"type":"Polygon","properties":{"state":"MI","name":"HIGHLAND PARK","zip":"48203"}},{"arcs":[[420,-271,421,422,423,424]],"type":"Polygon","properties":{"state":"MI","name":"DETROIT","zip":"48204"}},{"arcs":[[425,426,427,-178,-36,428]],"type":"Polygon","properties":{"state":"MI","name":"DETROIT","zip":"48205"}},{"arcs":[[429,-425,430,-415,-411]],"type":"Polygon","properties":{"state":"MI","name":"DETROIT","zip":"48206"}},{"arcs":[[-409,431,432,433,434,435,-407]],"type":"Polygon","properties":{"state":"MI","name":"DETROIT","zip":"48207"}},{"arcs":[[436,437,-430,-410,-405]],"type":"Polygon","properties":{"state":"MI","name":"DETROIT","zip":"48208"}},{"arcs":[[438,-255,439,440,441,442]],"type":"Polygon","properties":{"state":"MI","name":"DETROIT","zip":"48209"}},{"arcs":[[-421,-438,443,-440,-272]],"type":"Polygon","properties":{"state":"MI","name":"DETROIT","zip":"48210"}},{"arcs":[[444,-432,-413,-414,445]],"type":"Polygon","properties":{"state":"MI","name":"DETROIT","zip":"48211"}},{"arcs":[[-420,446,-446]],"type":"Polygon","properties":{"state":"MI","name":"HAMTRAMCK","zip":"48212"}},{"arcs":[[447,-427,448,449,450,-433,-445]],"type":"Polygon","properties":{"state":"MI","name":"DETROIT","zip":"48213"}},{"arcs":[[-434,-451,451,452]],"type":"Polygon","properties":{"state":"MI","name":"DETROIT","zip":"48214"}},{"arcs":[[-450,453,454,455,-452]],"type":"Polygon","properties":{"state":"MI","name":"DETROIT","zip":"48215"}},{"arcs":[[456,457,-441,-444,-437,-404]],"type":"Polygon","properties":{"state":"MI","name":"DETROIT","zip":"48216"}},{"arcs":[[458,459,-318,-260,-256,-439]],"type":"Polygon","properties":{"state":"MI","name":"DETROIT","zip":"48217"}},{"arcs":[[460,-459,-443,461]],"type":"Polygon","properties":{"state":"MI","name":"RIVER ROUGE","zip":"48218"}},{"arcs":[[462,463,-69,-156,464,465]],"type":"Polygon","properties":{"state":"MI","name":"DETROIT","zip":"48219"}},{"arcs":[[466,467,-140,-137,-60,-418]],"type":"Polygon","properties":{"state":"MI","name":"FERNDALE","zip":"48220"}},{"arcs":[[468,469,-467,-417]],"type":"Polygon","properties":{"state":"MI","name":"DETROIT","zip":"48221"}},{"arcs":[[470,471,-466,472]],"type":"Polygon","properties":{"state":"MI","name":"DETROIT","zip":"48223"}},{"arcs":[[-426,473,474,475,-454,-449]],"type":"Polygon","properties":{"state":"MI","name":"DETROIT","zip":"48224"}},{"arcs":[[-429,-40,-162,476,-474]],"type":"Polygon","properties":{"state":"MI","name":"HARPER WOODS","zip":"48225"}},{"arcs":[[-457,-408,-436,477]],"type":"Polygon","properties":{"state":"MI","name":"DETROIT","zip":"48226"}},{"arcs":[[478,-473,479,480,-423]],"type":"Polygon","properties":{"state":"MI","name":"DETROIT","zip":"48227"}},{"arcs":[[481,-471,-479,-422,-270,-277]],"type":"Polygon","properties":{"state":"MI","name":"DETROIT","zip":"48228"}},{"arcs":[[-319,-460,-461,482,-401]],"type":"Polygon","properties":{"state":"MI","name":"ECORSE","zip":"48229"}},{"arcs":[[-455,-476,483,484]],"type":"Polygon","properties":{"state":"MI","name":"GROSSE POINTE","zip":"48230"}},{"arcs":[[-447,-419,-183,-179,-428,-448]],"type":"Polygon","properties":{"state":"MI","name":"DETROIT","zip":"48234"}},{"arcs":[[-465,-155,485,-470,-480]],"type":"Polygon","properties":{"state":"MI","name":"DETROIT","zip":"48235"}},{"arcs":[[-484,-475,-477,-161,486]],"type":"Polygon","properties":{"state":"MI","name":"GROSSE POINTE","zip":"48236"}},{"arcs":[[-486,-154,-157,-147,-141,-139,-468]],"type":"Polygon","properties":{"state":"MI","name":"OAK PARK","zip":"48237"}},{"arcs":[[-469,-416,-431,-424,-481]],"type":"Polygon","properties":{"state":"MI","name":"DETROIT","zip":"48238"}},{"arcs":[[-334,487,-463,-472,-482,-276,-325]],"type":"Polygon","properties":{"state":"MI","name":"REDFORD","zip":"48239"}},{"arcs":[[-329,-70,-464,-488,-333]],"type":"Polygon","properties":{"state":"MI","name":"REDFORD","zip":"48240"}},{"arcs":[[-50,488,489,490,491,-22]],"type":"Polygon","properties":{"state":"MI","name":"BLOOMFIELD HILLS","zip":"48301"}},{"arcs":[[492,-491,493,494,495,496]],"type":"Polygon","properties":{"state":"MI","name":"BLOOMFIELD HILLS","zip":"48302"}},{"arcs":[[-493,497,498,-200,-169,-23,-492]],"type":"Polygon","properties":{"state":"MI","name":"BLOOMFIELD HILLS","zip":"48304"}},{"arcs":[[499,500,501,502,503,504,-194,-189,505]],"type":"Polygon","properties":{"state":"MI","name":"ROCHESTER","zip":"48306"}},{"arcs":[[506,-500,507,508,-172]],"type":"Polygon","properties":{"state":"MI","name":"ROCHESTER","zip":"48307"}},{"arcs":[[509,-501,-507,-201]],"type":"Polygon","properties":{"state":"MI","name":"ROCHESTER","zip":"48309"}},{"arcs":[[510,-184,-168,-174,511,512]],"type":"Polygon","properties":{"state":"MI","name":"STERLING HEIGHTS","zip":"48310"}},{"arcs":[[-185,-511,513,-83,-77,-54,-177,-187]],"type":"Polygon","properties":{"state":"MI","name":"STERLING HEIGHTS","zip":"48312"}},{"arcs":[[-514,-513,514,515,-84]],"type":"Polygon","properties":{"state":"MI","name":"STERLING HEIGHTS","zip":"48313"}},{"arcs":[[516,-515,-512,-173]],"type":"Polygon","properties":{"state":"MI","name":"STERLING HEIGHTS","zip":"48314"}},{"arcs":[[-516,517,518,-192,-95,-98,-85]],"type":"Polygon","properties":{"state":"MI","name":"UTICA","zip":"48315"}},{"arcs":[[519,-508,-506,-188,-519]],"type":"Polygon","properties":{"state":"MI","name":"UTICA","zip":"48316"}},{"arcs":[[-520,-518,-517,-509]],"type":"Polygon","properties":{"state":"MI","name":"UTICA","zip":"48317"}},{"arcs":[[520,521,522,-496]],"type":"Polygon","properties":{"state":"MI","name":"KEEGO HARBOR","zip":"48320"}},{"arcs":[[523,524,-489,525,526]],"type":"Polygon","properties":{"state":"MI","name":"WEST BLOOMFIELD","zip":"48322"}},{"arcs":[[527,528,529,-494,-490,-525]],"type":"Polygon","properties":{"state":"MI","name":"WEST BLOOMFIELD","zip":"48323"}},{"arcs":[[-495,-530,530,531,532,-521]],"type":"Polygon","properties":{"state":"MI","name":"WEST BLOOMFIELD","zip":"48324"}},{"arcs":[[-499,533,534,535,536,537,-502,-510]],"type":"Polygon","properties":{"state":"MI","name":"AUBURN HILLS","zip":"48326"}},{"arcs":[[538,539,540,-532]],"type":"Polygon","properties":{"state":"MI","name":"WATERFORD","zip":"48327"}},{"arcs":[[541,542,543,-522,-533,-541]],"type":"Polygon","properties":{"state":"MI","name":"WATERFORD","zip":"48328"}},{"arcs":[[544,545,-537,546,-542,-540]],"type":"Polygon","properties":{"state":"MI","name":"WATERFORD","zip":"48329"}},{"arcs":[[547,-527,548,549]],"type":"Polygon","properties":{"state":"MI","name":"FARMINGTON","zip":"48331"}},{"arcs":[[-526,-49,-72,550,-549]],"type":"Polygon","properties":{"state":"MI","name":"FARMINGTON","zip":"48334"}},{"arcs":[[551,-327,-363,552,-550]],"type":"Polygon","properties":{"state":"MI","name":"FARMINGTON","zip":"48335"}},{"arcs":[[-552,-551,-71,-328]],"type":"Polygon","properties":{"state":"MI","name":"FARMINGTON","zip":"48336"}},{"arcs":[[553,554,-543,-547,-536]],"type":"Polygon","properties":{"state":"MI","name":"PONTIAC","zip":"48340"}},{"arcs":[[-544,-555,555,-534,-498,-497,-523]],"type":"Polygon","properties":{"state":"MI","name":"PONTIAC","zip":"48341"}},{"arcs":[[-554,-535,-556]],"type":"Polygon","properties":{"state":"MI","name":"PONTIAC","zip":"48342"}},{"arcs":[[556,557,558,-546]],"type":"Polygon","properties":{"state":"MI","name":"CLARKSTON","zip":"48346"}},{"arcs":[[559,560,-559,561,562,563,564,565]],"type":"Polygon","properties":{"state":"MI","name":"CLARKSTON","zip":"48348"}},{"arcs":[[566,567,568,-562,-558,569]],"type":"Polygon","properties":{"state":"MI","name":"DAVISBURG","zip":"48350"}},{"arcs":[[570,571,572,573,574,-237]],"type":"Polygon","properties":{"state":"MI","name":"HARTLAND","zip":"48353"}},{"arcs":[[575,576,-568,577,578]],"type":"Polygon","properties":{"state":"MI","name":"HIGHLAND","zip":"48356"}},{"arcs":[[579,580,-574,581,-576]],"type":"Polygon","properties":{"state":"MI","name":"HIGHLAND","zip":"48357"}},{"arcs":[[-561,582,-503,-538]],"type":"Polygon","properties":{"state":"MI","name":"LAKE ORION","zip":"48359"}},{"arcs":[[-583,-560,583,584,-504]],"type":"Polygon","properties":{"state":"MI","name":"LAKE ORION","zip":"48360"}},{"arcs":[[585,-584,-566,586,587]],"type":"Polygon","properties":{"state":"MI","name":"LAKE ORION","zip":"48362"}},{"arcs":[[588,589,-195,-505,-585,-586]],"type":"Polygon","properties":{"state":"MI","name":"OAKLAND","zip":"48363"}},{"arcs":[[590,591,-127,-590]],"type":"Polygon","properties":{"state":"MI","name":"LEONARD","zip":"48367"}},{"arcs":[[-588,592,593,-591,-589]],"type":"Polygon","properties":{"state":"MI","name":"OXFORD","zip":"48370"}},{"arcs":[[-587,-565,594,595,596,-593]],"type":"Polygon","properties":{"state":"MI","name":"OXFORD","zip":"48371"}},{"arcs":[[597,-361,-382,598,599]],"type":"Polygon","properties":{"state":"MI","name":"NOVI","zip":"48374"}},{"arcs":[[600,-553,-362,-598]],"type":"Polygon","properties":{"state":"MI","name":"NOVI","zip":"48375"}},{"arcs":[[-601,-600,601,602,-548]],"type":"Polygon","properties":{"state":"MI","name":"NOVI","zip":"48377"}},{"arcs":[[-234,-575,-581,603,-355,-240]],"type":"Polygon","properties":{"state":"MI","name":"MILFORD","zip":"48380"}},{"arcs":[[-580,-579,604,605,-356,-604]],"type":"Polygon","properties":{"state":"MI","name":"MILFORD","zip":"48381"}},{"arcs":[[606,607,-605,608,609,-531,-529]],"type":"Polygon","properties":{"state":"MI","name":"COMMERCE TOWNSHIP","zip":"48382"}},{"arcs":[[-578,-567,610,-609]],"type":"Polygon","properties":{"state":"MI","name":"WHITE LAKE","zip":"48383"}},{"arcs":[[-610,-611,-570,-557,-545,-539]],"type":"Polygon","properties":{"state":"MI","name":"WHITE LAKE","zip":"48386"}},{"arcs":[[611,-607,-528,-524,-603]],"type":"Polygon","properties":{"state":"MI","name":"WALLED LAKE","zip":"48390"}},{"arcs":[[-381,-353,-606,-608,-612,-602,-599]],"type":"Polygon","properties":{"state":"MI","name":"WIXOM","zip":"48393"}},{"arcs":[[612,613,614,615,616,617]],"type":"Polygon","properties":{"state":"MI","name":"APPLEGATE","zip":"48401"}},{"arcs":[[618,619,620,621,622]],"type":"Polygon","properties":{"state":"MI","name":"ATTICA","zip":"48412"}},{"arcs":[[623,624,625,626,627,628]],"type":"Polygon","properties":{"state":"MI","name":"BAD AXE","zip":"48413"}},{"arcs":[[629,630,631,632]],"type":"Polygon","properties":{"state":"MI","name":"BANCROFT","zip":"48414"}},{"arcs":[[633,634,635,636,637,638,639,640]],"type":"Polygon","properties":{"state":"MI","name":"BIRCH RUN","zip":"48415"}},{"arcs":[[641,642,643,644,645,646,-197,647]],"type":"Polygon","properties":{"state":"MI","name":"BROWN CITY","zip":"48416"}},{"arcs":[[648,649,650,-637]],"type":"Polygon","properties":{"state":"MI","name":"BURT","zip":"48417"}},{"arcs":[[651,652,653,654,-630,655,656,657]],"type":"Polygon","properties":{"state":"MI","name":"BYRON","zip":"48418"}},{"arcs":[[658,659,660,661,-614]],"type":"Polygon","properties":{"state":"MI","name":"CARSONVILLE","zip":"48419"}},{"arcs":[[662,663,-635,664,665,666]],"type":"Polygon","properties":{"state":"MI","name":"CLIO","zip":"48420"}},{"arcs":[[667,668,669,670,671]],"type":"Polygon","properties":{"state":"MI","name":"COLUMBIAVILLE","zip":"48421"}},{"arcs":[[672,-67,-199,673,674,-617]],"type":"Polygon","properties":{"state":"MI","name":"CROSWELL","zip":"48422"}},{"arcs":[[675,676,677,678,679,680,681,-669]],"type":"Polygon","properties":{"state":"MI","name":"DAVISON","zip":"48423"}},{"arcs":[[682,683,684,685]],"type":"Polygon","properties":{"state":"MI","name":"DECKER","zip":"48426"}},{"arcs":[[686,-660,687,688,689,690,691]],"type":"Polygon","properties":{"state":"MI","name":"DECKERVILLE","zip":"48427"}},{"arcs":[[-594,-597,692,-619,693,-9,-592]],"type":"Polygon","properties":{"state":"MI","name":"DRYDEN","zip":"48428"}},{"arcs":[[694,-656,-633,695,696,697,698]],"type":"Polygon","properties":{"state":"MI","name":"DURAND","zip":"48429"}},{"arcs":[[699,700,701,702,-572]],"type":"Polygon","properties":{"state":"MI","name":"FENTON","zip":"48430"}},{"arcs":[[703,-628,704,705]],"type":"Polygon","properties":{"state":"MI","name":"FILION","zip":"48432"}},{"arcs":[[706,707,708,709,710,711,-663,712,713]],"type":"Polygon","properties":{"state":"MI","name":"FLUSHING","zip":"48433"}},{"arcs":[[714,715,716,717]],"type":"Polygon","properties":{"state":"MI","name":"FOSTORIA","zip":"48435"}},{"arcs":[[-695,718,719,-657]],"type":"Polygon","properties":{"state":"MI","name":"GAINES","zip":"48436"}},{"arcs":[[720,721,722,-677,723,724]],"type":"Polygon","properties":{"state":"MI","name":"GOODRICH","zip":"48438"}},{"arcs":[[725,-702,726,727,728,729,730,-678,-723]],"type":"Polygon","properties":{"state":"MI","name":"GRAND BLANC","zip":"48439"}},{"arcs":[[731,732,733,-629,734,735]],"type":"Polygon","properties":{"state":"MI","name":"HARBOR BEACH","zip":"48441"}},{"arcs":[[-573,-703,-726,-722,736,-563,-569,-577,-582]],"type":"Polygon","properties":{"state":"MI","name":"HOLLY","zip":"48442"}},{"arcs":[[-10,-694,-623,737,-648,-196,-26]],"type":"Polygon","properties":{"state":"MI","name":"IMLAY CITY","zip":"48444"}},{"arcs":[[738,739,740,741,-706]],"type":"Polygon","properties":{"state":"MI","name":"KINDE","zip":"48445"}},{"arcs":[[-668,742,-621,743,-724,-676]],"type":"Polygon","properties":{"state":"MI","name":"LAPEER","zip":"48446"}},{"arcs":[[744,-698,745,-709]],"type":"Polygon","properties":{"state":"MI","name":"LENNON","zip":"48449"}},{"arcs":[[-68,-673,-616,746,-118]],"type":"Polygon","properties":{"state":"MI","name":"LEXINGTON","zip":"48450"}},{"arcs":[[-720,747,-727,-701,748,-658]],"type":"Polygon","properties":{"state":"MI","name":"LINDEN","zip":"48451"}},{"arcs":[[749,-644,750,751,-684,752]],"type":"Polygon","properties":{"state":"MI","name":"MARLETTE","zip":"48453"}},{"arcs":[[-647,753,-674,-198]],"type":"Polygon","properties":{"state":"MI","name":"MELVIN","zip":"48454"}},{"arcs":[[-744,-620,-693,-596,754,-725]],"type":"Polygon","properties":{"state":"MI","name":"METAMORA","zip":"48455"}},{"arcs":[[755,756,-733,757]],"type":"Polygon","properties":{"state":"MI","name":"MINDEN CITY","zip":"48456"}},{"arcs":[[-712,758,759,760,-649,-636,-664]],"type":"Polygon","properties":{"state":"MI","name":"MONTROSE","zip":"48457"}},{"arcs":[[761,762,-713,-667,763,764]],"type":"Polygon","properties":{"state":"MI","name":"MOUNT MORRIS","zip":"48458"}},{"arcs":[[765,766,-759,-711,767]],"type":"Polygon","properties":{"state":"MI","name":"NEW LOTHROP","zip":"48460"}},{"arcs":[[-622,-743,-672,768,-715,769,770,771,-642,-738]],"type":"Polygon","properties":{"state":"MI","name":"NORTH BRANCH","zip":"48461"}},{"arcs":[[-721,-755,-595,-564,-737]],"type":"Polygon","properties":{"state":"MI","name":"ORTONVILLE","zip":"48462"}},{"arcs":[[-682,-764,-666,772,773,-670]],"type":"Polygon","properties":{"state":"MI","name":"OTISVILLE","zip":"48463"}},{"arcs":[[774,-716,-769,-671,-774]],"type":"Polygon","properties":{"state":"MI","name":"OTTER LAKE","zip":"48464"}},{"arcs":[[775,-758,-732,776,-691]],"type":"Polygon","properties":{"state":"MI","name":"PALMS","zip":"48465"}},{"arcs":[[-646,777,-618,-675,-754]],"type":"Polygon","properties":{"state":"MI","name":"PECK","zip":"48466"}},{"arcs":[[778,779,780,-741]],"type":"Polygon","properties":{"state":"MI","name":"PORT AUSTIN","zip":"48467"}},{"arcs":[[-704,-742,-781,781,-735]],"type":"Polygon","properties":{"state":"MI","name":"PORT HOPE","zip":"48468"}},{"arcs":[[-687,782,-661]],"type":"Polygon","properties":{"state":"MI","name":"PORT SANILAC","zip":"48469"}},{"arcs":[[783,-624,-734,-757]],"type":"Polygon","properties":{"state":"MI","name":"RUTH","zip":"48470"}},{"arcs":[[-750,784,-688,-659,-613,-778,-645]],"type":"Polygon","properties":{"state":"MI","name":"SANDUSKY","zip":"48471"}},{"arcs":[[785,786,-689,-785,-753,-683]],"type":"Polygon","properties":{"state":"MI","name":"SNOVER","zip":"48472"}},{"arcs":[[-748,-719,-699,-745,-708,787,788,-728]],"type":"Polygon","properties":{"state":"MI","name":"SWARTZ CREEK","zip":"48473"}},{"arcs":[[-690,-787,789,790,-625,-784,-756,-776]],"type":"Polygon","properties":{"state":"MI","name":"UBLY","zip":"48475"}},{"arcs":[[791,792,793,794,795,796,797]],"type":"Polygon","properties":{"state":"MI","name":"FLINT","zip":"48503"}},{"arcs":[[798,-714,-763,799,-795]],"type":"Polygon","properties":{"state":"MI","name":"FLINT","zip":"48504"}},{"arcs":[[800,-796,-800,-762]],"type":"Polygon","properties":{"state":"MI","name":"FLINT","zip":"48505"}},{"arcs":[[801,-797,-801,-765,-681]],"type":"Polygon","properties":{"state":"MI","name":"FLINT","zip":"48506"}},{"arcs":[[802,-793,803,804,-729,-789]],"type":"Polygon","properties":{"state":"MI","name":"FLINT","zip":"48507"}},{"arcs":[[805,-798,-802,-680]],"type":"Polygon","properties":{"state":"MI","name":"BURTON","zip":"48509"}},{"arcs":[[-731,806,-804,-792,-806,-679]],"type":"Polygon","properties":{"state":"MI","name":"BURTON","zip":"48519"}},{"arcs":[[-805,-807,-730]],"type":"Polygon","properties":{"state":"MI","name":"BURTON","zip":"48529"}},{"arcs":[[-788,-707,-799,-794,-803]],"type":"Polygon","properties":{"state":"MI","name":"FLINT","zip":"48532"}},{"arcs":[[807,-638,-651,808,809,810,811,812,813,814,815,816]],"type":"Polygon","properties":{"state":"MI","name":"SAGINAW","zip":"48601"}},{"arcs":[[817,818,819,820,-811]],"type":"Polygon","properties":{"state":"MI","name":"SAGINAW","zip":"48602"}},{"arcs":[[821,822,823,-819]],"type":"Polygon","properties":{"state":"MI","name":"SAGINAW","zip":"48603"}},{"arcs":[[824,-820,-824,825,826,-813]],"type":"Polygon","properties":{"state":"MI","name":"SAGINAW","zip":"48604"}},{"arcs":[[-821,-825,-812]],"type":"Polygon","properties":{"state":"MI","name":"SAGINAW","zip":"48607"}},{"arcs":[[827,828,829,-822,-818,-810]],"type":"Polygon","properties":{"state":"MI","name":"SAGINAW","zip":"48609"}},{"arcs":[[830,831,832,833,834]],"type":"Polygon","properties":{"state":"MI","name":"ALGER","zip":"48610"}},{"arcs":[[835,836,837,838,839]],"type":"Polygon","properties":{"state":"MI","name":"AUBURN","zip":"48611"}},{"arcs":[[840,841,842,843,844,845,846]],"type":"Polygon","properties":{"state":"MI","name":"BEAVERTON","zip":"48612"}},{"arcs":[[847,848,849,850]],"type":"Polygon","properties":{"state":"MI","name":"BENTLEY","zip":"48613"}},{"arcs":[[851,852,853,854,855,856]],"type":"Polygon","properties":{"state":"MI","name":"BRANT","zip":"48614"}},{"arcs":[[857,858,859,860,861]],"type":"Polygon","properties":{"state":"MI","name":"BRECKENRIDGE","zip":"48615"}},{"arcs":[[862,863,864,-855,865,-760,-767]],"type":"Polygon","properties":{"state":"MI","name":"CHESANING","zip":"48616"}},{"arcs":[[866,867,868,869,870,871,-844]],"type":"Polygon","properties":{"state":"MI","name":"CLARE","zip":"48617"}},{"arcs":[[872,873,874,-867,-843]],"type":"Polygon","properties":{"state":"MI","name":"COLEMAN","zip":"48618"}},{"arcs":[[875,876,877,878,879,880]],"type":"Polygon","properties":{"state":"MI","name":"COMINS","zip":"48619"}},{"arcs":[[881,-841,882]],"type":"Polygon","properties":{"state":"MI","name":"EDENVILLE","zip":"48620"}},{"arcs":[[883,-877,884]],"type":"Polygon","properties":{"state":"MI","name":"FAIRVIEW","zip":"48621"}},{"arcs":[[885,886,887,888,-870]],"type":"Polygon","properties":{"state":"MI","name":"FARWELL","zip":"48622"}},{"arcs":[[-830,889,890,891,892,-837,893,-826,-823]],"type":"Polygon","properties":{"state":"MI","name":"FREELAND","zip":"48623"}},{"arcs":[[894,-845,-872,895,896,897,898,899,-833]],"type":"Polygon","properties":{"state":"MI","name":"GLADWIN","zip":"48624"}},{"arcs":[[900,901,902,903,-896,-871,-889]],"type":"Polygon","properties":{"state":"MI","name":"HARRISON","zip":"48625"}},{"arcs":[[904,-890,-829,905]],"type":"Polygon","properties":{"state":"MI","name":"HEMLOCK","zip":"48626"}},{"arcs":[[906,-883,-847,907,908]],"type":"Polygon","properties":{"state":"MI","name":"HOPE","zip":"48628"}},{"arcs":[[909,910,911,912,913]],"type":"Polygon","properties":{"state":"MI","name":"HOUGHTON LAKE","zip":"48629"}},{"arcs":[[914,915,916,-840]],"type":"Polygon","properties":{"state":"MI","name":"KAWKAWLIN","zip":"48631"}},{"arcs":[[917,918,919,920,921,-901,-888]],"type":"Polygon","properties":{"state":"MI","name":"LAKE","zip":"48632"}},{"arcs":[[-915,-839,922,923,924,925]],"type":"Polygon","properties":{"state":"MI","name":"LINWOOD","zip":"48634"}},{"arcs":[[926,927,928,929,930,931]],"type":"Polygon","properties":{"state":"MI","name":"LUPTON","zip":"48635"}},{"arcs":[[932,933,934,935,936]],"type":"Polygon","properties":{"state":"MI","name":"LUZERNE","zip":"48636"}},{"arcs":[[937,938,939,-891,-905]],"type":"Polygon","properties":{"state":"MI","name":"MERRILL","zip":"48637"}},{"arcs":[[940,-862,941,942,943,944,-892,-940]],"type":"Polygon","properties":{"state":"MI","name":"MIDLAND","zip":"48640"}},{"arcs":[[-893,-945,945,-909,946,-923,-838]],"type":"Polygon","properties":{"state":"MI","name":"MIDLAND","zip":"48642"}},{"arcs":[[947,-878,-884,948,949,950,-937]],"type":"Polygon","properties":{"state":"MI","name":"MIO","zip":"48647"}},{"arcs":[[951,952,953,-864]],"type":"Polygon","properties":{"state":"MI","name":"OAKLEY","zip":"48649"}},{"arcs":[[-925,954,-848,955,956]],"type":"Polygon","properties":{"state":"MI","name":"PINCONNING","zip":"48650"}},{"arcs":[[957,-898,958,-910,959]],"type":"Polygon","properties":{"state":"MI","name":"PRUDENVILLE","zip":"48651"}},{"arcs":[[-846,-895,-832,960,-849,-955,-924,-947,-908]],"type":"Polygon","properties":{"state":"MI","name":"RHODES","zip":"48652"}},{"arcs":[[[961,962,963,964,965,-935,966,-960,-914]],[[967,-911,-959,-897,-904]]],"type":"MultiPolygon","properties":{"state":"MI","name":"ROSCOMMON","zip":"48653"}},{"arcs":[[968,-933,-951,969,-930]],"type":"Polygon","properties":{"state":"MI","name":"ROSE CITY","zip":"48654"}},{"arcs":[[-761,-866,-854,970,971,-938,-906,-828,-809,-650]],"type":"Polygon","properties":{"state":"MI","name":"SAINT CHARLES","zip":"48655"}},{"arcs":[[-967,972,-899,-958]],"type":"Polygon","properties":{"state":"MI","name":"SAINT HELEN","zip":"48656"}},{"arcs":[[-842,-882,-907,-946,-944,973,-873]],"type":"Polygon","properties":{"state":"MI","name":"SANFORD","zip":"48657"}},{"arcs":[[-956,-851,974,975,976,977]],"type":"Polygon","properties":{"state":"MI","name":"STANDISH","zip":"48658"}},{"arcs":[[-831,978,979,980,-975,-850,-961]],"type":"Polygon","properties":{"state":"MI","name":"STERLING","zip":"48659"}},{"arcs":[[981,-834,-900,-973,-934,-969,-929]],"type":"Polygon","properties":{"state":"MI","name":"WEST BRANCH","zip":"48661"}},{"arcs":[[982,-858,-941,-939,-972]],"type":"Polygon","properties":{"state":"MI","name":"WHEELER","zip":"48662"}},{"arcs":[[983,984,985,986]],"type":"Polygon","properties":{"state":"MI","name":"AKRON","zip":"48701"}},{"arcs":[[987,988,989,990,991,-977]],"type":"Polygon","properties":{"state":"MI","name":"AU GRES","zip":"48703"}},{"arcs":[[992,993,994,995,996]],"type":"Polygon","properties":{"state":"MI","name":"BARTON CITY","zip":"48705"}},{"arcs":[[-894,-836,-917,997,998,999,-827]],"type":"Polygon","properties":{"state":"MI","name":"BAY CITY","zip":"48706"}},{"arcs":[[-1000,1000,1001,-814]],"type":"Polygon","properties":{"state":"MI","name":"BAY CITY","zip":"48708"}},{"arcs":[[1002,1003,1004]],"type":"Polygon","properties":{"state":"MI","name":"BAY PORT","zip":"48720"}},{"arcs":[[1005,1006,1007,1008,1009]],"type":"Polygon","properties":{"state":"MI","name":"BLACK RIVER","zip":"48721"}},{"arcs":[[-808,1010,-639]],"type":"Polygon","properties":{"state":"MI","name":"BRIDGEPORT","zip":"48722"}},{"arcs":[[1011,1012,1013,1014,-984,1015,1016,1017]],"type":"Polygon","properties":{"state":"MI","name":"CARO","zip":"48723"}},{"arcs":[[1018,1019,1020,-779,-740]],"type":"Polygon","properties":{"state":"MI","name":"CASEVILLE","zip":"48725"}},{"arcs":[[1021,-1017,1022,1023,1024,-790,-786,-686]],"type":"Polygon","properties":{"state":"MI","name":"CASS CITY","zip":"48726"}},{"arcs":[[-772,1025,1026,-751,-643]],"type":"Polygon","properties":{"state":"MI","name":"CLIFFORD","zip":"48727"}},{"arcs":[[-885,-876,1027,1028,1029,-995,1030,-949]],"type":"Polygon","properties":{"state":"MI","name":"CURRAN","zip":"48728"}},{"arcs":[[-1022,-685,1031,-1018]],"type":"Polygon","properties":{"state":"MI","name":"DEFORD","zip":"48729"}},{"arcs":[[1032,1033,1034,1035]],"type":"Polygon","properties":{"state":"MI","name":"EAST TAWAS","zip":"48730"}},{"arcs":[[1036,1037,-1019,-739,-705,-627]],"type":"Polygon","properties":{"state":"MI","name":"ELKTON","zip":"48731"}},{"arcs":[[1038,1039,-1001,-999,1040]],"type":"Polygon","properties":{"state":"MI","name":"ESSEXVILLE","zip":"48732"}},{"arcs":[[1041,1042,-1039,1043,-985,-1015]],"type":"Polygon","properties":{"state":"MI","name":"FAIRGROVE","zip":"48733"}},{"arcs":[[1044,-640,-1011,-817,1045]],"type":"Polygon","properties":{"state":"MI","name":"FRANKENMUTH","zip":"48734"}},{"arcs":[[1046,1047,1048,-1024]],"type":"Polygon","properties":{"state":"MI","name":"GAGETOWN","zip":"48735"}},{"arcs":[[1049,1050,-993,1051,1052,1053,1054]],"type":"Polygon","properties":{"state":"MI","name":"GLENNIE","zip":"48737"}},{"arcs":[[1055,1056,1057,1058]],"type":"Polygon","properties":{"state":"MI","name":"GREENBUSH","zip":"48738"}},{"arcs":[[1059,1060,1061,-927,1062,-1055,1063]],"type":"Polygon","properties":{"state":"MI","name":"HALE","zip":"48739"}},{"arcs":[[1064,1065,-1006,1066,-1057]],"type":"Polygon","properties":{"state":"MI","name":"HARRISVILLE","zip":"48740"}},{"arcs":[[1067,-1012,-1032,-752,-1027,1068]],"type":"Polygon","properties":{"state":"MI","name":"KINGSTON","zip":"48741"}},{"arcs":[[1069,-1007,-1066,1070,-1052,-997]],"type":"Polygon","properties":{"state":"MI","name":"LINCOLN","zip":"48742"}},{"arcs":[[1071,-1050,-1063,-932]],"type":"Polygon","properties":{"state":"MI","name":"LONG LAKE","zip":"48743"}},{"arcs":[[1072,-770,-718,1073,1074,-1013,-1068]],"type":"Polygon","properties":{"state":"MI","name":"MAYVILLE","zip":"48744"}},{"arcs":[[1075,-1053,-1071,-1065,-1056]],"type":"Polygon","properties":{"state":"MI","name":"MIKADO","zip":"48745"}},{"arcs":[[-773,-665,-634,1076,-1074,-717,-775]],"type":"Polygon","properties":{"state":"MI","name":"MILLINGTON","zip":"48746"}},{"arcs":[[-1002,-1040,1077,-815]],"type":"Polygon","properties":{"state":"MI","name":"MUNGER","zip":"48747"}},{"arcs":[[1078,-1060,1079,-1034,1080,1081]],"type":"Polygon","properties":{"state":"MI","name":"NATIONAL CITY","zip":"48748"}},{"arcs":[[-976,-981,1082,-988]],"type":"Polygon","properties":{"state":"MI","name":"OMER","zip":"48749"}},{"arcs":[[-1064,-1054,-1076,-1059,1083,-1035,-1080]],"type":"Polygon","properties":{"state":"MI","name":"OSCODA","zip":"48750"}},{"arcs":[[-1025,-1049,1084,1085,-1037,-626,-791]],"type":"Polygon","properties":{"state":"MI","name":"OWENDALE","zip":"48754"}},{"arcs":[[-1086,1086,-1003,1087,-1020,-1038]],"type":"Polygon","properties":{"state":"MI","name":"PIGEON","zip":"48755"}},{"arcs":[[1088,1089,-979,-835,-982,-928,-1062]],"type":"Polygon","properties":{"state":"MI","name":"PRESCOTT","zip":"48756"}},{"arcs":[[1090,-1046,-816,-1078,-1043]],"type":"Polygon","properties":{"state":"MI","name":"REESE","zip":"48757"}},{"arcs":[[-1004,-1087,-1085,-1048,1091,1092]],"type":"Polygon","properties":{"state":"MI","name":"SEBEWAING","zip":"48759"}},{"arcs":[[-1073,-1069,-1026,-771]],"type":"Polygon","properties":{"state":"MI","name":"SILVERWOOD","zip":"48760"}},{"arcs":[[-950,-1031,-994,-1051,-1072,-931,-970]],"type":"Polygon","properties":{"state":"MI","name":"SOUTH BRANCH","zip":"48761"}},{"arcs":[[1093,1094,-1008,-1070,-996,-1030]],"type":"Polygon","properties":{"state":"MI","name":"SPRUCE","zip":"48762"}},{"arcs":[[-991,1095,-1081,-1033,1096]],"type":"Polygon","properties":{"state":"MI","name":"TAWAS CITY","zip":"48763"}},{"arcs":[[1097,1098,-1082,-1096,-990]],"type":"Polygon","properties":{"state":"MI","name":"TURNER","zip":"48765"}},{"arcs":[[-989,-1083,-980,-1090,1099,-1098]],"type":"Polygon","properties":{"state":"MI","name":"TWINING","zip":"48766"}},{"arcs":[[-1016,-987,1100,-1092,-1047,-1023]],"type":"Polygon","properties":{"state":"MI","name":"UNIONVILLE","zip":"48767"}},{"arcs":[[-1091,-1042,-1014,-1075,-1077,-641,-1045]],"type":"Polygon","properties":{"state":"MI","name":"VASSAR","zip":"48768"}},{"arcs":[[-1061,-1079,-1099,-1100,-1089]],"type":"Polygon","properties":{"state":"MI","name":"WHITTEMORE","zip":"48770"}},{"arcs":[[1101,1102,1103,1104,1105,-860]],"type":"Polygon","properties":{"state":"MI","name":"ALMA","zip":"48801"}},{"arcs":[[1106,1107,1108,-852,1109,1110]],"type":"Polygon","properties":{"state":"MI","name":"ASHLEY","zip":"48806"}},{"arcs":[[-857,1111,-1110]],"type":"Polygon","properties":{"state":"MI","name":"BANNISTER","zip":"48807"}},{"arcs":[[1112,1113,1114,1115]],"type":"Polygon","properties":{"state":"MI","name":"BATH","zip":"48808"}},{"arcs":[[1116,1117,1118,1119,1120,1121,1122]],"type":"Polygon","properties":{"state":"MI","name":"BELDING","zip":"48809"}},{"arcs":[[1123,1124,1125,1126,1127,1128,1129]],"type":"Polygon","properties":{"state":"MI","name":"CARSON CITY","zip":"48811"}},{"arcs":[[[1130,1131,1132,1133,1134,1135,1136,1137]],[[1138,1139,1140]]],"type":"MultiPolygon","properties":{"state":"MI","name":"CHARLOTTE","zip":"48813"}},{"arcs":[[1141,1142,1143,1144,1145]],"type":"Polygon","properties":{"state":"MI","name":"CLARKSVILLE","zip":"48815"}},{"arcs":[[1146,-768,-710,-746,-697]],"type":"Polygon","properties":{"state":"MI","name":"CORUNNA","zip":"48817"}},{"arcs":[[1147,-1126,1148,1149,1150,1151]],"type":"Polygon","properties":{"state":"MI","name":"CRYSTAL","zip":"48818"}},{"arcs":[[1152,1153,1154,1155,1156]],"type":"Polygon","properties":{"state":"MI","name":"DANSVILLE","zip":"48819"}},{"arcs":[[1157,1158,1159,1160,-1114,1161]],"type":"Polygon","properties":{"state":"MI","name":"DEWITT","zip":"48820"}},{"arcs":[[1162,-1140,1163,1164,1165,1166,1167]],"type":"Polygon","properties":{"state":"MI","name":"DIMONDALE","zip":"48821"}},{"arcs":[[1168,1169,1170,-1159,1171]],"type":"Polygon","properties":{"state":"MI","name":"EAGLE","zip":"48822"}},{"arcs":[[1172,1173,1174,-1116,1175,1176,1177,1178,1179]],"type":"Polygon","properties":{"state":"MI","name":"EAST LANSING","zip":"48823"}},{"arcs":[[1180,-1180]],"type":"Polygon","properties":{"state":"MI","name":"EAST LANSING","zip":"48824"}},{"arcs":[[1181,-1168,1182,1183,1184,-1136]],"type":"Polygon","properties":{"state":"MI","name":"EATON RAPIDS","zip":"48827"}},{"arcs":[[1185,1186,1187,1188]],"type":"Polygon","properties":{"state":"MI","name":"EDMORE","zip":"48829"}},{"arcs":[[1189,-1111,-1112,-856,-865,-954,1190,1191,1192]],"type":"Polygon","properties":{"state":"MI","name":"ELSIE","zip":"48831"}},{"arcs":[[1193,1194,1195,-1104]],"type":"Polygon","properties":{"state":"MI","name":"ELWELL","zip":"48832"}},{"arcs":[[1196,1197,1198,-1122,1199,1200,-1124,1201]],"type":"Polygon","properties":{"state":"MI","name":"FENWICK","zip":"48834"}},{"arcs":[[1202,1203,1204,1205,1206,-1170]],"type":"Polygon","properties":{"state":"MI","name":"FOWLER","zip":"48835"}},{"arcs":[[1207,-304,1208,1209,-653]],"type":"Polygon","properties":{"state":"MI","name":"FOWLERVILLE","zip":"48836"}},{"arcs":[[1210,1211,-1134,1212,1213,-1172,-1158,1214]],"type":"Polygon","properties":{"state":"MI","name":"GRAND LEDGE","zip":"48837"}},{"arcs":[[-1121,1215,1216,1217,1218,1219,1220,-1200]],"type":"Polygon","properties":{"state":"MI","name":"GREENVILLE","zip":"48838"}},{"arcs":[[1221,1222,1223,1224,-1177]],"type":"Polygon","properties":{"state":"MI","name":"HASLETT","zip":"48840"}},{"arcs":[[1225,-1191,-953]],"type":"Polygon","properties":{"state":"MI","name":"HENDERSON","zip":"48841"}},{"arcs":[[1226,-1166,1227]],"type":"Polygon","properties":{"state":"MI","name":"HOLT","zip":"48842"}},{"arcs":[[-1208,-652,-749,-700,-571,-236,-239,-364,-305]],"type":"Polygon","properties":{"state":"MI","name":"HOWELL","zip":"48843"}},{"arcs":[[1228,-1202,-1130,-1205,1229]],"type":"Polygon","properties":{"state":"MI","name":"HUBBARDSTON","zip":"48845"}},{"arcs":[[1230,-1117,1231,-1198,1232,1233,1234,1235]],"type":"Polygon","properties":{"state":"MI","name":"IONIA","zip":"48846"}},{"arcs":[[1236,1237,-1102,-859,-983,-971,-853,-1109,1238]],"type":"Polygon","properties":{"state":"MI","name":"ITHACA","zip":"48847"}},{"arcs":[[-1115,-1161,1239,1240,1241,1242,-1222,-1176]],"type":"Polygon","properties":{"state":"MI","name":"LAINGSBURG","zip":"48848"}},{"arcs":[[1243,-1146,1244,-1236,1245,1246,1247,1248]],"type":"Polygon","properties":{"state":"MI","name":"LAKE ODESSA","zip":"48849"}},{"arcs":[[1249,1250,1251,1252,1253,1254,1255]],"type":"Polygon","properties":{"state":"MI","name":"LAKEVIEW","zip":"48850"}},{"arcs":[[1256,1257,1258,-1234]],"type":"Polygon","properties":{"state":"MI","name":"LYONS","zip":"48851"}},{"arcs":[[1259,1260,-1183,-1167,-1227,1261,1262,1263,1264,-1155]],"type":"Polygon","properties":{"state":"MI","name":"MASON","zip":"48854"}},{"arcs":[[1265,-1128,1266,-1237]],"type":"Polygon","properties":{"state":"MI","name":"MIDDLETON","zip":"48856"}},{"arcs":[[1267,1268,-631,-655]],"type":"Polygon","properties":{"state":"MI","name":"MORRICE","zip":"48857"}},{"arcs":[[1269,1270,1271,-868,-875,1272,1273]],"type":"Polygon","properties":{"state":"MI","name":"MOUNT PLEASANT","zip":"48858"}},{"arcs":[[-1197,-1229,1274,-1257,-1233]],"type":"Polygon","properties":{"state":"MI","name":"MUIR","zip":"48860"}},{"arcs":[[1275,1276,1277,-1213,-1133]],"type":"Polygon","properties":{"state":"MI","name":"MULLIKEN","zip":"48861"}},{"arcs":[[1278,-1264,1279,-1178,-1225]],"type":"Polygon","properties":{"state":"MI","name":"OKEMOS","zip":"48864"}},{"arcs":[[-1199,-1232,-1123]],"type":"Polygon","properties":{"state":"MI","name":"ORLEANS","zip":"48865"}},{"arcs":[[1280,-1193,1281,-1241]],"type":"Polygon","properties":{"state":"MI","name":"OVID","zip":"48866"}},{"arcs":[[-1269,1282,-1242,-1282,-1192,-1226,-952,-863,-766,-1147,-696,-632]],"type":"Polygon","properties":{"state":"MI","name":"OWOSSO","zip":"48867"}},{"arcs":[[-1129,-1266,-1239,-1108,1283,-1206]],"type":"Polygon","properties":{"state":"MI","name":"PERRINTON","zip":"48871"}},{"arcs":[[1284,1285,-1223,-1243,-1283,-1268,-654,-1210]],"type":"Polygon","properties":{"state":"MI","name":"PERRY","zip":"48872"}},{"arcs":[[1286,-1258,-1275,-1230,-1204]],"type":"Polygon","properties":{"state":"MI","name":"PEWAMO","zip":"48873"}},{"arcs":[[1287,-1246,-1235,-1259,-1287,-1203,-1169,-1214,-1278]],"type":"Polygon","properties":{"state":"MI","name":"PORTLAND","zip":"48875"}},{"arcs":[[-1135,-1212,-1141,-1163,-1182]],"type":"Polygon","properties":{"state":"MI","name":"POTTERVILLE","zip":"48876"}},{"arcs":[[1288,-1152,1289,1290,-1195]],"type":"Polygon","properties":{"state":"MI","name":"RIVERDALE","zip":"48877"}},{"arcs":[[1291,-886,-869,-1272]],"type":"Polygon","properties":{"state":"MI","name":"ROSEBUSH","zip":"48878"}},{"arcs":[[-1160,-1171,-1207,-1284,-1107,-1190,-1281,-1240]],"type":"Polygon","properties":{"state":"MI","name":"SAINT JOHNS","zip":"48879"}},{"arcs":[[-1106,1292,-942,-861]],"type":"Polygon","properties":{"state":"MI","name":"SAINT LOUIS","zip":"48880"}},{"arcs":[[-1145,1293,-1118,-1231,-1245]],"type":"Polygon","properties":{"state":"MI","name":"SARANAC","zip":"48881"}},{"arcs":[[-1291,1294,1295,-1273,-874,-974,-943,-1293,-1105,-1196]],"type":"Polygon","properties":{"state":"MI","name":"SHEPHERD","zip":"48883"}},{"arcs":[[1296,1297,-1149,-1125,-1201,-1221]],"type":"Polygon","properties":{"state":"MI","name":"SHERIDAN","zip":"48884"}},{"arcs":[[-1220,1298,-1297]],"type":"Polygon","properties":{"state":"MI","name":"SIDNEY","zip":"48885"}},{"arcs":[[1299,-1250,1300,-1188]],"type":"Polygon","properties":{"state":"MI","name":"SIX LAKES","zip":"48886"}},{"arcs":[[1301,1302,-1251,-1300,-1187,1303,-1150,-1298,-1299,-1219]],"type":"Polygon","properties":{"state":"MI","name":"STANTON","zip":"48888"}},{"arcs":[[-1289,-1194,-1103,-1238,-1267,-1127,-1148]],"type":"Polygon","properties":{"state":"MI","name":"SUMNER","zip":"48889"}},{"arcs":[[1304,-1247,-1288,-1277]],"type":"Polygon","properties":{"state":"MI","name":"SUNFIELD","zip":"48890"}},{"arcs":[[-1151,-1304,-1186,1305,-1295,-1290]],"type":"Polygon","properties":{"state":"MI","name":"VESTABURG","zip":"48891"}},{"arcs":[[1306,-1285,-1209,-303,1307,-1157]],"type":"Polygon","properties":{"state":"MI","name":"WEBBERVILLE","zip":"48892"}},{"arcs":[[1308,1309,-918,-887,-1292,-1271,1310]],"type":"Polygon","properties":{"state":"MI","name":"WEIDMAN","zip":"48893"}},{"arcs":[[-1279,-1224,-1286,-1307,-1156,-1265]],"type":"Polygon","properties":{"state":"MI","name":"WILLIAMSTON","zip":"48895"}},{"arcs":[[1311,1312,1313,-1249,1314]],"type":"Polygon","properties":{"state":"MI","name":"WOODLAND","zip":"48897"}},{"arcs":[[1315,1316,-1215,-1162,-1113,-1175,1317,1318]],"type":"Polygon","properties":{"state":"MI","name":"LANSING","zip":"48906"}},{"arcs":[[-1179,-1280,-1263,1319,1320,1321,1322,-1173,-1181]],"type":"Polygon","properties":{"state":"MI","name":"LANSING","zip":"48910"}},{"arcs":[[-1165,1323,-1320,-1262,-1228]],"type":"Polygon","properties":{"state":"MI","name":"LANSING","zip":"48911"}},{"arcs":[[-1323,1324,-1318,-1174]],"type":"Polygon","properties":{"state":"MI","name":"LANSING","zip":"48912"}},{"arcs":[[1325,-1321,1326,-1316]],"type":"Polygon","properties":{"state":"MI","name":"LANSING","zip":"48915"}},{"arcs":[[-1317,-1327,-1324,-1164,-1139,-1211]],"type":"Polygon","properties":{"state":"MI","name":"LANSING","zip":"48917"}},{"arcs":[[-1326,-1319,-1325,-1322]],"type":"Polygon","properties":{"state":"MI","name":"LANSING","zip":"48933"}},{"arcs":[[1327,1328,1329,1330]],"type":"Polygon","properties":{"state":"MI","name":"KALAMAZOO","zip":"49001"}},{"arcs":[[1331,1332,1333,1334,-1329,1335]],"type":"Polygon","properties":{"state":"MI","name":"PORTAGE","zip":"49002"}},{"arcs":[[1336,1337,1338,1339,1340,1341]],"type":"Polygon","properties":{"state":"MI","name":"KALAMAZOO","zip":"49004"}},{"arcs":[[1342,1343,-1337,1344]],"type":"Polygon","properties":{"state":"MI","name":"KALAMAZOO","zip":"49006"}},{"arcs":[[1345,-1345,-1342,1346,-1331]],"type":"Polygon","properties":{"state":"MI","name":"KALAMAZOO","zip":"49007"}},{"arcs":[[1347,-1343,-1346,-1330,-1335,1348]],"type":"Polygon","properties":{"state":"MI","name":"KALAMAZOO","zip":"49008"}},{"arcs":[[1349,1350,1351,1352,1353,1354,-1338,-1344,-1348]],"type":"Polygon","properties":{"state":"MI","name":"KALAMAZOO","zip":"49009"}},{"arcs":[[1355,1356,1357,1358,1359,1360,1361,1362]],"type":"Polygon","properties":{"state":"MI","name":"ALLEGAN","zip":"49010"}},{"arcs":[[1363,1364,1365,1366,1367,1368]],"type":"Polygon","properties":{"state":"MI","name":"ATHENS","zip":"49011"}},{"arcs":[[1369,1370,1371,1372,1373,1374]],"type":"Polygon","properties":{"state":"MI","name":"AUGUSTA","zip":"49012"}},{"arcs":[[1375,1376,1377,1378,1379,1380,1381]],"type":"Polygon","properties":{"state":"MI","name":"BANGOR","zip":"49013"}},{"arcs":[[1382,1383,1384,1385,1386,1387]],"type":"Polygon","properties":{"state":"MI","name":"BATTLE CREEK","zip":"49014"}},{"arcs":[[1388,1389,-1370,1390,-1383]],"type":"Polygon","properties":{"state":"MI","name":"BATTLE CREEK","zip":"49015"}},{"arcs":[[1391,1392,1393,1394,-1384,-1391,-1375]],"type":"Polygon","properties":{"state":"MI","name":"BATTLE CREEK","zip":"49017"}},{"arcs":[[1395,1396,-1385,-1395,1397,1398,1399,-1131]],"type":"Polygon","properties":{"state":"MI","name":"BELLEVUE","zip":"49021"}},{"arcs":[[1400,1401,1402,1403,1404,1405,1406,1407]],"type":"Polygon","properties":{"state":"MI","name":"BENTON HARBOR","zip":"49022"}},{"arcs":[[1408,1409,-1350,-1349,-1334]],"type":"Polygon","properties":{"state":"MI","name":"PORTAGE","zip":"49024"}},{"arcs":[[1410,-1381,1411,-1357,1412]],"type":"Polygon","properties":{"state":"MI","name":"BLOOMINGDALE","zip":"49026"}},{"arcs":[[1413,1414,1415,1416,1417,1418]],"type":"Polygon","properties":{"state":"MI","name":"BRONSON","zip":"49028"}},{"arcs":[[1419,1420,1421,1422,1423,-1366]],"type":"Polygon","properties":{"state":"MI","name":"BURLINGTON","zip":"49029"}},{"arcs":[[1424,1425,1426,1427,-1414]],"type":"Polygon","properties":{"state":"MI","name":"BURR OAK","zip":"49030"}},{"arcs":[[1428,1429,1430,1431,1432,1433,1434,1435]],"type":"Polygon","properties":{"state":"MI","name":"CASSOPOLIS","zip":"49031"}},{"arcs":[[1436,1437,1438,-1427,1439,1440]],"type":"Polygon","properties":{"state":"MI","name":"CENTREVILLE","zip":"49032"}},{"arcs":[[1441,-1387,1442,-1421]],"type":"Polygon","properties":{"state":"MI","name":"CERESCO","zip":"49033"}},{"arcs":[[1443,1444,1445,-1371,-1390,1446,1447]],"type":"Polygon","properties":{"state":"MI","name":"CLIMAX","zip":"49034"}},{"arcs":[[1448,1449,1450,1451,1452,-1418]],"type":"Polygon","properties":{"state":"MI","name":"COLDWATER","zip":"49036"}},{"arcs":[[1453,-1406,1454,1455]],"type":"Polygon","properties":{"state":"MI","name":"COLOMA","zip":"49038"}},{"arcs":[[1456,1457,1458,-1415,-1428,-1439]],"type":"Polygon","properties":{"state":"MI","name":"COLON","zip":"49040"}},{"arcs":[[1459,1460,1461,1462,-1441]],"type":"Polygon","properties":{"state":"MI","name":"CONSTANTINE","zip":"49042"}},{"arcs":[[1463,-1378,1464,1465,-1456,1466]],"type":"Polygon","properties":{"state":"MI","name":"COVERT","zip":"49043"}},{"arcs":[[1467,1468,1469,1470,1471,1472,-1434]],"type":"Polygon","properties":{"state":"MI","name":"DECATUR","zip":"49045"}},{"arcs":[[1473,1474,1475,1476,1477,1478,-1393]],"type":"Polygon","properties":{"state":"MI","name":"DELTON","zip":"49046"}},{"arcs":[[1479,1480,-1401,1481,-1468,-1433,1482]],"type":"Polygon","properties":{"state":"MI","name":"DOWAGIAC","zip":"49047"}},{"arcs":[[1483,-1336,-1328,-1347,-1341,1484,1485,-1445]],"type":"Polygon","properties":{"state":"MI","name":"KALAMAZOO","zip":"49048"}},{"arcs":[[1486,-1398,-1394,-1479]],"type":"Polygon","properties":{"state":"MI","name":"DOWLING","zip":"49050"}},{"arcs":[[-1365,1487,-1447,-1389,-1388,-1442,-1420]],"type":"Polygon","properties":{"state":"MI","name":"EAST LEROY","zip":"49051"}},{"arcs":[[1488,1489,-1448,-1488,-1364,1490,1491]],"type":"Polygon","properties":{"state":"MI","name":"FULTON","zip":"49052"}},{"arcs":[[-1486,1492,-1372,-1446]],"type":"Polygon","properties":{"state":"MI","name":"GALESBURG","zip":"49053"}},{"arcs":[[-1356,1493,-1353,1494,1495,-1413]],"type":"Polygon","properties":{"state":"MI","name":"GOBLES","zip":"49055"}},{"arcs":[[-1380,1496,1497,-1358,-1412]],"type":"Polygon","properties":{"state":"MI","name":"GRAND JUNCTION","zip":"49056"}},{"arcs":[[1498,-1465,-1377,1499,-1469,-1482,-1408]],"type":"Polygon","properties":{"state":"MI","name":"HARTFORD","zip":"49057"}},{"arcs":[[1500,1501,-1313,1502,-1487,-1478]],"type":"Polygon","properties":{"state":"MI","name":"HASTINGS","zip":"49058"}},{"arcs":[[1503,1504,-1474,-1392,-1374]],"type":"Polygon","properties":{"state":"MI","name":"HICKORY CORNERS","zip":"49060"}},{"arcs":[[1505,1506,1507,-1462,1508,1509,-1429]],"type":"Polygon","properties":{"state":"MI","name":"JONES","zip":"49061"}},{"arcs":[[-1376,1510,-1470,-1500]],"type":"Polygon","properties":{"state":"MI","name":"LAWRENCE","zip":"49064"}},{"arcs":[[1511,1512,1513,1514,-1472]],"type":"Polygon","properties":{"state":"MI","name":"LAWTON","zip":"49065"}},{"arcs":[[1515,-1491,-1369,1516,-1458]],"type":"Polygon","properties":{"state":"MI","name":"LEONIDAS","zip":"49066"}},{"arcs":[[1517,-1435,-1473,-1515,1518,1519,-1507]],"type":"Polygon","properties":{"state":"MI","name":"MARCELLUS","zip":"49067"}},{"arcs":[[-1443,-1386,-1397,1520,1521,1522,1523,-1422]],"type":"Polygon","properties":{"state":"MI","name":"MARSHALL","zip":"49068"}},{"arcs":[[1524,1525,1526,1527]],"type":"Polygon","properties":{"state":"MI","name":"MARTIN","zip":"49070"}},{"arcs":[[1528,-1513,1529,-1495,-1352]],"type":"Polygon","properties":{"state":"MI","name":"MATTAWAN","zip":"49071"}},{"arcs":[[1530,1531,-1492,-1516,-1457,-1438]],"type":"Polygon","properties":{"state":"MI","name":"MENDON","zip":"49072"}},{"arcs":[[-1503,-1312,1532,-1399]],"type":"Polygon","properties":{"state":"MI","name":"NASHVILLE","zip":"49073"}},{"arcs":[[1533,-1521,-1396,-1138,1534]],"type":"Polygon","properties":{"state":"MI","name":"OLIVET","zip":"49076"}},{"arcs":[[1535,-1354,-1494,-1363,1536,-1525]],"type":"Polygon","properties":{"state":"MI","name":"OTSEGO","zip":"49078"}},{"arcs":[[-1382,-1411,-1496,-1530,-1512,-1471,-1511]],"type":"Polygon","properties":{"state":"MI","name":"PAW PAW","zip":"49079"}},{"arcs":[[-1528,1537,-1475,-1505,1538,-1339,-1355,-1536]],"type":"Polygon","properties":{"state":"MI","name":"PLAINWELL","zip":"49080"}},{"arcs":[[1539,1540,1541,1542,1543,1544,-1451]],"type":"Polygon","properties":{"state":"MI","name":"QUINCY","zip":"49082"}},{"arcs":[[-1539,-1504,-1373,-1493,-1485,-1340]],"type":"Polygon","properties":{"state":"MI","name":"RICHLAND","zip":"49083"}},{"arcs":[[1545,1546,1547,1548,-1404]],"type":"Polygon","properties":{"state":"MI","name":"SAINT JOSEPH","zip":"49085"}},{"arcs":[[1549,1550,-1519,-1514,-1529,-1351,-1410]],"type":"Polygon","properties":{"state":"MI","name":"SCHOOLCRAFT","zip":"49087"}},{"arcs":[[1551,-1332,-1484,-1444,-1490]],"type":"Polygon","properties":{"state":"MI","name":"SCOTTS","zip":"49088"}},{"arcs":[[-1517,-1368,1552,-1416,-1459]],"type":"Polygon","properties":{"state":"MI","name":"SHERWOOD","zip":"49089"}},{"arcs":[[1553,1554,-1497,-1379,-1464,1555]],"type":"Polygon","properties":{"state":"MI","name":"SOUTH HAVEN","zip":"49090"}},{"arcs":[[1556,1557,-1460,-1440,-1426]],"type":"Polygon","properties":{"state":"MI","name":"STURGIS","zip":"49091"}},{"arcs":[[1558,-1423,-1524,1559,-1540,-1450]],"type":"Polygon","properties":{"state":"MI","name":"TEKONSHA","zip":"49092"}},{"arcs":[[-1463,-1508,-1520,-1551,1560,-1531,-1437]],"type":"Polygon","properties":{"state":"MI","name":"THREE RIVERS","zip":"49093"}},{"arcs":[[-1367,-1424,-1559,-1449,-1417,-1553]],"type":"Polygon","properties":{"state":"MI","name":"UNION CITY","zip":"49094"}},{"arcs":[[-1518,-1506,-1436]],"type":"Polygon","properties":{"state":"MI","name":"VANDALIA","zip":"49095"}},{"arcs":[[-1400,-1533,-1315,-1248,-1305,-1276,-1132]],"type":"Polygon","properties":{"state":"MI","name":"VERMONTVILLE","zip":"49096"}},{"arcs":[[-1561,-1550,-1409,-1333,-1552,-1489,-1532]],"type":"Polygon","properties":{"state":"MI","name":"VICKSBURG","zip":"49097"}},{"arcs":[[-1407,-1454,-1466,-1499]],"type":"Polygon","properties":{"state":"MI","name":"WATERVLIET","zip":"49098"}},{"arcs":[[1561,-1509,-1461,-1558,1562]],"type":"Polygon","properties":{"state":"MI","name":"WHITE PIGEON","zip":"49099"}},{"arcs":[[1563,1564,1565,1566]],"type":"Polygon","properties":{"state":"MI","name":"BARODA","zip":"49101"}},{"arcs":[[1567,1568,1569,-1480]],"type":"Polygon","properties":{"state":"MI","name":"BERRIEN CENTER","zip":"49102"}},{"arcs":[[-1547,1570,1571,-1569,1572,1573,-1567]],"type":"Polygon","properties":{"state":"MI","name":"BERRIEN SPRINGS","zip":"49103"}},{"arcs":[[1574,1575,1576,1577,-1565]],"type":"Polygon","properties":{"state":"MI","name":"BRIDGMAN","zip":"49106"}},{"arcs":[[1578,1579,1580,1581,1582,-1575,-1564,-1574]],"type":"Polygon","properties":{"state":"MI","name":"BUCHANAN","zip":"49107"}},{"arcs":[[1583,-1402,-1481,-1570,-1572]],"type":"Polygon","properties":{"state":"MI","name":"EAU CLAIRE","zip":"49111"}},{"arcs":[[1584,1585,1586,-1431]],"type":"Polygon","properties":{"state":"MI","name":"EDWARDSBURG","zip":"49112"}},{"arcs":[[1587,1588,-1581]],"type":"Polygon","properties":{"state":"MI","name":"GALIEN","zip":"49113"}},{"arcs":[[1589,1590,1591,1592]],"type":"Polygon","properties":{"state":"MI","name":"LAKESIDE","zip":"49116"}},{"arcs":[[1593,1594,1595]],"type":"Polygon","properties":{"state":"MI","name":"NEW BUFFALO","zip":"49117"}},{"arcs":[[1596,-1579,-1573,-1568,-1483,-1432,-1587]],"type":"Polygon","properties":{"state":"MI","name":"NILES","zip":"49120"}},{"arcs":[[-1576,-1583,1597,-1593,1598]],"type":"Polygon","properties":{"state":"MI","name":"SAWYER","zip":"49125"}},{"arcs":[[-1571,-1546,-1403,-1584]],"type":"Polygon","properties":{"state":"MI","name":"SODUS","zip":"49126"}},{"arcs":[[-1578,1599,-1548,-1566]],"type":"Polygon","properties":{"state":"MI","name":"STEVENSVILLE","zip":"49127"}},{"arcs":[[1600,-1590,-1598,-1582,-1589,1601,-1596]],"type":"Polygon","properties":{"state":"MI","name":"THREE OAKS","zip":"49128"}},{"arcs":[[-1595,1602,-1591,-1601]],"type":"Polygon","properties":{"state":"MI","name":"UNION PIER","zip":"49129"}},{"arcs":[[1603,-1585,-1430,-1510,-1562]],"type":"Polygon","properties":{"state":"MI","name":"UNION","zip":"49130"}},{"arcs":[[1604,1605,1606,1607,1608,1609,1610,1611,1612],[1613,1614]],"type":"Polygon","properties":{"state":"MI","name":"JACKSON","zip":"49201"}},{"arcs":[[-1615,1615]],"type":"Polygon","properties":{"state":"MI","name":"JACKSON","zip":"49202"}},{"arcs":[[-1614,-1616]],"type":"Polygon","properties":{"state":"MI","name":"JACKSON","zip":"49203"}},{"arcs":[[1616,1617,1618,1619,1620]],"type":"Polygon","properties":{"state":"MI","name":"ADDISON","zip":"49220"}},{"arcs":[[1621,1622,1623,1624,1625,1626,1627,1628,1629]],"type":"Polygon","properties":{"state":"MI","name":"ADRIAN","zip":"49221"}},{"arcs":[[-1534,1630,1631,1632,1633,-1522]],"type":"Polygon","properties":{"state":"MI","name":"ALBION","zip":"49224"}},{"arcs":[[1634,-1543,1635,1636,1637]],"type":"Polygon","properties":{"state":"MI","name":"ALLEN","zip":"49227"}},{"arcs":[[1638,1639,1640,1641,1642,1643,1644]],"type":"Polygon","properties":{"state":"MI","name":"BLISSFIELD","zip":"49228"}},{"arcs":[[1645,1646,-1630,1647,1648,-377,-344,-285]],"type":"Polygon","properties":{"state":"MI","name":"BRITTON","zip":"49229"}},{"arcs":[[1649,1650,-1611,1651,-338,1652,1653,1654,-1621]],"type":"Polygon","properties":{"state":"MI","name":"BROOKLYN","zip":"49230"}},{"arcs":[[1655,1656,1657,1658,1659,1660]],"type":"Polygon","properties":{"state":"MI","name":"CAMDEN","zip":"49232"}},{"arcs":[[1661,1662,1663,-1650,-1620]],"type":"Polygon","properties":{"state":"MI","name":"CEMENT CITY","zip":"49233"}},{"arcs":[[-1664,1664,1665,-1612,-1651]],"type":"Polygon","properties":{"state":"MI","name":"CLARKLAKE","zip":"49234"}},{"arcs":[[1666,1667,-1625,1668,1669]],"type":"Polygon","properties":{"state":"MI","name":"CLAYTON","zip":"49235"}},{"arcs":[[1670,-336,-378,-1649,1671]],"type":"Polygon","properties":{"state":"MI","name":"CLINTON","zip":"49236"}},{"arcs":[[1672,-1633,1673,1674,1675,1676]],"type":"Polygon","properties":{"state":"MI","name":"CONCORD","zip":"49237"}},{"arcs":[[1677,-1643,1678,-1646,-284]],"type":"Polygon","properties":{"state":"MI","name":"DEERFIELD","zip":"49238"}},{"arcs":[[-1652,-1610,1679,1680,-250,-339]],"type":"Polygon","properties":{"state":"MI","name":"GRASS LAKE","zip":"49240"}},{"arcs":[[1681,1682,-1677,1683,1684]],"type":"Polygon","properties":{"state":"MI","name":"HANOVER","zip":"49241"}},{"arcs":[[1685,-1638,1686,1687,1688,1689,-1660]],"type":"Polygon","properties":{"state":"MI","name":"HILLSDALE","zip":"49242"}},{"arcs":[[-1523,-1634,-1673,-1683,1690,-1541,-1560]],"type":"Polygon","properties":{"state":"MI","name":"HOMER","zip":"49245"}},{"arcs":[[-1676,1691,-1613,-1666,1692,1693,-1684]],"type":"Polygon","properties":{"state":"MI","name":"HORTON","zip":"49246"}},{"arcs":[[1694,1695,-1618,1696,-1667,1697,1698]],"type":"Polygon","properties":{"state":"MI","name":"HUDSON","zip":"49247"}},{"arcs":[[1699,1700,-1623,1701,-1641]],"type":"Polygon","properties":{"state":"MI","name":"JASPER","zip":"49248"}},{"arcs":[[1702,1703,-1693,-1665,-1663]],"type":"Polygon","properties":{"state":"MI","name":"JEROME","zip":"49249"}},{"arcs":[[1704,-1687,-1637,1705,-1685,-1694,-1704]],"type":"Polygon","properties":{"state":"MI","name":"JONESVILLE","zip":"49250"}},{"arcs":[[1706,-1260,-1154,1707,1708,1709]],"type":"Polygon","properties":{"state":"MI","name":"LESLIE","zip":"49251"}},{"arcs":[[-1636,-1542,-1691,-1682,-1706]],"type":"Polygon","properties":{"state":"MI","name":"LITCHFIELD","zip":"49252"}},{"arcs":[[-1668,-1697,-1617,-1655,1710,-1626]],"type":"Polygon","properties":{"state":"MI","name":"MANITOU BEACH","zip":"49253"}},{"arcs":[[1711,-1452,-1545,1712,-1658]],"type":"Polygon","properties":{"state":"MI","name":"MONTGOMERY","zip":"49255"}},{"arcs":[[1713,1714,-1698,-1670,1715]],"type":"Polygon","properties":{"state":"MI","name":"MORENCI","zip":"49256"}},{"arcs":[[1716,1717,-1680,-1609]],"type":"Polygon","properties":{"state":"MI","name":"MUNITH","zip":"49259"}},{"arcs":[[1718,-1688,-1705,-1703,-1662,-1619,-1696]],"type":"Polygon","properties":{"state":"MI","name":"NORTH ADAMS","zip":"49262"}},{"arcs":[[1719,1720,1721,-1184,-1261,-1707]],"type":"Polygon","properties":{"state":"MI","name":"ONONDAGA","zip":"49264"}},{"arcs":[[-1654,1722,-1627,-1711]],"type":"Polygon","properties":{"state":"MI","name":"ONSTED","zip":"49265"}},{"arcs":[[1723,-1661,-1690,1724]],"type":"Polygon","properties":{"state":"MI","name":"OSSEO","zip":"49266"}},{"arcs":[[1725,-1639,1726,1727,-387,-312]],"type":"Polygon","properties":{"state":"MI","name":"OTTAWA LAKE","zip":"49267"}},{"arcs":[[-1702,-1622,-1647,-1679,-1642]],"type":"Polygon","properties":{"state":"MI","name":"PALMYRA","zip":"49268"}},{"arcs":[[1728,-1721,1729,-1606,1730,-1674,-1632]],"type":"Polygon","properties":{"state":"MI","name":"PARMA","zip":"49269"}},{"arcs":[[1731,-1644,-1678,-283,-308,-388,-1728]],"type":"Polygon","properties":{"state":"MI","name":"PETERSBURG","zip":"49270"}},{"arcs":[[1732,-1725,-1689,-1719,-1695]],"type":"Polygon","properties":{"state":"MI","name":"PITTSFORD","zip":"49271"}},{"arcs":[[1733,-1709,1734,-1717,-1608]],"type":"Polygon","properties":{"state":"MI","name":"PLEASANT LAKE","zip":"49272"}},{"arcs":[[-1659,-1713,-1544,-1635,-1686]],"type":"Polygon","properties":{"state":"MI","name":"READING","zip":"49274"}},{"arcs":[[-1732,-1727,-1645]],"type":"Polygon","properties":{"state":"MI","name":"RIGA","zip":"49276"}},{"arcs":[[-1607,-1730,-1720,-1710,-1734]],"type":"Polygon","properties":{"state":"MI","name":"RIVES JUNCTION","zip":"49277"}},{"arcs":[[1735,-1716,-1669,-1624,-1701]],"type":"Polygon","properties":{"state":"MI","name":"SAND CREEK","zip":"49279"}},{"arcs":[[-1675,-1731,-1605,-1692]],"type":"Polygon","properties":{"state":"MI","name":"SPRING ARBOR","zip":"49283"}},{"arcs":[[-1137,-1185,-1722,-1729,-1631,-1535]],"type":"Polygon","properties":{"state":"MI","name":"SPRINGPORT","zip":"49284"}},{"arcs":[[-1735,-1708,-1153,-1308,-302,-251,-1681,-1718]],"type":"Polygon","properties":{"state":"MI","name":"STOCKBRIDGE","zip":"49285"}},{"arcs":[[-1629,1736,-1672,-1648]],"type":"Polygon","properties":{"state":"MI","name":"TECUMSEH","zip":"49286"}},{"arcs":[[-1653,-337,-1671,-1737,-1628,-1723]],"type":"Polygon","properties":{"state":"MI","name":"TIPTON","zip":"49287"}},{"arcs":[[1737,-1656,-1724,-1733,-1699,-1715]],"type":"Polygon","properties":{"state":"MI","name":"WALDRON","zip":"49288"}},{"arcs":[[1738,1739,1740,1741,1742,1743,1744]],"type":"Polygon","properties":{"state":"MI","name":"ADA","zip":"49301"}},{"arcs":[[1745,1746,1747,1748,-1745,1749,-1143]],"type":"Polygon","properties":{"state":"MI","name":"ALTO","zip":"49302"}},{"arcs":[[1750,1751,1752,1753]],"type":"Polygon","properties":{"state":"MI","name":"BAILEY","zip":"49303"}},{"arcs":[[1754,1755,1756,1757,1758]],"type":"Polygon","properties":{"state":"MI","name":"BALDWIN","zip":"49304"}},{"arcs":[[-1310,1759,1760,1761,1762,-919]],"type":"Polygon","properties":{"state":"MI","name":"BARRYTON","zip":"49305"}},{"arcs":[[1763,1764,1765,-1742]],"type":"Polygon","properties":{"state":"MI","name":"BELMONT","zip":"49306"}},{"arcs":[[1766,1767,1768,1769,1770]],"type":"Polygon","properties":{"state":"MI","name":"BIG RAPIDS","zip":"49307"}},{"arcs":[[1771,-1759,1772,1773,1774,1775,1776]],"type":"Polygon","properties":{"state":"MI","name":"BITELY","zip":"49309"}},{"arcs":[[-1306,-1189,-1301,-1256,1777,-1274,-1296]],"type":"Polygon","properties":{"state":"MI","name":"BLANCHARD","zip":"49310"}},{"arcs":[[1778,1779,1780,1781,1782,1783,1784,1785]],"type":"Polygon","properties":{"state":"MI","name":"BYRON CENTER","zip":"49315"}},{"arcs":[[1786,1787,-1748,1788,1789,-1779]],"type":"Polygon","properties":{"state":"MI","name":"CALEDONIA","zip":"49316"}},{"arcs":[[1790,1791,1792,-1752]],"type":"Polygon","properties":{"state":"MI","name":"CASNOVIA","zip":"49318"}},{"arcs":[[1793,1794,1795,1796,1797,-1217]],"type":"Polygon","properties":{"state":"MI","name":"CEDAR SPRINGS","zip":"49319"}},{"arcs":[[1798,1799,1800,1801,-1765]],"type":"Polygon","properties":{"state":"MI","name":"COMSTOCK PARK","zip":"49321"}},{"arcs":[[1802,1803,-1252,1804]],"type":"Polygon","properties":{"state":"MI","name":"CORAL","zip":"49322"}},{"arcs":[[1805,1806,1807,1808,1809,-1781]],"type":"Polygon","properties":{"state":"MI","name":"DORR","zip":"49323"}},{"arcs":[[1810,-1746,-1142,-1244,-1314,-1502]],"type":"Polygon","properties":{"state":"MI","name":"FREEPORT","zip":"49325"}},{"arcs":[[1811,1812,-1302,-1218,-1798]],"type":"Polygon","properties":{"state":"MI","name":"GOWEN","zip":"49326"}},{"arcs":[[1813,1814,1815,1816,1817,1818,1819,-1754]],"type":"Polygon","properties":{"state":"MI","name":"GRANT","zip":"49327"}},{"arcs":[[1820,-1807,1821,1822,-1526,-1537,-1362]],"type":"Polygon","properties":{"state":"MI","name":"HOPKINS","zip":"49328"}},{"arcs":[[1823,1824,1825,-1253,-1804,1826]],"type":"Polygon","properties":{"state":"MI","name":"HOWARD CITY","zip":"49329"}},{"arcs":[[-1751,-1820,1827,-1796,1828,1829,-1791]],"type":"Polygon","properties":{"state":"MI","name":"KENT CITY","zip":"49330"}},{"arcs":[[-1750,-1744,1830,-1119,-1294,-1144]],"type":"Polygon","properties":{"state":"MI","name":"LOWELL","zip":"49331"}},{"arcs":[[1831,1832,1833,-1760,-1309]],"type":"Polygon","properties":{"state":"MI","name":"MECOSTA","zip":"49332"}},{"arcs":[[1834,1835,-1789,-1747,-1811,-1501,-1477]],"type":"Polygon","properties":{"state":"MI","name":"MIDDLEVILLE","zip":"49333"}},{"arcs":[[-1826,1836,1837,1838,-1254]],"type":"Polygon","properties":{"state":"MI","name":"MORLEY","zip":"49336"}},{"arcs":[[1839,1840,-1837,-1825,1841,-1818]],"type":"Polygon","properties":{"state":"MI","name":"NEWAYGO","zip":"49337"}},{"arcs":[[1842,1843,1844,-1768,1845,-1775]],"type":"Polygon","properties":{"state":"MI","name":"PARIS","zip":"49338"}},{"arcs":[[1846,1847,-1827,-1803]],"type":"Polygon","properties":{"state":"MI","name":"PIERSON","zip":"49339"}},{"arcs":[[-1778,1848,-1832,-1311,-1270]],"type":"Polygon","properties":{"state":"MI","name":"REMUS","zip":"49340"}},{"arcs":[[-1802,1849,-1794,-1216,-1120,-1831,-1743,-1766]],"type":"Polygon","properties":{"state":"MI","name":"ROCKFORD","zip":"49341"}},{"arcs":[[1850,1851,-1761,-1834,1852,-1770]],"type":"Polygon","properties":{"state":"MI","name":"RODNEY","zip":"49342"}},{"arcs":[[-1842,-1824,-1848,1853,-1812,-1797,-1828,-1819]],"type":"Polygon","properties":{"state":"MI","name":"SAND LAKE","zip":"49343"}},{"arcs":[[-1538,-1527,-1823,1854,-1835,-1476]],"type":"Polygon","properties":{"state":"MI","name":"SHELBYVILLE","zip":"49344"}},{"arcs":[[1855,-1829,-1795,-1850,-1801,1856]],"type":"Polygon","properties":{"state":"MI","name":"SPARTA","zip":"49345"}},{"arcs":[[-1839,1857,-1771,-1853,-1833,-1849,-1255]],"type":"Polygon","properties":{"state":"MI","name":"STANWOOD","zip":"49346"}},{"arcs":[[-1805,-1303,-1813,-1854,-1847]],"type":"Polygon","properties":{"state":"MI","name":"TRUFANT","zip":"49347"}},{"arcs":[[-1806,-1780,-1790,-1836,-1855,-1822]],"type":"Polygon","properties":{"state":"MI","name":"WAYLAND","zip":"49348"}},{"arcs":[[-1841,1858,1859,-1776,-1846,-1767,-1858,-1838]],"type":"Polygon","properties":{"state":"MI","name":"WHITE CLOUD","zip":"49349"}},{"arcs":[[1860,1861,1862,1863,1864,1865,1866,1867]],"type":"Polygon","properties":{"state":"MI","name":"ALLENDALE","zip":"49401"}},{"arcs":[[1868,1869,1870,1871,-1755,1872]],"type":"Polygon","properties":{"state":"MI","name":"BRANCH","zip":"49402"}},{"arcs":[[1873,1874,1875,-1792,-1830,-1856]],"type":"Polygon","properties":{"state":"MI","name":"CONKLIN","zip":"49403"}},{"arcs":[[1876,1877,1878,-1875,1879,1880,-1866]],"type":"Polygon","properties":{"state":"MI","name":"COOPERSVILLE","zip":"49404"}},{"arcs":[[1881,1882,1883,1884,-1869]],"type":"Polygon","properties":{"state":"MI","name":"CUSTER","zip":"49405"}},{"arcs":[[1885,-1554,1886,1887,1888,-1360]],"type":"Polygon","properties":{"state":"MI","name":"FENNVILLE","zip":"49408"}},{"arcs":[[1889,1890,-1870,-1885]],"type":"Polygon","properties":{"state":"MI","name":"FOUNTAIN","zip":"49410"}},{"arcs":[[1891,1892,1893,1894,-1871,-1891,1895]],"type":"Polygon","properties":{"state":"MI","name":"FREE SOIL","zip":"49411"}},{"arcs":[[1896,1897,-1859,-1840,-1817]],"type":"Polygon","properties":{"state":"MI","name":"FREMONT","zip":"49412"}},{"arcs":[[1898,1899,1900,1901,1902]],"type":"Polygon","properties":{"state":"MI","name":"FRUITPORT","zip":"49415"}},{"arcs":[[1903,1904,1905,1906,-1877,-1865]],"type":"Polygon","properties":{"state":"MI","name":"GRAND HAVEN","zip":"49417"}},{"arcs":[[1907,1908,1909,1910,-1783]],"type":"Polygon","properties":{"state":"MI","name":"GRANDVILLE","zip":"49418"}},{"arcs":[[1911,1912,1913,-1808,-1821,-1361,-1889]],"type":"Polygon","properties":{"state":"MI","name":"HAMILTON","zip":"49419"}},{"arcs":[[1914,1915,1916,1917,1918,1919,-1883]],"type":"Polygon","properties":{"state":"MI","name":"HART","zip":"49420"}},{"arcs":[[1920,1921,-1916,1922,-1777,-1860,-1898,1923]],"type":"Polygon","properties":{"state":"MI","name":"HESPERIA","zip":"49421"}},{"arcs":[[1924,1925,-1913,1926,1927]],"type":"Polygon","properties":{"state":"MI","name":"HOLLAND","zip":"49423"}},{"arcs":[[1928,1929,-1925,1930]],"type":"Polygon","properties":{"state":"MI","name":"HOLLAND","zip":"49424"}},{"arcs":[[1931,1932,1933,1934,-1924,-1897,-1816]],"type":"Polygon","properties":{"state":"MI","name":"HOLTON","zip":"49425"}},{"arcs":[[-1810,1935,-1862,1936,-1908,-1782]],"type":"Polygon","properties":{"state":"MI","name":"HUDSONVILLE","zip":"49426"}},{"arcs":[[-1937,-1861,1937,-1909]],"type":"Polygon","properties":{"state":"MI","name":"JENISON","zip":"49428"}},{"arcs":[[-1892,1938,1939,1940]],"type":"Polygon","properties":{"state":"MI","name":"LUDINGTON","zip":"49431"}},{"arcs":[[1941,-1867,-1881]],"type":"Polygon","properties":{"state":"MI","name":"MARNE","zip":"49435"}},{"arcs":[[1942,-1918,1943,1944]],"type":"Polygon","properties":{"state":"MI","name":"MEARS","zip":"49436"}},{"arcs":[[1945,1946,1947,1948,-1934]],"type":"Polygon","properties":{"state":"MI","name":"MONTAGUE","zip":"49437"}},{"arcs":[[1949,1950,1951]],"type":"Polygon","properties":{"state":"MI","name":"MUSKEGON","zip":"49440"}},{"arcs":[[1952,-1950,1953,1954,1955]],"type":"Polygon","properties":{"state":"MI","name":"MUSKEGON","zip":"49441"}},{"arcs":[[1956,-1901,1957,-1954,-1952,1958,1959]],"type":"Polygon","properties":{"state":"MI","name":"MUSKEGON","zip":"49442"}},{"arcs":[[-1955,-1958,-1900,1960,1961]],"type":"Polygon","properties":{"state":"MI","name":"MUSKEGON","zip":"49444"}},{"arcs":[[-1953,1962,1963,1964,-1959,-1951]],"type":"Polygon","properties":{"state":"MI","name":"MUSKEGON","zip":"49445"}},{"arcs":[[1965,1966,-1948,1967]],"type":"Polygon","properties":{"state":"MI","name":"NEW ERA","zip":"49446"}},{"arcs":[[1968,-1903,1969,-1878,-1907]],"type":"Polygon","properties":{"state":"MI","name":"NUNICA","zip":"49448"}},{"arcs":[[-1940,1970,-1919,-1943,1971]],"type":"Polygon","properties":{"state":"MI","name":"PENTWATER","zip":"49449"}},{"arcs":[[-1886,-1359,-1498,-1555]],"type":"Polygon","properties":{"state":"MI","name":"PULLMAN","zip":"49450"}},{"arcs":[[-1879,-1970,-1902,-1957,1972,-1814,-1753,-1793,-1876]],"type":"Polygon","properties":{"state":"MI","name":"RAVENNA","zip":"49451"}},{"arcs":[[-1949,-1967,1973,-1921,-1935]],"type":"Polygon","properties":{"state":"MI","name":"ROTHBURY","zip":"49452"}},{"arcs":[[-1888,1974,-1927,-1912]],"type":"Polygon","properties":{"state":"MI","name":"SAUGATUCK","zip":"49453"}},{"arcs":[[-1939,-1896,-1890,-1884,-1920,-1971]],"type":"Polygon","properties":{"state":"MI","name":"SCOTTVILLE","zip":"49454"}},{"arcs":[[-1944,-1917,-1922,-1974,-1966,1975]],"type":"Polygon","properties":{"state":"MI","name":"SHELBY","zip":"49455"}},{"arcs":[[-1906,1976,-1961,-1899,-1969]],"type":"Polygon","properties":{"state":"MI","name":"SPRING LAKE","zip":"49456"}},{"arcs":[[1977,-1932,-1815,-1973,-1960,-1965]],"type":"Polygon","properties":{"state":"MI","name":"TWIN LAKE","zip":"49457"}},{"arcs":[[-1882,-1873,-1772,-1923,-1915]],"type":"Polygon","properties":{"state":"MI","name":"WALKERVILLE","zip":"49459"}},{"arcs":[[-1904,-1864,1978,-1929,1979]],"type":"Polygon","properties":{"state":"MI","name":"WEST OLIVE","zip":"49460"}},{"arcs":[[-1946,-1933,-1978,-1964,1980]],"type":"Polygon","properties":{"state":"MI","name":"WHITEHALL","zip":"49461"}},{"arcs":[[-1930,-1979,-1863,-1936,-1809,-1914,-1926]],"type":"Polygon","properties":{"state":"MI","name":"ZEELAND","zip":"49464"}},{"arcs":[[1981,1982,1983,1984,1985]],"type":"Polygon","properties":{"state":"MI","name":"GRAND RAPIDS","zip":"49503"}},{"arcs":[[1986,1987,-1982]],"type":"Polygon","properties":{"state":"MI","name":"GRAND RAPIDS","zip":"49504"}},{"arcs":[[1988,-1983,-1988,1989,1990]],"type":"Polygon","properties":{"state":"MI","name":"GRAND RAPIDS","zip":"49505"}},{"arcs":[[1991,-1984,-1989,1992,1993,1994]],"type":"Polygon","properties":{"state":"MI","name":"GRAND RAPIDS","zip":"49506"}},{"arcs":[[1995,1996,-1985,-1992]],"type":"Polygon","properties":{"state":"MI","name":"GRAND RAPIDS","zip":"49507"}},{"arcs":[[-1786,1997,-1996,-1995,1998,-1787]],"type":"Polygon","properties":{"state":"MI","name":"GRAND RAPIDS","zip":"49508"}},{"arcs":[[1999,-1784,-1911,2000,-1986]],"type":"Polygon","properties":{"state":"MI","name":"GRAND RAPIDS","zip":"49509"}},{"arcs":[[-1999,2001,-1739,-1749,-1788]],"type":"Polygon","properties":{"state":"MI","name":"GRAND RAPIDS","zip":"49512"}},{"arcs":[[-1991,2002,-1799,-1764,-1741,2003,-1993]],"type":"Polygon","properties":{"state":"MI","name":"GRAND RAPIDS","zip":"49525"}},{"arcs":[[-2001,-1910,-1938,-1868,-1942,-1880,-1874,-1857,-1800,-2003,-1990,-1987]],"type":"Polygon","properties":{"state":"MI","name":"GRAND RAPIDS","zip":"49544"}},{"arcs":[[-2002,-1994,-2004,-1740]],"type":"Polygon","properties":{"state":"MI","name":"GRAND RAPIDS","zip":"49546"}},{"arcs":[[-1785,-2000,-1997,-1998]],"type":"Polygon","properties":{"state":"MI","name":"GRAND RAPIDS","zip":"49548"}},{"arcs":[[2004,2005,2006,2007,2008,2009,2010,2011,2012]],"type":"Polygon","properties":{"state":"MI","name":"CADILLAC","zip":"49601"}},{"arcs":[[2013,2014,2015,2016]],"type":"Polygon","properties":{"state":"MI","name":"ALDEN","zip":"49612"}},{"arcs":[[2017,2018,2019,2020]],"type":"Polygon","properties":{"state":"MI","name":"ARCADIA","zip":"49613"}},{"arcs":[[2021,2022,-2020,2023,2024,2025,2026,2027]],"type":"Polygon","properties":{"state":"MI","name":"BEAR LAKE","zip":"49614"}},{"arcs":[[2028,2029,2030,2031,2032,-2016]],"type":"Polygon","properties":{"state":"MI","name":"BELLAIRE","zip":"49615"}},{"arcs":[[-2019,2033,2034,2035,-2024]],"type":"Polygon","properties":{"state":"MI","name":"BENZONIA","zip":"49616"}},{"arcs":[[2036,2037,2038,2039,-2035]],"type":"Polygon","properties":{"state":"MI","name":"BEULAH","zip":"49617"}},{"arcs":[[2040,2041,-2009]],"type":"Polygon","properties":{"state":"MI","name":"BOON","zip":"49618"}},{"arcs":[[2042,2043,2044,2045,2046]],"type":"Polygon","properties":{"state":"MI","name":"BRETHREN","zip":"49619"}},{"arcs":[[2047,2048,2049,2050,2051,2052]],"type":"Polygon","properties":{"state":"MI","name":"BUCKLEY","zip":"49620"}},{"arcs":[[2053,2054,2055,2056]],"type":"Polygon","properties":{"state":"MI","name":"CEDAR","zip":"49621"}},{"arcs":[[2057,2058,2059,2060,2061,-2031]],"type":"Polygon","properties":{"state":"MI","name":"CENTRAL LAKE","zip":"49622"}},{"arcs":[[2062,-1843,-1774,2063]],"type":"Polygon","properties":{"state":"MI","name":"CHASE","zip":"49623"}},{"arcs":[[2064,-2026,2065,2066,2067,-2047]],"type":"Polygon","properties":{"state":"MI","name":"COPEMISH","zip":"49625"}},{"arcs":[[2068,2069,2070,2071]],"type":"Polygon","properties":{"state":"MI","name":"ELK RAPIDS","zip":"49629"}},{"arcs":[[[2072]],[[2073]],[[2074,2075,2076,2077,2078]]],"type":"MultiPolygon","properties":{"state":"MI","name":"EMPIRE","zip":"49630"}},{"arcs":[[2079,2080,2081,2082,2083,-921,2084,-1762,-1852]],"type":"Polygon","properties":{"state":"MI","name":"EVART","zip":"49631"}},{"arcs":[[2085,2086,2087,2088,-912,-968,-903]],"type":"Polygon","properties":{"state":"MI","name":"FALMOUTH","zip":"49632"}},{"arcs":[[2089,2090,2091,2092,2093,2094,2095,-964]],"type":"Polygon","properties":{"state":"MI","name":"FIFE LAKE","zip":"49633"}},{"arcs":[[-2018,2096,2097,-2037,-2034]],"type":"Polygon","properties":{"state":"MI","name":"FRANKFORT","zip":"49635"}},{"arcs":[[2098,-2079,2099]],"type":"Polygon","properties":{"state":"MI","name":"GLEN ARBOR","zip":"49636"}},{"arcs":[[2100,-2053,2101,2102]],"type":"Polygon","properties":{"state":"MI","name":"GRAWN","zip":"49637"}},{"arcs":[[-2008,2103,-2043,-2068,2104,-2041]],"type":"Polygon","properties":{"state":"MI","name":"HARRIETTA","zip":"49638"}},{"arcs":[[-1851,-1769,-1845,2105,-2080]],"type":"Polygon","properties":{"state":"MI","name":"HERSEY","zip":"49639"}},{"arcs":[[2106,-2038,-2098,2107,-2077]],"type":"Polygon","properties":{"state":"MI","name":"HONOR","zip":"49640"}},{"arcs":[[-1773,-1758,2108,2109,-2064]],"type":"Polygon","properties":{"state":"MI","name":"IDLEWILD","zip":"49642"}},{"arcs":[[-2052,2110,-2039,2111,2112,-2102]],"type":"Polygon","properties":{"state":"MI","name":"INTERLOCHEN","zip":"49643"}},{"arcs":[[-1895,2113,2114,2115,-1756,-1872]],"type":"Polygon","properties":{"state":"MI","name":"IRONS","zip":"49644"}},{"arcs":[[2116,-2027,-2065,-2046]],"type":"Polygon","properties":{"state":"MI","name":"KALEVA","zip":"49645"}},{"arcs":[[2117,-2095,2118,2119,2120,2121,-2014,2122,2123]],"type":"Polygon","properties":{"state":"MI","name":"KALKASKA","zip":"49646"}},{"arcs":[[-2058,-2030,2124,-2072,2125]],"type":"Polygon","properties":{"state":"MI","name":"KEWADIN","zip":"49648"}},{"arcs":[[2126,-2048,-2101,2127,2128,-2092]],"type":"Polygon","properties":{"state":"MI","name":"KINGSLEY","zip":"49649"}},{"arcs":[[2129,-2112,-2107,-2076,2130]],"type":"Polygon","properties":{"state":"MI","name":"LAKE ANN","zip":"49650"}},{"arcs":[[2131,-2012,2132,-2090,-963,2133,-2088]],"type":"Polygon","properties":{"state":"MI","name":"LAKE CITY","zip":"49651"}},{"arcs":[[2134,2135,2136,2137,-2056,2138]],"type":"Polygon","properties":{"state":"MI","name":"LAKE LEELANAU","zip":"49653"}},{"arcs":[[2139,-2135,2140]],"type":"Polygon","properties":{"state":"MI","name":"LELAND","zip":"49654"}},{"arcs":[[2141,2142,2143,-2082]],"type":"Polygon","properties":{"state":"MI","name":"LEROY","zip":"49655"}},{"arcs":[[2144,-2006,2145,-2143,2146,-2109,-1757,-2116]],"type":"Polygon","properties":{"state":"MI","name":"LUTHER","zip":"49656"}},{"arcs":[[2147,2148,-2013,-2132,-2087]],"type":"Polygon","properties":{"state":"MI","name":"MC BAIN","zip":"49657"}},{"arcs":[[2149,-2123,-2017,-2033,2150,2151]],"type":"Polygon","properties":{"state":"MI","name":"MANCELONA","zip":"49659"}},{"arcs":[[-1894,2152,2153,-2028,-2117,-2045,2154,-2114]],"type":"Polygon","properties":{"state":"MI","name":"MANISTEE","zip":"49660"}},{"arcs":[[2155,-2049,-2127,-2091,-2133,-2011]],"type":"Polygon","properties":{"state":"MI","name":"MANTON","zip":"49663"}},{"arcs":[[-2099,2156,-2054,2157,-2131,-2075]],"type":"Polygon","properties":{"state":"MI","name":"MAPLE CITY","zip":"49664"}},{"arcs":[[-922,-2084,2158,-2148,-2086,-902]],"type":"Polygon","properties":{"state":"MI","name":"MARION","zip":"49665"}},{"arcs":[[-2089,-2134,-962,-913]],"type":"Polygon","properties":{"state":"MI","name":"MERRITT","zip":"49667"}},{"arcs":[[-2042,-2105,-2067,2159,-2050,-2156,-2010]],"type":"Polygon","properties":{"state":"MI","name":"MESICK","zip":"49668"}},{"arcs":[[2160,-2136,-2140,2161]],"type":"Polygon","properties":{"state":"MI","name":"NORTHPORT","zip":"49670"}},{"arcs":[[-2022,-2154,2162]],"type":"Polygon","properties":{"state":"MI","name":"ONEKAMA","zip":"49675"}},{"arcs":[[-2122,2163,-2069,-2125,-2029,-2015]],"type":"Polygon","properties":{"state":"MI","name":"RAPID CITY","zip":"49676"}},{"arcs":[[-2110,-2147,-2142,-2081,-2106,-1844,-2063]],"type":"Polygon","properties":{"state":"MI","name":"REED CITY","zip":"49677"}},{"arcs":[[-2085,-920,-1763]],"type":"Polygon","properties":{"state":"MI","name":"SEARS","zip":"49679"}},{"arcs":[[2164,-2119,-2094]],"type":"Polygon","properties":{"state":"MI","name":"SOUTH BOARDMAN","zip":"49680"}},{"arcs":[[2165,-2137,-2161,2166]],"type":"Polygon","properties":{"state":"MI","name":"SUTTONS BAY","zip":"49682"}},{"arcs":[[-2066,-2025,-2036,-2040,-2111,-2051,-2160]],"type":"Polygon","properties":{"state":"MI","name":"THOMPSONVILLE","zip":"49683"}},{"arcs":[[-2130,-2158,-2057,-2138,-2166,2167,2168,-2128,-2103,-2113]],"type":"Polygon","properties":{"state":"MI","name":"TRAVERSE CITY","zip":"49684"}},{"arcs":[[2169,-2120,-2165,-2093,-2129,-2169,2170]],"type":"Polygon","properties":{"state":"MI","name":"TRAVERSE CITY","zip":"49686"}},{"arcs":[[-2144,-2146,-2005,-2149,-2159,-2083]],"type":"Polygon","properties":{"state":"MI","name":"TUSTIN","zip":"49688"}},{"arcs":[[-2145,-2115,-2155,-2044,-2104,-2007]],"type":"Polygon","properties":{"state":"MI","name":"WELLSTON","zip":"49689"}},{"arcs":[[-2170,2171,-2070,-2164,-2121]],"type":"Polygon","properties":{"state":"MI","name":"WILLIAMSBURG","zip":"49690"}},{"arcs":[[2172,2173,2174]],"type":"Polygon","properties":{"state":"MI","name":"MACKINAW CITY","zip":"49701"}},{"arcs":[[2175,2176,2177,2178]],"type":"Polygon","properties":{"state":"MI","name":"AFTON","zip":"49705"}},{"arcs":[[2179,2180,2181,2182,2183,2184]],"type":"Polygon","properties":{"state":"MI","name":"ALANSON","zip":"49706"}},{"arcs":[[2185,2186,2187,2188,2189,2190,2191]],"type":"Polygon","properties":{"state":"MI","name":"ALPENA","zip":"49707"}},{"arcs":[[2192,-880,2193,2194,2195]],"type":"Polygon","properties":{"state":"MI","name":"ATLANTA","zip":"49709"}},{"arcs":[[[2196,2197,2198,2199]],[[2200]]],"type":"MultiPolygon","properties":{"state":"MI","name":"BARBEAU","zip":"49710"}},{"arcs":[[2201,2202,2203,2204,2205]],"type":"Polygon","properties":{"state":"MI","name":"BOYNE CITY","zip":"49712"}},{"arcs":[[2206,2207,2208,2209,-2206]],"type":"Polygon","properties":{"state":"MI","name":"BOYNE FALLS","zip":"49713"}},{"arcs":[[2210,2211,2212,2213,2214]],"type":"Polygon","properties":{"state":"MI","name":"BRIMLEY","zip":"49715"}},{"arcs":[[2215,2216,2217,-2185]],"type":"Polygon","properties":{"state":"MI","name":"BRUTUS","zip":"49716"}},{"arcs":[[2218,2219,2220,2174]],"type":"Polygon","properties":{"state":"MI","name":"CARP LAKE","zip":"49718"}},{"arcs":[[2221,2222,2223,2224,2225]],"type":"Polygon","properties":{"state":"MI","name":"CEDARVILLE","zip":"49719"}},{"arcs":[[2226,-2204,2227,2228,-2060,2229]],"type":"Polygon","properties":{"state":"MI","name":"CHARLEVOIX","zip":"49720"}},{"arcs":[[2230,2231,2232,-2217,2233,2234,-2219,2172,2235]],"type":"Polygon","properties":{"state":"MI","name":"CHEBOYGAN","zip":"49721"}},{"arcs":[[[2236,-2211,2237,2238]],[[2239,-2198,2240]]],"type":"MultiPolygon","properties":{"state":"MI","name":"DAFTER","zip":"49724"}},{"arcs":[[-2222,2241,2242]],"type":"Polygon","properties":{"state":"MI","name":"DE TOUR VILLAGE","zip":"49725"}},{"arcs":[[2243]],"type":"Polygon","properties":{"state":"MI","name":"DRUMMOND ISLAND","zip":"49726"}},{"arcs":[[2244,-2151,-2032,-2062,2245,-2228,-2203]],"type":"Polygon","properties":{"state":"MI","name":"EAST JORDAN","zip":"49727"}},{"arcs":[[2246,2247,2248,2249,2250]],"type":"Polygon","properties":{"state":"MI","name":"ECKERMAN","zip":"49728"}},{"arcs":[[-2229,-2246,-2061]],"type":"Polygon","properties":{"state":"MI","name":"ELLSWORTH","zip":"49729"}},{"arcs":[[-2202,-2210,2251,2252,-2152,-2245]],"type":"Polygon","properties":{"state":"MI","name":"ELMIRA","zip":"49730"}},{"arcs":[[2253,2254,2255,-2124]],"type":"Polygon","properties":{"state":"MI","name":"FREDERIC","zip":"49733"}},{"arcs":[[-2253,2256,2257,-2254,-2150]],"type":"Polygon","properties":{"state":"MI","name":"GAYLORD","zip":"49735"}},{"arcs":[[-2226,2258,2259,-2242]],"type":"Polygon","properties":{"state":"MI","name":"GOETZVILLE","zip":"49736"}},{"arcs":[[2260,-965,-2096,-2118,-2256,2261]],"type":"Polygon","properties":{"state":"MI","name":"GRAYLING","zip":"49738"}},{"arcs":[[2262,2263,-2183,2264,2265]],"type":"Polygon","properties":{"state":"MI","name":"HARBOR SPRINGS","zip":"49740"}},{"arcs":[[2266,2267,2268,2269,2270]],"type":"Polygon","properties":{"state":"MI","name":"HAWKS","zip":"49743"}},{"arcs":[[2271,-2186,2272]],"type":"Polygon","properties":{"state":"MI","name":"HERRON","zip":"49744"}},{"arcs":[[2273,2274,-2267,2275,-881,-2193]],"type":"Polygon","properties":{"state":"MI","name":"HILLMAN","zip":"49746"}},{"arcs":[[2276,-2273,-2192,2277,-1094,-1029]],"type":"Polygon","properties":{"state":"MI","name":"HUBBARD LAKE","zip":"49747"}},{"arcs":[[2278,-2180,-2218,-2233,-2179]],"type":"Polygon","properties":{"state":"MI","name":"INDIAN RIVER","zip":"49749"}},{"arcs":[[-2258,2279,2280,-2195,2281,-2262,-2255]],"type":"Polygon","properties":{"state":"MI","name":"JOHANNESBURG","zip":"49751"}},{"arcs":[[2282,2283,-2213,2284,-2250]],"type":"Polygon","properties":{"state":"MI","name":"KINROSS","zip":"49752"}},{"arcs":[[-1028,-2276,-2271,2285,-2187,-2272,-2277]],"type":"Polygon","properties":{"state":"MI","name":"LACHINE","zip":"49753"}},{"arcs":[[2286,-2263,2287,-2220,-2235]],"type":"Polygon","properties":{"state":"MI","name":"LEVERING","zip":"49755"}},{"arcs":[[-2282,-2194,-879,-948,-936,-966,-2261]],"type":"Polygon","properties":{"state":"MI","name":"LEWISTON","zip":"49756"}},{"arcs":[[2288,-2231,2289,2290,-2268,-2275]],"type":"Polygon","properties":{"state":"MI","name":"MILLERSBURG","zip":"49759"}},{"arcs":[[2291,2292,2293,2294]],"type":"Polygon","properties":{"state":"MI","name":"MORAN","zip":"49760"}},{"arcs":[[2295,2296,2297,-2247,2298,-2294,2299]],"type":"Polygon","properties":{"state":"MI","name":"NAUBINWAY","zip":"49762"}},{"arcs":[[-2232,-2289,-2274,-2196,-2281,-2176]],"type":"Polygon","properties":{"state":"MI","name":"ONAWAY","zip":"49765"}},{"arcs":[[-1009,-1095,-2278,-2191,2300]],"type":"Polygon","properties":{"state":"MI","name":"OSSINEKE","zip":"49766"}},{"arcs":[[-2249,2301,2302,-2283]],"type":"Polygon","properties":{"state":"MI","name":"PARADISE","zip":"49768"}},{"arcs":[[-2264,-2287,-2234,-2216,-2184]],"type":"Polygon","properties":{"state":"MI","name":"PELLSTON","zip":"49769"}},{"arcs":[[2303,-2207,-2205,-2227,2304,-2265,-2182]],"type":"Polygon","properties":{"state":"MI","name":"PETOSKEY","zip":"49770"}},{"arcs":[[-2225,2305,2306,2307,-2241,-2197,2308,-2259]],"type":"Polygon","properties":{"state":"MI","name":"PICKFORD","zip":"49774"}},{"arcs":[[2309]],"type":"Polygon","properties":{"state":"MI","name":"POINTE AUX PINS","zip":"49775"}},{"arcs":[[-2270,2310,2311,-2188,-2286]],"type":"Polygon","properties":{"state":"MI","name":"POSEN","zip":"49776"}},{"arcs":[[2312,-2189,-2312]],"type":"Polygon","properties":{"state":"MI","name":"PRESQUE ISLE","zip":"49777"}},{"arcs":[[-2311,-2269,-2291,2313,-2313]],"type":"Polygon","properties":{"state":"MI","name":"ROGERS CITY","zip":"49779"}},{"arcs":[[2314,-2295,-2299,-2251,-2285,-2212,-2237,2315,2316,-2307]],"type":"Polygon","properties":{"state":"MI","name":"RUDYARD","zip":"49780"}},{"arcs":[[-2315,-2306,-2224,2317,-2292]],"type":"Polygon","properties":{"state":"MI","name":"SAINT IGNACE","zip":"49781"}},{"arcs":[[[2318]],[[2319]],[[2320]]],"type":"MultiPolygon","properties":{"state":"MI","name":"BEAVER ISLAND","zip":"49782"}},{"arcs":[[[2321]],[[-2308,-2317,2322,-2238,-2215,2323,-2199,-2240]]],"type":"MultiPolygon","properties":{"state":"MI","name":"SAULT SAINTE MARIE","zip":"49783"}},{"arcs":[[-2316,-2239,-2323]],"type":"Polygon","properties":{"state":"MI","name":"KINCHELOE","zip":"49788"}},{"arcs":[[-2209,2324,-2177,-2280,-2257,-2252]],"type":"Polygon","properties":{"state":"MI","name":"VANDERBILT","zip":"49795"}},{"arcs":[[-2304,-2181,-2279,-2178,-2325,-2208]],"type":"Polygon","properties":{"state":"MI","name":"WOLVERINE","zip":"49799"}},{"arcs":[[2325,2326,2327,2328,2329,2330,2331,2332,2333]],"type":"Polygon","properties":{"state":"MI","name":"IRON MOUNTAIN","zip":"49801"}},{"arcs":[[2334,-2327,2335]],"type":"Polygon","properties":{"state":"MI","name":"KINGSFORD","zip":"49802"}},{"arcs":[[2336,2337,2338,2339]],"type":"Polygon","properties":{"state":"MI","name":"AU TRAIN","zip":"49806"}},{"arcs":[[2340,2341,2342,2343,2344,2345,2346]],"type":"Polygon","properties":{"state":"MI","name":"BARK RIVER","zip":"49807"}},{"arcs":[[2347,2348,2349,2350,2351,2352]],"type":"Polygon","properties":{"state":"MI","name":"CARNEY","zip":"49812"}},{"arcs":[[2353,2354,2355,2356,-2349,2357,-2347,2358]],"type":"Polygon","properties":{"state":"MI","name":"CEDAR RIVER","zip":"49813"}},{"arcs":[[2359,2360,2361,2362,2363]],"type":"Polygon","properties":{"state":"MI","name":"CHAMPION","zip":"49814"}},{"arcs":[[2364,2365,2366,2367,-2361]],"type":"Polygon","properties":{"state":"MI","name":"CHANNING","zip":"49815"}},{"arcs":[[2368,2369,2370,2371,2372]],"type":"Polygon","properties":{"state":"MI","name":"CHATHAM","zip":"49816"}},{"arcs":[[2373,2374,2375]],"type":"Polygon","properties":{"state":"MI","name":"COOKS","zip":"49817"}},{"arcs":[[2376,2377,2378,2379,2380,-2344]],"type":"Polygon","properties":{"state":"MI","name":"CORNELL","zip":"49818"}},{"arcs":[[2381,2382,2383,2384]],"type":"Polygon","properties":{"state":"MI","name":"CURTIS","zip":"49820"}},{"arcs":[[2385,2386,-2350,-2357,2387]],"type":"Polygon","properties":{"state":"MI","name":"DAGGETT","zip":"49821"}},{"arcs":[[2388,2389,2390,2391,-2338,2392]],"type":"Polygon","properties":{"state":"MI","name":"DEERTON","zip":"49822"}},{"arcs":[[2393,-2389,2394,-2372]],"type":"Polygon","properties":{"state":"MI","name":"EBEN JUNCTION","zip":"49825"}},{"arcs":[[2395,-2373,-2395,-2393,-2337]],"type":"Polygon","properties":{"state":"MI","name":"RUMELY","zip":"49826"}},{"arcs":[[-2385,2396,2397,-2297]],"type":"Polygon","properties":{"state":"MI","name":"ENGADINE","zip":"49827"}},{"arcs":[[-2345,-2381,2398,2399]],"type":"Polygon","properties":{"state":"MI","name":"ESCANABA","zip":"49829"}},{"type":null,"properties":{"state":"MI","name":"FELCH","zip":"49831"}},{"arcs":[[2400,-2378,2401,2402,2403]],"type":"Polygon","properties":{"state":"MI","name":"LITTLE LAKE","zip":"49833"}},{"arcs":[[-2331,2404,-2365,-2360,2405,2406,-2403,2407,2408,2409,2410]],"type":"Polygon","properties":{"state":"MI","name":"FOSTER CITY","zip":"49834"}},{"arcs":[[2411,2412,2413,-2374]],"type":"Polygon","properties":{"state":"MI","name":"GARDEN","zip":"49835"}},{"arcs":[[2414,2415,2416,-2383]],"type":"Polygon","properties":{"state":"MI","name":"GERMFASK","zip":"49836"}},{"arcs":[[-2380,2417,2418,2419,-2399]],"type":"Polygon","properties":{"state":"MI","name":"GLADSTONE","zip":"49837"}},{"arcs":[[2420,-2382,-2296,2421]],"type":"Polygon","properties":{"state":"MI","name":"GOULD CITY","zip":"49838"}},{"arcs":[[2422,2423,2424,2425,2426]],"type":"Polygon","properties":{"state":"MI","name":"GRAND MARAIS","zip":"49839"}},{"arcs":[[2427,2428,-2415,-2421,2429]],"type":"Polygon","properties":{"state":"MI","name":"GULLIVER","zip":"49840"}},{"arcs":[[2430,2431,2432,2433,2434,-2404,-2407]],"type":"Polygon","properties":{"state":"MI","name":"GWINN","zip":"49841"}},{"arcs":[[2435,-2409,2436,2437,-2352]],"type":"Polygon","properties":{"state":"MI","name":"HERMANSVILLE","zip":"49847"}},{"arcs":[[2438,2439,2440]],"type":"Polygon","properties":{"state":"MI","name":"INGALLS","zip":"49848"}},{"arcs":[[2441,2442,2443,-2431,-2406,-2364]],"type":"Polygon","properties":{"state":"MI","name":"ISHPEMING","zip":"49849"}},{"arcs":[[-2417,2444,2445,-2397,-2384]],"type":"Polygon","properties":{"state":"MI","name":"MC MILLAN","zip":"49853"}},{"arcs":[[-2412,-2376,2446,2447,2448,2449,-2425,2450,-2428,2451]],"type":"Polygon","properties":{"state":"MI","name":"MANISTIQUE","zip":"49854"}},{"arcs":[[2452,-2433,2453,-2443,2454,2455,-2391]],"type":"Polygon","properties":{"state":"MI","name":"MARQUETTE","zip":"49855"}},{"arcs":[[2456,2457,-2354,2458]],"type":"Polygon","properties":{"state":"MI","name":"MENOMINEE","zip":"49858"}},{"arcs":[[2459,2460,2461,2462,-2455,-2442,-2363,2463,2464]],"type":"Polygon","properties":{"state":"MI","name":"MICHIGAMME","zip":"49861"}},{"arcs":[[[-2340,2465,-2426,-2450,2466,2467,2468,-2369,-2396]],[[2469]]],"type":"MultiPolygon","properties":{"state":"MI","name":"MUNISING","zip":"49862"}},{"arcs":[[-2454,-2432,-2444]],"type":"Polygon","properties":{"state":"MI","name":"NEGAUNEE","zip":"49866"}},{"arcs":[[-2398,-2446,-2423,2470,-2302,-2248,-2298]],"type":"Polygon","properties":{"state":"MI","name":"NEWBERRY","zip":"49868"}},{"arcs":[[2471,2472,-2334,2473]],"type":"Polygon","properties":{"state":"MI","name":"NORWAY","zip":"49870"}},{"arcs":[[2474,2475,-2437,-2408,-2402,-2377,-2343]],"type":"Polygon","properties":{"state":"MI","name":"PERRONVILLE","zip":"49873"}},{"arcs":[[2476,-2353,-2438,-2476,2477]],"type":"Polygon","properties":{"state":"MI","name":"POWERS","zip":"49874"}},{"arcs":[[2478,-2336,-2326,-2473]],"type":"Polygon","properties":{"state":"MI","name":"QUINNESEC","zip":"49876"}},{"arcs":[[-2419,2479,2480,2481,-2447,-2375,-2414,2482]],"type":"Polygon","properties":{"state":"MI","name":"RAPID RIVER","zip":"49878"}},{"arcs":[[2483,-2464,-2362,-2368]],"type":"Polygon","properties":{"state":"MI","name":"REPUBLIC","zip":"49879"}},{"arcs":[[-2418,-2379,-2401,-2435,2484,2485,-2480]],"type":"Polygon","properties":{"state":"MI","name":"ROCK","zip":"49880"}},{"arcs":[[2486,-2366,-2405,-2330]],"type":"Polygon","properties":{"state":"MI","name":"SAGOLA","zip":"49881"}},{"arcs":[[-2429,-2451,-2424,-2445,-2416]],"type":"Polygon","properties":{"state":"MI","name":"SENEY","zip":"49883"}},{"arcs":[[2487,-2467,-2449]],"type":"Polygon","properties":{"state":"MI","name":"SHINGLETON","zip":"49884"}},{"arcs":[[-2453,-2390,-2394,-2371,2488,-2485,-2434]],"type":"Polygon","properties":{"state":"MI","name":"SKANDIA","zip":"49885"}},{"arcs":[[2489,-2478,-2475,-2342]],"type":"Polygon","properties":{"state":"MI","name":"SPALDING","zip":"49886"}},{"arcs":[[2490,-2441,2491,-2388,-2356]],"type":"Polygon","properties":{"state":"MI","name":"STEPHENSON","zip":"49887"}},{"arcs":[[-2489,-2370,-2469,2492,-2481,-2486]],"type":"Polygon","properties":{"state":"MI","name":"TRENARY","zip":"49891"}},{"arcs":[[-2387,2493,-2474,-2333,2494,-2410,-2436,-2351]],"type":"Polygon","properties":{"state":"MI","name":"VULCAN","zip":"49892"}},{"arcs":[[2495,-2439,-2491,-2355,-2458]],"type":"Polygon","properties":{"state":"MI","name":"WALLACE","zip":"49893"}},{"type":null,"properties":{"state":"MI","name":"WELLS","zip":"49894"}},{"arcs":[[-2493,-2468,-2488,-2448,-2482]],"type":"Polygon","properties":{"state":"MI","name":"WETMORE","zip":"49895"}},{"arcs":[[-2348,-2477,-2490,-2341,-2358]],"type":"Polygon","properties":{"state":"MI","name":"WILSON","zip":"49896"}},{"arcs":[[2496,2497,2498,2499,2500]],"type":"Polygon","properties":{"state":"MI","name":"ATLANTIC MINE","zip":"49905"}},{"arcs":[[2501,2502]],"type":"Polygon","properties":{"state":"MI","name":"BARAGA","zip":"49908"}},{"arcs":[[2503,2504,2505,2506]],"type":"Polygon","properties":{"state":"MI","name":"BERGLAND","zip":"49910"}},{"arcs":[[2507,2508,2509]],"type":"Polygon","properties":{"state":"MI","name":"BESSEMER","zip":"49911"}},{"arcs":[[2510,2511,2512,2513,2514]],"type":"Polygon","properties":{"state":"MI","name":"BRUCE CROSSING","zip":"49912"}},{"arcs":[[2515,2516,2517,2518,2519]],"type":"Polygon","properties":{"state":"MI","name":"CALUMET","zip":"49913"}},{"arcs":[[2520,2521,-2497,2522,2523,2524]],"type":"Polygon","properties":{"state":"MI","name":"CHASSELL","zip":"49916"}},{"arcs":[[2525,2526,2527,2528,-2460]],"type":"Polygon","properties":{"state":"MI","name":"COVINGTON","zip":"49919"}},{"arcs":[[2529,2530,2531,-2526,-2465,-2484,-2367,-2487,-2329,2532]],"type":"Polygon","properties":{"state":"MI","name":"CRYSTAL FALLS","zip":"49920"}},{"arcs":[[2533,-2507,2534,-2512]],"type":"Polygon","properties":{"state":"MI","name":"EWEN","zip":"49925"}},{"arcs":[[2535,2536,-2530]],"type":"Polygon","properties":{"state":"MI","name":"GAASTRA","zip":"49927"}},{"arcs":[[2537,-2500,2538,-2517,2539]],"type":"Polygon","properties":{"state":"MI","name":"HANCOCK","zip":"49930"}},{"arcs":[[[2540]],[[-2538,2541,-2523,-2501]]],"type":"MultiPolygon","properties":{"state":"MI","name":"HOUGHTON","zip":"49931"}},{"arcs":[[-2537,2542,2543,2544,-2531]],"type":"Polygon","properties":{"state":"MI","name":"IRON RIVER","zip":"49935"}},{"arcs":[[2545,-2508,2546]],"type":"Polygon","properties":{"state":"MI","name":"IRONWOOD","zip":"49938"}},{"arcs":[[-2542,-2540,-2516,2547,-2524]],"type":"Polygon","properties":{"state":"MI","name":"LAKE LINDEN","zip":"49945"}},{"arcs":[[-2529,2548,2549,2550,-2461]],"type":"Polygon","properties":{"state":"MI","name":"LANSE","zip":"49946"}},{"arcs":[[2551,-2504,-2534,-2511,2552,2553]],"type":"Polygon","properties":{"state":"MI","name":"MARENISCO","zip":"49947"}},{"arcs":[[2554,2555,2556]],"type":"Polygon","properties":{"state":"MI","name":"MASS CITY","zip":"49948"}},{"arcs":[[-2519,2557]],"type":"Polygon","properties":{"state":"MI","name":"MOHAWK","zip":"49950"}},{"arcs":[[2558,2559,-2557,2560,2561]],"type":"Polygon","properties":{"state":"MI","name":"NISULA","zip":"49952"}},{"arcs":[[2562,2563,-2513,-2535,-2506]],"type":"Polygon","properties":{"state":"MI","name":"ONTONAGON","zip":"49953"}},{"arcs":[[2564,2565,-2559,2566,-2521,2567,-2502,2568,-2549,-2528]],"type":"Polygon","properties":{"state":"MI","name":"PELKIE","zip":"49958"}},{"arcs":[[-2462,-2551,2569]],"type":"Polygon","properties":{"state":"MI","name":"SKANEE","zip":"49962"}},{"arcs":[[-2498,-2522,-2567,-2562,2570]],"type":"Polygon","properties":{"state":"MI","name":"TOIVOLA","zip":"49965"}},{"arcs":[[-2555,-2560,-2566,2571,-2544,2572]],"type":"Polygon","properties":{"state":"MI","name":"TROUT CREEK","zip":"49967"}},{"arcs":[[-2510,2573,-2563,-2505,-2552,2574,-2547]],"type":"Polygon","properties":{"state":"MI","name":"WAKEFIELD","zip":"49968"}},{"arcs":[[2575,-2553,-2515,2576]],"type":"Polygon","properties":{"state":"MI","name":"WATERSMEET","zip":"49969"}},{"arcs":[[-2532,-2545,-2572,-2565,-2527]],"type":"Polygon","properties":{"state":"MI","name":"WATTON","zip":"49970"}}]}},"arcs":[[[32816,18533],[13,0]],[[32829,18533],[72,-2]],[[32901,18531],[-22,-56],[-86,25],[23,33]],[[32627,18770],[-90,-3]],[[32537,18767],[-5,92]],[[32532,18859],[95,2]],[[32627,18861],[0,-91]],[[32537,18767],[-90,-5]],[[32447,18762],[9,91]],[[32456,18853],[63,6]],[[32519,18859],[13,0]],[[32631,18678],[-90,-3]],[[32541,18675],[-4,92]],[[32627,18770],[4,-92]],[[32717,18866],[0,87]],[[32717,18953],[-5,89],[77,-11]],[[32789,19031],[18,-76]],[[32807,18955],[4,-86]],[[32811,18869],[-90,-5]],[[32721,18864],[-4,2]],[[32366,18396],[-32,0]],[[32334,18396],[5,30]],[[32339,18426],[27,0]],[[32366,18426],[13,-25]],[[32379,18401],[-13,-5]],[[32519,18859],[13,89]],[[32532,18948],[95,2]],[[32627,18950],[0,-89]],[[32510,18355],[-5,-23]],[[32505,18332],[-9,23]],[[32496,18355],[5,0]],[[32501,18355],[9,0]],[[32424,18398],[-31,8]],[[32393,18406],[18,8]],[[32411,18414],[13,-16]],[[32568,18314],[-22,-2]],[[32546,18312],[4,30]],[[32550,18342],[41,3]],[[32591,18345],[-9,-31]],[[32582,18314],[-14,0]],[[32627,18950],[90,3]],[[32717,18866],[-90,-5]],[[32753,18556],[-18,36]],[[32735,18592],[94,2]],[[32829,18594],[0,-61]],[[32816,18533],[-63,23]],[[32366,18383],[-45,-10]],[[32321,18373],[-45,0]],[[32276,18373],[0,20]],[[32276,18393],[58,3]],[[32366,18396],[0,-13]],[[32577,18406],[-27,-18]],[[32550,18388],[-4,15]],[[32546,18403],[0,16]],[[32546,18419],[31,-13]],[[32820,18777],[-94,-5]],[[32726,18772],[-5,92]],[[32811,18869],[9,-92]],[[32879,18472],[4,-5],[-99,-31],[95,36]],[[32438,18309],[0,31]],[[32438,18340],[22,0]],[[32460,18340],[0,-31]],[[32460,18309],[-22,0]],[[32892,19049],[-9,-89]],[[32883,18960],[-76,-5]],[[32789,19031],[-5,13]],[[32784,19044],[108,13]],[[32892,19057],[0,-8]],[[32321,18307],[-23,0]],[[32298,18307],[-22,-3]],[[32276,18304],[0,46]],[[32276,18350],[0,23]],[[32321,18373],[0,-31]],[[32321,18342],[0,-35]],[[32631,18406],[-31,0]],[[32600,18406],[-23,0]],[[32546,18419],[0,15]],[[32546,18434],[85,2]],[[32631,18436],[0,-30]],[[32546,18436],[63,61]],[[32609,18497],[27,0]],[[32636,18497],[-5,-20],[0,-18],[0,-23]],[[32546,18434],[0,2]],[[32546,18436],[-5,59]],[[32541,18495],[5,0]],[[32546,18495],[63,2]],[[32829,18594],[95,5]],[[32924,18599],[-23,-68]],[[32933,18742],[-18,38]],[[32915,18780],[0,30]],[[32915,18810],[36,3]],[[32951,18813],[-18,-71]],[[32726,18772],[-99,-2]],[[32609,18497],[9,46],[-72,-2]],[[32546,18541],[-5,45]],[[32541,18586],[95,3]],[[32636,18589],[0,-92]],[[32546,18495],[0,46]],[[32636,18497],[4,3]],[[32640,18500],[27,-3]],[[32667,18497],[36,-38],[-72,-53]],[[32640,18500],[68,89]],[[32708,18589],[27,3]],[[32753,18556],[-86,-59]],[[32708,18589],[-72,0]],[[32636,18589],[-5,46]],[[32631,18635],[104,-13]],[[32735,18622],[0,-30]],[[32901,18871],[-90,-2]],[[32883,18960],[18,-73]],[[32901,18887],[0,-16]],[[32730,18668],[5,-46]],[[32631,18635],[0,43]],[[32631,18678],[99,-10]],[[32829,18594],[-4,92]],[[32825,18686],[99,-5]],[[32924,18681],[0,-82]],[[32892,19049],[18,0]],[[32910,19049],[46,-132]],[[32956,18917],[-55,-30]],[[32915,18810],[-14,61]],[[32956,18917],[-5,-104]],[[32730,18670],[0,-2]],[[32726,18772],[4,-102]],[[32825,18686],[-95,-16]],[[32820,18777],[5,-91]],[[32447,18673],[0,89]],[[32541,18675],[-94,-2]],[[32600,18375],[-9,-30]],[[32550,18342],[0,18]],[[32550,18360],[0,28]],[[32600,18406],[0,-31]],[[32406,18337],[-4,16]],[[32402,18353],[-14,15]],[[32388,18368],[41,0]],[[32429,18368],[9,-28]],[[32438,18340],[-18,0]],[[32420,18340],[-14,-3]],[[32406,18332],[0,5]],[[32420,18340],[-14,-8]],[[32406,18337],[-27,16]],[[32379,18353],[23,0]],[[32460,18355],[0,-15]],[[32429,18368],[-5,30]],[[32424,18398],[32,3]],[[32456,18401],[4,-46]],[[32379,18353],[-13,0]],[[32366,18353],[0,22]],[[32366,18375],[22,-7]],[[32366,18375],[0,8]],[[32379,18401],[14,5]],[[32915,18780],[-95,-3]],[[32321,18342],[45,3]],[[32366,18345],[4,-38]],[[32370,18307],[-18,0]],[[32352,18307],[-31,0]],[[32366,18353],[0,-8]],[[32933,18742],[-9,-61]],[[32591,18345],[27,-5]],[[32618,18340],[4,-18]],[[32622,18322],[-27,-8]],[[32595,18314],[-13,0]],[[32600,18375],[18,0]],[[32618,18375],[0,-35]],[[32631,18406],[-13,-31]],[[32411,18414],[0,30]],[[32411,18444],[45,0]],[[32456,18444],[0,-43]],[[32366,18426],[-5,16]],[[32361,18442],[50,2]],[[32411,18444],[-5,46]],[[32406,18490],[45,2]],[[32451,18492],[5,-33]],[[32456,18459],[0,-15]],[[32550,18360],[-22,-5]],[[32528,18355],[-5,48]],[[32523,18403],[23,0]],[[32546,18312],[-27,0]],[[32519,18312],[-14,0]],[[32505,18312],[0,20]],[[32510,18355],[18,0]],[[32460,18355],[36,0]],[[32505,18312],[-45,-3]],[[32456,18401],[31,0]],[[32487,18401],[14,0]],[[32501,18401],[0,-46]],[[32501,18401],[22,2]],[[32501,18584],[-50,-3]],[[32451,18581],[-4,54]],[[32447,18635],[94,-3]],[[32541,18632],[0,-46]],[[32541,18586],[-40,-2]],[[32541,18675],[0,-43]],[[32447,18635],[0,7]],[[32447,18642],[0,31]],[[32532,18948],[14,50]],[[32546,18998],[72,41]],[[32618,19039],[99,33]],[[32717,19072],[67,-28]],[[32361,18442],[0,45]],[[32361,18487],[45,3]],[[32343,18085],[0,44]],[[32343,18129],[14,7]],[[32357,18136],[9,18]],[[32366,18154],[13,0]],[[32379,18154],[0,-25]],[[32379,18129],[-9,-49]],[[32370,18080],[-27,5]],[[31780,18065],[27,76]],[[31807,18141],[77,69]],[[31884,18210],[58,-53]],[[31942,18157],[0,-56]],[[31942,18101],[-40,-31]],[[31902,18070],[-77,-25]],[[31825,18045],[-45,20]],[[31942,18157],[9,-13],[14,-3],[27,-30]],[[31992,18111],[-50,-10]],[[32046,18185],[-36,-64]],[[32010,18121],[-14,-5]],[[31996,18116],[-4,-5]],[[31884,18210],[13,28]],[[31897,18238],[63,-33],[14,46]],[[31974,18251],[49,-26]],[[32023,18225],[23,-40]],[[31996,18116],[-18,-61]],[[31978,18055],[-76,15]],[[32194,18035],[-45,-94]],[[32149,17941],[-45,-3]],[[32104,17938],[-4,92]],[[32100,18030],[0,35]],[[32100,18065],[0,56]],[[32100,18121],[90,3]],[[32190,18124],[4,-89]],[[31956,18485],[45,-97]],[[32001,18388],[-126,41]],[[31875,18429],[67,74]],[[31942,18503],[14,-18]],[[31875,18335],[-23,25]],[[31852,18360],[23,69]],[[32001,18388],[0,-5]],[[32001,18383],[0,-15]],[[32001,18368],[-54,-51]],[[31947,18317],[-72,18]],[[32289,17874],[-68,-15]],[[32221,17859],[-40,-7]],[[32181,17852],[-77,86]],[[32149,17941],[95,7]],[[32244,17948],[45,-30]],[[32289,17918],[0,-44]],[[31663,18096],[-22,178]],[[31641,18274],[22,-16]],[[31663,18258],[77,-10]],[[31740,18248],[67,-107]],[[31780,18065],[-117,31]],[[32411,18180],[0,-28]],[[32411,18152],[-18,-3]],[[32393,18149],[-14,5]],[[32366,18154],[-9,13]],[[32357,18167],[54,13]],[[32393,18149],[0,-25]],[[32393,18124],[-14,5]],[[32357,18136],[-54,36]],[[32303,18172],[45,-3]],[[32348,18169],[9,-2]],[[32343,18129],[-58,-3]],[[32285,18126],[0,8]],[[32285,18134],[13,38]],[[32298,18172],[5,0]],[[32348,18169],[-5,21]],[[32343,18190],[50,23]],[[32393,18213],[18,0]],[[32411,18213],[0,-33]],[[32298,18172],[-18,0]],[[32280,18172],[0,28]],[[32280,18200],[0,15]],[[32280,18215],[50,-13]],[[32330,18202],[13,-12]],[[32343,18190],[-40,-18]],[[31740,18248],[36,21]],[[31776,18269],[58,20]],[[31834,18289],[63,-51]],[[32068,17775],[-9,-15]],[[32059,17760],[-135,-18]],[[31924,17742],[0,51]],[[31924,17793],[14,53]],[[31938,17846],[67,13]],[[32005,17859],[81,-10]],[[32086,17849],[5,-31]],[[32091,17818],[-23,-43]],[[32095,17574],[14,112]],[[32109,17686],[63,-15]],[[32172,17671],[9,-23]],[[32181,17648],[13,-63],[-18,50],[-27,-58],[-18,0],[-36,-3]],[[32334,17948],[-22,-13]],[[32312,17935],[-23,-17]],[[32244,17948],[41,43]],[[32285,17991],[31,16]],[[32316,18007],[18,-59]],[[32257,18169],[-27,0]],[[32230,18169],[50,31]],[[32280,18172],[-23,-3]],[[31663,18258],[-9,140]],[[31654,18398],[23,18]],[[31677,18416],[13,-5]],[[31690,18411],[32,-46]],[[31722,18365],[-27,-56],[81,-40]],[[32109,17686],[-72,-18]],[[32037,17668],[22,92]],[[32068,17775],[54,-58]],[[32122,17717],[-13,-31]],[[32285,18134],[-28,35]],[[32019,17572],[4,51]],[[32023,17623],[27,-51]],[[32050,17572],[-18,0],[-13,0]],[[32122,17717],[95,-15]],[[32217,17702],[-14,-28]],[[32203,17674],[-31,-3]],[[32393,18124],[4,-11]],[[32397,18113],[5,-22]],[[32402,18091],[-18,-13]],[[32384,18078],[-14,2]],[[32280,18215],[-90,-2]],[[32190,18213],[0,35]],[[32190,18248],[90,-2]],[[32280,18246],[0,-31]],[[32185,18274],[14,28]],[[32199,18302],[31,2]],[[32230,18304],[46,0]],[[32276,18304],[4,-28]],[[32280,18276],[-95,-2]],[[32190,18248],[-5,21]],[[32185,18269],[0,5]],[[32280,18276],[0,-7]],[[32280,18269],[0,-23]],[[32203,17674],[-22,-26]],[[31785,17966],[-90,-41]],[[31695,17925],[-50,0]],[[31645,17925],[-13,102]],[[31632,18027],[40,5],[-9,64]],[[31825,18045],[-40,-79]],[[32181,17852],[-95,-3]],[[32005,17859],[90,66]],[[32095,17925],[9,13]],[[31938,17846],[-14,16],[0,15],[-4,58]],[[31920,17935],[63,77]],[[31983,18012],[72,-23]],[[32055,17989],[40,-64]],[[32091,17818],[171,-76]],[[32262,17742],[-45,-40]],[[32221,17859],[68,-66]],[[32289,17793],[-27,-51]],[[32194,18035],[91,-44]],[[32077,18373],[-13,-33]],[[32064,18340],[-63,28]],[[32001,18383],[13,-3]],[[32014,18380],[63,-7]],[[32289,17874],[77,-2]],[[32366,17872],[-77,-79]],[[32185,18269],[-148,-18]],[[32037,18251],[-5,56],[59,20]],[[32091,18327],[49,-13]],[[32140,18314],[45,3]],[[32185,18317],[14,-15]],[[31722,18365],[130,-5]],[[31875,18335],[-41,-46]],[[32190,18213],[-90,-18]],[[32100,18195],[-54,-10]],[[32023,18225],[14,26]],[[32370,17890],[-58,45]],[[32334,17948],[45,18]],[[32379,17966],[-9,-76]],[[32316,18040],[14,-16]],[[32330,18024],[-14,-17]],[[32190,18124],[63,2]],[[32253,18126],[32,0]],[[32285,18126],[31,-86]],[[31920,17935],[-59,0]],[[31861,17935],[-76,31]],[[31978,18055],[5,-43]],[[31974,18251],[-27,66]],[[32064,18340],[27,18]],[[32091,18358],[0,-31]],[[32370,17890],[-4,-18]],[[32348,18040],[-32,0]],[[32343,18085],[5,-45]],[[32095,17574],[-27,0],[-18,-2]],[[32023,17623],[-18,30]],[[32005,17653],[32,15]],[[32330,18024],[63,3]],[[32393,18027],[-14,-61]],[[32190,18124],[0,23]],[[32190,18147],[63,-21]],[[32230,18169],[-40,0]],[[32190,18169],[0,44]],[[32190,18147],[0,22]],[[32190,18169],[-90,-5]],[[32100,18164],[0,31]],[[32100,18121],[0,43]],[[32055,17989],[45,41]],[[32348,18040],[36,38]],[[32402,18091],[9,2]],[[32411,18093],[-18,-66]],[[32010,18121],[90,-56]],[[32474,18192],[-5,8]],[[32469,18200],[-4,13]],[[32465,18213],[18,7]],[[32483,18220],[9,-18]],[[32492,18202],[-18,-10]],[[32483,18223],[0,-3]],[[32465,18213],[-9,12]],[[32456,18225],[-9,26]],[[32447,18251],[13,7]],[[32460,18258],[23,-35]],[[32465,18261],[-5,-3]],[[32447,18251],[-5,5]],[[32442,18256],[-13,15]],[[32429,18271],[-9,38]],[[32420,18309],[18,0]],[[32460,18309],[0,-23]],[[32460,18286],[5,-25]],[[32438,18218],[-27,-5]],[[32393,18213],[0,15]],[[32393,18228],[0,15]],[[32393,18243],[31,3]],[[32424,18246],[14,-28]],[[32564,18299],[-14,-18]],[[32550,18281],[-27,-10]],[[32523,18271],[-4,41]],[[32568,18314],[-4,-15]],[[32456,18225],[-18,-7]],[[32424,18246],[18,10]],[[32483,18223],[27,13]],[[32510,18236],[0,-3]],[[32510,18233],[13,-28]],[[32523,18205],[-22,-15]],[[32501,18190],[-9,12]],[[32469,18200],[-22,-8]],[[32447,18192],[-9,26]],[[32415,18141],[-4,11]],[[32411,18180],[40,7]],[[32451,18187],[5,-23]],[[32456,18164],[-23,-28]],[[32433,18136],[-18,5]],[[32447,18192],[4,-5]],[[32496,18266],[14,-30]],[[32465,18261],[31,5]],[[32460,18286],[36,-20]],[[32496,18266],[27,5]],[[32550,18281],[5,-25]],[[32555,18256],[-14,-5]],[[32541,18251],[-31,-18]],[[32541,18251],[14,-33]],[[32555,18218],[-32,-13]],[[32555,18256],[9,-8]],[[32564,18248],[18,-28]],[[32582,18220],[-27,-2]],[[32474,18192],[0,-12]],[[32474,18180],[-18,-16]],[[32415,18141],[-9,-17]],[[32406,18124],[-9,-11]],[[32433,18116],[-27,8]],[[32433,18136],[0,-20]],[[32307,18269],[-4,0]],[[32303,18269],[-5,38]],[[32352,18307],[0,-36]],[[32352,18271],[-45,-2]],[[32420,18309],[-27,0]],[[32393,18309],[13,23]],[[32429,18271],[-36,0]],[[32393,18271],[0,38]],[[32357,18241],[-23,0]],[[32334,18241],[-27,28]],[[32352,18271],[5,-30]],[[32564,18299],[18,-8]],[[32582,18291],[9,-22]],[[32591,18269],[-27,-21]],[[32595,18314],[-13,-23]],[[32501,18190],[-27,-10]],[[32393,18228],[-36,13]],[[32352,18271],[41,0]],[[32393,18271],[0,-28]],[[32330,18202],[4,39]],[[32433,18116],[-22,-23]],[[32591,18269],[13,-23]],[[32604,18246],[-22,-26]],[[32370,18307],[23,2]],[[32622,18322],[-18,-76]],[[32280,18269],[23,0]],[[32276,18393],[0,23]],[[32276,18416],[0,8]],[[32276,18424],[40,2]],[[32316,18426],[23,0]],[[32325,18469],[-9,-43]],[[32276,18424],[-5,38]],[[32271,18462],[0,20]],[[32271,18482],[5,3]],[[32276,18485],[49,-16]],[[32325,18469],[5,18]],[[32330,18487],[31,0]],[[32451,18566],[-45,-2]],[[32406,18564],[-49,0]],[[32357,18564],[0,15]],[[32357,18579],[0,15]],[[32357,18594],[0,15]],[[32357,18609],[90,33]],[[32451,18581],[0,-15]],[[32406,18490],[0,74]],[[32451,18566],[0,-23]],[[32451,18543],[0,-51]],[[32361,18487],[-4,77]],[[32487,18447],[0,-46]],[[32456,18459],[27,3]],[[32483,18462],[4,-15]],[[32487,18447],[59,-11]],[[32483,18462],[31,30]],[[32514,18492],[27,3]],[[32451,18492],[63,0]],[[32514,18492],[0,46]],[[32514,18538],[-13,46]],[[32514,18538],[-63,5]],[[32271,18482],[-18,3]],[[32253,18485],[9,7]],[[32262,18492],[14,-7]],[[32181,18393],[0,28]],[[32181,18421],[95,-5]],[[32276,18393],[-46,0]],[[32230,18393],[-49,0]],[[32181,18421],[0,23]],[[32181,18444],[0,8]],[[32181,18452],[90,10]],[[32181,18452],[0,30]],[[32181,18482],[49,3]],[[32230,18485],[23,0]],[[32330,18487],[0,8]],[[32330,18495],[0,46]],[[32330,18541],[-59,12]],[[32271,18553],[-4,23]],[[32267,18576],[90,3]],[[32181,18482],[-5,61]],[[32176,18543],[45,-7]],[[32221,18536],[9,-51]],[[32221,18536],[50,12]],[[32271,18548],[-4,-15]],[[32267,18533],[-5,-41]],[[32176,18543],[0,28]],[[32176,18571],[91,5]],[[32271,18553],[0,-5]],[[32185,18347],[-4,46]],[[32230,18393],[0,-46]],[[32230,18347],[-45,0]],[[32276,18350],[-46,-3]],[[32230,18347],[0,-43]],[[32185,18317],[0,30]],[[32330,18541],[-45,-26]],[[32285,18515],[-18,18]],[[32285,18515],[45,-20]],[[32176,18571],[-45,0]],[[32131,18571],[18,41]],[[32149,18612],[118,-36]],[[32280,18637],[-13,-30]],[[32267,18607],[0,-31]],[[32149,18612],[-22,48]],[[32127,18660],[31,15]],[[32158,18675],[77,0]],[[32235,18675],[32,-7]],[[32267,18668],[13,-31]],[[32122,18569],[-40,0]],[[32082,18569],[-5,0]],[[32077,18569],[-13,58],[63,33]],[[32131,18571],[-9,-2]],[[31942,18503],[-4,20]],[[31938,18523],[40,25]],[[31978,18548],[14,0]],[[31992,18548],[4,-43]],[[31996,18505],[-40,-20]],[[32050,18475],[-4,91]],[[32046,18566],[31,3]],[[32082,18569],[4,-92]],[[32086,18477],[-36,-2]],[[32050,18475],[-4,2]],[[32046,18477],[-50,28]],[[31992,18548],[54,18]],[[32267,18607],[90,-13]],[[32280,18637],[77,-2]],[[32357,18635],[0,-26]],[[32357,18663],[0,-28]],[[32267,18668],[90,2]],[[32357,18670],[0,-7]],[[32357,18663],[27,7]],[[32384,18670],[63,3]],[[32384,18670],[0,92]],[[32384,18762],[63,0]],[[32357,18670],[9,89]],[[32366,18759],[18,3]],[[32235,18675],[9,97]],[[32244,18772],[122,-5]],[[32366,18767],[0,-8]],[[32136,18353],[4,-39]],[[32091,18358],[27,0]],[[32118,18358],[18,-5]],[[32136,18353],[49,-6]],[[32118,18358],[4,33]],[[32122,18391],[59,2]],[[32046,18477],[-32,-97]],[[32086,18477],[5,-58]],[[32091,18419],[-14,-46]],[[32181,18444],[-68,-20]],[[32113,18424],[-22,-5]],[[32086,18477],[50,3]],[[32136,18480],[45,2]],[[32122,18569],[14,-89]],[[32122,18391],[-9,33]],[[32685,19220],[27,17]],[[32712,19237],[176,23]],[[32888,19260],[0,-30]],[[32888,19230],[-18,0]],[[32870,19230],[-167,-41]],[[32703,19189],[-18,31]],[[32420,18866],[-23,-15]],[[32397,18851],[-45,28]],[[32352,18879],[14,145]],[[32366,19024],[54,7]],[[32420,19031],[0,-165]],[[32631,19705],[-13,-84]],[[32618,19621],[-171,-5]],[[32447,19616],[-18,44]],[[32429,19660],[13,119]],[[32442,19779],[203,-8]],[[32645,19771],[-14,-66]],[[31771,18703],[-67,-10]],[[31704,18693],[-77,54]],[[31627,18747],[23,30]],[[31650,18777],[40,28],[81,-102]],[[31992,19138],[0,-20]],[[31992,19118],[-104,-13]],[[31888,19105],[-45,13]],[[31843,19118],[-54,76]],[[31789,19194],[45,28]],[[31834,19222],[72,-30]],[[31906,19192],[77,0]],[[31983,19192],[9,-54]],[[32451,19034],[-36,120]],[[32415,19154],[18,15]],[[32433,19169],[104,-28],[76,79]],[[32613,19220],[9,0]],[[32622,19220],[9,-122]],[[32631,19098],[-45,-31],[32,-28]],[[32546,18998],[-95,36]],[[31843,19118],[-90,15]],[[31753,19133],[-18,59]],[[31735,19192],[54,2]],[[31807,18653],[-40,-3]],[[31767,18650],[-90,0]],[[31677,18650],[0,13]],[[31677,18663],[27,30]],[[31771,18703],[14,23]],[[31785,18726],[58,-28]],[[31843,18698],[-36,-45]],[[32712,19237],[-22,44],[40,61]],[[32730,19342],[122,66]],[[32852,19408],[-27,-31],[58,-51]],[[32883,19326],[5,-66]],[[31888,19014],[-9,0]],[[31879,19014],[9,91]],[[31992,19118],[81,-41]],[[32073,19077],[0,-30]],[[32073,19047],[-185,-33]],[[32303,19029],[-136,-56]],[[32167,18973],[0,46]],[[32167,19019],[0,58]],[[32167,19077],[86,3]],[[32253,19080],[50,-51]],[[32870,19230],[22,-173]],[[32717,19072],[-14,56]],[[32703,19128],[0,61]],[[32167,18973],[0,-132]],[[32167,18841],[-40,-3]],[[32127,18838],[-50,8]],[[32077,18846],[0,43]],[[32077,18889],[-18,38]],[[32059,18927],[14,61]],[[32073,18988],[94,31]],[[32496,19469],[5,-143]],[[32501,19326],[-59,21]],[[32442,19347],[-4,74]],[[32438,19421],[58,48]],[[32852,19418],[0,-10]],[[32730,19342],[-94,86]],[[32636,19428],[-14,43]],[[32622,19471],[45,21]],[[32667,19492],[171,2]],[[32838,19494],[14,-76]],[[32366,18767],[-27,81],[58,3]],[[32420,18866],[36,-13]],[[31830,18795],[-45,-69]],[[31650,18777],[0,46]],[[31650,18823],[90,15]],[[31740,18838],[67,-5]],[[31807,18833],[23,-38]],[[31938,18523],[-68,20],[-4,61]],[[31866,18604],[4,54],[72,10],[0,76]],[[31942,18744],[54,3]],[[31996,18747],[-18,-199]],[[32631,19830],[14,-59]],[[32442,19779],[0,43]],[[32442,19822],[189,8]],[[31920,18920],[-68,-26]],[[31852,18894],[-27,-2]],[[31825,18892],[-22,30]],[[31803,18922],[-5,61]],[[31798,18983],[0,31]],[[31798,19014],[81,0]],[[31888,19014],[18,-46]],[[31906,18968],[14,-48]],[[32280,19148],[-32,-61]],[[32248,19087],[-63,44]],[[32185,19131],[18,61]],[[32203,19192],[77,-44]],[[31830,18795],[67,-51]],[[31897,18744],[-54,-46]],[[32226,18767],[-117,-18]],[[32109,18749],[-14,0]],[[32095,18749],[32,89]],[[32167,18841],[23,-10]],[[32190,18831],[36,-64]],[[32095,18749],[-99,-2]],[[31942,18744],[-31,0]],[[31911,18744],[45,46]],[[31956,18790],[40,46]],[[31996,18836],[9,0],[27,0]],[[32032,18836],[45,10]],[[32829,19586],[-4,0]],[[32825,19586],[-36,28]],[[32789,19614],[-158,91]],[[32645,19771],[117,6],[0,43]],[[32762,19820],[67,-234]],[[32109,18749],[49,-74]],[[32420,19031],[31,3]],[[32442,19822],[-45,-15]],[[32397,19807],[45,46]],[[32442,19853],[194,51]],[[32636,19904],[-5,-74]],[[32303,19029],[63,-5]],[[32352,18879],[-162,-48]],[[31825,18892],[-18,-59]],[[31740,18838],[13,84],[50,0]],[[32888,19230],[22,-181]],[[31897,18744],[14,0]],[[31866,18604],[-59,49]],[[32532,19291],[81,-71]],[[32433,19169],[-22,58]],[[32411,19227],[49,16],[-18,104]],[[32501,19326],[-27,-22],[58,-13]],[[32631,19098],[72,30]],[[32244,18772],[-18,-5]],[[32667,19532],[-49,46]],[[32618,19578],[171,36]],[[32825,19586],[-5,-46],[-153,-8]],[[31798,19014],[-31,58]],[[31767,19072],[-45,46]],[[31722,19118],[31,15]],[[32014,18970],[-63,0]],[[31951,18970],[-45,-2]],[[32073,19047],[0,-59]],[[32073,18988],[-59,-18]],[[31704,18981],[0,33]],[[31704,19014],[63,58]],[[31798,18983],[-94,-2]],[[32253,19080],[-5,7]],[[32280,19148],[23,3]],[[32303,19151],[45,15]],[[32348,19166],[67,-12]],[[32073,19077],[85,28]],[[32158,19105],[9,-28]],[[32158,19105],[27,26]],[[32667,19492],[0,40]],[[32829,19586],[9,-92]],[[32622,19220],[63,0]],[[32442,19853],[-22,43]],[[32420,19896],[135,76],[130,-48]],[[32685,19924],[-49,-20]],[[32685,19924],[77,-104]],[[32852,19418],[31,-92]],[[32618,19578],[0,43]],[[32532,19291],[104,137]],[[32496,19469],[14,30]],[[32510,19499],[112,-28]],[[31852,18894],[63,-30]],[[31915,18864],[41,-74]],[[32510,19499],[-32,28],[50,49],[-95,10]],[[32433,19586],[14,30]],[[32028,18881],[-5,0]],[[32023,18881],[-72,-12]],[[31951,18869],[0,25]],[[31951,18894],[18,20]],[[31969,18914],[23,-2]],[[31992,18912],[36,-15]],[[32028,18897],[0,-16]],[[31951,18894],[-31,26]],[[31951,18970],[18,-56]],[[32014,18970],[-22,-58]],[[32059,18927],[-31,-30]],[[31915,18864],[36,5]],[[32023,18881],[0,-15]],[[32023,18866],[-27,-30]],[[32077,18889],[-49,-8]],[[32032,18836],[-9,30]],[[31888,19268],[-54,-46]],[[31735,19192],[-81,2],[41,46]],[[31695,19240],[67,33]],[[31762,19273],[27,41]],[[31789,19314],[5,18]],[[31794,19332],[40,81]],[[31834,19413],[54,0]],[[31888,19413],[14,-43]],[[31902,19370],[45,-74]],[[31947,19296],[-59,-28]],[[31762,19273],[-13,8]],[[31749,19281],[31,56]],[[31780,19337],[9,-11]],[[31789,19326],[0,-12]],[[31749,19281],[-68,61]],[[31681,19342],[23,28]],[[31704,19370],[76,-33]],[[31794,19332],[-5,-6]],[[31704,19370],[18,45]],[[31722,19415],[112,-2]],[[31695,19240],[-81,-3]],[[31614,19237],[0,82]],[[31614,19319],[67,23]],[[31708,20069],[32,-51],[-126,-30]],[[31614,19988],[-95,2]],[[31519,19990],[-45,59],[31,35]],[[31505,20084],[140,51]],[[31645,20135],[63,-66]],[[31708,19540],[0,-81]],[[31708,19459],[-76,30]],[[31632,19489],[31,117]],[[31663,19606],[27,-2]],[[31690,19604],[18,-64]],[[31451,19713],[-13,-5]],[[31438,19708],[-32,-10]],[[31406,19698],[-135,15]],[[31271,19713],[-31,46],[0,74],[31,-16]],[[31271,19817],[95,0],[-9,59],[166,-31]],[[31523,19845],[-4,-74]],[[31519,19771],[-68,-58]],[[31708,19815],[-58,-31]],[[31650,19784],[-95,31],[59,73]],[[31614,19888],[58,-2]],[[31672,19886],[36,-71]],[[31456,19085],[0,48]],[[31456,19133],[0,36]],[[31456,19169],[126,-41]],[[31582,19128],[-77,-33]],[[31505,19095],[-31,-10]],[[31474,19085],[-18,0]],[[31424,19400],[-45,-58],[32,-150]],[[31411,19192],[-95,30]],[[31316,19222],[0,15]],[[31316,19237],[72,209]],[[31388,19446],[45,-3],[-9,-43]],[[31704,19014],[-45,-3]],[[31659,19011],[-136,59]],[[31523,19070],[-18,25]],[[31582,19128],[140,-10]],[[31271,19713],[-45,-89]],[[31226,19624],[-18,0]],[[31208,19624],[-126,15]],[[31082,19639],[50,148]],[[31132,19787],[63,104]],[[31195,19891],[76,-74]],[[31406,19698],[-40,-163]],[[31366,19535],[-95,23]],[[31271,19558],[-45,66]],[[31830,20781],[0,-89]],[[31830,20692],[-158,-30]],[[31672,20662],[-31,89]],[[31641,20751],[0,63]],[[31641,20814],[94,-2]],[[31735,20812],[95,-31]],[[31442,19698],[-4,10]],[[31451,19713],[-9,-15]],[[31830,20603],[-158,-20],[0,79]],[[31830,20692],[0,-89]],[[31082,19639],[0,-30]],[[31082,19609],[-81,28]],[[31001,19637],[-13,150],[40,43]],[[31028,19830],[104,-43]],[[31614,19319],[-37,81],[-58,0]],[[31519,19400],[-18,15]],[[31501,19415],[113,23],[-14,51]],[[31600,19489],[32,0]],[[31708,19459],[14,-44]],[[31519,19990],[4,-145]],[[31195,19891],[63,31],[-32,53],[41,71],[-45,23]],[[31222,20069],[49,0],[-4,89]],[[31267,20158],[90,0]],[[31357,20158],[99,38]],[[31456,20196],[4,-104],[45,-8]],[[31028,19830],[-9,61],[-90,5]],[[30929,19896],[108,173]],[[31037,20069],[45,0]],[[31082,20069],[140,0]],[[31537,19230],[-18,170]],[[31614,19237],[-77,-7]],[[31465,19639],[-23,59]],[[31519,19771],[0,-89]],[[31519,19682],[-14,-76],[-40,33]],[[31267,20247],[-77,-36],[36,-2],[-31,-51]],[[31195,20158],[-113,28]],[[31082,20186],[0,23]],[[31082,20209],[-4,79]],[[31078,20288],[49,63],[140,-15],[0,-89]],[[31690,19604],[104,2]],[[31794,19606],[9,-15]],[[31803,19591],[-14,-59],[-81,8]],[[31001,19637],[-104,-26]],[[30897,19611],[32,71],[-50,31]],[[30879,19713],[18,140],[-36,5]],[[30861,19858],[23,20]],[[30884,19878],[45,18]],[[31663,19606],[-49,74]],[[31614,19680],[18,30]],[[31632,19710],[148,-58]],[[31780,19652],[14,-46]],[[31834,20336],[-63,-89]],[[31771,20247],[-76,-61]],[[31695,20186],[9,76]],[[31704,20262],[36,49],[-59,91],[59,23]],[[31740,20425],[0,-84],[94,15]],[[31834,20356],[0,-20]],[[31550,20504],[-31,-79]],[[31519,20425],[-63,0]],[[31456,20425],[0,92]],[[31456,20517],[58,-3],[36,89]],[[31550,20603],[77,-33],[-72,-10],[-5,-56]],[[31537,19230],[-81,-43]],[[31456,19187],[-14,221]],[[31442,19408],[59,7]],[[31442,19408],[-18,-8]],[[31388,19446],[-54,0]],[[31334,19446],[32,74]],[[31366,19520],[130,28]],[[31496,19548],[104,-59]],[[31496,19548],[-31,91]],[[31519,19682],[95,-2]],[[31550,20603],[-4,148],[95,0]],[[31830,20603],[0,-3]],[[31830,20600],[4,-117],[-85,-17]],[[31749,20466],[-104,-26],[0,74],[-95,-10]],[[31659,19011],[-45,-15]],[[31614,18996],[-91,58]],[[31523,19054],[0,16]],[[31632,19710],[18,74]],[[31708,19815],[117,5]],[[31825,19820],[-45,-168]],[[31298,20247],[63,-31],[-4,-58]],[[31267,20158],[-72,0]],[[31267,20247],[31,0]],[[31614,19988],[0,-100]],[[31078,20288],[0,51]],[[31078,20339],[4,89]],[[31082,20428],[0,45]],[[31082,20473],[374,56]],[[31456,20529],[0,-12]],[[31456,20425],[-95,3],[0,-181],[-63,0]],[[31082,20069],[0,117]],[[31704,20262],[-122,43],[18,120],[-81,0]],[[31749,20466],[27,-41],[-36,0]],[[31456,19169],[0,7]],[[31456,19176],[0,11]],[[31456,20425],[0,-229]],[[31366,19520],[0,15]],[[31672,19886],[90,51]],[[31762,19937],[135,-5]],[[31897,19932],[45,-38]],[[31942,19894],[-67,7],[-50,-81]],[[31708,20069],[68,0]],[[31776,20069],[27,-56]],[[31803,20013],[-41,-76]],[[31695,20186],[18,-36],[-68,-15]],[[31456,19176],[-45,16]],[[32163,19474],[13,-59]],[[32176,19415],[-171,74]],[[32005,19489],[54,59]],[[32059,19548],[104,-74]],[[31897,19932],[45,28]],[[31942,19960],[0,30]],[[31942,19990],[131,46]],[[32073,20036],[9,-15]],[[32082,20021],[-9,-66],[-131,-61]],[[32082,20562],[-158,-25]],[[31924,20537],[5,41]],[[31929,20578],[90,114],[85,3]],[[32104,20695],[9,-54]],[[32113,20641],[-31,-79]],[[31803,19591],[63,-56]],[[31866,19535],[-9,-31]],[[31857,19504],[-23,-91]],[[31857,19504],[90,-40]],[[31947,19464],[-59,-51]],[[32267,19787],[54,-44],[-77,-76]],[[32244,19667],[-63,0]],[[32181,19667],[86,120]],[[32294,20697],[-23,0]],[[32271,20697],[-63,41]],[[32208,20738],[9,46]],[[32217,20784],[59,0]],[[32276,20784],[18,-87]],[[31888,19268],[18,-76]],[[32348,19337],[-32,-39]],[[32316,19298],[-122,-17]],[[32194,19281],[-94,89]],[[32100,19370],[76,45]],[[32163,19474],[117,10]],[[32280,19484],[36,-97]],[[32316,19387],[32,-50]],[[32397,19807],[-45,-2]],[[32352,19805],[-81,12]],[[32271,19817],[149,79]],[[32438,19421],[-95,28],[-27,-62]],[[32280,19484],[0,20]],[[32280,19504],[72,64]],[[32352,19568],[81,18]],[[32348,19166],[0,105]],[[32348,19271],[63,-44]],[[31830,20781],[99,3]],[[31929,20784],[180,-26]],[[32109,20758],[-5,-63]],[[31929,20578],[-99,22]],[[32442,19347],[-94,-10]],[[32131,20186],[-76,64]],[[32055,20250],[-18,61]],[[32037,20311],[85,58],[145,-79]],[[32267,20290],[-86,-124],[-50,20]],[[32429,19660],[-86,-3]],[[32343,19657],[9,148]],[[31978,19482],[0,-23]],[[31978,19459],[-31,5]],[[31866,19535],[112,-53]],[[32100,19370],[-27,-16]],[[32073,19354],[-95,105]],[[31978,19482],[27,7]],[[31978,19296],[5,-104]],[[31947,19296],[31,0]],[[32280,19504],[-32,61]],[[32248,19565],[28,31]],[[32276,19596],[76,-28]],[[31929,20372],[-27,56]],[[31902,20428],[-27,83],[49,26]],[[32082,20562],[54,-15]],[[32136,20547],[-113,-119]],[[32023,20428],[-40,0],[67,-51],[-58,-8]],[[31992,20369],[-63,3]],[[32235,20428],[32,81]],[[32267,20509],[13,8]],[[32280,20517],[-4,-89]],[[32276,20428],[-41,0]],[[32005,20339],[-45,0],[-31,-115]],[[31929,20224],[-95,-35]],[[31834,20189],[-63,58]],[[31834,20336],[95,36]],[[31992,20369],[13,-30]],[[32267,20509],[-95,8],[4,58]],[[32176,20575],[95,122]],[[32294,20697],[-14,-180]],[[32303,19255],[13,43]],[[32348,19271],[-45,-16]],[[32113,20641],[95,97]],[[32176,20575],[-40,-28]],[[31834,20356],[68,72]],[[32303,19255],[0,-104]],[[32203,19192],[-22,30]],[[32181,19222],[13,59]],[[32235,20428],[-212,0]],[[31992,19138],[76,84],[113,0]],[[31978,19459],[0,-89],[-76,0]],[[31956,20135],[36,51],[-63,38]],[[32005,20339],[32,-28]],[[32055,20250],[-63,-89],[27,-77]],[[32019,20084],[-63,51]],[[31803,20013],[139,-53]],[[32276,20428],[-9,-138]],[[32276,19596],[-14,58]],[[32262,19654],[81,3]],[[32262,19654],[-18,13]],[[32267,19787],[-59,28],[63,2]],[[31834,20189],[-9,-120]],[[31825,20069],[-49,0]],[[32073,19354],[-95,-58]],[[32248,19565],[-121,41]],[[32127,19606],[54,61]],[[32109,20758],[-32,28],[36,0]],[[32113,20786],[104,-2]],[[32073,20036],[-54,48]],[[32131,20186],[-49,-165]],[[31942,19990],[-49,79]],[[31893,20069],[63,66]],[[31825,20069],[68,0]],[[32059,19548],[68,58]],[[31316,19222],[-139,-46]],[[31177,19176],[-27,61]],[[31150,19237],[27,117]],[[31177,19354],[63,0]],[[31240,19354],[0,-63],[76,-54]],[[31343,18998],[-67,0]],[[31276,18998],[0,89]],[[31276,19087],[180,46]],[[31456,19085],[-95,-87]],[[31361,18998],[-18,0]],[[31474,19085],[0,-76],[-113,-11]],[[31366,18670],[-41,16]],[[31325,18686],[50,58]],[[31375,18744],[58,-5],[-4,-53]],[[31429,18686],[-63,-16]],[[30861,18909],[-31,-30]],[[30830,18879],[-68,-15]],[[30762,18864],[-99,89]],[[30663,18953],[9,40]],[[30672,18993],[158,8]],[[30830,19001],[4,-8]],[[30834,18993],[27,-84]],[[31015,19029],[0,15]],[[31015,19044],[0,74]],[[31015,19118],[81,8]],[[31096,19126],[45,-8]],[[31141,19118],[-50,-51],[63,-33]],[[31154,19034],[-18,-36]],[[31136,18998],[-121,31]],[[31001,18360],[-18,59]],[[30983,18419],[27,132]],[[31010,18551],[50,30]],[[31060,18581],[90,-35]],[[31150,18546],[-27,-51],[67,-18]],[[31190,18477],[-54,-193]],[[31136,18284],[-13,-10]],[[31123,18274],[-32,84],[-90,2]],[[31199,18551],[27,-13]],[[31226,18538],[-27,-23]],[[31199,18515],[0,36]],[[30753,18686],[-31,15]],[[30722,18701],[0,43]],[[30722,18744],[27,15]],[[30749,18759],[63,-23]],[[30812,18736],[4,-58],[-63,8]],[[31650,18823],[0,69],[76,30],[-49,43],[27,16]],[[31087,19192],[9,-66]],[[31015,19118],[-14,20]],[[31001,19138],[23,54]],[[31024,19192],[18,7]],[[31042,19199],[45,-7]],[[31573,18406],[-59,-51]],[[31514,18355],[-31,23]],[[31483,18378],[13,104]],[[31496,18482],[45,-15]],[[31541,18467],[55,-15],[-23,-46]],[[31231,18696],[-18,5]],[[31213,18701],[-27,58]],[[31186,18759],[157,8]],[[31343,18767],[32,-23]],[[31325,18686],[-94,10]],[[31199,18477],[0,38]],[[31226,18538],[27,13]],[[31253,18551],[23,-43]],[[31276,18508],[13,-31]],[[31289,18477],[-4,-13]],[[31285,18464],[-86,13]],[[31109,18686],[59,89]],[[31168,18775],[18,0]],[[31186,18775],[0,-16]],[[31213,18701],[-104,-15]],[[31361,18581],[-18,13]],[[31343,18594],[5,38]],[[31348,18632],[18,38]],[[31429,18686],[31,-16]],[[31460,18670],[-49,-66]],[[31411,18604],[-27,-23]],[[31384,18581],[-14,0]],[[31370,18581],[14,13],[-9,5],[-14,-2],[0,-5],[0,-11]],[[31370,18581],[-9,0]],[[31190,18477],[9,0]],[[31285,18464],[36,-91]],[[31321,18373],[-63,-97]],[[31258,18276],[-122,8]],[[30992,19357],[-13,-61],[54,-20],[-41,-54]],[[30992,19222],[-122,46]],[[30870,19268],[27,89]],[[30897,19357],[95,0]],[[31393,18925],[-50,73]],[[31523,19054],[0,-89]],[[31523,18965],[-31,-45]],[[31492,18920],[-99,5]],[[31150,19237],[-18,0]],[[31132,19237],[-18,117]],[[31114,19354],[63,0]],[[31015,18986],[-14,-16]],[[31001,18970],[-95,-15]],[[30906,18955],[23,46],[-95,-8]],[[30830,19001],[31,66]],[[30861,19067],[154,-23]],[[31015,19029],[0,-43]],[[31168,18775],[-45,15]],[[31123,18790],[-32,56],[63,122]],[[31154,18968],[-18,30]],[[31136,18998],[68,0]],[[31204,18998],[-18,-223]],[[31767,18650],[-18,-183],[-59,-56]],[[31677,18416],[-45,26],[18,195]],[[31650,18637],[27,13]],[[31231,18630],[-32,-79]],[[31199,18551],[-49,-5]],[[31060,18581],[0,92]],[[31060,18673],[49,13]],[[31231,18696],[0,-66]],[[30672,18993],[-27,36],[36,51]],[[30681,19080],[9,0]],[[30690,19080],[72,102]],[[30762,19182],[54,-34]],[[30816,19148],[-13,-22]],[[30803,19126],[58,-59]],[[31460,18670],[36,-7]],[[31496,18663],[-4,-16]],[[31492,18647],[-32,-40]],[[31460,18607],[-49,-3]],[[31614,18996],[-91,-31]],[[31366,18538],[-5,-56],[-72,-5]],[[31276,18508],[90,30]],[[31091,18948],[-76,38]],[[31154,18968],[-63,-20]],[[30875,18759],[-45,120]],[[30861,18909],[45,46]],[[31001,18970],[0,-99]],[[31001,18871],[-31,-81]],[[30970,18790],[-64,-43]],[[30906,18747],[-31,12]],[[31231,19087],[-77,46]],[[31154,19133],[23,43]],[[31276,19087],[-45,0]],[[31343,18767],[72,38]],[[31415,18805],[113,5]],[[31528,18810],[0,-74]],[[31528,18736],[-32,-73]],[[30830,18612],[-59,0],[-18,74]],[[30812,18736],[63,23]],[[30906,18747],[64,-61]],[[30970,18686],[-32,-74]],[[30938,18612],[-32,-10]],[[30906,18602],[-76,10]],[[30839,19357],[-63,-89],[63,-18]],[[30839,19250],[-81,-28]],[[30758,19222],[-45,46]],[[30713,19268],[-63,66],[31,10]],[[30681,19344],[50,13],[-5,89]],[[30726,19446],[50,0]],[[30776,19446],[63,-89]],[[31001,18871],[54,21]],[[31055,18892],[0,-102]],[[31055,18790],[-85,0]],[[31483,18378],[-144,-33]],[[31339,18345],[-18,28]],[[31366,18538],[0,13]],[[31366,18551],[18,0]],[[31384,18551],[76,-13]],[[31460,18538],[36,-56]],[[31231,19087],[-77,-53]],[[31141,19118],[13,15]],[[31677,18663],[-104,81]],[[31573,18744],[54,3]],[[30992,19438],[-31,79]],[[30961,19517],[121,76]],[[31082,19593],[81,-30],[45,61]],[[31271,19558],[0,-94],[-238,-64]],[[31033,19400],[-41,38]],[[31091,18948],[-36,-56]],[[31010,18551],[-49,46]],[[30961,18597],[54,0],[31,91]],[[31046,18688],[14,-15]],[[31460,18607],[0,-69]],[[31384,18551],[0,30]],[[31415,18805],[-22,120]],[[31492,18920],[63,-72],[-27,-38]],[[31573,18744],[-45,-8]],[[31276,18998],[-72,0]],[[31650,18637],[-50,-38]],[[31600,18599],[-108,48]],[[31123,18790],[-68,0]],[[31046,18688],[-76,-2]],[[31132,19237],[-45,-45]],[[31042,19199],[45,54],[-45,28],[45,0],[-32,73]],[[31055,19354],[59,0]],[[31082,19593],[0,16]],[[31240,19354],[94,92]],[[30749,18759],[13,105]],[[31055,19354],[-18,0]],[[31037,19354],[-4,46]],[[30803,19126],[103,7]],[[30906,19133],[95,5]],[[30816,19148],[90,-15]],[[30870,19268],[-31,-18]],[[30839,19357],[58,0]],[[30762,19182],[-4,12]],[[30758,19194],[0,28]],[[30992,19222],[32,-30]],[[30961,18597],[-23,15]],[[30992,19357],[45,-3]],[[31541,18467],[59,132]],[[31654,18398],[-81,8]],[[30897,19586],[0,20]],[[30897,19606],[0,5]],[[30961,19517],[-64,69]],[[30906,18553],[-85,-45]],[[30821,18508],[-5,73]],[[30816,18581],[14,31]],[[30906,18602],[0,-49]],[[31307,18612],[-9,18]],[[31298,18630],[-67,0]],[[31348,18632],[-32,-20]],[[31316,18612],[-9,0]],[[31366,18551],[-77,41]],[[31289,18592],[23,0]],[[31312,18592],[4,2]],[[31316,18594],[27,0]],[[31253,18551],[36,41]],[[31316,18594],[0,18]],[[31307,18612],[5,-20]],[[31289,18592],[9,38]],[[30519,18154],[32,-53]],[[30551,18101],[-45,2]],[[30506,18103],[0,38]],[[30506,18141],[13,13]],[[30551,18050],[18,-23]],[[30569,18027],[-63,-15]],[[30506,18012],[-5,91]],[[30501,18103],[5,0]],[[30551,18101],[0,-51]],[[30492,18167],[-31,25]],[[30461,18192],[54,46]],[[30515,18238],[36,28]],[[30551,18266],[31,-74]],[[30582,18192],[-63,-30]],[[30519,18162],[-27,5]],[[30497,18147],[-36,-18]],[[30461,18129],[0,63]],[[30492,18167],[5,-20]],[[30506,18141],[-9,6]],[[30519,18162],[0,-8]],[[30465,18103],[-4,26]],[[30501,18103],[-36,0]],[[30465,18103],[-4,-61]],[[30461,18042],[-72,-7]],[[30389,18035],[-18,157]],[[30371,18192],[-14,71]],[[30357,18263],[72,3]],[[30429,18266],[86,-28]],[[30344,18284],[-95,-3]],[[30249,18281],[-45,0]],[[30204,18281],[-27,44]],[[30177,18325],[0,45]],[[30177,18370],[-5,120]],[[30172,18490],[109,15]],[[30281,18505],[153,-74]],[[30434,18431],[-90,-147]],[[30731,17925],[27,66]],[[30758,17991],[67,23]],[[30825,18014],[36,-68]],[[30861,17946],[-31,-21]],[[30830,17925],[-95,-15]],[[30735,17910],[-4,15]],[[30735,18213],[-4,-51]],[[30731,18162],[-27,-21]],[[30704,18141],[-45,54]],[[30659,18195],[4,58]],[[30663,18253],[63,28]],[[30726,18281],[9,-68]],[[30177,18131],[-90,-7]],[[30087,18124],[-77,-8]],[[30010,18116],[14,66]],[[30024,18182],[63,54]],[[30087,18236],[90,-51]],[[30177,18185],[27,-11]],[[30204,18174],[22,-35],[-49,-8]],[[30807,18068],[18,104]],[[30825,18172],[77,112]],[[30902,18284],[59,-61]],[[30961,18223],[-27,-84]],[[30934,18139],[-109,-94]],[[30825,18045],[-18,23]],[[30807,18068],[-45,35]],[[30762,18103],[-45,8],[14,51]],[[30735,18213],[90,-41]],[[30726,18281],[0,23]],[[30726,18304],[36,31]],[[30762,18335],[23,0]],[[30785,18335],[0,-51],[117,0]],[[31001,18360],[-13,-114]],[[30988,18246],[-27,-23]],[[30785,18335],[31,38]],[[30816,18373],[122,30]],[[30938,18403],[45,16]],[[30042,17938],[-36,-13]],[[30006,17925],[-90,0]],[[29916,17925],[-45,-12]],[[29871,17913],[-59,66]],[[29812,17979],[50,63]],[[29862,18042],[85,-30]],[[29947,18012],[77,-51]],[[30024,17961],[18,-23]],[[30506,18012],[-18,0]],[[30488,18012],[-27,30]],[[30226,18177],[-22,-3]],[[30177,18185],[-18,66],[45,30]],[[30249,18281],[-23,-104]],[[30771,17605],[-36,163]],[[30735,17768],[18,23]],[[30753,17791],[90,45]],[[30843,17836],[14,0]],[[30857,17836],[4,-162],[91,-69]],[[30952,17605],[-55,0],[-85,0],[-41,0]],[[30825,18014],[5,16]],[[30830,18030],[90,20]],[[30920,18050],[14,-5]],[[30934,18045],[-14,-120]],[[30920,17925],[-59,21]],[[30771,17605],[-31,0]],[[30740,17605],[-95,158]],[[30645,17763],[27,12]],[[30672,17775],[63,-7]],[[30299,17668],[-18,-12]],[[30281,17656],[-14,-16]],[[30267,17640],[-167,95]],[[30100,17735],[-13,0]],[[30087,17735],[121,129]],[[30208,17864],[27,0]],[[30235,17864],[32,-28]],[[30267,17836],[-27,-104],[59,-64]],[[30524,17745],[31,71]],[[30555,17816],[90,-10]],[[30645,17806],[27,-31]],[[30645,17763],[-85,12],[27,-58],[-41,-15]],[[30546,17702],[-22,43]],[[30830,18030],[-5,15]],[[30934,18139],[31,-33],[-45,-56]],[[30713,18030],[-68,58]],[[30645,18088],[-13,15]],[[30632,18103],[72,38]],[[30762,18103],[-27,-73]],[[30735,18030],[-22,0]],[[30857,17836],[95,69]],[[30952,17905],[31,-18]],[[30983,17887],[41,-35],[-5,-178]],[[31019,17674],[-58,-31],[49,-38]],[[31010,17605],[-58,0]],[[29983,18101],[-36,-89]],[[29862,18042],[49,79]],[[29911,18121],[72,-20]],[[30645,17806],[27,43]],[[30672,17849],[63,53]],[[30735,17902],[18,-111]],[[30546,17702],[-31,-21]],[[30515,17681],[-144,10]],[[30371,17691],[0,38]],[[30371,17729],[153,16]],[[29943,18192],[81,-10]],[[30010,18116],[0,-15]],[[30010,18101],[-27,0]],[[29911,18121],[32,71]],[[30208,17864],[-18,59],[-117,7]],[[30073,17930],[-18,64],[59,18]],[[30114,18012],[76,7]],[[30190,18019],[86,-7]],[[30276,18012],[18,-46],[-45,-43],[32,0]],[[30281,17923],[-46,-59]],[[30726,18304],[-139,-13]],[[30587,18291],[-23,153]],[[30564,18444],[-4,18]],[[30560,18462],[40,0]],[[30600,18462],[59,-54],[67,31],[0,-51]],[[30726,18388],[36,-53]],[[30010,17755],[0,79]],[[30010,17834],[-4,91]],[[30042,17938],[31,-8]],[[30087,17735],[-77,20]],[[30645,18088],[-94,-38]],[[30582,18192],[36,0]],[[30618,18192],[-31,-63],[45,-26]],[[30726,18388],[90,-15]],[[30758,17991],[-23,39]],[[30659,17925],[31,82]],[[30690,18007],[23,23]],[[30731,17925],[-72,-15]],[[30659,17910],[0,15]],[[30618,18192],[41,3]],[[30344,18284],[13,-21]],[[30371,18192],[-54,-30]],[[30317,18162],[-91,15]],[[30087,18236],[0,81]],[[30087,18317],[90,8]],[[30024,17961],[-14,140]],[[30087,18124],[27,-112]],[[30600,18462],[50,46],[-41,76],[77,-33],[0,58]],[[30686,18609],[130,-28]],[[30821,18508],[-5,-135]],[[30663,18253],[-72,31]],[[30591,18284],[-4,7]],[[30299,17668],[27,26],[-27,119]],[[30299,17813],[72,-7]],[[30371,17806],[0,-77]],[[30371,17691],[-45,-45]],[[30326,17646],[-45,10]],[[30177,18131],[13,-112]],[[30276,18012],[41,46]],[[30317,18058],[54,-46]],[[30371,18012],[-9,-46]],[[30362,17966],[-81,-43]],[[30672,17849],[-13,61]],[[30735,17910],[0,-8]],[[30299,17813],[-32,23]],[[30362,17966],[85,-43]],[[30447,17923],[-76,-117]],[[30988,18246],[94,-18]],[[31082,18228],[18,-137]],[[31100,18091],[-90,-77]],[[31010,18014],[-76,31]],[[30452,18358],[-14,73]],[[30438,18431],[9,31]],[[30447,18462],[81,-59]],[[30528,18403],[-76,-45]],[[30389,18035],[-18,-23]],[[30317,18058],[0,104]],[[30555,17816],[-31,15],[63,49],[-18,45]],[[30569,17925],[90,0]],[[30906,18553],[32,-150]],[[31123,18238],[-41,-10]],[[31123,18274],[0,-36]],[[30452,18358],[-23,-92]],[[30434,18431],[4,0]],[[30528,18403],[36,41]],[[30591,18284],[-40,-18]],[[30983,17887],[68,38]],[[31051,17925],[49,0]],[[31100,17925],[0,-89]],[[31100,17836],[41,-81]],[[31141,17755],[-54,-81]],[[31087,17674],[-68,0]],[[29871,17913],[22,-61]],[[29893,17852],[-63,0]],[[29830,17852],[-54,50]],[[29776,17902],[36,77]],[[30488,18012],[4,-89]],[[30492,17923],[-45,0]],[[30690,18007],[-121,20]],[[30830,17925],[13,-89]],[[29997,18375],[58,-5]],[[30055,18370],[32,-53]],[[29943,18192],[54,183]],[[30740,17605],[-198,0]],[[30542,17605],[-27,76]],[[30952,17905],[-32,20]],[[31010,18014],[41,-89]],[[30492,17923],[77,2]],[[30321,17605],[5,41]],[[30542,17605],[-86,0],[-58,0],[-77,0]],[[29830,17763],[-54,-16]],[[29776,17747],[0,77]],[[29776,17824],[54,28]],[[29830,17852],[0,-89]],[[30010,17755],[-49,18]],[[29961,17773],[-23,35]],[[29938,17808],[72,26]],[[29893,17852],[27,-26]],[[29920,17826],[18,-18]],[[29961,17773],[-41,-26]],[[29920,17747],[-90,16]],[[29776,17747],[-4,-2]],[[29772,17745],[-63,2]],[[29709,17747],[36,79]],[[29745,17826],[31,-2]],[[29920,17747],[18,-104],[-58,-38]],[[29880,17605],[-41,0]],[[29839,17605],[-9,104],[-58,3]],[[29772,17712],[0,12]],[[29772,17724],[0,21]],[[29920,17826],[-4,99]],[[30267,17640],[0,-35]],[[30267,17605],[-131,0],[-36,0]],[[30100,17605],[0,130]],[[29839,17605],[-121,0]],[[29718,17605],[63,41],[-9,66]],[[29682,17712],[-27,-26]],[[29655,17686],[4,13]],[[29659,17699],[18,15]],[[29677,17714],[5,-2]],[[29664,17605],[-41,0],[-81,0],[95,69]],[[29637,17674],[13,-28]],[[29650,17646],[14,-41]],[[30100,17605],[-85,0],[-41,0],[-94,0]],[[29772,17724],[-90,-12]],[[29677,17714],[32,33]],[[29745,17826],[31,76]],[[29650,17646],[5,40]],[[29718,17605],[-32,0],[-22,0]],[[29637,17674],[22,25]],[[30321,17605],[-49,0],[-5,0]],[[31339,18035],[-14,56]],[[31325,18091],[-4,142]],[[31321,18233],[153,-15]],[[31474,18218],[18,25]],[[31492,18243],[18,-63]],[[31510,18180],[72,-163]],[[31582,18017],[-86,-31]],[[31496,17986],[-103,-2]],[[31393,17984],[-54,51]],[[31375,18111],[54,-87],[58,51],[14,33],[-18,5]],[[31483,18113],[-54,49],[-54,-51]],[[31483,18113],[-41,-5],[-27,-2],[-40,5]],[[31546,17874],[-54,-81]],[[31492,17793],[-32,13]],[[31460,17806],[0,30]],[[31460,17836],[14,66],[54,0]],[[31528,17902],[18,-28]],[[31821,17757],[-72,-20],[36,-28],[-41,-38]],[[31744,17671],[-45,-25]],[[31699,17646],[-49,38]],[[31650,17684],[-45,20],[45,51],[-73,23]],[[31577,17778],[0,30]],[[31577,17808],[73,28]],[[31650,17836],[67,0]],[[31717,17836],[68,-38]],[[31785,17798],[36,-41]],[[31123,18238],[76,-43]],[[31199,18195],[63,-23],[-45,-3],[23,-78]],[[31240,18091],[-54,12],[45,-43],[-41,0]],[[31190,18060],[-90,31]],[[31163,17763],[-22,-8]],[[31100,17836],[77,0]],[[31177,17836],[22,-45]],[[31199,17791],[-36,-28]],[[31884,17602],[0,-35]],[[31884,17567],[-45,-3],[-32,-2]],[[31807,17562],[-36,106]],[[31771,17668],[77,87]],[[31848,17755],[76,-59]],[[31924,17696],[0,-12]],[[31924,17684],[-72,-16],[32,-66]],[[31924,17793],[-76,-23]],[[31848,17770],[-27,-13]],[[31785,17798],[126,122],[-50,0]],[[31861,17920],[0,15]],[[31528,17902],[-27,39]],[[31501,17941],[-5,45]],[[31582,18017],[50,10]],[[31645,17925],[-4,-5]],[[31641,17920],[-91,-53]],[[31550,17867],[-4,7]],[[31343,17582],[14,-36]],[[31357,17546],[-14,0],[-121,-2],[-41,-3],[-36,0]],[[31145,17541],[-22,89]],[[31123,17630],[112,-2]],[[31235,17628],[50,-38]],[[31285,17590],[58,-8]],[[31460,17836],[-22,0]],[[31438,17836],[-5,117]],[[31433,17953],[68,-12]],[[31433,17953],[-27,-5]],[[31406,17948],[-13,36]],[[31564,17643],[-59,135]],[[31505,17778],[72,0]],[[31650,17684],[-45,-23]],[[31605,17661],[-41,-18]],[[31708,17910],[-13,15]],[[31861,17920],[-153,-10]],[[31190,17989],[0,71]],[[31240,18091],[18,-16]],[[31258,18075],[40,-53]],[[31298,18022],[-18,-38]],[[31280,17984],[-90,5]],[[31924,17742],[0,-46]],[[31848,17755],[0,15]],[[31510,18180],[72,5],[32,96]],[[31614,18281],[27,-7]],[[31204,17923],[-14,0]],[[31190,17923],[0,66]],[[31280,17984],[63,-59]],[[31343,17925],[-139,-2]],[[31235,17628],[-72,135]],[[31199,17791],[113,30]],[[31312,17821],[76,-58]],[[31388,17763],[-13,0]],[[31375,17763],[-108,-39],[45,-66],[-27,-68]],[[31190,17923],[-90,2]],[[31298,18022],[41,13]],[[31406,17948],[-36,-41]],[[31370,17907],[-27,18]],[[31447,17613],[-54,73],[40,0],[-31,61],[45,59]],[[31447,17806],[13,0]],[[31492,17793],[13,-15]],[[31564,17643],[-99,-48]],[[31465,17595],[-18,18]],[[31807,17562],[-63,0],[-54,-3]],[[31690,17559],[9,87]],[[31744,17671],[27,-3]],[[31438,17836],[-104,0]],[[31334,17836],[36,71]],[[31334,17836],[-22,-15]],[[31177,17836],[27,87]],[[31334,18284],[5,61]],[[31514,18355],[-22,-69]],[[31492,18286],[-41,-12]],[[31451,18274],[-117,10]],[[31550,17867],[27,-59]],[[31145,17541],[-27,-2],[0,66],[-108,0]],[[31087,17674],[36,-44]],[[31672,17559],[-63,-2],[-144,-6]],[[31465,17551],[0,44]],[[31605,17661],[67,-102]],[[31492,18243],[22,28]],[[31514,18271],[100,10]],[[31447,17806],[-59,-43]],[[31334,18284],[-18,-43]],[[31316,18241],[-18,0]],[[31298,18241],[-40,35]],[[31641,17920],[9,-84]],[[31330,17628],[13,-46]],[[31375,17763],[-45,-135]],[[32019,17572],[-122,-5],[-13,0]],[[31884,17602],[90,56]],[[31974,17658],[31,-5]],[[31199,18195],[99,46]],[[31316,18241],[5,-8]],[[31325,18091],[-67,-16]],[[31974,17658],[-50,26]],[[31447,17613],[-117,15]],[[31474,18218],[-23,56]],[[31492,18286],[22,-15]],[[31690,17559],[-18,0]],[[31717,17836],[-9,74]],[[31465,17551],[-32,-2],[-76,-3]],[[30605,18752],[-9,10]],[[30596,18762],[-5,63],[-63,16]],[[30528,18841],[14,66]],[[30542,18907],[49,25]],[[30591,18932],[59,-2]],[[30650,18930],[-18,-186]],[[30632,18744],[-27,8]],[[30722,18701],[-59,-61]],[[30663,18640],[-67,0]],[[30596,18640],[-9,89]],[[30587,18729],[18,23]],[[30632,18744],[90,0]],[[30348,19164],[0,-16]],[[30348,19148],[-67,0]],[[30281,19148],[-23,31]],[[30258,19179],[90,-15]],[[30154,19716],[0,111],[86,-17],[-59,81]],[[30181,19891],[127,0]],[[30308,19891],[81,0]],[[30389,19891],[-50,-142]],[[30339,19749],[-185,-33]],[[30897,19606],[-108,18]],[[30789,19624],[-9,15]],[[30780,19639],[23,74]],[[30803,19713],[76,0]],[[30542,18907],[-68,35]],[[30474,18942],[5,67]],[[30479,19009],[112,-77]],[[30528,19517],[-94,18],[0,58]],[[30434,19593],[171,89]],[[30605,19682],[76,-12]],[[30681,19670],[-40,-46],[54,-89]],[[30695,19535],[-167,-18]],[[30150,19604],[36,20],[-32,92]],[[30339,19749],[63,-6]],[[30402,19743],[32,-27]],[[30434,19716],[-50,-18],[18,-74]],[[30402,19624],[-139,-59]],[[30263,19565],[-109,-7],[-4,46]],[[30776,19446],[216,-8]],[[30474,18698],[-4,-58]],[[30470,18640],[-27,0]],[[30443,18640],[-135,0]],[[30308,18640],[31,58]],[[30339,18698],[63,31]],[[30402,18729],[36,-31]],[[30438,18698],[9,-5]],[[30447,18693],[27,5]],[[30474,18698],[32,31]],[[30506,18729],[81,0]],[[30596,18640],[-72,-38]],[[30524,18602],[-54,38]],[[30348,19148],[18,-61],[-49,-15]],[[30317,19072],[-14,3]],[[30303,19075],[-22,73]],[[30681,19080],[-175,-23]],[[30506,19057],[-63,46]],[[30443,19103],[0,76]],[[30443,19179],[234,-31]],[[30677,19148],[13,-68]],[[30474,18942],[-22,-35]],[[30452,18907],[-86,30],[41,44]],[[30407,18981],[72,30]],[[30479,19011],[0,-2]],[[30659,19209],[-23,31]],[[30636,19240],[77,28]],[[30758,19222],[-99,-13]],[[30443,18640],[-41,-89]],[[30402,18551],[-90,0]],[[30312,18551],[-49,58]],[[30263,18609],[31,31]],[[30294,18640],[14,0]],[[30686,18609],[-23,31]],[[30677,19148],[13,31]],[[30690,19179],[68,15]],[[30258,19179],[-95,0]],[[30163,19179],[-9,74]],[[30154,19253],[23,-16]],[[30177,19237],[86,31]],[[30263,19268],[171,-23]],[[30434,19245],[0,-66]],[[30434,19179],[-86,-15]],[[30281,18505],[31,46]],[[30402,18551],[45,-54]],[[30447,18497],[0,-35]],[[30528,19260],[0,8]],[[30528,19268],[-22,48],[36,41]],[[30542,19357],[139,-13]],[[30636,19240],[-108,20]],[[30434,19179],[9,0]],[[30443,19103],[-95,-46]],[[30348,19057],[-31,15]],[[30650,18930],[13,23]],[[30897,19586],[-85,-15],[22,-36],[-45,0],[-13,-74]],[[30776,19461],[-63,56]],[[30713,19517],[13,89],[63,18]],[[30560,18462],[-18,0]],[[30542,18462],[-18,140]],[[30542,19357],[-14,43]],[[30528,19400],[0,43]],[[30528,19443],[198,3]],[[30263,19268],[18,89],[58,0]],[[30339,19357],[189,43]],[[30528,19268],[-94,-23]],[[30434,19716],[94,-3]],[[30528,19713],[54,0]],[[30582,19713],[23,-31]],[[30434,19593],[-32,31]],[[30659,19209],[-41,-30]],[[30618,19179],[-90,23],[0,58]],[[30776,19446],[0,15]],[[30479,19011],[27,46]],[[30681,19670],[32,-3]],[[30713,19667],[67,-28]],[[30713,19517],[-18,18]],[[30618,19179],[72,0]],[[30447,18497],[95,-35]],[[30353,18991],[-5,66]],[[30407,18981],[-54,10]],[[30528,19443],[0,74]],[[30339,19357],[-90,104]],[[30249,19461],[14,104]],[[30285,18833],[-22,-13]],[[30263,18820],[-64,-2]],[[30199,18818],[-9,30]],[[30190,18848],[-4,31]],[[30186,18879],[0,5]],[[30186,18884],[86,-5]],[[30272,18879],[13,-28]],[[30285,18851],[0,-18]],[[30064,19716],[-31,58],[67,81]],[[30100,19855],[45,39],[-36,0],[9,89]],[[30118,19983],[36,7]],[[30154,19990],[54,-25],[-27,-74]],[[30154,19716],[-90,0]],[[30353,18991],[0,-23]],[[30353,18968],[-95,-13],[-18,74]],[[30240,19029],[63,46]],[[30186,18884],[-63,36]],[[30123,18920],[40,78]],[[30163,18998],[77,31]],[[30353,18968],[0,-28]],[[30353,18940],[-50,15],[-31,-76]],[[30064,19716],[-67,0]],[[29997,19716],[-14,0]],[[29983,19716],[32,193]],[[30015,19909],[85,-54]],[[30177,18370],[-122,0]],[[29997,18375],[13,143]],[[30010,18518],[72,-26]],[[30082,18492],[90,-2]],[[30015,19909],[-18,23]],[[29997,19932],[121,51]],[[29965,19955],[-162,33]],[[29803,19988],[54,50]],[[29857,20038],[297,18]],[[30154,20056],[0,-66]],[[29997,19932],[-32,23]],[[30177,19237],[-23,178]],[[30154,19415],[95,46]],[[30087,18983],[-36,31]],[[30051,19014],[54,66]],[[30105,19080],[27,7]],[[30132,19087],[0,-50]],[[30132,19037],[-45,-54]],[[30186,18879],[-171,-41]],[[30015,18838],[-23,99]],[[29992,18937],[95,-17]],[[30087,18920],[36,0]],[[30339,18698],[-31,8],[31,51]],[[30339,18757],[18,28]],[[30357,18785],[36,23]],[[30393,18808],[9,-79]],[[30082,18492],[0,59]],[[30082,18551],[167,74]],[[30249,18625],[14,-16]],[[29997,19716],[67,-178]],[[30064,19538],[0,-3]],[[30064,19535],[-189,30]],[[29875,19565],[0,64]],[[29875,19629],[45,59],[50,-31],[0,59]],[[29970,19716],[13,0]],[[30105,19431],[-95,18]],[[30010,19449],[54,86]],[[30064,19538],[59,-3],[-14,76],[41,-7]],[[30154,19415],[-49,16]],[[30019,18645],[131,25]],[[30150,18670],[99,-45]],[[30082,18551],[-63,0]],[[30019,18551],[0,94]],[[30019,18744],[122,46]],[[30141,18790],[9,-120]],[[30019,18645],[0,99]],[[30154,19253],[-108,61]],[[30046,19314],[-40,40]],[[30006,19354],[-5,6]],[[30001,19360],[104,71]],[[30294,18640],[-95,178]],[[30263,18820],[76,-63]],[[30285,18833],[72,-48]],[[29965,19955],[-45,15],[0,-132],[36,2],[-36,-91]],[[29920,19749],[-72,-3]],[[29848,19746],[-45,242]],[[30353,18940],[-14,-76],[-54,-13]],[[29817,19629],[58,0]],[[29875,19565],[-112,-25]],[[29763,19540],[54,89]],[[30006,19354],[-153,-91]],[[29853,19263],[-32,119]],[[29821,19382],[27,39]],[[29848,19421],[153,-61]],[[29997,19115],[-18,11]],[[29979,19126],[9,5]],[[29988,19131],[9,-16]],[[29920,19110],[59,16]],[[29997,19115],[0,-17]],[[29997,19098],[22,-77],[-54,-5]],[[29965,19016],[-45,94]],[[30163,19174],[-31,-87]],[[30105,19080],[-108,18]],[[29988,19131],[85,48]],[[30073,19179],[90,-5]],[[30051,19014],[-77,-16]],[[29974,18998],[-9,18]],[[29920,19110],[-49,105]],[[29871,19215],[99,40]],[[29970,19255],[103,-76]],[[29790,19451],[130,43],[50,-45]],[[29970,19449],[-122,-28]],[[29821,19382],[-31,69]],[[30087,18920],[0,63]],[[30132,19037],[31,-39]],[[29920,19749],[50,-33]],[[29817,19629],[31,117]],[[30163,19174],[0,5]],[[29970,19449],[40,0]],[[30010,18518],[9,33]],[[29790,19451],[-27,89]],[[29992,18937],[-18,61]],[[29970,19255],[22,71],[54,-12]],[[30190,18848],[-49,-58]],[[30019,18744],[-4,94]],[[29871,19215],[-18,48]],[[30411,18823],[32,38]],[[30443,18861],[54,-13]],[[30497,18848],[-36,-23]],[[30461,18825],[-27,-30]],[[30434,18795],[-23,28]],[[30411,18823],[-22,61],[49,-8]],[[30438,18876],[5,-15]],[[30497,18853],[0,-5]],[[30438,18876],[9,23]],[[30447,18899],[50,-46]],[[30479,18787],[-18,38]],[[30497,18853],[9,-7]],[[30506,18846],[-14,-59]],[[30492,18787],[-13,0]],[[30479,18787],[-18,0]],[[30461,18787],[-27,8]],[[30447,18693],[14,94]],[[30492,18787],[14,-58]],[[30434,18795],[4,-97]],[[30393,18808],[18,15]],[[30492,18787],[104,-25]],[[30447,18899],[5,8]],[[30528,18841],[-22,5]],[[30704,20074],[-203,-2]],[[30501,20072],[-144,0]],[[30357,20072],[14,61],[-32,0]],[[30339,20133],[5,50],[121,-22]],[[30465,20161],[63,25],[-13,84]],[[30515,20270],[31,25]],[[30546,20295],[144,-43]],[[30690,20252],[45,-89]],[[30735,20163],[-31,-89]],[[30861,20756],[-27,-31]],[[30834,20725],[-90,48],[-13,102]],[[30731,20875],[90,-76]],[[30821,20799],[40,-43]],[[30015,20478],[63,-30]],[[30078,20448],[0,-15]],[[30078,20433],[-86,-74]],[[29992,20359],[23,119]],[[30042,20257],[0,61],[-54,-13]],[[29988,20305],[4,54]],[[30078,20433],[72,-3]],[[30150,20430],[85,-63]],[[30235,20367],[0,-26]],[[30235,20341],[-175,-84]],[[30060,20257],[-18,0]],[[30731,20875],[-5,43]],[[30726,20918],[-9,49]],[[30717,20967],[99,-3]],[[30816,20964],[54,-10]],[[30870,20954],[41,-79],[-99,-13],[9,-63]],[[30078,20448],[0,89],[31,-10],[-31,35]],[[30078,20562],[108,-86]],[[30186,20476],[18,-38],[-54,-8]],[[30078,20562],[-41,61],[45,13]],[[30082,20636],[153,-25]],[[30235,20611],[50,-92]],[[30285,20519],[-99,-43]],[[30465,20161],[-13,89]],[[30452,20250],[63,20]],[[30263,20252],[27,-43],[-64,-26],[32,-20]],[[30258,20163],[-122,13]],[[30136,20176],[-49,35],[18,46]],[[30105,20257],[126,-5]],[[30231,20252],[32,0]],[[30456,20519],[-18,-81],[81,-8]],[[30519,20430],[-22,-76]],[[30497,20354],[9,48],[-144,28]],[[30362,20430],[-32,41]],[[30330,20471],[59,48]],[[30389,20519],[67,0]],[[30330,20728],[-18,139]],[[30312,20867],[23,8]],[[30335,20875],[67,-28]],[[30402,20847],[-18,-86],[63,-38],[-117,5]],[[30717,20967],[-36,73]],[[30681,21040],[-4,13]],[[30677,21053],[13,0]],[[30690,21053],[99,-2]],[[30789,21051],[27,-87]],[[30510,19817],[18,-104]],[[30402,19743],[-31,46],[139,28]],[[30231,20252],[4,89]],[[30235,20367],[0,63],[95,0]],[[30330,20430],[45,-69],[-81,-22],[32,-51]],[[30326,20288],[-63,-36]],[[30672,20855],[-27,-46]],[[30645,20809],[-9,10]],[[30636,20819],[23,48]],[[30659,20867],[13,-12]],[[30181,20984],[-36,107],[59,-25],[-23,-82]],[[30082,20926],[-9,46],[50,-5],[-41,-41]],[[30217,20773],[50,-71]],[[30267,20702],[-32,0]],[[30235,20702],[-108,0]],[[30127,20702],[32,135]],[[30159,20837],[58,-64]],[[30713,19667],[-23,178]],[[30690,19845],[-9,21]],[[30681,19866],[32,111]],[[30713,19977],[31,3]],[[30744,19980],[140,-102]],[[30861,19858],[-58,-28],[0,-117]],[[31037,20069],[-85,3]],[[30952,20072],[4,73],[-63,-10],[0,71]],[[30893,20206],[45,13]],[[30938,20219],[144,-10]],[[31082,20428],[-297,0]],[[30785,20428],[-135,2]],[[30650,20430],[-23,117]],[[30627,20547],[77,15]],[[30704,20562],[0,-45],[126,0]],[[30830,20517],[216,71]],[[31046,20588],[36,7],[0,-122]],[[30015,20478],[-27,135],[85,41]],[[30073,20654],[9,-18]],[[30208,20845],[9,-72]],[[30159,20837],[49,8]],[[30474,20539],[-18,-20]],[[30389,20519],[-14,69]],[[30375,20588],[99,-49]],[[30339,20133],[-22,56],[-59,-26]],[[30326,20288],[0,-46],[126,8]],[[30582,19713],[5,89],[103,43]],[[30235,20702],[0,-91]],[[30073,20654],[54,48]],[[30389,19891],[121,0]],[[30510,19891],[0,-74]],[[30330,20471],[-45,48]],[[30235,20611],[95,0]],[[30330,20611],[45,-23]],[[30154,20056],[54,18]],[[30208,20074],[136,-2]],[[30344,20072],[-36,-181]],[[30105,20257],[-45,0]],[[31087,20695],[-41,-107]],[[30830,20517],[0,89],[-126,0]],[[30704,20606],[0,22]],[[30704,20628],[0,61],[58,-2]],[[30762,20687],[54,-15],[18,53]],[[30861,20756],[82,-46],[139,74]],[[31082,20784],[5,-89]],[[30726,20918],[-54,-63]],[[30659,20867],[22,173]],[[30650,20430],[-131,0]],[[30474,20539],[36,8]],[[30510,20547],[117,0]],[[30317,20700],[13,-89]],[[30267,20702],[50,-2]],[[30893,20206],[-158,-43]],[[30690,20252],[104,87],[-9,89]],[[31078,20339],[-90,5],[-50,-125]],[[30362,20931],[45,48]],[[30407,20979],[22,5]],[[30429,20984],[-4,-139]],[[30425,20845],[-23,2]],[[30335,20875],[27,56]],[[30389,20987],[18,-8]],[[30362,20931],[27,56]],[[30681,19866],[-153,40]],[[30528,19906],[0,56]],[[30528,19962],[185,15]],[[30344,20072],[13,0]],[[30501,20072],[27,-110]],[[30528,19906],[-18,-15]],[[30952,20072],[-239,2]],[[30713,20074],[-9,0]],[[31082,20855],[0,-71]],[[30870,20954],[118,8]],[[30988,20962],[4,-89],[90,-18]],[[29857,20038],[122,234]],[[29979,20272],[63,-15]],[[30136,20176],[0,-89],[72,-13]],[[30546,20295],[-49,59]],[[30208,20845],[37,53],[67,-31]],[[30330,20728],[-13,-28]],[[30744,19980],[-31,94]],[[30330,20430],[32,0]],[[30515,20982],[-86,2]],[[30389,20987],[153,160],[-54,-86],[27,-79]],[[29979,20272],[9,33]],[[30762,20687],[-117,122]],[[30704,20562],[0,44]],[[30461,20809],[-36,36]],[[30515,20982],[-54,-173]],[[30461,20809],[27,-120]],[[30488,20689],[-18,-104],[40,-38]],[[30560,20682],[144,-54]],[[30488,20689],[108,232],[-81,-237],[45,-2]],[[30560,20682],[76,137]],[[31172,21717],[9,0]],[[31181,21717],[-54,-18]],[[31127,21699],[45,18]],[[31411,21346],[45,-36],[4,-176]],[[31460,21134],[-63,0]],[[31397,21134],[14,89],[-104,18],[32,74]],[[31339,21315],[72,31]],[[31226,21404],[-9,-89]],[[31217,21315],[-40,-15]],[[31177,21300],[-45,74],[-63,-18]],[[31069,21356],[-5,124]],[[31064,21480],[45,-25]],[[31109,21455],[117,-51]],[[32032,20875],[-4,132]],[[32028,21007],[-36,82]],[[31992,21089],[162,89]],[[32154,21178],[31,18],[-67,89]],[[32118,21285],[108,-77],[-23,-35],[118,-217],[-100,49],[-36,-71]],[[32185,20934],[-90,-105]],[[32095,20829],[-63,46]],[[31586,21134],[64,-195],[85,20],[0,-147]],[[31641,20814],[0,56],[-113,38]],[[31528,20908],[-32,28],[50,0],[18,198]],[[31564,21134],[22,0]],[[31577,22208],[-54,43]],[[31523,22251],[5,46]],[[31528,22297],[40,-13]],[[31568,22284],[9,-76]],[[31632,22175],[-50,114],[86,-71],[-36,-43]],[[30992,21051],[0,-6]],[[30992,21045],[-122,87],[41,23]],[[30911,21155],[41,-5],[-64,124]],[[30888,21274],[104,-58]],[[30992,21216],[41,-112],[-41,-53]],[[30992,21216],[180,10]],[[31172,21226],[0,-89]],[[31172,21137],[-18,-43]],[[31154,21094],[-162,-43]],[[31411,22340],[-81,-20]],[[31330,22320],[-45,0]],[[31285,22320],[-18,43],[-221,-31],[-18,104]],[[31028,22436],[333,-30]],[[31361,22406],[50,-66]],[[31109,21455],[81,41]],[[31190,21496],[59,-56]],[[31249,21440],[-23,-36]],[[31172,21717],[41,-92],[-36,5]],[[31177,21630],[-171,51]],[[31006,21681],[-50,28],[171,-10]],[[31654,21941],[0,-3]],[[31654,21938],[-248,23]],[[31406,21961],[23,69]],[[31429,22030],[130,0]],[[31559,22030],[18,-87],[77,-2]],[[30888,21305],[0,-31]],[[30911,21155],[-81,48],[-36,-30],[27,-49],[-32,16]],[[30789,21140],[-94,2],[-5,-89]],[[30677,21053],[0,158],[211,94]],[[31586,21572],[-36,0],[0,-135]],[[31550,21437],[-13,-99],[-126,8]],[[31411,21346],[-5,78],[-157,16]],[[31190,21496],[0,17]],[[31190,21513],[72,39],[-85,78]],[[31181,21717],[189,-112],[216,-33]],[[31352,22243],[-22,77]],[[31411,22340],[36,-74]],[[31447,22266],[-95,-23]],[[31474,22251],[-14,46],[68,0]],[[31523,22251],[-49,0]],[[31654,21941],[59,89]],[[31713,22030],[108,-67],[-9,-53],[-158,28]],[[32095,21869],[-261,61],[171,64],[-49,53],[76,16],[122,-112],[-59,-82]],[[30992,21045],[54,-48],[-58,-35]],[[30789,21051],[0,89]],[[30875,22208],[-95,0]],[[30780,22208],[0,178]],[[30780,22386],[131,0]],[[30911,22386],[45,-148]],[[30956,22238],[-81,-30]],[[31154,21094],[0,-46]],[[31154,21048],[-45,-56],[36,-43],[-63,0],[0,-94]],[[31082,20784],[234,58]],[[31316,20842],[50,-51]],[[31366,20791],[-221,-96],[36,-16],[-22,-73],[-50,2],[-22,87]],[[31154,21048],[216,-3]],[[31370,21045],[18,-58],[-72,-41],[0,-104]],[[31559,22030],[0,89],[86,17]],[[31645,22136],[81,-43],[-13,-63]],[[31456,20781],[0,-252]],[[31366,20791],[90,-10]],[[30979,21628],[-9,-43]],[[30970,21585],[13,-105],[81,0]],[[31069,21356],[-36,-3]],[[31033,21353],[-99,23],[-59,115],[104,137]],[[31852,21137],[-112,-5]],[[31740,21132],[4,132]],[[31744,21264],[225,8]],[[31969,21272],[-85,-46],[4,-86]],[[31888,21140],[-36,-3]],[[31978,20845],[-22,117],[72,45]],[[32032,20875],[-54,-30]],[[31586,21134],[64,-2]],[[31650,21132],[90,0]],[[31852,21137],[-13,-89],[90,-36],[-99,-132],[0,-99]],[[31929,20784],[49,61]],[[32095,20829],[18,-43]],[[31339,21315],[-122,0]],[[31370,21045],[86,0],[4,89]],[[31460,21134],[104,0]],[[31528,20908],[-72,-10],[0,-117]],[[30911,22386],[63,5],[0,56]],[[30974,22447],[54,-11]],[[31285,22320],[-18,-82],[-311,0]],[[31888,21140],[-36,-46],[140,-5]],[[31190,21513],[-220,72]],[[30979,21628],[27,53]],[[31650,21132],[27,69],[-36,203],[-91,33]],[[31586,21572],[100,-143],[85,8]],[[31771,21437],[-54,-74],[27,-99]],[[31024,22119],[0,-102],[112,-26],[0,-66],[-112,44],[-9,-59]],[[31015,21910],[-136,84]],[[30879,21994],[32,15],[-32,110]],[[30879,22119],[145,0]],[[30492,21984],[-72,135]],[[30420,22119],[131,-16],[45,105]],[[30596,22208],[184,0]],[[30875,22208],[4,-89]],[[30879,21994],[-243,69],[-144,-79]],[[32185,20934],[5,-77],[86,-73]],[[30780,22386],[0,345]],[[30780,22731],[221,16],[-63,-94],[-18,-163],[54,-43]],[[31177,21300],[-5,-74]],[[30888,21305],[145,48]],[[31429,22030],[31,58],[-45,-28],[14,59],[-63,0]],[[31366,22119],[94,58]],[[31460,22177],[14,74]],[[31577,22208],[-27,-69],[95,-3]],[[31420,21671],[-135,89],[180,-38],[-45,-51]],[[31969,21272],[68,2]],[[32037,21274],[9,-58],[108,-38]],[[32037,21274],[81,11]],[[31771,21437],[347,-152]],[[31366,22119],[-342,0]],[[31352,22243],[77,-35]],[[31429,22208],[31,-31]],[[31406,21961],[-76,-36],[-95,84],[-58,-89],[4,-132],[-166,122]],[[30582,21722],[-27,58],[54,-33],[-27,-25]],[[30515,21518],[-41,31],[18,71],[32,89],[49,-5],[5,-155],[-63,-31]],[[30438,21646],[-18,40],[45,5],[-27,-45]],[[31650,22284],[-127,173],[127,30],[-54,-96],[54,-107]],[[31429,22208],[18,58]],[[31361,22406],[144,51],[63,-173]],[[31172,21137],[45,41],[180,-44]],[[28646,21758],[-32,-6]],[[28614,21752],[-90,21]],[[28524,21773],[9,10],[41,41],[-36,50]],[[28538,21874],[0,82]],[[28538,21956],[175,69],[-31,12]],[[28682,22037],[99,10],[-23,-63],[72,-23],[-31,-20]],[[28799,21941],[-81,0]],[[28718,21941],[-86,0],[36,-130]],[[28668,21811],[-22,-53]],[[28623,21742],[-99,31]],[[28614,21752],[9,-10]],[[29510,22350],[0,8]],[[29510,22358],[0,45]],[[29510,22403],[41,6]],[[29551,22409],[77,-82],[-118,23]],[[29150,21496],[-4,211],[-86,10]],[[29060,21717],[-4,7]],[[29056,21724],[63,135]],[[29119,21859],[49,-38]],[[29168,21821],[-13,-58],[72,-16],[72,-124]],[[29299,21623],[-99,-130]],[[29200,21493],[-50,3]],[[29056,21592],[63,-7],[4,-89]],[[29123,21496],[-9,0]],[[29114,21496],[-108,-36],[-94,79]],[[28912,21539],[0,46]],[[28912,21585],[49,40]],[[28961,21625],[95,-33]],[[29110,21315],[-41,-23]],[[29069,21292],[-22,23]],[[29047,21315],[9,120]],[[29056,21435],[58,61]],[[29123,21496],[27,0]],[[29200,21493],[-90,-178]],[[28830,22210],[-99,0]],[[28731,22210],[-99,0]],[[28632,22210],[36,150],[-36,115]],[[28632,22475],[-94,33],[0,63],[144,-5],[49,176],[99,0]],[[28830,22742],[-36,-270],[36,-41],[-81,-58],[77,-8],[4,-155]],[[28731,22210],[0,-91],[-99,-36]],[[28632,22083],[-94,8]],[[28538,22091],[0,119]],[[28538,22210],[94,0]],[[29510,22297],[18,-89]],[[29528,22208],[-67,-23],[-32,112]],[[29429,22297],[0,7]],[[29429,22304],[0,8]],[[29429,22312],[81,-15]],[[29830,21806],[-90,56]],[[29740,21862],[63,18],[0,89]],[[29803,21969],[86,-31],[-86,-81],[27,-51]],[[29119,21859],[0,82]],[[29119,21941],[81,0]],[[29200,21941],[67,0],[-18,-79]],[[29249,21862],[50,-10],[9,-59],[-45,0]],[[29263,21793],[-95,28]],[[30420,22119],[-130,0]],[[30290,22119],[0,89]],[[30290,22208],[166,0]],[[30456,22208],[-36,-89]],[[28781,21424],[0,59],[18,56]],[[28799,21539],[113,0]],[[29056,21435],[-126,-59],[-149,48]],[[29407,22358],[-27,0]],[[29380,22358],[-63,30]],[[29317,22388],[0,76]],[[29317,22464],[76,41],[117,-102]],[[29510,22358],[-103,0]],[[29429,22304],[-49,54]],[[29407,22358],[22,-46]],[[29510,22350],[0,-53]],[[30456,22208],[14,0]],[[30470,22208],[126,0]],[[29263,21793],[81,-48]],[[29344,21745],[18,-21],[0,-66],[-63,-35]],[[29123,22119],[95,-31],[-18,-147]],[[29119,21941],[-194,0]],[[28925,21941],[0,259]],[[28925,22200],[90,-79],[108,-2]],[[28682,22037],[-50,46]],[[28830,22210],[95,0]],[[28925,22210],[0,-10]],[[28925,21941],[-13,-89]],[[28912,21852],[-50,0]],[[28862,21852],[-131,89]],[[28731,21941],[68,0]],[[29830,21806],[-4,-99]],[[29826,21707],[-95,-49],[-22,-112],[-81,67],[67,117],[59,-6],[-9,130]],[[29745,21854],[-5,8]],[[30290,22119],[-95,0],[0,175]],[[30195,22294],[95,3]],[[30290,22297],[0,-89]],[[29249,21862],[104,71]],[[29353,21933],[58,-8],[0,-43],[-49,13],[58,-48]],[[29420,21847],[-67,-112],[-9,10]],[[30290,21923],[0,196]],[[30492,21984],[-36,-61],[-166,0]],[[30290,22663],[0,-188]],[[30290,22475],[-293,0]],[[29997,22475],[-95,0]],[[29902,22475],[0,68]],[[29902,22543],[167,105],[221,15]],[[30096,21920],[0,377]],[[30096,22297],[99,-3]],[[30290,21923],[-36,-46],[-158,43]],[[28925,22210],[5,87]],[[28930,22297],[94,0],[0,160]],[[29024,22457],[99,-51],[0,-74]],[[29123,22332],[9,-124]],[[29132,22208],[-9,-89]],[[28912,21585],[-77,71],[27,196]],[[28912,21852],[-5,-89],[54,-31]],[[28961,21732],[0,-107]],[[28930,21315],[-32,-23]],[[28898,21292],[-5,8]],[[28893,21300],[37,15]],[[28830,22742],[63,0],[37,-89]],[[28930,22653],[0,-89]],[[28930,22564],[-37,-74],[37,-193]],[[30290,22297],[0,178]],[[30290,22475],[193,0],[-13,-267]],[[29803,21969],[0,147],[-99,3]],[[29704,22119],[18,178],[99,0]],[[29821,22297],[81,0],[0,109]],[[29902,22406],[0,69]],[[29997,22475],[0,-176],[99,-2]],[[30096,21920],[-126,-23],[-68,-157],[-76,-33]],[[29317,22388],[-108,13],[-86,-69]],[[29024,22457],[0,107],[-94,0]],[[28930,22653],[18,78]],[[28948,22731],[166,-167],[0,-82],[203,-18]],[[28943,21028],[-113,106],[9,16]],[[28839,21150],[-4,-43],[234,185]],[[29110,21315],[-171,-234],[4,-53]],[[28344,22386],[0,134],[95,0],[0,44]],[[28439,22564],[0,89],[189,0],[4,84],[-40,5]],[[28592,22742],[0,150]],[[28592,22892],[184,-26],[172,-135]],[[28632,22475],[-94,0],[0,-89]],[[28538,22386],[-194,0]],[[29551,22409],[63,35],[72,-69],[216,168]],[[29902,22406],[-121,38],[-9,-112]],[[29772,22332],[-117,36],[40,-137],[-85,-28]],[[29610,22203],[-82,5]],[[29664,22419],[-32,94],[45,18],[36,-84],[-49,-28]],[[30290,22663],[252,-23],[238,91]],[[28691,21709],[-18,-2]],[[28673,21707],[-27,51]],[[28668,21811],[68,-8],[-45,-94]],[[29056,21724],[-23,-2]],[[29033,21722],[-72,10]],[[29056,21696],[0,-104]],[[29033,21722],[-22,-87],[45,61]],[[28673,21707],[-50,35]],[[29353,21933],[-36,97],[81,89]],[[29398,22119],[212,0]],[[29610,22119],[94,0]],[[29745,21854],[-59,-69],[-99,34],[-54,-145],[-99,-56],[-14,229]],[[28538,22210],[0,176]],[[29132,22208],[185,0]],[[29317,22208],[0,-89],[81,0]],[[28538,21956],[31,81],[-31,54]],[[29821,22297],[-49,35]],[[29429,22297],[-112,-89]],[[29060,21717],[-4,-21]],[[29047,21315],[-117,0]],[[28893,21300],[-180,-8],[68,132]],[[29610,22203],[0,-84]],[[28799,21539],[-18,74],[-90,96]],[[28718,21941],[13,0]],[[28839,21150],[23,71],[36,71]],[[28146,23052],[-99,-89]],[[28047,22963],[-50,5],[-22,114],[54,59]],[[28029,23141],[108,74]],[[28137,23215],[18,-105]],[[28155,23110],[-9,-58]],[[28241,22739],[-46,3],[0,58],[73,87]],[[28268,22887],[-27,-148]],[[27416,22475],[-144,0]],[[27272,22475],[0,89]],[[27272,22564],[0,89],[144,0]],[[27416,22653],[0,-178]],[[27029,22391],[-58,71],[58,178]],[[27029,22640],[50,36]],[[27079,22676],[-50,-285]],[[27565,22297],[0,89]],[[27565,22386],[90,0],[5,178]],[[27660,22564],[76,91]],[[27736,22655],[72,-119],[-49,-239]],[[27759,22297],[-194,0]],[[28448,23187],[-153,17],[-14,-45]],[[28281,23159],[-86,28],[0,63]],[[28195,23250],[82,84]],[[28277,23334],[108,-51],[13,94],[144,33],[41,-124]],[[28583,23286],[-135,-99]],[[28277,22920],[-82,0],[0,-87],[-162,-2]],[[28033,22831],[14,132]],[[28146,23052],[18,-8],[36,23],[32,23]],[[28232,23090],[58,-127]],[[28290,22963],[-13,-43]],[[28344,22386],[-103,0]],[[28241,22386],[-9,109],[-59,-5],[-9,76]],[[28164,22566],[81,-2]],[[28245,22564],[194,0]],[[28236,21958],[-18,41]],[[28218,21999],[27,211],[-99,-2],[0,178]],[[28146,22386],[95,0]],[[28538,21874],[-302,84]],[[27565,22386],[-4,89],[-145,0]],[[27416,22653],[244,-89]],[[28236,21958],[-45,13],[-14,-5]],[[28177,21966],[-45,46],[86,-13]],[[28232,23098],[-77,12]],[[28137,23215],[58,35]],[[28281,23159],[-49,-61]],[[27714,23827],[-50,31],[59,92],[576,251],[-180,-173],[-275,-117],[72,-15],[-202,-69]],[[28232,23098],[0,-8]],[[28177,21966],[-274,66],[-50,23],[0,242]],[[27853,22297],[0,89],[243,0]],[[28096,22386],[50,0]],[[27074,22276],[-99,26],[-171,216],[-63,18],[288,104]],[[27029,22391],[45,-115]],[[28448,23187],[-158,-224]],[[28245,22564],[0,165]],[[28245,22729],[90,122],[189,97],[-121,-150]],[[28403,22798],[-9,-56],[198,0]],[[27272,22225],[0,250]],[[27565,22297],[-99,0],[0,-120]],[[27466,22177],[-50,13],[-144,35]],[[27853,22564],[-45,-28]],[[27808,22536],[-54,33],[5,170],[-59,0],[0,51],[203,-48]],[[27903,22742],[49,0],[0,-89],[-94,0],[-5,-89]],[[28277,23334],[315,137],[247,-28],[14,-45],[-162,-10],[-108,-102]],[[28002,22785],[9,-221]],[[28011,22564],[-158,0]],[[27903,22742],[0,43]],[[27903,22785],[99,0]],[[27272,22564],[-99,0],[-18,178]],[[27155,22742],[743,272],[5,-272],[-203,48],[36,-135]],[[28164,22566],[-68,-2]],[[28096,22564],[-85,0]],[[28002,22785],[31,46]],[[28277,22920],[-9,-33]],[[28241,22739],[4,-10]],[[28403,22798],[72,84],[117,10]],[[27903,22785],[-5,229],[131,127]],[[28096,22564],[0,-178]],[[27853,22297],[-94,0],[0,178],[49,0],[0,61]],[[27079,22676],[76,66]],[[27272,22225],[-148,39],[-50,12]],[[27736,22108],[-270,69]],[[27759,22297],[94,0],[0,-242],[-117,53]]]}