{"type":"Topology","transform":{"scale":[0.0012831345112129487,0.0009745357309423489],"translate":[-124.73273099999999,24.60334863324381]},"objects":{"area":{"type":"GeometryCollection","geometries":[{"arcs":[[0,1,2,3,4]],"type":"Polygon","properties":{"state":"MN","name":"VOYAGEURS NATL PARK","zip":"00059"}},{"arcs":[[5,6,7,8,9,10]],"type":"Polygon","properties":{"state":"MN","name":"SUPERIOR NATIONAL FOREST","zip":"00060"}},{"arcs":[[[11,12,13,14,15,16,17,18]],[[19,20,21]]],"type":"MultiPolygon","properties":{"state":"MN","name":"SUPERIOR NATIONAL FOREST","zip":"00160"}},{"arcs":[[22,23,24,-9,25,-15]],"type":"Polygon","properties":{"state":"MN","name":"SUPERIOR NATIONAL FOREST","zip":"00161"}},{"arcs":[[26,27,28]],"type":"Polygon","properties":{"state":"MN","name":"NORTHWEST BELTRAMI CNTY","zip":"00164"}},{"arcs":[[29,30,-27,31,32,33,34]],"type":"Polygon","properties":{"state":"MN","name":"BELTRAMI ISL STATE FOR","zip":"00165"}},{"arcs":[[35,36,-30,37,38,39,40,41,42]],"type":"Polygon","properties":{"state":"MN","name":"RED LAKE INDIAN RES","zip":"00166"}},{"arcs":[[43,44,45,46,47,48,49]],"type":"Polygon","properties":{"state":"MN","name":"AFTON","zip":"55001"}},{"arcs":[[50,51,52,53,54,55]],"type":"Polygon","properties":{"state":"MN","name":"BETHEL","zip":"55005"}},{"arcs":[[56,57,58,59,60,61,62]],"type":"Polygon","properties":{"state":"MN","name":"BRAHAM","zip":"55006"}},{"arcs":[[63,64,65,66,67]],"type":"Polygon","properties":{"state":"MN","name":"BROOK PARK","zip":"55007"}},{"arcs":[[68,69,70,71,72,73]],"type":"Polygon","properties":{"state":"MN","name":"CAMBRIDGE","zip":"55008"}},{"arcs":[[74,75,76,77,78,79,80,81,82]],"type":"Polygon","properties":{"state":"MN","name":"CANNON FALLS","zip":"55009"}},{"arcs":[[83,84,85,-52]],"type":"Polygon","properties":{"state":"MN","name":"CEDAR","zip":"55011"}},{"arcs":[[86,87,88,89]],"type":"Polygon","properties":{"state":"MN","name":"CENTER CITY","zip":"55012"}},{"arcs":[[90,91,92,93,94]],"type":"Polygon","properties":{"state":"MN","name":"CHISAGO CITY","zip":"55013"}},{"arcs":[[95,96,97,98,99,100]],"type":"Polygon","properties":{"state":"MN","name":"CIRCLE PINES","zip":"55014"}},{"arcs":[[101,102,103,104,105,-50]],"type":"Polygon","properties":{"state":"MN","name":"COTTAGE GROVE","zip":"55016"}},{"arcs":[[106,-70,107,108,109,-59]],"type":"Polygon","properties":{"state":"MN","name":"DALBO","zip":"55017"}},{"arcs":[[110,111,-76,112]],"type":"Polygon","properties":{"state":"MN","name":"DENNISON","zip":"55018"}},{"arcs":[[113,114,115]],"type":"Polygon","properties":{"state":"MN","name":"DUNDAS","zip":"55019"}},{"arcs":[[116,117,118,119,120]],"type":"Polygon","properties":{"state":"MN","name":"ELKO","zip":"55020"}},{"arcs":[[121,122,123,124,125,126,127,-114,128,129]],"type":"Polygon","properties":{"state":"MN","name":"FARIBAULT","zip":"55021"}},{"arcs":[[130,131,132,133,134,135]],"type":"Polygon","properties":{"state":"MN","name":"FARMINGTON","zip":"55024"}},{"arcs":[[136,137,-99,138,139,-91,140]],"type":"Polygon","properties":{"state":"MN","name":"FOREST LAKE","zip":"55025"}},{"arcs":[[141,142,143]],"type":"Polygon","properties":{"state":"MN","name":"FRONTENAC","zip":"55026"}},{"arcs":[[144,-82,145,146,147,148]],"type":"Polygon","properties":{"state":"MN","name":"GOODHUE","zip":"55027"}},{"arcs":[[149,150,-62]],"type":"Polygon","properties":{"state":"MN","name":"GRASSTON","zip":"55030"}},{"arcs":[[151,-136,152,-79]],"type":"Polygon","properties":{"state":"MN","name":"HAMPTON","zip":"55031"}},{"arcs":[[153,154,155,156,-72]],"type":"Polygon","properties":{"state":"MN","name":"HARRIS","zip":"55032"}},{"arcs":[[[157,-102,-49]],[[-135,158,159,160,-80,-153]]],"type":"MultiPolygon","properties":{"state":"MN","name":"HASTINGS","zip":"55033"}},{"arcs":[[161,162,-66]],"type":"Polygon","properties":{"state":"MN","name":"HINCKLEY","zip":"55037"}},{"arcs":[[163,-100,-138,164,165,166]],"type":"Polygon","properties":{"state":"MN","name":"HUGO","zip":"55038"}},{"arcs":[[167,168,169,-74,170,171,-55]],"type":"Polygon","properties":{"state":"MN","name":"ISANTI","zip":"55040"}},{"arcs":[[172,-148,173,-142,174,175,176,177]],"type":"Polygon","properties":{"state":"MN","name":"LAKE CITY","zip":"55041"}},{"arcs":[[178,-45,179,180,181]],"type":"Polygon","properties":{"state":"MN","name":"LAKE ELMO","zip":"55042"}},{"arcs":[[182,183,-47]],"type":"Polygon","properties":{"state":"MN","name":"LAKELAND","zip":"55043"}},{"arcs":[[184,-119,185,186,187,188,-133,189]],"type":"Polygon","properties":{"state":"MN","name":"LAKEVILLE","zip":"55044"}},{"arcs":[[190,191,-94,192,193,-88]],"type":"Polygon","properties":{"state":"MN","name":"LINDSTROM","zip":"55045"}},{"arcs":[[-128,194,195,-121,196,197,-115]],"type":"Polygon","properties":{"state":"MN","name":"LONSDALE","zip":"55046"}},{"arcs":[[198,199,-165,-137,200]],"type":"Polygon","properties":{"state":"MN","name":"MARINE ON SAINT CROIX","zip":"55047"}},{"arcs":[[201,-123,202]],"type":"Polygon","properties":{"state":"MN","name":"MEDFORD","zip":"55049"}},{"arcs":[[203,-150,-61,204,205,206,207,208,209,-162,-65]],"type":"Polygon","properties":{"state":"MN","name":"MORA","zip":"55051"}},{"arcs":[[210,211,212,-125]],"type":"Polygon","properties":{"state":"MN","name":"MORRISTOWN","zip":"55052"}},{"arcs":[[213,-111,214,-130]],"type":"Polygon","properties":{"state":"MN","name":"NERSTRAND","zip":"55053"}},{"arcs":[[215,216,217,218,-105]],"type":"Polygon","properties":{"state":"MN","name":"NEWPORT","zip":"55055"}},{"arcs":[[-73,-157,219,220,-89,-194,221,-171]],"type":"Polygon","properties":{"state":"MN","name":"NORTH BRANCH","zip":"55056"}},{"arcs":[[-214,-129,-116,-198,222,-190,-132,223,-77,-112]],"type":"Polygon","properties":{"state":"MN","name":"NORTHFIELD","zip":"55057"}},{"arcs":[[224,225,226,227,228,-124,-202,229,230,231]],"type":"Polygon","properties":{"state":"MN","name":"OWATONNA","zip":"55060"}},{"arcs":[[232,233,-63,-151,-204,-64]],"type":"Polygon","properties":{"state":"MN","name":"PINE CITY","zip":"55063"}},{"arcs":[[-131,-152,-78,-224]],"type":"Polygon","properties":{"state":"MN","name":"RANDOLPH","zip":"55065"}},{"arcs":[[-147,234,235,-143,-174]],"type":"Polygon","properties":{"state":"MN","name":"RED WING","zip":"55066"}},{"arcs":[[236,237,238,239,-159,-134,-189]],"type":"Polygon","properties":{"state":"MN","name":"ROSEMOUNT","zip":"55068"}},{"arcs":[[240,-155,241,-57,-234]],"type":"Polygon","properties":{"state":"MN","name":"RUSH CITY","zip":"55069"}},{"arcs":[[242,243,244,-168,-54]],"type":"Polygon","properties":{"state":"MN","name":"SAINT FRANCIS","zip":"55070"}},{"arcs":[[-216,-104,245]],"type":"Polygon","properties":{"state":"MN","name":"SAINT PAUL PARK","zip":"55071"}},{"arcs":[[-163,-210,246,247,248,249,250,-67]],"type":"Polygon","properties":{"state":"MN","name":"SANDSTONE","zip":"55072"}},{"arcs":[[-95,-192,251,252,-201,-141]],"type":"Polygon","properties":{"state":"MN","name":"SCANDIA","zip":"55073"}},{"arcs":[[253,-252,-191,-87,254]],"type":"Polygon","properties":{"state":"MN","name":"SHAFER","zip":"55074"}},{"arcs":[[255,256,257,258]],"type":"Polygon","properties":{"state":"MN","name":"SOUTH SAINT PAUL","zip":"55075"}},{"arcs":[[259,-256,260]],"type":"Polygon","properties":{"state":"MN","name":"INVER GROVE HEIGHTS","zip":"55076"}},{"arcs":[[261,262,263,264,-257,-260,265,-239]],"type":"Polygon","properties":{"state":"MN","name":"INVER GROVE HEIGHTS","zip":"55077"}},{"arcs":[[-172,-222,-193,-93,266,-56]],"type":"Polygon","properties":{"state":"MN","name":"STACY","zip":"55079"}},{"arcs":[[-107,-58,-242,-154,-71]],"type":"Polygon","properties":{"state":"MN","name":"STANCHFIELD","zip":"55080"}},{"arcs":[[-183,-46,-179,267,268,-166,-200,269]],"type":"Polygon","properties":{"state":"MN","name":"STILLWATER","zip":"55082"}},{"arcs":[[270,-255,-90,-221]],"type":"Polygon","properties":{"state":"MN","name":"TAYLORS FALLS","zip":"55084"}},{"arcs":[[-120,-185,-223,-197]],"type":"Polygon","properties":{"state":"MN","name":"WEBSTER","zip":"55088"}},{"arcs":[[-146,-81,-161,271,-235]],"type":"Polygon","properties":{"state":"MN","name":"WELCH","zip":"55089"}},{"arcs":[[-51,-267,-92,-140,272,-84]],"type":"Polygon","properties":{"state":"MN","name":"WYOMING","zip":"55092"}},{"arcs":[[273,274,275,276,277]],"type":"Polygon","properties":{"state":"MN","name":"SAINT PAUL","zip":"55101"}},{"arcs":[[278,279,280,-274,281,282]],"type":"Polygon","properties":{"state":"MN","name":"SAINT PAUL","zip":"55102"}},{"arcs":[[283,284,285,-275,-281]],"type":"Polygon","properties":{"state":"MN","name":"SAINT PAUL","zip":"55103"}},{"arcs":[[286,287,288,289,290,-284,-280]],"type":"Polygon","properties":{"state":"MN","name":"SAINT PAUL","zip":"55104"}},{"arcs":[[291,292,-287,-279]],"type":"Polygon","properties":{"state":"MN","name":"SAINT PAUL","zip":"55105"}},{"arcs":[[293,294,-277,295,296]],"type":"Polygon","properties":{"state":"MN","name":"SAINT PAUL","zip":"55106"}},{"type":null,"properties":{"state":"MN","name":"SAINT PAUL","zip":"55107"}},{"arcs":[[297,298,299,300,-285,-291]],"type":"Polygon","properties":{"state":"MN","name":"SAINT PAUL","zip":"55108"}},{"arcs":[[301,302,-297,303,304,305]],"type":"Polygon","properties":{"state":"MN","name":"SAINT PAUL","zip":"55109"}},{"arcs":[[306,307,-306,308,-167,-269]],"type":"Polygon","properties":{"state":"MN","name":"SAINT PAUL","zip":"55110"}},{"arcs":[[309,310,311,312,313]],"type":"Polygon","properties":{"state":"MN","name":"SAINT PAUL","zip":"55111"}},{"arcs":[[314,315,316,317,318,319]],"type":"Polygon","properties":{"state":"MN","name":"SAINT PAUL","zip":"55112"}},{"arcs":[[320,-300,321,322,-319,323]],"type":"Polygon","properties":{"state":"MN","name":"SAINT PAUL","zip":"55113"}},{"arcs":[[324,-298,-290]],"type":"Polygon","properties":{"state":"MN","name":"SAINT PAUL","zip":"55114"}},{"arcs":[[325,-307,-268]],"type":"Polygon","properties":{"state":"MN","name":"SAINT PAUL","zip":"55115"}},{"arcs":[[-292,-283,326]],"type":"Polygon","properties":{"state":"MN","name":"SAINT PAUL","zip":"55116"}},{"arcs":[[-321,327,328,-304,-296,-276,-286,-301]],"type":"Polygon","properties":{"state":"MN","name":"SAINT PAUL","zip":"55117"}},{"arcs":[[329,330,-258,-265,331]],"type":"Polygon","properties":{"state":"MN","name":"SAINT PAUL","zip":"55118"}},{"arcs":[[-294,-303,332,333,334,-218,335]],"type":"Polygon","properties":{"state":"MN","name":"SAINT PAUL","zip":"55119"}},{"arcs":[[336,-332,-264,337,-310,338]],"type":"Polygon","properties":{"state":"MN","name":"SAINT PAUL","zip":"55120"}},{"arcs":[[339,-338,-263,340,341,342]],"type":"Polygon","properties":{"state":"MN","name":"SAINT PAUL","zip":"55121"}},{"arcs":[[343,-342,344,345]],"type":"Polygon","properties":{"state":"MN","name":"SAINT PAUL","zip":"55122"}},{"arcs":[[346,-345,-341,-262,-238]],"type":"Polygon","properties":{"state":"MN","name":"SAINT PAUL","zip":"55123"}},{"arcs":[[347,348,-346,-347,-237,-188]],"type":"Polygon","properties":{"state":"MN","name":"SAINT PAUL","zip":"55124"}},{"arcs":[[349,-181,350,-334]],"type":"Polygon","properties":{"state":"MN","name":"SAINT PAUL","zip":"55125"}},{"arcs":[[-324,-318,351,-96,352,-328]],"type":"Polygon","properties":{"state":"MN","name":"SAINT PAUL","zip":"55126"}},{"arcs":[[-305,-329,-353,-101,-164,-309]],"type":"Polygon","properties":{"state":"MN","name":"SAINT PAUL","zip":"55127"}},{"arcs":[[-350,-333,-302,-308,-326,-182]],"type":"Polygon","properties":{"state":"MN","name":"SAINT PAUL","zip":"55128"}},{"arcs":[[-106,-219,-335,-351,-180,-44]],"type":"Polygon","properties":{"state":"MN","name":"SAINT PAUL","zip":"55129"}},{"type":null,"properties":{"state":"MN","name":"MENDOTA","zip":"55150"}},{"arcs":[[353,354,355,356]],"type":"Polygon","properties":{"state":"MN","name":"ALBERTVILLE","zip":"55301"}},{"arcs":[[357,358,359,360,361]],"type":"Polygon","properties":{"state":"MN","name":"ANNANDALE","zip":"55302"}},{"arcs":[[362,363,364,365,-243,-53,-86,366]],"type":"Polygon","properties":{"state":"MN","name":"ANOKA","zip":"55303"}},{"arcs":[[367,-367,-85,-273,-139,-98,368,369]],"type":"Polygon","properties":{"state":"MN","name":"ANDOVER","zip":"55304"}},{"arcs":[[370,371,372,373,374,375]],"type":"Polygon","properties":{"state":"MN","name":"HOPKINS","zip":"55305"}},{"arcs":[[376,377,378,-348,-187]],"type":"Polygon","properties":{"state":"MN","name":"BURNSVILLE","zip":"55306"}},{"arcs":[[379,380,381,382,383,384,385]],"type":"Polygon","properties":{"state":"MN","name":"ARLINGTON","zip":"55307"}},{"arcs":[[386,387,388,389]],"type":"Polygon","properties":{"state":"MN","name":"BECKER","zip":"55308"}},{"arcs":[[390,391,-387,392,393]],"type":"Polygon","properties":{"state":"MN","name":"BIG LAKE","zip":"55309"}},{"arcs":[[394,395,396,397]],"type":"Polygon","properties":{"state":"MN","name":"BIRD ISLAND","zip":"55310"}},{"arcs":[[398,399,400,401]],"type":"Polygon","properties":{"state":"MN","name":"OSSEO","zip":"55311"}},{"arcs":[[402,403,404,405,406]],"type":"Polygon","properties":{"state":"MN","name":"BROWNTON","zip":"55312"}},{"arcs":[[407,408,409,410,411,412,413,414,415]],"type":"Polygon","properties":{"state":"MN","name":"BUFFALO","zip":"55313"}},{"arcs":[[416,417,418,419]],"type":"Polygon","properties":{"state":"MN","name":"BUFFALO LAKE","zip":"55314"}},{"arcs":[[420,421,422,423,424]],"type":"Polygon","properties":{"state":"MN","name":"CARVER","zip":"55315"}},{"arcs":[[425,426,427,428,429]],"type":"Polygon","properties":{"state":"MN","name":"CHAMPLIN","zip":"55316"}},{"arcs":[[430,431,432,433]],"type":"Polygon","properties":{"state":"MN","name":"CHANHASSEN","zip":"55317"}},{"arcs":[[434,-424,435,436,437,438,-432,439]],"type":"Polygon","properties":{"state":"MN","name":"CHASKA","zip":"55318"}},{"arcs":[[440,441,442,-389,443]],"type":"Polygon","properties":{"state":"MN","name":"CLEAR LAKE","zip":"55319"}},{"arcs":[[444,445,-361,446,447,448]],"type":"Polygon","properties":{"state":"MN","name":"CLEARWATER","zip":"55320"}},{"arcs":[[449,450,451,-359,452,453]],"type":"Polygon","properties":{"state":"MN","name":"COKATO","zip":"55321"}},{"arcs":[[454,455,456,457,-436,-423,458]],"type":"Polygon","properties":{"state":"MN","name":"COLOGNE","zip":"55322"}},{"arcs":[[459,460,461]],"type":"Polygon","properties":{"state":"MN","name":"DARWIN","zip":"55324"}},{"arcs":[[462,-462,463,464,465,-451]],"type":"Polygon","properties":{"state":"MN","name":"DASSEL","zip":"55325"}},{"arcs":[[466,467,468,469,-428]],"type":"Polygon","properties":{"state":"MN","name":"DAYTON","zip":"55327"}},{"arcs":[[470,471,472,-409,473]],"type":"Polygon","properties":{"state":"MN","name":"DELANO","zip":"55328"}},{"arcs":[[474,475,476,477,478,479,480]],"type":"Polygon","properties":{"state":"MN","name":"EDEN VALLEY","zip":"55329"}},{"arcs":[[[-391,481,-244,-366,482]],[[483,-357,484,485,-469]]],"type":"MultiPolygon","properties":{"state":"MN","name":"ELK RIVER","zip":"55330"}},{"arcs":[[-439,486,487,488,489,490,-433]],"type":"Polygon","properties":{"state":"MN","name":"EXCELSIOR","zip":"55331"}},{"arcs":[[491,492,-398,493,494,495]],"type":"Polygon","properties":{"state":"MN","name":"FAIRFAX","zip":"55332"}},{"arcs":[[496,497,498,-395,-493]],"type":"Polygon","properties":{"state":"MN","name":"FRANKLIN","zip":"55333"}},{"arcs":[[499,500,-382,501,502,503]],"type":"Polygon","properties":{"state":"MN","name":"GAYLORD","zip":"55334"}},{"arcs":[[504,505,-495,506,-417,507]],"type":"Polygon","properties":{"state":"MN","name":"GIBBON","zip":"55335"}},{"arcs":[[508,-407,509,510,511,512,-384]],"type":"Polygon","properties":{"state":"MN","name":"GLENCOE","zip":"55336"}},{"arcs":[[513,514,515,516,-343,-344,-349,-379]],"type":"Polygon","properties":{"state":"MN","name":"BURNSVILLE","zip":"55337"}},{"arcs":[[517,518,519,520,-380]],"type":"Polygon","properties":{"state":"MN","name":"GREEN ISLE","zip":"55338"}},{"arcs":[[521,-518,-386,522]],"type":"Polygon","properties":{"state":"MN","name":"HAMBURG","zip":"55339"}},{"arcs":[[523,524,525,526,527,-401,528]],"type":"Polygon","properties":{"state":"MN","name":"HAMEL","zip":"55340"}},{"arcs":[[529,530,-415,531]],"type":"Polygon","properties":{"state":"MN","name":"HANOVER","zip":"55341"}},{"arcs":[[532,533,-418,-507,-494,-397]],"type":"Polygon","properties":{"state":"MN","name":"HECTOR","zip":"55342"}},{"arcs":[[534,-372,535,536,537]],"type":"Polygon","properties":{"state":"MN","name":"HOPKINS","zip":"55343"}},{"arcs":[[538,539,540,541,-538,542]],"type":"Polygon","properties":{"state":"MN","name":"EDEN PRAIRIE","zip":"55344"}},{"arcs":[[543,-373,-535,544,-491]],"type":"Polygon","properties":{"state":"MN","name":"MINNETONKA","zip":"55345"}},{"arcs":[[-545,-542,545,-434]],"type":"Polygon","properties":{"state":"MN","name":"EDEN PRAIRIE","zip":"55346"}},{"arcs":[[-431,-546,-541,546,547,-440]],"type":"Polygon","properties":{"state":"MN","name":"EDEN PRAIRIE","zip":"55347"}},{"arcs":[[548,549,-453,-358]],"type":"Polygon","properties":{"state":"MN","name":"HOWARD LAKE","zip":"55349"}},{"arcs":[[550,-510,-406,551,-419,552,553,-460,-463,-450]],"type":"Polygon","properties":{"state":"MN","name":"HUTCHINSON","zip":"55350"}},{"arcs":[[554,555,-421,556,557]],"type":"Polygon","properties":{"state":"MN","name":"JORDAN","zip":"55352"}},{"arcs":[[558,559,560,561,562,-465]],"type":"Polygon","properties":{"state":"MN","name":"KIMBALL","zip":"55353"}},{"arcs":[[563,564,-512,565,566,567]],"type":"Polygon","properties":{"state":"MN","name":"LESTER PRAIRIE","zip":"55354"}},{"arcs":[[568,-481,569,-559,-464,-461,-554,570]],"type":"Polygon","properties":{"state":"MN","name":"LITCHFIELD","zip":"55355"}},{"arcs":[[571,572,573,-525]],"type":"Polygon","properties":{"state":"MN","name":"LONG LAKE","zip":"55356"}},{"arcs":[[574,-416,-531,575,-527,576]],"type":"Polygon","properties":{"state":"MN","name":"LORETTO","zip":"55357"}},{"arcs":[[577,-362,-446,578,-412]],"type":"Polygon","properties":{"state":"MN","name":"MAPLE LAKE","zip":"55358"}},{"arcs":[[579,580,581,-471,582,-577,-526,-574]],"type":"Polygon","properties":{"state":"MN","name":"MAPLE PLAIN","zip":"55359"}},{"arcs":[[583,584,585,586,587,588,589,-457]],"type":"Polygon","properties":{"state":"MN","name":"MAYER","zip":"55360"}},{"arcs":[[590,-413,-579,-445,591,-485,-356]],"type":"Polygon","properties":{"state":"MN","name":"MONTICELLO","zip":"55362"}},{"arcs":[[592,-410,-473,593,-588]],"type":"Polygon","properties":{"state":"MN","name":"MONTROSE","zip":"55363"}},{"arcs":[[594,-580,-573,595,-489,596]],"type":"Polygon","properties":{"state":"MN","name":"MOUND","zip":"55364"}},{"arcs":[[-403,-509,-383,-501]],"type":"Polygon","properties":{"state":"MN","name":"NEW AUBURN","zip":"55366"}},{"arcs":[[597,-585,598,-568]],"type":"Polygon","properties":{"state":"MN","name":"NEW GERMANY","zip":"55367"}},{"arcs":[[599,-519,-522,600,601,-455]],"type":"Polygon","properties":{"state":"MN","name":"NORWOOD","zip":"55368"}},{"arcs":[[602,603,-399,604,-467,-427,605]],"type":"Polygon","properties":{"state":"MN","name":"OSSEO","zip":"55369"}},{"arcs":[[-385,-513,-565,606,-601,-523]],"type":"Polygon","properties":{"state":"MN","name":"PLATO","zip":"55370"}},{"arcs":[[-390,-443,607,608,609,-108,-69,-170,610,-393]],"type":"Polygon","properties":{"state":"MN","name":"PRINCETON","zip":"55371"}},{"arcs":[[611,612,-377,-186,-118,-558]],"type":"Polygon","properties":{"state":"MN","name":"PRIOR LAKE","zip":"55372"}},{"arcs":[[-474,-408,-575,-583]],"type":"Polygon","properties":{"state":"MN","name":"ROCKFORD","zip":"55373"}},{"arcs":[[-528,-576,-530,613,-354,-484,-468,-605,-402]],"type":"Polygon","properties":{"state":"MN","name":"ROGERS","zip":"55374"}},{"arcs":[[614,-581,-595,615]],"type":"Polygon","properties":{"state":"MN","name":"SAINT BONIFACIUS","zip":"55375"}},{"arcs":[[-591,-355,-614,-532,-414]],"type":"Polygon","properties":{"state":"MN","name":"SAINT MICHAEL","zip":"55376"}},{"arcs":[[-378,-613,616,617,618,-514]],"type":"Polygon","properties":{"state":"MN","name":"SAVAGE","zip":"55378"}},{"arcs":[[-435,-548,-617,-612,-557,-425]],"type":"Polygon","properties":{"state":"MN","name":"SHAKOPEE","zip":"55379"}},{"arcs":[[-511,-551,-454,619,-566]],"type":"Polygon","properties":{"state":"MN","name":"SILVER LAKE","zip":"55381"}},{"arcs":[[-563,620,-447,-360,-452,-466]],"type":"Polygon","properties":{"state":"MN","name":"SOUTH HAVEN","zip":"55382"}},{"arcs":[[621,-508,-420,-552,-405]],"type":"Polygon","properties":{"state":"MN","name":"STEWART","zip":"55385"}},{"arcs":[[622,-487,-438]],"type":"Polygon","properties":{"state":"MN","name":"VICTORIA","zip":"55386"}},{"arcs":[[623,-616,-597,-488,-623,-437,-458,-590]],"type":"Polygon","properties":{"state":"MN","name":"WACONIA","zip":"55387"}},{"arcs":[[-594,-472,-582,-615,-624,-589]],"type":"Polygon","properties":{"state":"MN","name":"WATERTOWN","zip":"55388"}},{"arcs":[[-570,-480,624,625,-560]],"type":"Polygon","properties":{"state":"MN","name":"WATKINS","zip":"55389"}},{"arcs":[[-587,-549,-578,-411,-593]],"type":"Polygon","properties":{"state":"MN","name":"WAVERLY","zip":"55390"}},{"arcs":[[-572,-524,626,627,-374,-544,-490,-596]],"type":"Polygon","properties":{"state":"MN","name":"WAYZATA","zip":"55391"}},{"arcs":[[-620,-550,-586,-598,-567]],"type":"Polygon","properties":{"state":"MN","name":"WINSTED","zip":"55395"}},{"arcs":[[-622,-404,-500,628,-505]],"type":"Polygon","properties":{"state":"MN","name":"WINTHROP","zip":"55396"}},{"arcs":[[-564,-599,-584,-456,-602,-607]],"type":"Polygon","properties":{"state":"MN","name":"YOUNG AMERICA","zip":"55397"}},{"arcs":[[-482,-394,-611,-169,-245]],"type":"Polygon","properties":{"state":"MN","name":"ZIMMERMAN","zip":"55398"}},{"arcs":[[629,630,631,632,633,634]],"type":"Polygon","properties":{"state":"MN","name":"MINNEAPOLIS","zip":"55401"}},{"arcs":[[635,636,-635,637]],"type":"Polygon","properties":{"state":"MN","name":"MINNEAPOLIS","zip":"55402"}},{"arcs":[[638,-630,-637,639]],"type":"Polygon","properties":{"state":"MN","name":"MINNEAPOLIS","zip":"55403"}},{"arcs":[[640,641,-640,-636,642,643,644,645]],"type":"Polygon","properties":{"state":"MN","name":"MINNEAPOLIS","zip":"55404"}},{"arcs":[[646,647,648,649,-631,-639,-642]],"type":"Polygon","properties":{"state":"MN","name":"MINNEAPOLIS","zip":"55405"}},{"arcs":[[650,-645,651,652,653]],"type":"Polygon","properties":{"state":"MN","name":"MINNEAPOLIS","zip":"55406"}},{"arcs":[[654,655,656,-646,-651]],"type":"Polygon","properties":{"state":"MN","name":"MINNEAPOLIS","zip":"55407"}},{"arcs":[[657,-647,-641,-657,658,659]],"type":"Polygon","properties":{"state":"MN","name":"MINNEAPOLIS","zip":"55408"}},{"arcs":[[660,-659,-656,661,662]],"type":"Polygon","properties":{"state":"MN","name":"MINNEAPOLIS","zip":"55409"}},{"arcs":[[663,664,665,666,-660,-661,667]],"type":"Polygon","properties":{"state":"MN","name":"MINNEAPOLIS","zip":"55410"}},{"arcs":[[668,669,670,-632,-650]],"type":"Polygon","properties":{"state":"MN","name":"MINNEAPOLIS","zip":"55411"}},{"arcs":[[-670,671,672,673]],"type":"Polygon","properties":{"state":"MN","name":"MINNEAPOLIS","zip":"55412"}},{"arcs":[[674,675,676,-322]],"type":"Polygon","properties":{"state":"MN","name":"MINNEAPOLIS","zip":"55413"}},{"arcs":[[-289,677,-675,-299,-325]],"type":"Polygon","properties":{"state":"MN","name":"MINNEAPOLIS","zip":"55414"}},{"arcs":[[678,-643,-638,-634,679]],"type":"Polygon","properties":{"state":"MN","name":"MINNEAPOLIS","zip":"55415"}},{"arcs":[[680,681,-648,-658,-667,682,683]],"type":"Polygon","properties":{"state":"MN","name":"MINNEAPOLIS","zip":"55416"}},{"arcs":[[684,-662,-655,-654,685,-313,686,687]],"type":"Polygon","properties":{"state":"MN","name":"MINNEAPOLIS","zip":"55417"}},{"arcs":[[688,-320,-323,-677,689]],"type":"Polygon","properties":{"state":"MN","name":"MINNEAPOLIS","zip":"55418"}},{"arcs":[[690,-668,-663,-685]],"type":"Polygon","properties":{"state":"MN","name":"MINNEAPOLIS","zip":"55419"}},{"arcs":[[691,692,693,-516]],"type":"Polygon","properties":{"state":"MN","name":"MINNEAPOLIS","zip":"55420"}},{"arcs":[[694,-315,-689,695]],"type":"Polygon","properties":{"state":"MN","name":"MINNEAPOLIS","zip":"55421"}},{"arcs":[[696,697,698,-672,-669,-649,-682]],"type":"Polygon","properties":{"state":"MN","name":"MINNEAPOLIS","zip":"55422"}},{"arcs":[[699,700,-664,-691,-688,701,702,-693]],"type":"Polygon","properties":{"state":"MN","name":"MINNEAPOLIS","zip":"55423"}},{"arcs":[[703,704,-683,-666]],"type":"Polygon","properties":{"state":"MN","name":"MINNEAPOLIS","zip":"55424"}},{"arcs":[[-517,-694,-703,705,-311,-340]],"type":"Polygon","properties":{"state":"MN","name":"MINNEAPOLIS","zip":"55425"}},{"arcs":[[706,-536,-371,707,708,-681]],"type":"Polygon","properties":{"state":"MN","name":"MINNEAPOLIS","zip":"55426"}},{"arcs":[[-709,709,710,-697]],"type":"Polygon","properties":{"state":"MN","name":"MINNEAPOLIS","zip":"55427"}},{"arcs":[[711,-603,712,713,714,-698,-711]],"type":"Polygon","properties":{"state":"MN","name":"MINNEAPOLIS","zip":"55428"}},{"arcs":[[715,716,717,-699,-715]],"type":"Polygon","properties":{"state":"MN","name":"MINNEAPOLIS","zip":"55429"}},{"arcs":[[-673,-718,718,719]],"type":"Polygon","properties":{"state":"MN","name":"MINNEAPOLIS","zip":"55430"}},{"arcs":[[720,721,-700,-692,-515]],"type":"Polygon","properties":{"state":"MN","name":"MINNEAPOLIS","zip":"55431"}},{"arcs":[[722,723,724,-316,-695,725]],"type":"Polygon","properties":{"state":"MN","name":"MINNEAPOLIS","zip":"55432"}},{"arcs":[[-364,726,727,-723,728]],"type":"Polygon","properties":{"state":"MN","name":"MINNEAPOLIS","zip":"55433"}},{"arcs":[[729,-724,-728,730,-370]],"type":"Polygon","properties":{"state":"MN","name":"MINNEAPOLIS","zip":"55434"}},{"arcs":[[731,732,-704,-665,-701,-722]],"type":"Polygon","properties":{"state":"MN","name":"MINNEAPOLIS","zip":"55435"}},{"arcs":[[-537,-707,-684,-705,733,-543]],"type":"Polygon","properties":{"state":"MN","name":"MINNEAPOLIS","zip":"55436"}},{"arcs":[[-619,734,735,-732,-721]],"type":"Polygon","properties":{"state":"MN","name":"MINNEAPOLIS","zip":"55437"}},{"arcs":[[-618,-547,-540,736,-735]],"type":"Polygon","properties":{"state":"MN","name":"MINNEAPOLIS","zip":"55438"}},{"arcs":[[-736,-737,-539,-734,-733]],"type":"Polygon","properties":{"state":"MN","name":"MINNEAPOLIS","zip":"55439"}},{"arcs":[[-376,737,738,-710,-708]],"type":"Polygon","properties":{"state":"MN","name":"MINNEAPOLIS","zip":"55441"}},{"arcs":[[739,-604,-712,-739]],"type":"Polygon","properties":{"state":"MN","name":"MINNEAPOLIS","zip":"55442"}},{"arcs":[[740,-716,-714,741,-430,742]],"type":"Polygon","properties":{"state":"MN","name":"MINNEAPOLIS","zip":"55443"}},{"arcs":[[-719,-717,-741,743]],"type":"Polygon","properties":{"state":"MN","name":"MINNEAPOLIS","zip":"55444"}},{"arcs":[[-713,-606,-426,-742]],"type":"Polygon","properties":{"state":"MN","name":"MINNEAPOLIS","zip":"55445"}},{"arcs":[[-529,-400,-740,744,-627]],"type":"Polygon","properties":{"state":"MN","name":"MINNEAPOLIS","zip":"55446"}},{"arcs":[[-628,-745,-738,-375]],"type":"Polygon","properties":{"state":"MN","name":"MINNEAPOLIS","zip":"55447"}},{"arcs":[[-727,-363,-368,-731]],"type":"Polygon","properties":{"state":"MN","name":"MINNEAPOLIS","zip":"55448"}},{"arcs":[[-352,-317,-725,-730,-369,-97]],"type":"Polygon","properties":{"state":"MN","name":"MINNEAPOLIS","zip":"55449"}},{"arcs":[[-702,-687,-312,-706]],"type":"Polygon","properties":{"state":"MN","name":"MINNEAPOLIS","zip":"55450"}},{"arcs":[[-652,-644,-679,745]],"type":"Polygon","properties":{"state":"MN","name":"MINNEAPOLIS","zip":"55454"}},{"arcs":[[746,747,748,749,750,751,752,753]],"type":"Polygon","properties":{"state":"MN","name":"BRIMSON","zip":"55602"}},{"arcs":[[754,755,756,757,-23,-14]],"type":"Polygon","properties":{"state":"MN","name":"FINLAND","zip":"55603"}},{"arcs":[[-20,758,-17,759,760,761,762]],"type":"Polygon","properties":{"state":"MN","name":"GRAND MARAIS","zip":"55604"}},{"arcs":[[763,-761,764]],"type":"Polygon","properties":{"state":"MN","name":"GRAND PORTAGE","zip":"55605"}},{"arcs":[[-764,765,-762]],"type":"Polygon","properties":{"state":"MN","name":"HOVLAND","zip":"55606"}},{"arcs":[[766,767,-752,768,769,-24,-758]],"type":"Polygon","properties":{"state":"MN","name":"ISABELLA","zip":"55607"}},{"arcs":[[-18,-759,-22,770]],"type":"Polygon","properties":{"state":"MN","name":"LUTSEN","zip":"55612"}},{"arcs":[[-755,-13,771,772]],"type":"Polygon","properties":{"state":"MN","name":"SCHROEDER","zip":"55613"}},{"arcs":[[773,-767,-757,774]],"type":"Polygon","properties":{"state":"MN","name":"SILVER BAY","zip":"55614"}},{"arcs":[[-772,-12,775]],"type":"Polygon","properties":{"state":"MN","name":"TOFTE","zip":"55615"}},{"arcs":[[776,777,-753,-768,-774,778,779]],"type":"Polygon","properties":{"state":"MN","name":"TWO HARBORS","zip":"55616"}},{"arcs":[[780,781,782]],"type":"Polygon","properties":{"state":"MN","name":"ALBORN","zip":"55702"}},{"arcs":[[783,784]],"type":"Polygon","properties":{"state":"MN","name":"ANGORA","zip":"55703"}},{"arcs":[[785,786,787,-248]],"type":"Polygon","properties":{"state":"MN","name":"ASKOV","zip":"55704"}},{"arcs":[[788,789,790,791,-749]],"type":"Polygon","properties":{"state":"MN","name":"AURORA","zip":"55705"}},{"arcs":[[792,793,794,-769,-751,795]],"type":"Polygon","properties":{"state":"MN","name":"BABBITT","zip":"55706"}},{"arcs":[[796,797,798,799,800,801,802]],"type":"Polygon","properties":{"state":"MN","name":"BARNUM","zip":"55707"}},{"arcs":[[803,804,805,806,807,808,809,810]],"type":"Polygon","properties":{"state":"MN","name":"BOVEY","zip":"55709"}},{"arcs":[[811,812,-784,813,814]],"type":"Polygon","properties":{"state":"MN","name":"BRITT","zip":"55710"}},{"arcs":[[815,816,817,818]],"type":"Polygon","properties":{"state":"MN","name":"BROOKSTON","zip":"55711"}},{"arcs":[[-788,819,820,-249]],"type":"Polygon","properties":{"state":"MN","name":"BRUNO","zip":"55712"}},{"arcs":[[821,822,823,824]],"type":"Polygon","properties":{"state":"MN","name":"CANYON","zip":"55717"}},{"arcs":[[825,826,-803,827,828,829]],"type":"Polygon","properties":{"state":"MN","name":"CARLTON","zip":"55718"}},{"arcs":[[830,831,832,-813,833]],"type":"Polygon","properties":{"state":"MN","name":"CHISHOLM","zip":"55719"}},{"arcs":[[834,-819,835,836,837,-828,-802]],"type":"Polygon","properties":{"state":"MN","name":"CLOQUET","zip":"55720"}},{"arcs":[[838,839,840]],"type":"Polygon","properties":{"state":"MN","name":"COHASSET","zip":"55721"}},{"arcs":[[841,842,843,844,845,846,-814,-785,-833,847,848,849,-809]],"type":"Polygon","properties":{"state":"MN","name":"COOK","zip":"55723"}},{"arcs":[[850,-825,851,852,853,854]],"type":"Polygon","properties":{"state":"MN","name":"COTTON","zip":"55724"}},{"arcs":[[855,-1,856,-7]],"type":"Polygon","properties":{"state":"MN","name":"CRANE LAKE","zip":"55725"}},{"arcs":[[857,858,859,-816,-835,-801,860]],"type":"Polygon","properties":{"state":"MN","name":"CROMWELL","zip":"55726"}},{"arcs":[[-795,861,-10,-25,-770]],"type":"Polygon","properties":{"state":"MN","name":"ELY","zip":"55731"}},{"arcs":[[862,863,-793,864,-791,865]],"type":"Polygon","properties":{"state":"MN","name":"EMBARRASS","zip":"55732"}},{"arcs":[[866,-829,-838,867]],"type":"Polygon","properties":{"state":"MN","name":"ESKO","zip":"55733"}},{"arcs":[[868,869,870,871,872,873,874]],"type":"Polygon","properties":{"state":"MN","name":"EVELETH","zip":"55734"}},{"arcs":[[875,876,877,878,-786,-247,-209]],"type":"Polygon","properties":{"state":"MN","name":"FINLAYSON","zip":"55735"}},{"arcs":[[879,880,881,882,883,-781,884,-817,-860,885]],"type":"Polygon","properties":{"state":"MN","name":"FLOODWOOD","zip":"55736"}},{"arcs":[[886,-853,887,888,889,-869]],"type":"Polygon","properties":{"state":"MN","name":"FORBES","zip":"55738"}},{"arcs":[[890,-873,891,-866,-790]],"type":"Polygon","properties":{"state":"MN","name":"GILBERT","zip":"55741"}},{"arcs":[[892,893,-804,894,895]],"type":"Polygon","properties":{"state":"MN","name":"GOODLAND","zip":"55742"}},{"arcs":[[896,897,-839,898,899,-806,900,901,902]],"type":"Polygon","properties":{"state":"MN","name":"GRAND RAPIDS","zip":"55744"}},{"arcs":[[903,904,905,-848,-832,906,-889,907,-883,908,-896]],"type":"Polygon","properties":{"state":"MN","name":"HIBBING","zip":"55746"}},{"arcs":[[909,910,911,912,913,-897]],"type":"Polygon","properties":{"state":"MN","name":"HILL CITY","zip":"55748"}},{"arcs":[[914,915,916,-798,917]],"type":"Polygon","properties":{"state":"MN","name":"HOLYOKE","zip":"55749"}},{"arcs":[[-792,-865,-796,-750]],"type":"Polygon","properties":{"state":"MN","name":"HOYT LAKES","zip":"55750"}},{"arcs":[[-831,918,-870,-890,-907]],"type":"Polygon","properties":{"state":"MN","name":"IRON","zip":"55751"}},{"arcs":[[919,920,921,922,-910,-903,923,-881]],"type":"Polygon","properties":{"state":"MN","name":"JACOBSON","zip":"55752"}},{"arcs":[[924,925,-916,926,-250,-821]],"type":"Polygon","properties":{"state":"MN","name":"KERRICK","zip":"55756"}},{"arcs":[[927,928,929,-861,-800]],"type":"Polygon","properties":{"state":"MN","name":"KETTLE RIVER","zip":"55757"}},{"arcs":[[930,931,932,-911,-923,933,-921,934,935]],"type":"Polygon","properties":{"state":"MN","name":"MCGREGOR","zip":"55760"}},{"arcs":[[936,-855,937,-874,-891,-789,-748]],"type":"Polygon","properties":{"state":"MN","name":"MAKINEN","zip":"55763"}},{"arcs":[[-782,-884,-908,-888,-852,-824]],"type":"Polygon","properties":{"state":"MN","name":"MEADOWLANDS","zip":"55765"}},{"arcs":[[-887,-875,-938,-854]],"type":"Polygon","properties":{"state":"MN","name":"MELRUDE","zip":"55766"}},{"arcs":[[938,-928,-799,-917,-926]],"type":"Polygon","properties":{"state":"MN","name":"MOOSE LAKE","zip":"55767"}},{"arcs":[[-919,-834,-812,939,-871]],"type":"Polygon","properties":{"state":"MN","name":"MOUNTAIN IRON","zip":"55768"}},{"arcs":[[940,-810,-850,941,-905]],"type":"Polygon","properties":{"state":"MN","name":"NASHWAUK","zip":"55769"}},{"arcs":[[942,-845,943,944,945,-2,-856,-6]],"type":"Polygon","properties":{"state":"MN","name":"ORR","zip":"55771"}},{"arcs":[[-941,-904,-895,-811]],"type":"Polygon","properties":{"state":"MN","name":"PENGILLY","zip":"55775"}},{"arcs":[[946,947,-836,-818,-885,-783,-823,948]],"type":"Polygon","properties":{"state":"MN","name":"SAGINAW","zip":"55779"}},{"arcs":[[-906,-942,-849]],"type":"Polygon","properties":{"state":"MN","name":"SIDE LAKE","zip":"55781"}},{"arcs":[[949,950,-929,-939,-925,951,-878]],"type":"Polygon","properties":{"state":"MN","name":"STURGEON LAKE","zip":"55783"}},{"arcs":[[952,-893,-909,-882,-924,-902]],"type":"Polygon","properties":{"state":"MN","name":"SWAN RIVER","zip":"55784"}},{"arcs":[[953,954,955,-913]],"type":"Polygon","properties":{"state":"MN","name":"SWATARA","zip":"55785"}},{"arcs":[[956,957,-935,-920,-880,958,-858,-930,-951]],"type":"Polygon","properties":{"state":"MN","name":"TAMARACK","zip":"55787"}},{"arcs":[[959,-846,-943,-11,-862,-794,-864]],"type":"Polygon","properties":{"state":"MN","name":"TOWER","zip":"55790"}},{"arcs":[[-815,-847,-960,-863,-892,-872,-940]],"type":"Polygon","properties":{"state":"MN","name":"VIRGINIA","zip":"55792"}},{"arcs":[[-953,-901,-805,-894]],"type":"Polygon","properties":{"state":"MN","name":"WARBA","zip":"55793"}},{"arcs":[[-879,-952,-820,-787]],"type":"Polygon","properties":{"state":"MN","name":"WILLOW RIVER","zip":"55795"}},{"arcs":[[-797,-827,960,-918]],"type":"Polygon","properties":{"state":"MN","name":"WRENSHALL","zip":"55797"}},{"arcs":[[-886,-859,-959]],"type":"Polygon","properties":{"state":"MN","name":"WRIGHT","zip":"55798"}},{"arcs":[[961,-754,-778]],"type":"Polygon","properties":{"state":"MN","name":"DULUTH","zip":"55801"}},{"arcs":[[962,963,964,965]],"type":"Polygon","properties":{"state":"MN","name":"DULUTH","zip":"55802"}},{"arcs":[[-822,-851,-937,-747,-962,-777,966,967,968,-949]],"type":"Polygon","properties":{"state":"MN","name":"DULUTH","zip":"55803"}},{"arcs":[[969,-967,-780,970]],"type":"Polygon","properties":{"state":"MN","name":"DULUTH","zip":"55804"}},{"arcs":[[971,972,973,-964]],"type":"Polygon","properties":{"state":"MN","name":"DULUTH","zip":"55805"}},{"arcs":[[974,975,-972,-963,976,977]],"type":"Polygon","properties":{"state":"MN","name":"DULUTH","zip":"55806"}},{"arcs":[[978,979,980,-978,981]],"type":"Polygon","properties":{"state":"MN","name":"DULUTH","zip":"55807"}},{"arcs":[[-867,982,-980,983,-830]],"type":"Polygon","properties":{"state":"MN","name":"DULUTH","zip":"55808"}},{"arcs":[[-983,-868,-837,-948,984,-975,-981]],"type":"Polygon","properties":{"state":"MN","name":"DULUTH","zip":"55810"}},{"arcs":[[-976,-985,-947,-969,985,-973]],"type":"Polygon","properties":{"state":"MN","name":"DULUTH","zip":"55811"}},{"arcs":[[-986,-968,-970,986,-965,-974]],"type":"Polygon","properties":{"state":"MN","name":"DULUTH","zip":"55812"}},{"arcs":[[987,988,989,990]],"type":"Polygon","properties":{"state":"MN","name":"ROCHESTER","zip":"55901"}},{"arcs":[[991,-991,992,993]],"type":"Polygon","properties":{"state":"MN","name":"ROCHESTER","zip":"55902"}},{"arcs":[[994,995,-993,996,997]],"type":"Polygon","properties":{"state":"MN","name":"ROCHESTER","zip":"55904"}},{"arcs":[[998,999,1000,1001,-997,-990]],"type":"Polygon","properties":{"state":"MN","name":"ROCHESTER","zip":"55906"}},{"arcs":[[1002,1003,1004,1005,1006]],"type":"Polygon","properties":{"state":"MN","name":"ADAMS","zip":"55909"}},{"arcs":[[1007,1008,1009,1010,1011,1012,1013,1014,1015]],"type":"Polygon","properties":{"state":"MN","name":"ALTURA","zip":"55910"}},{"arcs":[[1016,1017,1018,1019,1020,1021,1022]],"type":"Polygon","properties":{"state":"MN","name":"AUSTIN","zip":"55912"}},{"arcs":[[1023,1024,1025,1026,-1021,1027,-225]],"type":"Polygon","properties":{"state":"MN","name":"BLOOMING PRAIRIE","zip":"55917"}},{"arcs":[[1028,-1023,1029,1030]],"type":"Polygon","properties":{"state":"MN","name":"BROWNSDALE","zip":"55918"}},{"arcs":[[1031,1032,1033]],"type":"Polygon","properties":{"state":"MN","name":"BROWNSVILLE","zip":"55919"}},{"arcs":[[1034,1035,1036,1037,1038,-988,-992,1039]],"type":"Polygon","properties":{"state":"MN","name":"BYRON","zip":"55920"}},{"arcs":[[1040,1041,1042,-1032,1043]],"type":"Polygon","properties":{"state":"MN","name":"CALEDONIA","zip":"55921"}},{"arcs":[[1044,1045,1046,1047,1048]],"type":"Polygon","properties":{"state":"MN","name":"CANTON","zip":"55922"}},{"arcs":[[1049,1050,1051,-995,1052,1053,1054,1055,1056,1057]],"type":"Polygon","properties":{"state":"MN","name":"CHATFIELD","zip":"55923"}},{"arcs":[[-232,1058,1059,-1024]],"type":"Polygon","properties":{"state":"MN","name":"CLAREMONT","zip":"55924"}},{"arcs":[[1060,1061,1062,1063]],"type":"Polygon","properties":{"state":"MN","name":"DAKOTA","zip":"55925"}},{"arcs":[[1064,1065,-1031,1066]],"type":"Polygon","properties":{"state":"MN","name":"DEXTER","zip":"55926"}},{"arcs":[[-1060,1067,1068,1069,1070,-1025]],"type":"Polygon","properties":{"state":"MN","name":"DODGE CENTER","zip":"55927"}},{"arcs":[[1071,-1054,1072,1073]],"type":"Polygon","properties":{"state":"MN","name":"DOVER","zip":"55929"}},{"arcs":[[1074,1075,1076,1077,-1001]],"type":"Polygon","properties":{"state":"MN","name":"ELGIN","zip":"55932"}},{"arcs":[[1078,-1066,1079,1080,1081,-1006]],"type":"Polygon","properties":{"state":"MN","name":"ELKTON","zip":"55933"}},{"arcs":[[-1053,-998,-1002,-1078,1082,-1073]],"type":"Polygon","properties":{"state":"MN","name":"EYOTA","zip":"55934"}},{"arcs":[[1083,-1058,1084,1085]],"type":"Polygon","properties":{"state":"MN","name":"FOUNTAIN","zip":"55935"}},{"arcs":[[1086,-1080,-1065,1087,1088]],"type":"Polygon","properties":{"state":"MN","name":"GRAND MEADOW","zip":"55936"}},{"arcs":[[1089,1090,1091,1092,-1046]],"type":"Polygon","properties":{"state":"MN","name":"HARMONY","zip":"55939"}},{"arcs":[[1093,1094,-1026,-1071,1095,-1035,1096,1097]],"type":"Polygon","properties":{"state":"MN","name":"HAYFIELD","zip":"55940"}},{"arcs":[[-1043,1098,1099,1100,-1033]],"type":"Polygon","properties":{"state":"MN","name":"HOKAH","zip":"55941"}},{"arcs":[[1101,1102,1103,-1061,1104,-1099,-1042]],"type":"Polygon","properties":{"state":"MN","name":"HOUSTON","zip":"55943"}},{"arcs":[[-1096,-1070,1105,-1036]],"type":"Polygon","properties":{"state":"MN","name":"KASSON","zip":"55944"}},{"arcs":[[-1011,1106,1107,-177,1108,1109]],"type":"Polygon","properties":{"state":"MN","name":"KELLOGG","zip":"55945"}},{"arcs":[[-122,-215,-113,-75,1110,1111,1112,-230,-203]],"type":"Polygon","properties":{"state":"MN","name":"KENYON","zip":"55946"}},{"arcs":[[-1100,-1105,-1064,1113]],"type":"Polygon","properties":{"state":"MN","name":"LA CRESCENT","zip":"55947"}},{"arcs":[[1114,-1085,-1057,1115,-1047,-1093]],"type":"Polygon","properties":{"state":"MN","name":"LANESBORO","zip":"55949"}},{"arcs":[[1116,1117,1118,-1081,-1087,1119]],"type":"Polygon","properties":{"state":"MN","name":"LE ROY","zip":"55951"}},{"arcs":[[1120,1121,1122,-1015,1123]],"type":"Polygon","properties":{"state":"MN","name":"LEWISTON","zip":"55952"}},{"arcs":[[1124,1125,-1018,1126,-1004]],"type":"Polygon","properties":{"state":"MN","name":"LYLE","zip":"55953"}},{"arcs":[[1127,1128,1129,1130,-1049]],"type":"Polygon","properties":{"state":"MN","name":"MABEL","zip":"55954"}},{"arcs":[[-1106,-1069,1131,1132,-1037]],"type":"Polygon","properties":{"state":"MN","name":"MANTORVILLE","zip":"55955"}},{"arcs":[[1133,1134,-149,-173,1135,1136]],"type":"Polygon","properties":{"state":"MN","name":"MAZEPPA","zip":"55956"}},{"arcs":[[1137,-1076,1138,-1107,-1010]],"type":"Polygon","properties":{"state":"MN","name":"MILLVILLE","zip":"55957"}},{"arcs":[[1139,1140,1141]],"type":"Polygon","properties":{"state":"MN","name":"MINNESOTA CITY","zip":"55959"}},{"arcs":[[1142,-1137,1143,-999,-989,-1039]],"type":"Polygon","properties":{"state":"MN","name":"ORONOCO","zip":"55960"}},{"arcs":[[1144,-1117,1145]],"type":"Polygon","properties":{"state":"MN","name":"OSTRANDER","zip":"55961"}},{"arcs":[[-1116,-1056,1146,1147,-1122,1148,-1128,-1048]],"type":"Polygon","properties":{"state":"MN","name":"PETERSON","zip":"55962"}},{"arcs":[[1149,1150,1151,-1134,-1143,-1038,-1133]],"type":"Polygon","properties":{"state":"MN","name":"PINE ISLAND","zip":"55963"}},{"arcs":[[1152,-1074,-1083,-1077,-1138,-1009]],"type":"Polygon","properties":{"state":"MN","name":"PLAINVIEW","zip":"55964"}},{"arcs":[[1153,-1086,-1115,-1092]],"type":"Polygon","properties":{"state":"MN","name":"PRESTON","zip":"55965"}},{"arcs":[[1154,-1088,1155,-1098,1156]],"type":"Polygon","properties":{"state":"MN","name":"RACINE","zip":"55967"}},{"arcs":[[-1141,1157,-1013,1158]],"type":"Polygon","properties":{"state":"MN","name":"ROLLINGSTONE","zip":"55969"}},{"arcs":[[-1127,-1017,-1029,-1079,-1005]],"type":"Polygon","properties":{"state":"MN","name":"ROSE CREEK","zip":"55970"}},{"arcs":[[1159,-1129,-1149,-1121,1160,-1103]],"type":"Polygon","properties":{"state":"MN","name":"RUSHFORD","zip":"55971"}},{"arcs":[[1161,-1147,-1055,-1072,-1153,-1008]],"type":"Polygon","properties":{"state":"MN","name":"SAINT CHARLES","zip":"55972"}},{"arcs":[[-1067,1162,-1094,-1156]],"type":"Polygon","properties":{"state":"MN","name":"SARGEANT","zip":"55973"}},{"arcs":[[1163,-1130,-1160,-1102,-1041]],"type":"Polygon","properties":{"state":"MN","name":"SPRING GROVE","zip":"55974"}},{"arcs":[[-1091,1164,-1146,-1120,-1089,-1155,1165,-1051,1166,-1154]],"type":"Polygon","properties":{"state":"MN","name":"SPRING VALLEY","zip":"55975"}},{"arcs":[[-1157,-1097,-1040,-994,-996,-1052,-1166]],"type":"Polygon","properties":{"state":"MN","name":"STEWARTVILLE","zip":"55976"}},{"arcs":[[-1082,-1119,1167,-1007]],"type":"Polygon","properties":{"state":"MN","name":"TAOPI","zip":"55977"}},{"arcs":[[-1148,-1162,-1016,-1123]],"type":"Polygon","properties":{"state":"MN","name":"UTICA","zip":"55979"}},{"arcs":[[-1109,-176,1168]],"type":"Polygon","properties":{"state":"MN","name":"WABASHA","zip":"55981"}},{"arcs":[[-1022,-1027,-1095,-1163,-1030]],"type":"Polygon","properties":{"state":"MN","name":"WALTHAM","zip":"55982"}},{"arcs":[[1169,-1112,1170,-1151]],"type":"Polygon","properties":{"state":"MN","name":"WANAMINGO","zip":"55983"}},{"arcs":[[-1059,-231,-1113,-1170,-1150,-1132,-1068]],"type":"Polygon","properties":{"state":"MN","name":"WEST CONCORD","zip":"55985"}},{"arcs":[[-1104,-1161,-1124,-1014,-1158,-1140,1171,-1062]],"type":"Polygon","properties":{"state":"MN","name":"WINONA","zip":"55987"}},{"arcs":[[-1050,-1084,-1167]],"type":"Polygon","properties":{"state":"MN","name":"WYKOFF","zip":"55990"}},{"arcs":[[-1000,-1144,-1136,-178,-1108,-1139,-1075]],"type":"Polygon","properties":{"state":"MN","name":"ZUMBRO FALLS","zip":"55991"}},{"arcs":[[-1152,-1171,-1111,-83,-145,-1135]],"type":"Polygon","properties":{"state":"MN","name":"ZUMBROTA","zip":"55992"}},{"arcs":[[1172,1173,1174,1175,1176,1177,1178,1179,1180]],"type":"Polygon","properties":{"state":"MN","name":"MANKATO","zip":"56001"}},{"arcs":[[1181,1182,1183,-1175]],"type":"Polygon","properties":{"state":"MN","name":"MANKATO","zip":"56003"}},{"arcs":[[1184,1185,1186,1187,1188,1189,1190,1191,1192,1193,1194]],"type":"Polygon","properties":{"state":"MN","name":"ALBERT LEA","zip":"56007"}},{"arcs":[[1195,1196,1197,1198,-1185,1199,1200,1201,1202]],"type":"Polygon","properties":{"state":"MN","name":"ALDEN","zip":"56009"}},{"arcs":[[1203,1204,1205,1206,1207,1208,1209]],"type":"Polygon","properties":{"state":"MN","name":"AMBOY","zip":"56010"}},{"arcs":[[1210,1211,1212,-520,-600,-459,-422,-556]],"type":"Polygon","properties":{"state":"MN","name":"BELLE PLAINE","zip":"56011"}},{"arcs":[[1213,1214,1215,1216,1217,1218,1219,1220,1221]],"type":"Polygon","properties":{"state":"MN","name":"BLUE EARTH","zip":"56013"}},{"arcs":[[1222,-1220,1223,1224,1225,1226]],"type":"Polygon","properties":{"state":"MN","name":"BRICELYN","zip":"56014"}},{"arcs":[[1227,-1191]],"type":"Polygon","properties":{"state":"MN","name":"CLARKS GROVE","zip":"56016"}},{"arcs":[[1228,1229,1230,1231,1232]],"type":"Polygon","properties":{"state":"MN","name":"CLEVELAND","zip":"56017"}},{"arcs":[[1233,1234,1235,1236,1237]],"type":"Polygon","properties":{"state":"MN","name":"COMFREY","zip":"56019"}},{"arcs":[[1238,-1200,-1195]],"type":"Polygon","properties":{"state":"MN","name":"CONGER","zip":"56020"}},{"arcs":[[1239,1240,1241]],"type":"Polygon","properties":{"state":"MN","name":"COURTLAND","zip":"56021"}},{"arcs":[[1242,-1238,1243,1244]],"type":"Polygon","properties":{"state":"MN","name":"DARFUR","zip":"56022"}},{"arcs":[[1245,-1218,1246,-1204,1247]],"type":"Polygon","properties":{"state":"MN","name":"DELAVAN","zip":"56023"}},{"arcs":[[1248,1249,-1178,1250]],"type":"Polygon","properties":{"state":"MN","name":"EAGLE LAKE","zip":"56024"}},{"arcs":[[1251,-1224,-1219,-1246,1252,1253]],"type":"Polygon","properties":{"state":"MN","name":"EASTON","zip":"56025"}},{"arcs":[[1254,1255,1256,-228,1257,-1188]],"type":"Polygon","properties":{"state":"MN","name":"ELLENDALE","zip":"56026"}},{"arcs":[[1258,1259,1260,-1222]],"type":"Polygon","properties":{"state":"MN","name":"ELMORE","zip":"56027"}},{"arcs":[[1261,1262,-1233,1263,1264]],"type":"Polygon","properties":{"state":"MN","name":"ELYSIAN","zip":"56028"}},{"arcs":[[1265,-1202,1266]],"type":"Polygon","properties":{"state":"MN","name":"EMMONS","zip":"56029"}},{"arcs":[[1267,1268]],"type":"Polygon","properties":{"state":"MN","name":"ESSIG","zip":"56030"}},{"arcs":[[1269,1270,1271,1272,1273,-1214,-1261,1274]],"type":"Polygon","properties":{"state":"MN","name":"FAIRMONT","zip":"56031"}},{"arcs":[[1275,-1198,1276,1277,1278]],"type":"Polygon","properties":{"state":"MN","name":"FREEBORN","zip":"56032"}},{"arcs":[[-1221,-1223,1279,-1259]],"type":"Polygon","properties":{"state":"MN","name":"FROST","zip":"56033"}},{"arcs":[[1280,1281,1282,-1173]],"type":"Polygon","properties":{"state":"MN","name":"GARDEN CITY","zip":"56034"}},{"arcs":[[-1258,-227,1283,-1189]],"type":"Polygon","properties":{"state":"MN","name":"GENEVA","zip":"56035"}},{"arcs":[[1284,1285,1286,-1126,1287]],"type":"Polygon","properties":{"state":"MN","name":"GLENVILLE","zip":"56036"}},{"arcs":[[1288,-1209,1289,-1181]],"type":"Polygon","properties":{"state":"MN","name":"GOOD THUNDER","zip":"56037"}},{"arcs":[[1290,-1215,-1274,1291,1292,1293]],"type":"Polygon","properties":{"state":"MN","name":"GRANADA","zip":"56039"}},{"arcs":[[1294,1295,1296,1297,1298]],"type":"Polygon","properties":{"state":"MN","name":"HANSKA","zip":"56041"}},{"arcs":[[1299,-1276,1300,-1255,-1187]],"type":"Polygon","properties":{"state":"MN","name":"HARTLAND","zip":"56042"}},{"arcs":[[-1193,1301,1302,-1286]],"type":"Polygon","properties":{"state":"MN","name":"HAYWARD","zip":"56043"}},{"arcs":[[-381,-521,-1213,1303,-502]],"type":"Polygon","properties":{"state":"MN","name":"HENDERSON","zip":"56044"}},{"arcs":[[1304,-1302,-1192,-1228,-1190,-1284,-226,-1028,-1020]],"type":"Polygon","properties":{"state":"MN","name":"HOLLANDALE","zip":"56045"}},{"arcs":[[-1291,1305,-1216]],"type":"Polygon","properties":{"state":"MN","name":"HUNTLEY","zip":"56047"}},{"arcs":[[1306,-1249,1307,-1262,1308,1309,1310,1311]],"type":"Polygon","properties":{"state":"MN","name":"JANESVILLE","zip":"56048"}},{"arcs":[[1312,-1176,-1184,1313,1314,-1230]],"type":"Polygon","properties":{"state":"MN","name":"KASOTA","zip":"56050"}},{"arcs":[[1315,-1226,1316,-1196]],"type":"Polygon","properties":{"state":"MN","name":"KIESTER","zip":"56051"}},{"arcs":[[-213,1317,1318,1319,-126]],"type":"Polygon","properties":{"state":"MN","name":"KILKENNY","zip":"56052"}},{"arcs":[[1320,-1241,1321,1322,1323,-496,-506,-629,1324]],"type":"Polygon","properties":{"state":"MN","name":"LAFAYETTE","zip":"56054"}},{"arcs":[[-1283,1325,-1295,1326,1327,-1174]],"type":"Polygon","properties":{"state":"MN","name":"LAKE CRYSTAL","zip":"56055"}},{"arcs":[[-1264,-1232,1328,1329,1330,-1319]],"type":"Polygon","properties":{"state":"MN","name":"LE CENTER","zip":"56057"}},{"arcs":[[1331,-503,-1304,-1212,1332,-1329,-1231,-1315]],"type":"Polygon","properties":{"state":"MN","name":"LE SUEUR","zip":"56058"}},{"arcs":[[1333,1334,1335,1336,-1207]],"type":"Polygon","properties":{"state":"MN","name":"LEWISVILLE","zip":"56060"}},{"arcs":[[1337,-1296,-1326,-1282,1338,-1336]],"type":"Polygon","properties":{"state":"MN","name":"MADELIA","zip":"56062"}},{"arcs":[[-1313,-1229,-1263,-1308,-1251,-1177]],"type":"Polygon","properties":{"state":"MN","name":"MADISON LAKE","zip":"56063"}},{"arcs":[[-1199,-1300,-1186]],"type":"Polygon","properties":{"state":"MN","name":"MANCHESTER","zip":"56064"}},{"arcs":[[-1248,-1210,-1289,-1180,1339,-1253]],"type":"Polygon","properties":{"state":"MN","name":"MAPLETON","zip":"56065"}},{"arcs":[[1340,-1254,1341]],"type":"Polygon","properties":{"state":"MN","name":"MINNESOTA LAKE","zip":"56068"}},{"arcs":[[1342,-195,-127,-1320,-1331]],"type":"Polygon","properties":{"state":"MN","name":"MONTGOMERY","zip":"56069"}},{"arcs":[[-1330,-1333,-1211,-555,-117,-196,-1343]],"type":"Polygon","properties":{"state":"MN","name":"NEW PRAGUE","zip":"56071"}},{"arcs":[[-1279,1343,1344,-1256,-1301]],"type":"Polygon","properties":{"state":"MN","name":"NEW RICHLAND","zip":"56072"}},{"arcs":[[1345,-1268,1346,-1322,-1240,1347,-1327,-1299]],"type":"Polygon","properties":{"state":"MN","name":"NEW ULM","zip":"56073"}},{"arcs":[[-1242,-1321,1348,-1182,-1328,-1348]],"type":"Polygon","properties":{"state":"MN","name":"NICOLLET","zip":"56074"}},{"arcs":[[1349,-1292,-1273]],"type":"Polygon","properties":{"state":"MN","name":"NORTHROP","zip":"56075"}},{"arcs":[[-1303,-1305,-1019,-1287]],"type":"Polygon","properties":{"state":"MN","name":"OAKLAND","zip":"56076"}},{"arcs":[[-1340,1350,-1312,1351,-1342]],"type":"Polygon","properties":{"state":"MN","name":"PEMBERTON","zip":"56078"}},{"arcs":[[-1351,-1179,-1250,-1307]],"type":"Polygon","properties":{"state":"MN","name":"SAINT CLAIR","zip":"56080"}},{"arcs":[[1352,1353,1354,1355,-1245,1356,-1297,-1338,-1335]],"type":"Polygon","properties":{"state":"MN","name":"SAINT JAMES","zip":"56081"}},{"arcs":[[-1325,-504,-1332,-1314,-1183,-1349]],"type":"Polygon","properties":{"state":"MN","name":"SAINT PETER","zip":"56082"}},{"arcs":[[1357,1358,1359,1360,1361]],"type":"Polygon","properties":{"state":"MN","name":"SANBORN","zip":"56083"}},{"arcs":[[-1357,-1244,-1237,1362,1363,-1323,-1347,-1269,-1346,-1298]],"type":"Polygon","properties":{"state":"MN","name":"SLEEPY EYE","zip":"56085"}},{"arcs":[[1364,-1362,1365,-1363,-1236]],"type":"Polygon","properties":{"state":"MN","name":"SPRINGFIELD","zip":"56087"}},{"arcs":[[1366,1367,1368,-1353,-1334,-1206,1369,-1293,-1350,-1272]],"type":"Polygon","properties":{"state":"MN","name":"TRUMAN","zip":"56088"}},{"arcs":[[-1201,-1239,-1194,-1285,1370,-1267]],"type":"Polygon","properties":{"state":"MN","name":"TWIN LAKES","zip":"56089"}},{"arcs":[[-1208,-1337,-1339,-1281,-1290]],"type":"Polygon","properties":{"state":"MN","name":"VERNON CENTER","zip":"56090"}},{"arcs":[[1371,-1352,-1311,1372,-1344,-1278]],"type":"Polygon","properties":{"state":"MN","name":"WALDORF","zip":"56091"}},{"arcs":[[-1345,-1373,-1310,1373,-211,-229,-1257]],"type":"Polygon","properties":{"state":"MN","name":"WASECA","zip":"56093"}},{"arcs":[[-1309,-1265,-1318,-212,-1374]],"type":"Polygon","properties":{"state":"MN","name":"WATERVILLE","zip":"56096"}},{"arcs":[[-1252,-1341,-1372,-1277,-1197,-1317,-1225]],"type":"Polygon","properties":{"state":"MN","name":"WELLS","zip":"56097"}},{"arcs":[[-1217,-1306,-1294,-1370,-1205,-1247]],"type":"Polygon","properties":{"state":"MN","name":"WINNEBAGO","zip":"56098"}},{"arcs":[[1374,1375,1376,1377,1378,1379,1380,1381,1382,1383]],"type":"Polygon","properties":{"state":"MN","name":"WINDOM","zip":"56101"}},{"arcs":[[1384,1385,1386,1387,1388,1389]],"type":"Polygon","properties":{"state":"MN","name":"ADRIAN","zip":"56110"}},{"arcs":[[1390,1391,1392,1393]],"type":"Polygon","properties":{"state":"MN","name":"ALPHA","zip":"56111"}},{"arcs":[[1394,1395,1396,1397,1398,1399]],"type":"Polygon","properties":{"state":"MN","name":"ARCO","zip":"56113"}},{"arcs":[[1400,1401,1402,1403,-1380]],"type":"Polygon","properties":{"state":"MN","name":"AVOCA","zip":"56114"}},{"arcs":[[1404,1405,1406,1407,1408]],"type":"Polygon","properties":{"state":"MN","name":"BALATON","zip":"56115"}},{"arcs":[[1409,1410,1411]],"type":"Polygon","properties":{"state":"MN","name":"BEAVER CREEK","zip":"56116"}},{"arcs":[[1412,1413,1414]],"type":"Polygon","properties":{"state":"MN","name":"BIGELOW","zip":"56117"}},{"arcs":[[1415,-1375,1416]],"type":"Polygon","properties":{"state":"MN","name":"BINGHAM LAKE","zip":"56118"}},{"arcs":[[1417,1418,1419,1420,1421]],"type":"Polygon","properties":{"state":"MN","name":"BREWSTER","zip":"56119"}},{"arcs":[[1422,1423,-1243,-1356]],"type":"Polygon","properties":{"state":"MN","name":"BUTTERFIELD","zip":"56120"}},{"arcs":[[1424,1425,1426,1427,-1270]],"type":"Polygon","properties":{"state":"MN","name":"CEYLON","zip":"56121"}},{"arcs":[[1428,1429,1430,1431,1432,1433]],"type":"Polygon","properties":{"state":"MN","name":"CHANDLER","zip":"56122"}},{"arcs":[[1434,-1403,1435,1436,1437,1438,1439]],"type":"Polygon","properties":{"state":"MN","name":"CURRIE","zip":"56123"}},{"arcs":[[-1435,1440,-1404]],"type":"Polygon","properties":{"state":"MN","name":"DOVRAY","zip":"56125"}},{"arcs":[[1441,-1393,1442,-1426]],"type":"Polygon","properties":{"state":"MN","name":"DUNNELL","zip":"56127"}},{"arcs":[[1443,1444,1445,1446,-1430,1447,1448,1449]],"type":"Polygon","properties":{"state":"MN","name":"EDGERTON","zip":"56128"}},{"arcs":[[1450,1451,-1385]],"type":"Polygon","properties":{"state":"MN","name":"ELLSWORTH","zip":"56129"}},{"arcs":[[1452,-1420,1453,1454,1455,1456,-1401,-1379]],"type":"Polygon","properties":{"state":"MN","name":"FULDA","zip":"56131"}},{"arcs":[[1457,-1437,1458,-1405]],"type":"Polygon","properties":{"state":"MN","name":"GARVIN","zip":"56132"}},{"arcs":[[1459,1460,1461,-1450]],"type":"Polygon","properties":{"state":"MN","name":"HARDWICK","zip":"56134"}},{"arcs":[[1462,1463,1464,1465,-1395]],"type":"Polygon","properties":{"state":"MN","name":"HENDRICKS","zip":"56136"}},{"arcs":[[1466,-1421,-1453,-1378,1467]],"type":"Polygon","properties":{"state":"MN","name":"HERON LAKE","zip":"56137"}},{"arcs":[[1468,-1410,1469]],"type":"Polygon","properties":{"state":"MN","name":"HILLS","zip":"56138"}},{"arcs":[[1470,1471,1472,1473]],"type":"Polygon","properties":{"state":"MN","name":"HOLLAND","zip":"56139"}},{"arcs":[[1474,-1433,1475,-1456]],"type":"Polygon","properties":{"state":"MN","name":"IONA","zip":"56141"}},{"arcs":[[1476,1477,1478,1479,-1396,-1466]],"type":"Polygon","properties":{"state":"MN","name":"IVANHOE","zip":"56142"}},{"arcs":[[1480,-1376,-1416,1481,1482,1483,1484,-1391,1485]],"type":"Polygon","properties":{"state":"MN","name":"JACKSON","zip":"56143"}},{"arcs":[[1486,1487,1488,-1444,-1462]],"type":"Polygon","properties":{"state":"MN","name":"JASPER","zip":"56144"}},{"arcs":[[-1383,1489,1490,-1358,-1365,-1235]],"type":"Polygon","properties":{"state":"MN","name":"JEFFERS","zip":"56145"}},{"arcs":[[1491,1492,1493,-1452]],"type":"Polygon","properties":{"state":"MN","name":"KANARANZI","zip":"56146"}},{"arcs":[[1494,-1460,-1449,1495,1496,1497]],"type":"Polygon","properties":{"state":"MN","name":"KENNETH","zip":"56147"}},{"arcs":[[1498,1499,1500,-1463,-1400]],"type":"Polygon","properties":{"state":"MN","name":"LAKE BENTON","zip":"56149"}},{"arcs":[[1501,1502,1503,-1468,-1377,-1481]],"type":"Polygon","properties":{"state":"MN","name":"LAKEFIELD","zip":"56150"}},{"arcs":[[1504,-1471,1505,-1406,1506,-1431,-1447]],"type":"Polygon","properties":{"state":"MN","name":"LAKE WILSON","zip":"56151"}},{"arcs":[[1507,1508,1509,1510,1511,-1359,-1491,1512]],"type":"Polygon","properties":{"state":"MN","name":"LAMBERTON","zip":"56152"}},{"arcs":[[1513,-1496,-1448,-1429,1514]],"type":"Polygon","properties":{"state":"MN","name":"LEOTA","zip":"56153"}},{"arcs":[[-1497,-1514,1515,-1387]],"type":"Polygon","properties":{"state":"MN","name":"LISMORE","zip":"56155"}},{"arcs":[[1516,-1487,-1461,-1495,1517,1518,-1412]],"type":"Polygon","properties":{"state":"MN","name":"LUVERNE","zip":"56156"}},{"arcs":[[1519,1520,-1397,1521,1522]],"type":"Polygon","properties":{"state":"MN","name":"LYND","zip":"56157"}},{"arcs":[[-1518,-1498,-1386,-1494]],"type":"Polygon","properties":{"state":"MN","name":"MAGNOLIA","zip":"56158"}},{"arcs":[[1523,-1482,-1417,-1384,-1234,-1424]],"type":"Polygon","properties":{"state":"MN","name":"MOUNTAIN LAKE","zip":"56159"}},{"arcs":[[-1423,-1355,1524,1525,-1483,-1524]],"type":"Polygon","properties":{"state":"MN","name":"ODIN","zip":"56160"}},{"arcs":[[1526,-1422,-1467,-1504]],"type":"Polygon","properties":{"state":"MN","name":"OKABENA","zip":"56161"}},{"arcs":[[1527,-1525,-1354,-1369]],"type":"Polygon","properties":{"state":"MN","name":"ORMSBY","zip":"56162"}},{"arcs":[[1528,-1500,1529,1530,-1473,1531,-1445,-1489]],"type":"Polygon","properties":{"state":"MN","name":"PIPESTONE","zip":"56164"}},{"arcs":[[1532,1533,1534]],"type":"Polygon","properties":{"state":"MN","name":"READING","zip":"56165"}},{"arcs":[[1535,1536,1537,-1509]],"type":"Polygon","properties":{"state":"MN","name":"REVERE","zip":"56166"}},{"arcs":[[1538,1539,-1418,-1527,-1503]],"type":"Polygon","properties":{"state":"MN","name":"ROUND LAKE","zip":"56167"}},{"arcs":[[1540,-1389,1541,-1533,1542,-1414]],"type":"Polygon","properties":{"state":"MN","name":"RUSHMORE","zip":"56168"}},{"arcs":[[1543,-1398,-1521,1544,-1408,1545]],"type":"Polygon","properties":{"state":"MN","name":"RUSSELL","zip":"56169"}},{"arcs":[[-1531,1546,-1546,-1407,-1506,-1474]],"type":"Polygon","properties":{"state":"MN","name":"RUTHTON","zip":"56170"}},{"arcs":[[-1392,-1485,1547,1548,-1427,-1443]],"type":"Polygon","properties":{"state":"MN","name":"SHERBURN","zip":"56171"}},{"arcs":[[-1476,-1432,-1507,-1459,-1436,-1402,-1457]],"type":"Polygon","properties":{"state":"MN","name":"SLAYTON","zip":"56172"}},{"arcs":[[1549,-1470,-1519,-1493]],"type":"Polygon","properties":{"state":"MN","name":"STEEN","zip":"56173"}},{"arcs":[[-1382,1550,-1513,-1490]],"type":"Polygon","properties":{"state":"MN","name":"STORDEN","zip":"56174"}},{"arcs":[[1551,-1438,-1458,-1409,-1545,1552,1553]],"type":"Polygon","properties":{"state":"MN","name":"TRACY","zip":"56175"}},{"arcs":[[1554,-1548,-1484,-1526,-1528,-1368]],"type":"Polygon","properties":{"state":"MN","name":"TRIMONT","zip":"56176"}},{"arcs":[[-1499,-1399,-1544,-1547,-1530]],"type":"Polygon","properties":{"state":"MN","name":"TYLER","zip":"56178"}},{"arcs":[[1555,1556,-1537,1557,-1439,-1552]],"type":"Polygon","properties":{"state":"MN","name":"WALNUT GROVE","zip":"56180"}},{"arcs":[[-1428,-1549,-1555,-1367,-1271]],"type":"Polygon","properties":{"state":"MN","name":"WELCOME","zip":"56181"}},{"arcs":[[-1440,-1558,-1536,-1508,-1551,-1381,-1441]],"type":"Polygon","properties":{"state":"MN","name":"WESTBROOK","zip":"56183"}},{"arcs":[[-1515,-1434,-1475,-1455,1558,-1534,-1542,-1388,-1516]],"type":"Polygon","properties":{"state":"MN","name":"WILMONT","zip":"56185"}},{"arcs":[[-1532,-1472,-1505,-1446]],"type":"Polygon","properties":{"state":"MN","name":"WOODSTOCK","zip":"56186"}},{"arcs":[[1559,-1415,-1543,-1535,-1559,-1454,-1419,-1540]],"type":"Polygon","properties":{"state":"MN","name":"WORTHINGTON","zip":"56187"}},{"arcs":[[1560,1561,1562,1563,1564,1565]],"type":"Polygon","properties":{"state":"MN","name":"WILLMAR","zip":"56201"}},{"arcs":[[1566,1567]],"type":"Polygon","properties":{"state":"MN","name":"ALBERTA","zip":"56207"}},{"arcs":[[1568,1569,1570,1571,1572,1573]],"type":"Polygon","properties":{"state":"MN","name":"APPLETON","zip":"56208"}},{"arcs":[[1574,1575,1576,1577,1578,-476]],"type":"Polygon","properties":{"state":"MN","name":"ATWATER","zip":"56209"}},{"arcs":[[1579,1580,1581,1582]],"type":"Polygon","properties":{"state":"MN","name":"BARRY","zip":"56210"}},{"arcs":[[1583,1584,1585,1586,-1582]],"type":"Polygon","properties":{"state":"MN","name":"BEARDSLEY","zip":"56211"}},{"arcs":[[1587,1588,1589,1590,1591]],"type":"Polygon","properties":{"state":"MN","name":"BELLINGHAM","zip":"56212"}},{"arcs":[[1592,1593,1594,1595,1596,1597]],"type":"Polygon","properties":{"state":"MN","name":"BELVIEW","zip":"56214"}},{"arcs":[[1598,1599,1600,1601,1602,1603,1604]],"type":"Polygon","properties":{"state":"MN","name":"BENSON","zip":"56215"}},{"arcs":[[1605,1606,1607,1608,1609,-1562,1610]],"type":"Polygon","properties":{"state":"MN","name":"BLOMKEST","zip":"56216"}},{"arcs":[[1611,1612,1613,1614,1615]],"type":"Polygon","properties":{"state":"MN","name":"BOYD","zip":"56218"}},{"arcs":[[1616,-1586,1617,1618]],"type":"Polygon","properties":{"state":"MN","name":"BROWNS VALLEY","zip":"56219"}},{"arcs":[[1619,1620,1621,1622,1623,-1477,-1465]],"type":"Polygon","properties":{"state":"MN","name":"CANBY","zip":"56220"}},{"arcs":[[1624,1625,1626,1627,-1567,1628,1629]],"type":"Polygon","properties":{"state":"MN","name":"CHOKIO","zip":"56221"}},{"arcs":[[1630,1631,1632,1633,1634]],"type":"Polygon","properties":{"state":"MN","name":"CLARA CITY","zip":"56222"}},{"arcs":[[1635,1636,-1616,1637,1638]],"type":"Polygon","properties":{"state":"MN","name":"CLARKFIELD","zip":"56223"}},{"arcs":[[1639,1640,1641]],"type":"Polygon","properties":{"state":"MN","name":"CLEMENTS","zip":"56224"}},{"arcs":[[1642,1643,1644,-1625]],"type":"Polygon","properties":{"state":"MN","name":"CLINTON","zip":"56225"}},{"arcs":[[1645,1646,-1602]],"type":"Polygon","properties":{"state":"MN","name":"CLONTARF","zip":"56226"}},{"arcs":[[1647,1648,-1630,-1570]],"type":"Polygon","properties":{"state":"MN","name":"CORRELL","zip":"56227"}},{"arcs":[[-534,1649,1650,-1576,1651,-571,-553]],"type":"Polygon","properties":{"state":"MN","name":"COSMOS","zip":"56228"}},{"arcs":[[1652,1653,1654,1655,1656]],"type":"Polygon","properties":{"state":"MN","name":"COTTONWOOD","zip":"56229"}},{"arcs":[[1657,-1607,1658]],"type":"Polygon","properties":{"state":"MN","name":"DANUBE","zip":"56230"}},{"arcs":[[1659,-1573,1660,1661,-1646,-1601,1662]],"type":"Polygon","properties":{"state":"MN","name":"DANVERS","zip":"56231"}},{"arcs":[[1663,1664,1665,-1614]],"type":"Polygon","properties":{"state":"MN","name":"DAWSON","zip":"56232"}},{"arcs":[[1666,1667,1668]],"type":"Polygon","properties":{"state":"MN","name":"DONNELLY","zip":"56235"}},{"arcs":[[-1587,-1617,1669,-1667,1670,-1627,1671,-1583]],"type":"Polygon","properties":{"state":"MN","name":"DUMONT","zip":"56236"}},{"arcs":[[1672,1673,1674,1675,-1593,1676]],"type":"Polygon","properties":{"state":"MN","name":"ECHO","zip":"56237"}},{"arcs":[[1677,1678,-1523]],"type":"Polygon","properties":{"state":"MN","name":"GHENT","zip":"56239"}},{"arcs":[[-1645,-1580,-1672,-1626]],"type":"Polygon","properties":{"state":"MN","name":"GRACEVILLE","zip":"56240"}},{"arcs":[[1679,-1639,1680,1681,1682,-1675,1683]],"type":"Polygon","properties":{"state":"MN","name":"GRANITE FALLS","zip":"56241"}},{"arcs":[[-1652,-1575,-475,-569]],"type":"Polygon","properties":{"state":"MN","name":"GROVE CITY","zip":"56243"}},{"arcs":[[1684,1685,1686,-1662]],"type":"Polygon","properties":{"state":"MN","name":"HANCOCK","zip":"56244"}},{"arcs":[[1687,-1656,-1636,-1680]],"type":"Polygon","properties":{"state":"MN","name":"HANLEY FALLS","zip":"56245"}},{"arcs":[[1688,1689,-1668,1690,1691,1692]],"type":"Polygon","properties":{"state":"MN","name":"HERMAN","zip":"56248"}},{"arcs":[[-1572,1693,-1685,-1661]],"type":"Polygon","properties":{"state":"MN","name":"HOLLOWAY","zip":"56249"}},{"arcs":[[1694,-1566,1695,-1578]],"type":"Polygon","properties":{"state":"MN","name":"KANDIYOHI","zip":"56251"}},{"arcs":[[1696,1697,1698,1699]],"type":"Polygon","properties":{"state":"MN","name":"KERKHOVEN","zip":"56252"}},{"arcs":[[1700,-1611,-1561,-1695,-1577,-1651]],"type":"Polygon","properties":{"state":"MN","name":"LAKE LILLIAN","zip":"56253"}},{"arcs":[[1701,1702,1703,-1510,-1538,-1557]],"type":"Polygon","properties":{"state":"MN","name":"LUCAN","zip":"56255"}},{"arcs":[[1704,-1588,-1648,-1569,1705,-1664,-1613,-1622]],"type":"Polygon","properties":{"state":"MN","name":"MADISON","zip":"56256"}},{"arcs":[[-1621,1706,-1589,-1705]],"type":"Polygon","properties":{"state":"MN","name":"MARIETTA","zip":"56257"}},{"arcs":[[1707,-1553,-1520,-1679,1708,-1654]],"type":"Polygon","properties":{"state":"MN","name":"MARSHALL","zip":"56258"}},{"arcs":[[1709,-1682,1710,-1632]],"type":"Polygon","properties":{"state":"MN","name":"MAYNARD","zip":"56260"}},{"arcs":[[-1574,-1660,1711,1712,-1706]],"type":"Polygon","properties":{"state":"MN","name":"MILAN","zip":"56262"}},{"arcs":[[-1556,-1554,-1708,-1653,1713,-1673,1714,-1702]],"type":"Polygon","properties":{"state":"MN","name":"MILROY","zip":"56263"}},{"arcs":[[-1678,-1522,-1480,1715,1716,-1623,-1612,-1637,-1655,-1709]],"type":"Polygon","properties":{"state":"MN","name":"MINNEOTA","zip":"56264"}},{"arcs":[[-1681,-1638,-1615,-1666,1717,-1712,-1663,-1600,1718,-1698,1719,-1633,-1711]],"type":"Polygon","properties":{"state":"MN","name":"MONTEVIDEO","zip":"56265"}},{"arcs":[[-1361,1720,-1642,1721,-492,-1324,-1364,-1366]],"type":"Polygon","properties":{"state":"MN","name":"MORGAN","zip":"56266"}},{"arcs":[[-1694,-1571,-1629,-1568,-1628,-1671,-1669,-1690,1722,1723,1724,-1686]],"type":"Polygon","properties":{"state":"MN","name":"MORRIS","zip":"56267"}},{"arcs":[[1725,1726,-498]],"type":"Polygon","properties":{"state":"MN","name":"MORTON","zip":"56270"}},{"arcs":[[1727,-1699,-1719,-1599]],"type":"Polygon","properties":{"state":"MN","name":"MURDOCK","zip":"56271"}},{"arcs":[[1728,1729,1730,1731,1732]],"type":"Polygon","properties":{"state":"MN","name":"NEW LONDON","zip":"56273"}},{"arcs":[[1733,-1692,1734,1735]],"type":"Polygon","properties":{"state":"MN","name":"NORCROSS","zip":"56274"}},{"arcs":[[-1592,1736,-1643,-1649]],"type":"Polygon","properties":{"state":"MN","name":"ODESSA","zip":"56276"}},{"arcs":[[-499,-1727,1737,1738,-1659,-1606,-1701,-1650,-533,-396]],"type":"Polygon","properties":{"state":"MN","name":"OLIVIA","zip":"56277"}},{"arcs":[[1739,-1584,-1581,-1644,-1737,-1591]],"type":"Polygon","properties":{"state":"MN","name":"ORTONVILLE","zip":"56278"}},{"arcs":[[1740,-1729,1741,-1564,1742,-1697]],"type":"Polygon","properties":{"state":"MN","name":"PENNOCK","zip":"56279"}},{"arcs":[[-1624,-1717,-1478]],"type":"Polygon","properties":{"state":"MN","name":"PORTER","zip":"56280"}},{"arcs":[[1743,-1609,1744]],"type":"Polygon","properties":{"state":"MN","name":"PRINSBURG","zip":"56281"}},{"arcs":[[-1720,-1743,-1563,-1610,-1744,1745,-1634]],"type":"Polygon","properties":{"state":"MN","name":"RAYMOND","zip":"56282"}},{"arcs":[[-1641,1746,1747,1748,-1596,1749,-1738,-1726,-497,-1722]],"type":"Polygon","properties":{"state":"MN","name":"REDWOOD FALLS","zip":"56283"}},{"arcs":[[1750,-1635,-1746,-1745,-1608,-1658,-1739,-1750,-1595]],"type":"Polygon","properties":{"state":"MN","name":"RENVILLE","zip":"56284"}},{"arcs":[[-1683,-1710,-1631,-1751,-1594,-1676]],"type":"Polygon","properties":{"state":"MN","name":"SACRED HEART","zip":"56285"}},{"arcs":[[1751,-1597,-1749,1752]],"type":"Polygon","properties":{"state":"MN","name":"SEAFORTH","zip":"56287"}},{"arcs":[[-1742,-1733,1753,-477,-1579,-1696,-1565]],"type":"Polygon","properties":{"state":"MN","name":"SPICER","zip":"56288"}},{"arcs":[[-1605,1754,1755,1756,-1730,-1741,-1700,-1728]],"type":"Polygon","properties":{"state":"MN","name":"SUNBURG","zip":"56289"}},{"arcs":[[-1716,-1479]],"type":"Polygon","properties":{"state":"MN","name":"TAUNTON","zip":"56291"}},{"arcs":[[-1703,-1715,-1677,-1598,-1752]],"type":"Polygon","properties":{"state":"MN","name":"VESTA","zip":"56292"}},{"arcs":[[-1753,-1748,-1511,-1704]],"type":"Polygon","properties":{"state":"MN","name":"WABASSO","zip":"56293"}},{"arcs":[[-1360,-1512,-1747,-1640,-1721]],"type":"Polygon","properties":{"state":"MN","name":"WANDA","zip":"56294"}},{"arcs":[[-1665,-1713,-1718]],"type":"Polygon","properties":{"state":"MN","name":"WATSON","zip":"56295"}},{"arcs":[[1757,1758,1759,-1735,-1691,-1670,-1619]],"type":"Polygon","properties":{"state":"MN","name":"WHEATON","zip":"56296"}},{"arcs":[[-1714,-1657,-1688,-1684,-1674]],"type":"Polygon","properties":{"state":"MN","name":"WOOD LAKE","zip":"56297"}},{"arcs":[[1760,1761,1762,1763,-448,-621,-562]],"type":"Polygon","properties":{"state":"MN","name":"SAINT CLOUD","zip":"56301"}},{"arcs":[[1764,1765,1766,-1763]],"type":"Polygon","properties":{"state":"MN","name":"SAINT CLOUD","zip":"56303"}},{"arcs":[[1767,1768,-441,1769]],"type":"Polygon","properties":{"state":"MN","name":"SAINT CLOUD","zip":"56304"}},{"arcs":[[1770,1771,1772,1773,1774]],"type":"Polygon","properties":{"state":"MN","name":"ALBANY","zip":"56307"}},{"arcs":[[1775,1776,1777,1778,1779,1780,1781,1782,1783]],"type":"Polygon","properties":{"state":"MN","name":"ALEXANDRIA","zip":"56308"}},{"arcs":[[1784,1785,1786]],"type":"Polygon","properties":{"state":"MN","name":"ASHBY","zip":"56309"}},{"arcs":[[1787,1788,-1775,1789,1790]],"type":"Polygon","properties":{"state":"MN","name":"AVON","zip":"56310"}},{"arcs":[[-1734,1791,1792,1793,-1693]],"type":"Polygon","properties":{"state":"MN","name":"BARRETT","zip":"56311"}},{"arcs":[[1794,1795,1796,1797,-1731,-1757]],"type":"Polygon","properties":{"state":"MN","name":"BELGRADE","zip":"56312"}},{"arcs":[[1798,1799,1800,1801,1802,1803,1804]],"type":"Polygon","properties":{"state":"MN","name":"BOWLUS","zip":"56314"}},{"arcs":[[1805,1806,1807,1808,1809]],"type":"Polygon","properties":{"state":"MN","name":"BRANDON","zip":"56315"}},{"arcs":[[-1756,1810,1811,-1795]],"type":"Polygon","properties":{"state":"MN","name":"BROOTEN","zip":"56316"}},{"arcs":[[1812,1813,1814,1815,1816,1817]],"type":"Polygon","properties":{"state":"MN","name":"BURTRUM","zip":"56318"}},{"arcs":[[1818,1819,-1783,1820,1821,1822]],"type":"Polygon","properties":{"state":"MN","name":"CARLOS","zip":"56319"}},{"arcs":[[1823,-1788,1824,-1761,-561,-626]],"type":"Polygon","properties":{"state":"MN","name":"COLD SPRING","zip":"56320"}},{"arcs":[[-1687,-1725,1825,1826,-1647]],"type":"Polygon","properties":{"state":"MN","name":"CYRUS","zip":"56323"}},{"arcs":[[1827,1828,-1787,1829,1830,1831,1832]],"type":"Polygon","properties":{"state":"MN","name":"DALTON","zip":"56324"}},{"arcs":[[1833,-1793,1834,-1785,-1829,1835,-1806,1836]],"type":"Polygon","properties":{"state":"MN","name":"EVANSVILLE","zip":"56326"}},{"arcs":[[1837,1838,-1826,-1724,1839,-1809,1840,-1780]],"type":"Polygon","properties":{"state":"MN","name":"FARWELL","zip":"56327"}},{"arcs":[[-1769,1841,1842,1843,1844,1845,1846,1847,-608,-442]],"type":"Polygon","properties":{"state":"MN","name":"FOLEY","zip":"56329"}},{"arcs":[[1848,-609,-1848]],"type":"Polygon","properties":{"state":"MN","name":"FORESTON","zip":"56330"}},{"arcs":[[1849,1850,-1814,1851,-1773,1852]],"type":"Polygon","properties":{"state":"MN","name":"FREEPORT","zip":"56331"}},{"arcs":[[-1841,-1808,1853,1854,-1781]],"type":"Polygon","properties":{"state":"MN","name":"GARFIELD","zip":"56332"}},{"arcs":[[1855,1856,-1778,1857,1858,-1811,-1755,-1604]],"type":"Polygon","properties":{"state":"MN","name":"GLENWOOD","zip":"56334"}},{"arcs":[[1859,1860,1861,-1815,-1851]],"type":"Polygon","properties":{"state":"MN","name":"GREY EAGLE","zip":"56336"}},{"arcs":[[1862,-1846,1863,1864,1865]],"type":"Polygon","properties":{"state":"MN","name":"HILLMAN","zip":"56338"}},{"arcs":[[-1689,-1794,-1834,1866,-1723]],"type":"Polygon","properties":{"state":"MN","name":"HOFFMAN","zip":"56339"}},{"arcs":[[1867,1868,-1790,-1774,-1852,-1813,1869,-1800]],"type":"Polygon","properties":{"state":"MN","name":"HOLDINGFORD","zip":"56340"}},{"arcs":[[1870,1871,-876,-208,1872,1873]],"type":"Polygon","properties":{"state":"MN","name":"ISLE","zip":"56342"}},{"arcs":[[-1837,-1810,-1840,-1867]],"type":"Polygon","properties":{"state":"MN","name":"KENSINGTON","zip":"56343"}},{"arcs":[[1874,-1803,1875,1876,1877,1878,1879,1880,1881,1882]],"type":"Polygon","properties":{"state":"MN","name":"LITTLE FALLS","zip":"56345"}},{"arcs":[[1883,-1823,1884,1885,1886,1887,-1816,-1862]],"type":"Polygon","properties":{"state":"MN","name":"LONG PRAIRIE","zip":"56347"}},{"arcs":[[1888,-1838,-1779,-1857]],"type":"Polygon","properties":{"state":"MN","name":"LOWRY","zip":"56349"}},{"arcs":[[-1872,1889,-957,-950,-877]],"type":"Polygon","properties":{"state":"MN","name":"MC GRATH","zip":"56350"}},{"arcs":[[1890,-1860,-1850,1891,-1797]],"type":"Polygon","properties":{"state":"MN","name":"MELROSE","zip":"56352"}},{"arcs":[[-610,-1849,-1847,-1863,1892,1893,-109]],"type":"Polygon","properties":{"state":"MN","name":"MILACA","zip":"56353"}},{"arcs":[[-1782,-1855,1894,1895,-1821]],"type":"Polygon","properties":{"state":"MN","name":"MILTONA","zip":"56354"}},{"arcs":[[1896,-1784,-1820]],"type":"Polygon","properties":{"state":"MN","name":"NELSON","zip":"56355"}},{"arcs":[[-110,-1894,1897,-205,-60]],"type":"Polygon","properties":{"state":"MN","name":"OGILVIE","zip":"56358"}},{"arcs":[[1898,1899,1900,1901,-206,-1898,-1893,-1866]],"type":"Polygon","properties":{"state":"MN","name":"ONAMIA","zip":"56359"}},{"arcs":[[-1897,-1819,-1884,1902,1903,-1776]],"type":"Polygon","properties":{"state":"MN","name":"OSAKIS","zip":"56360"}},{"arcs":[[-1836,-1828,1904,1905,1906,1907,-1895,-1854,-1807]],"type":"Polygon","properties":{"state":"MN","name":"PARKERS PRAIRIE","zip":"56361"}},{"arcs":[[-1798,-1892,-1853,-1772,1908,-478,-1754,-1732]],"type":"Polygon","properties":{"state":"MN","name":"PAYNESVILLE","zip":"56362"}},{"arcs":[[1909,-1881,1910,1911,-1864,-1845]],"type":"Polygon","properties":{"state":"MN","name":"PIERZ","zip":"56364"}},{"arcs":[[[1912,1913,1914,-1843]],[[1915,1916,1917,-1868,-1799,1918]]],"type":"MultiPolygon","properties":{"state":"MN","name":"RICE","zip":"56367"}},{"arcs":[[-1771,-1789,-1824,-625,-479,-1909]],"type":"Polygon","properties":{"state":"MN","name":"RICHMOND","zip":"56368"}},{"arcs":[[[-1915,1919,-1882,-1910,-1844]],[[-1875,1920,-1804]]],"type":"MultiPolygon","properties":{"state":"MN","name":"ROYALTON","zip":"56373"}},{"arcs":[[-1869,-1918,1921,1922,-1765,-1762,-1825,-1791]],"type":"Polygon","properties":{"state":"MN","name":"SAINT JOSEPH","zip":"56374"}},{"arcs":[[-1917,1923,-1922]],"type":"Polygon","properties":{"state":"MN","name":"SAINT STEPHEN","zip":"56375"}},{"arcs":[[-1766,-1923,-1924,-1916,1924]],"type":"Polygon","properties":{"state":"MN","name":"SARTELL","zip":"56377"}},{"arcs":[[-1796,-1812,-1859,1925,-1903,-1861,-1891]],"type":"Polygon","properties":{"state":"MN","name":"SAUK CENTRE","zip":"56378"}},{"arcs":[[-1913,-1842,-1768,1926]],"type":"Polygon","properties":{"state":"MN","name":"SAUK RAPIDS","zip":"56379"}},{"arcs":[[-1603,-1827,-1839,-1889,-1856]],"type":"Polygon","properties":{"state":"MN","name":"STARBUCK","zip":"56381"}},{"arcs":[[1927,-1817,-1888,1928,1929,-1876,-1802]],"type":"Polygon","properties":{"state":"MN","name":"SWANVILLE","zip":"56382"}},{"arcs":[[-1818,-1928,-1801,-1870]],"type":"Polygon","properties":{"state":"MN","name":"UPSALA","zip":"56384"}},{"arcs":[[-1777,-1904,-1926,-1858]],"type":"Polygon","properties":{"state":"MN","name":"VILLARD","zip":"56385"}},{"arcs":[[-1902,1930,-1873,-207]],"type":"Polygon","properties":{"state":"MN","name":"WAHKON","zip":"56386"}},{"arcs":[[[1931,1932,1933,1934,1935,1936]],[[-1912,1937,1938,1939,1940,1941,-1899,-1865]]],"type":"MultiPolygon","properties":{"state":"MN","name":"BRAINERD","zip":"56401"}},{"arcs":[[1942,-1932,1943]],"type":"Polygon","properties":{"state":"MN","name":"BAXTER","zip":"56425"}},{"arcs":[[1944,1945,1946,1947,1948,1949,1950,-936,-958,-1890,-1871,1951]],"type":"Polygon","properties":{"state":"MN","name":"AITKIN","zip":"56431"}},{"arcs":[[1952,1953,1954,1955,1956]],"type":"Polygon","properties":{"state":"MN","name":"AKELEY","zip":"56433"}},{"arcs":[[1957,1958,1959,1960,1961,1962,1963,1964,1965]],"type":"Polygon","properties":{"state":"MN","name":"BACKUS","zip":"56435"}},{"arcs":[[1966,1967,1968,1969,1970,-1907]],"type":"Polygon","properties":{"state":"MN","name":"BERTHA","zip":"56437"}},{"arcs":[[1971,-1929,-1887,1972,1973,1974]],"type":"Polygon","properties":{"state":"MN","name":"BROWERVILLE","zip":"56438"}},{"arcs":[[1975,-1970,-1973,-1886]],"type":"Polygon","properties":{"state":"MN","name":"CLARISSA","zip":"56440"}},{"arcs":[[[1976,1977,1978,1979,1980,-1949,1981,-1936]],[[-1947,1982,-1940,1983]]],"type":"MultiPolygon","properties":{"state":"MN","name":"CROSBY","zip":"56441"}},{"arcs":[[1984,1985,-1979]],"type":"Polygon","properties":{"state":"MN","name":"CROSSLAKE","zip":"56442"}},{"arcs":[[1986,-1975,1987,1988,1989,1990,-1878]],"type":"Polygon","properties":{"state":"MN","name":"CUSHING","zip":"56443"}},{"arcs":[[1991,-1941,-1983,-1946]],"type":"Polygon","properties":{"state":"MN","name":"DEERWOOD","zip":"56444"}},{"arcs":[[-1908,-1971,-1976,-1885,-1822,-1896]],"type":"Polygon","properties":{"state":"MN","name":"EAGLE BEND","zip":"56446"}},{"arcs":[[1992,-1980,1993,1994]],"type":"Polygon","properties":{"state":"MN","name":"EMILY","zip":"56447"}},{"arcs":[[-1986,1995,-1958,-1994]],"type":"Polygon","properties":{"state":"MN","name":"FIFTY LAKES","zip":"56448"}},{"arcs":[[-1880,1996,-1938,-1911]],"type":"Polygon","properties":{"state":"MN","name":"FORT RIPLEY","zip":"56449"}},{"arcs":[[-1942,-1992,-1945,1997,-1900]],"type":"Polygon","properties":{"state":"MN","name":"GARRISON","zip":"56450"}},{"arcs":[[1998,1999,-1963,-1953]],"type":"Polygon","properties":{"state":"MN","name":"HACKENSACK","zip":"56452"}},{"arcs":[[2000,-1968,2001,2002,2003]],"type":"Polygon","properties":{"state":"MN","name":"HEWITT","zip":"56453"}},{"arcs":[[2004,2005,2006,2007,2008]],"type":"Polygon","properties":{"state":"MN","name":"LAKE GEORGE","zip":"56458"}},{"arcs":[[2009,-1956,2010,-2005,2011]],"type":"Polygon","properties":{"state":"MN","name":"LAPORTE","zip":"56461"}},{"arcs":[[2012,2013,2014,2015,2016,-1961,2017,2018]],"type":"Polygon","properties":{"state":"MN","name":"MENAHGA","zip":"56464"}},{"arcs":[[-1935,2019,2020,-1977]],"type":"Polygon","properties":{"state":"MN","name":"MERRIFIELD","zip":"56465"}},{"arcs":[[2021,2022,-1989]],"type":"Polygon","properties":{"state":"MN","name":"MOTLEY","zip":"56466"}},{"arcs":[[-2017,2023,-1954,-1962]],"type":"Polygon","properties":{"state":"MN","name":"NEVIS","zip":"56467"}},{"arcs":[[2024,2025,-2020,-1934]],"type":"Polygon","properties":{"state":"MN","name":"NISSWA","zip":"56468"}},{"arcs":[[-1951,2026,-1950,-1981,-1993,2027,-954,-912,-933,2028,-931]],"type":"Polygon","properties":{"state":"MN","name":"PALISADE","zip":"56469"}},{"arcs":[[2029,2030,2031,2032,-2006,-2011,-1955,-2024,-2016,2033]],"type":"Polygon","properties":{"state":"MN","name":"PARK RAPIDS","zip":"56470"}},{"arcs":[[2034,2035,2036,-1959,-1996,-1985,-1978,-2021,-2026]],"type":"Polygon","properties":{"state":"MN","name":"PEQUOT LAKES","zip":"56472"}},{"arcs":[[2037,-2035,-2025,-1933,-1943,2038,-1990,-2023]],"type":"Polygon","properties":{"state":"MN","name":"PILLAGER","zip":"56473"}},{"arcs":[[2039,2040,-1960,-2037,2041]],"type":"Polygon","properties":{"state":"MN","name":"PINE RIVER","zip":"56474"}},{"arcs":[[-1930,-1972,-1987,-1877]],"type":"Polygon","properties":{"state":"MN","name":"RANDALL","zip":"56475"}},{"arcs":[[2042,-2018,-2041,2043,2044,2045]],"type":"Polygon","properties":{"state":"MN","name":"SEBEKA","zip":"56477"}},{"arcs":[[-1974,-1969,-2001,2046,-2042,-2036,-2038,-2022,-1988]],"type":"Polygon","properties":{"state":"MN","name":"STAPLES","zip":"56479"}},{"arcs":[[2047,-2044,-2040,-2047,-2004]],"type":"Polygon","properties":{"state":"MN","name":"VERNDALE","zip":"56481"}},{"arcs":[[-2003,2048,2049,-2045,-2048]],"type":"Polygon","properties":{"state":"MN","name":"WADENA","zip":"56482"}},{"arcs":[[2050,-1999,-1957,2051,2052]],"type":"Polygon","properties":{"state":"MN","name":"WALKER","zip":"56484"}},{"arcs":[[2053,2054,2055,2056,2057,2058,2059,2060,2061,2062,2063,2064,2065,2066,2067,2068]],"type":"Polygon","properties":{"state":"MN","name":"DETROIT LAKES","zip":"56501"}},{"arcs":[[2069,2070,2071,2072,2073,2074,2075,2076]],"type":"Polygon","properties":{"state":"MN","name":"ADA","zip":"56510"}},{"arcs":[[2077,2078,2079,-2060]],"type":"Polygon","properties":{"state":"MN","name":"AUDUBON","zip":"56511"}},{"arcs":[[2080,2081,2082,2083,2084,2085]],"type":"Polygon","properties":{"state":"MN","name":"BARNESVILLE","zip":"56514"}},{"arcs":[[2086,2087,2088,2089,2090,-1833]],"type":"Polygon","properties":{"state":"MN","name":"BATTLE LAKE","zip":"56515"}},{"arcs":[[2091,2092,2093,2094]],"type":"Polygon","properties":{"state":"MN","name":"BEJOU","zip":"56516"}},{"arcs":[[2095,2096,2097,2098,2099,-2075]],"type":"Polygon","properties":{"state":"MN","name":"BELTRAMI","zip":"56517"}},{"arcs":[[2100,2101,-2046,-2050]],"type":"Polygon","properties":{"state":"MN","name":"BLUFFTON","zip":"56518"}},{"arcs":[[2102,2103,2104,2105,-2071]],"type":"Polygon","properties":{"state":"MN","name":"BORUP","zip":"56519"}},{"arcs":[[2106,2107,2108,2109,2110,2111,2112]],"type":"Polygon","properties":{"state":"MN","name":"BRECKENRIDGE","zip":"56520"}},{"arcs":[[2113,-2079,2114,2115,2116,-2062]],"type":"Polygon","properties":{"state":"MN","name":"CALLAWAY","zip":"56521"}},{"arcs":[[2117,-2113,2118,2119,2120,2121]],"type":"Polygon","properties":{"state":"MN","name":"CAMPBELL","zip":"56522"}},{"arcs":[[2122,2123,2124,2125,-2097]],"type":"Polygon","properties":{"state":"MN","name":"CLIMAX","zip":"56523"}},{"arcs":[[2126,2127,2128,-2090]],"type":"Polygon","properties":{"state":"MN","name":"CLITHERALL","zip":"56524"}},{"arcs":[[2129,2130,2131,-2101,-2049]],"type":"Polygon","properties":{"state":"MN","name":"DEER CREEK","zip":"56527"}},{"arcs":[[2132,2133,2134,2135,2136,2137,2138,-2088]],"type":"Polygon","properties":{"state":"MN","name":"DENT","zip":"56528"}},{"arcs":[[-1760,2139,2140,-1830,-1786,-1835,-1792,-1736]],"type":"Polygon","properties":{"state":"MN","name":"ELBOW LAKE","zip":"56531"}},{"arcs":[[2141,2142]],"type":"Polygon","properties":{"state":"MN","name":"ELIZABETH","zip":"56533"}},{"arcs":[[2143,-2143,2144,2145,-2134]],"type":"Polygon","properties":{"state":"MN","name":"ERHARD","zip":"56534"}},{"arcs":[[2146,2147,2148,2149]],"type":"Polygon","properties":{"state":"MN","name":"ERSKINE","zip":"56535"}},{"arcs":[[2150,2151,2152,2153,-2104,2154]],"type":"Polygon","properties":{"state":"MN","name":"FELTON","zip":"56536"}},{"arcs":[[2155,-2111,2156,-2142,-2144,2157,-1831,2158,-2120]],"type":"Polygon","properties":{"state":"MN","name":"FERGUS FALLS","zip":"56537"}},{"arcs":[[-2100,2159,2160,-2092,2161,-2076]],"type":"Polygon","properties":{"state":"MN","name":"FERTILE","zip":"56540"}},{"arcs":[[2162,-2094,2163,2164,2165,2166,2167,2168,2169]],"type":"Polygon","properties":{"state":"MN","name":"FOSSTON","zip":"56542"}},{"arcs":[[-2112,-2156,-2119]],"type":"Polygon","properties":{"state":"MN","name":"FOXHOME","zip":"56543"}},{"arcs":[[2170,-2056,2171,-2054,2172,-2014,2173,-2137]],"type":"Polygon","properties":{"state":"MN","name":"FRAZEE","zip":"56544"}},{"arcs":[[2174,2175,-2077,-2162]],"type":"Polygon","properties":{"state":"MN","name":"GARY","zip":"56545"}},{"arcs":[[2176,2177,-2105,-2154,2178]],"type":"Polygon","properties":{"state":"MN","name":"GEORGETOWN","zip":"56546"}},{"arcs":[[2179,-2152,2180,2181,2182]],"type":"Polygon","properties":{"state":"MN","name":"GLYNDON","zip":"56547"}},{"arcs":[[2183,2184,2185,-2073]],"type":"Polygon","properties":{"state":"MN","name":"HALSTAD","zip":"56548"}},{"arcs":[[-2182,2186,2187,-2085]],"type":"Polygon","properties":{"state":"MN","name":"HAWLEY","zip":"56549"}},{"arcs":[[2188,2189,-2184,-2072]],"type":"Polygon","properties":{"state":"MN","name":"HENDRUM","zip":"56550"}},{"arcs":[[2190,-2128,2191,-2130,-2002,-1967,-1906]],"type":"Polygon","properties":{"state":"MN","name":"HENNING","zip":"56551"}},{"arcs":[[2192,-2116,2193,-2187,-2181,-2151]],"type":"Polygon","properties":{"state":"MN","name":"HITTERDAL","zip":"56552"}},{"arcs":[[2194,2195,-2108]],"type":"Polygon","properties":{"state":"MN","name":"KENT","zip":"56553"}},{"arcs":[[-2188,-2194,-2115,-2078,-2059,2196,-2086]],"type":"Polygon","properties":{"state":"MN","name":"LAKE PARK","zip":"56554"}},{"arcs":[[-2150,2197,2198,-2165]],"type":"Polygon","properties":{"state":"MN","name":"MCINTOSH","zip":"56556"}},{"arcs":[[2199,-2175,-2095,-2163,2200,2201,2202,2203]],"type":"Polygon","properties":{"state":"MN","name":"MAHNOMEN","zip":"56557"}},{"arcs":[[2204,2205,2206,-2179,-2153,-2180]],"type":"Polygon","properties":{"state":"MN","name":"MOORHEAD","zip":"56560"}},{"arcs":[[2207,2208,-2121]],"type":"Polygon","properties":{"state":"MN","name":"NASHUA","zip":"56565"}},{"arcs":[[2209,-2203,2210,-2065]],"type":"Polygon","properties":{"state":"MN","name":"NAYTAHWAUSH","zip":"56566"}},{"arcs":[[2211,2212,2213,-2019,-2043,-2102,-2132]],"type":"Polygon","properties":{"state":"MN","name":"NEW YORK MILLS","zip":"56567"}},{"arcs":[[2214,2215,-2123,-2096]],"type":"Polygon","properties":{"state":"MN","name":"NIELSVILLE","zip":"56568"}},{"arcs":[[2216,2217,2218,-2063,-2117]],"type":"Polygon","properties":{"state":"MN","name":"OGEMA","zip":"56569"}},{"arcs":[[2219,-2068,2220,-2030]],"type":"Polygon","properties":{"state":"MN","name":"OSAGE","zip":"56570"}},{"arcs":[[2221,-2212,-2131,-2192,-2127,-2089]],"type":"Polygon","properties":{"state":"MN","name":"OTTERTAIL","zip":"56571"}},{"arcs":[[2222,-2081,-2197,-2058,2223,-2135,-2146]],"type":"Polygon","properties":{"state":"MN","name":"PELICAN RAPIDS","zip":"56572"}},{"arcs":[[2224,-2138,-2174,-2013,-2214]],"type":"Polygon","properties":{"state":"MN","name":"PERHAM","zip":"56573"}},{"arcs":[[2225,-2189,-2106,-2178]],"type":"Polygon","properties":{"state":"MN","name":"PERLEY","zip":"56574"}},{"arcs":[[-2031,-2221,-2067]],"type":"Polygon","properties":{"state":"MN","name":"PONSFORD","zip":"56575"}},{"arcs":[[-2139,-2225,-2213,-2222]],"type":"Polygon","properties":{"state":"MN","name":"RICHVILLE","zip":"56576"}},{"arcs":[[-2080,-2114,-2061]],"type":"Polygon","properties":{"state":"MN","name":"RICHWOOD","zip":"56577"}},{"arcs":[[-2055,-2172]],"type":"Polygon","properties":{"state":"MN","name":"ROCHERT","zip":"56578"}},{"arcs":[[-2110,2226,-2082,-2223,-2145,-2157]],"type":"Polygon","properties":{"state":"MN","name":"ROTHSAY","zip":"56579"}},{"arcs":[[2227,-2205,-2183,-2084]],"type":"Polygon","properties":{"state":"MN","name":"SABIN","zip":"56580"}},{"arcs":[[2228,-2215,-2074,-2186]],"type":"Polygon","properties":{"state":"MN","name":"SHELLY","zip":"56581"}},{"arcs":[[-1759,2229,-2122,-2209,-2140]],"type":"Polygon","properties":{"state":"MN","name":"TINTAH","zip":"56583"}},{"arcs":[[-2070,-2176,-2200,2230,-2218,2231,-2103]],"type":"Polygon","properties":{"state":"MN","name":"TWIN VALLEY","zip":"56584"}},{"arcs":[[-2193,-2155,-2232,-2217]],"type":"Polygon","properties":{"state":"MN","name":"ULEN","zip":"56585"}},{"arcs":[[-1832,-2158,-2133,-2087]],"type":"Polygon","properties":{"state":"MN","name":"UNDERWOOD","zip":"56586"}},{"arcs":[[-2224,-2057,-2171,-2136]],"type":"Polygon","properties":{"state":"MN","name":"VERGAS","zip":"56587"}},{"arcs":[[-2129,-2191,-1905,-2091]],"type":"Polygon","properties":{"state":"MN","name":"VINING","zip":"56588"}},{"arcs":[[-2219,-2231,-2204,-2210,-2064]],"type":"Polygon","properties":{"state":"MN","name":"WAUBUN","zip":"56589"}},{"arcs":[[-2208,-2159,-2141]],"type":"Polygon","properties":{"state":"MN","name":"WENDELL","zip":"56590"}},{"arcs":[[-2093,-2161,-2147,-2164]],"type":"Polygon","properties":{"state":"MN","name":"WINGER","zip":"56592"}},{"arcs":[[-2069,-2220,-2034,-2015,-2173]],"type":"Polygon","properties":{"state":"MN","name":"WOLF LAKE","zip":"56593"}},{"arcs":[[-2196,2232,-2206,-2228,-2083,-2227,-2109]],"type":"Polygon","properties":{"state":"MN","name":"WOLVERTON","zip":"56594"}},{"arcs":[[2233,2234,-2012,-2009,2235,2236,2237,2238,2239]],"type":"Polygon","properties":{"state":"MN","name":"BEMIDJI","zip":"56601"}},{"arcs":[[-2211,-2202,2240,2241,2242,-2032,-2066]],"type":"Polygon","properties":{"state":"MN","name":"BAGLEY","zip":"56621"}},{"arcs":[[-38,-35,2243,2244,2245,2246]],"type":"Polygon","properties":{"state":"MN","name":"BAUDETTE","zip":"56623"}},{"arcs":[[2247,2248,2249,2250,2251,2252,2253,2254]],"type":"Polygon","properties":{"state":"MN","name":"BENA","zip":"56626"}},{"arcs":[[2255,2256,2257,2258,2259,2260,-39,2261,2262,2263,-944,-844]],"type":"Polygon","properties":{"state":"MN","name":"BIG FALLS","zip":"56627"}},{"arcs":[[2264,2265,2266,2267,-2257,2268,-842,-808,2269,2270]],"type":"Polygon","properties":{"state":"MN","name":"BIGFORK","zip":"56628"}},{"arcs":[[2271,-2262,-2247]],"type":"Polygon","properties":{"state":"MN","name":"BIRCHDALE","zip":"56629"}},{"arcs":[[2272,2273,2274,2275,2276,-2239]],"type":"Polygon","properties":{"state":"MN","name":"BLACKDUCK","zip":"56630"}},{"arcs":[[-2052,-2010,-2235,2277,-2251,2278]],"type":"Polygon","properties":{"state":"MN","name":"CASS LAKE","zip":"56633"}},{"arcs":[[2279,-42,2280,2281,2282,2283]],"type":"Polygon","properties":{"state":"MN","name":"CLEARBROOK","zip":"56634"}},{"arcs":[[2284,-2240,-2277,2285,2286,2287,2288,2289,-899,-841,2290,-2255,2291,-2253]],"type":"Polygon","properties":{"state":"MN","name":"DEER RIVER","zip":"56636"}},{"arcs":[[2292,-2289,2293,-2271]],"type":"Polygon","properties":{"state":"MN","name":"TALMOON","zip":"56637"}},{"arcs":[[-2269,-2256,-843]],"type":"Polygon","properties":{"state":"MN","name":"EFFIE","zip":"56639"}},{"arcs":[[-2249,2294,2295,2296]],"type":"Polygon","properties":{"state":"MN","name":"FEDERAL DAM","zip":"56641"}},{"arcs":[[2297,2298,-43,-2280,2299,-2168]],"type":"Polygon","properties":{"state":"MN","name":"GONVICK","zip":"56644"}},{"arcs":[[2300,2301,2302,2303,-2298,-2167]],"type":"Polygon","properties":{"state":"MN","name":"GULLY","zip":"56646"}},{"arcs":[[2304,2305,2306,-2273,-2238]],"type":"Polygon","properties":{"state":"MN","name":"HINES","zip":"56647"}},{"arcs":[[2307,2308,2309,-4]],"type":"Polygon","properties":{"state":"MN","name":"INTERNATIONAL FALLS","zip":"56649"}},{"arcs":[[2310,2311,2312,2313,2314,-2260,2315,2316,-2274,-2307]],"type":"Polygon","properties":{"state":"MN","name":"KELLIHER","zip":"56650"}},{"arcs":[[-2241,-2201,-2170]],"type":"Polygon","properties":{"state":"MN","name":"LENGBY","zip":"56651"}},{"arcs":[[-2169,-2300,-2284,2317,2318,2319,-2242]],"type":"Polygon","properties":{"state":"MN","name":"LEONARD","zip":"56652"}},{"arcs":[[2320,-945,-2264,2321,2322,-2309]],"type":"Polygon","properties":{"state":"MN","name":"LITTLEFORK","zip":"56653"}},{"arcs":[[-2263,-2272,-2246,2323,-2322]],"type":"Polygon","properties":{"state":"MN","name":"LOMAN","zip":"56654"}},{"arcs":[[2324,-1964,-2000,-2051,2325,-2296]],"type":"Polygon","properties":{"state":"MN","name":"LONGVILLE","zip":"56655"}},{"arcs":[[-900,-2290,-2293,-2270,-807]],"type":"Polygon","properties":{"state":"MN","name":"MARCELL","zip":"56657"}},{"arcs":[[2326,-2287,2327,2328,2329,-2266]],"type":"Polygon","properties":{"state":"MN","name":"MAX","zip":"56659"}},{"arcs":[[2330,-2316,-2259]],"type":"Polygon","properties":{"state":"MN","name":"MIZPAH","zip":"56660"}},{"arcs":[[2331,-2275,-2317,-2331,-2258,-2268,2332,-2329]],"type":"Polygon","properties":{"state":"MN","name":"NORTHOME","zip":"56661"}},{"arcs":[[-1995,-1966,2333,-955,-2028]],"type":"Polygon","properties":{"state":"MN","name":"OUTING","zip":"56662"}},{"arcs":[[-2234,-2285,-2252,-2278]],"type":"Polygon","properties":{"state":"MN","name":"PENNINGTON","zip":"56663"}},{"arcs":[[-2313,2334]],"type":"Polygon","properties":{"state":"MN","name":"PONEMAH","zip":"56666"}},{"arcs":[[2335,-2318,-2283,2336,2337,-2305,-2237]],"type":"Polygon","properties":{"state":"MN","name":"PUPOSKY","zip":"56667"}},{"arcs":[[-2321,-2308,-3,-946]],"type":"Polygon","properties":{"state":"MN","name":"RAY","zip":"56669"}},{"arcs":[[2338,2339,-2311,-2306,-2338]],"type":"Polygon","properties":{"state":"MN","name":"REDBY","zip":"56670"}},{"arcs":[[-2337,-2282,2340,-2339]],"type":"Polygon","properties":{"state":"MN","name":"REDLAKE","zip":"56671"}},{"arcs":[[-2295,-2248,-2291,-840,-898,-914,-956,-2334,-1965,-2325]],"type":"Polygon","properties":{"state":"MN","name":"REMER","zip":"56672"}},{"arcs":[[2341,-33,2342,2343,2344,2345]],"type":"Polygon","properties":{"state":"MN","name":"ROOSEVELT","zip":"56673"}},{"arcs":[[-2243,-2320,2346,-2007,-2033]],"type":"Polygon","properties":{"state":"MN","name":"SHEVLIN","zip":"56676"}},{"arcs":[[-2008,-2347,-2319,-2336,-2236]],"type":"Polygon","properties":{"state":"MN","name":"SOLWAY","zip":"56678"}},{"arcs":[[-2288,-2327,-2265,-2294]],"type":"Polygon","properties":{"state":"MN","name":"SPRING LAKE","zip":"56680"}},{"arcs":[[-2286,-2276,-2332,-2328]],"type":"Polygon","properties":{"state":"MN","name":"SQUAW LAKE","zip":"56681"}},{"arcs":[[2347,2348,-2345]],"type":"Polygon","properties":{"state":"MN","name":"SWIFT","zip":"56682"}},{"arcs":[[-2166,-2199,2349,-2301]],"type":"Polygon","properties":{"state":"MN","name":"TRAIL","zip":"56684"}},{"arcs":[[-2315,2350,-40,-2261]],"type":"Polygon","properties":{"state":"MN","name":"WASKISH","zip":"56685"}},{"arcs":[[-34,-2342,2351,-2244]],"type":"Polygon","properties":{"state":"MN","name":"WILLIAMS","zip":"56686"}},{"arcs":[[-2267,-2330,-2333]],"type":"Polygon","properties":{"state":"MN","name":"WIRT","zip":"56688"}},{"arcs":[[2352,2353,2354,2355,2356,2357,2358,2359]],"type":"Polygon","properties":{"state":"MN","name":"THIEF RIVER FALLS","zip":"56701"}},{"arcs":[[2360,2361,2362,2363]],"type":"Polygon","properties":{"state":"MN","name":"ALVARADO","zip":"56710"}},{"arcs":[[2364]],"type":"Polygon","properties":{"state":"MN","name":"ANGLE INLET","zip":"56711"}},{"arcs":[[2365,-2364,2366,2367,2368]],"type":"Polygon","properties":{"state":"MN","name":"ARGYLE","zip":"56713"}},{"arcs":[[2369,2370,2371,2372,2373,2374,2375]],"type":"Polygon","properties":{"state":"MN","name":"BADGER","zip":"56714"}},{"arcs":[[2376,2377,2378,-2149]],"type":"Polygon","properties":{"state":"MN","name":"BROOKS","zip":"56715"}},{"arcs":[[2379,-2098,-2126,2380,2381,2382,-2356,2383,2384]],"type":"Polygon","properties":{"state":"MN","name":"CROOKSTON","zip":"56716"}},{"arcs":[[2385,2386,2387]],"type":"Polygon","properties":{"state":"MN","name":"DONALDSON","zip":"56720"}},{"arcs":[[2388,2389,2390]],"type":"Polygon","properties":{"state":"MN","name":"EAST GRAND FORKS","zip":"56721"}},{"arcs":[[2391,-2391,2392,2393,-2362,2394,-2382]],"type":"Polygon","properties":{"state":"MN","name":"EUCLID","zip":"56722"}},{"arcs":[[2395,-2389,-2392,-2381,-2125]],"type":"Polygon","properties":{"state":"MN","name":"FISHER","zip":"56723"}},{"arcs":[[2396,2397]],"type":"Polygon","properties":{"state":"MN","name":"GATZKE","zip":"56724"}},{"arcs":[[2398,-2353,2399,-36,-2299,-2304]],"type":"Polygon","properties":{"state":"MN","name":"GOODRIDGE","zip":"56725"}},{"arcs":[[2400,-2376]],"type":"Polygon","properties":{"state":"MN","name":"GREENBUSH","zip":"56726"}},{"arcs":[[-2400,-2360,2401,2402,-2397,2403,2404,-28,-31,-37]],"type":"Polygon","properties":{"state":"MN","name":"GRYGLA","zip":"56727"}},{"arcs":[[2405,2406,2407,2408,2409]],"type":"Polygon","properties":{"state":"MN","name":"HALLOCK","zip":"56728"}},{"arcs":[[2410,2411]],"type":"Polygon","properties":{"state":"MN","name":"HALMA","zip":"56729"}},{"arcs":[[2412,2413,-2387,2414,2415,-2411,2416,-2371,2417]],"type":"Polygon","properties":{"state":"MN","name":"KARLSTAD","zip":"56732"}},{"arcs":[[2418,-2410,2419,-2415,-2386,2420]],"type":"Polygon","properties":{"state":"MN","name":"KENNEDY","zip":"56733"}},{"arcs":[[-2420,-2409,2421,2422,-2372,-2417,-2412,-2416]],"type":"Polygon","properties":{"state":"MN","name":"LAKE BRONSON","zip":"56734"}},{"arcs":[[2423,2424,2425,-2422,-2408]],"type":"Polygon","properties":{"state":"MN","name":"LANCASTER","zip":"56735"}},{"arcs":[[-2160,-2099,-2380,2426,-2148]],"type":"Polygon","properties":{"state":"MN","name":"MENTOR","zip":"56736"}},{"arcs":[[2427,2428,-2404,-2398,-2403,2429]],"type":"Polygon","properties":{"state":"MN","name":"MIDDLE RIVER","zip":"56737"}},{"arcs":[[-2359,2430,2431,-2430,-2402]],"type":"Polygon","properties":{"state":"MN","name":"NEWFOLDEN","zip":"56738"}},{"arcs":[[2432,2433,-2425]],"type":"Polygon","properties":{"state":"MN","name":"NOYES","zip":"56740"}},{"arcs":[[-2379,2434,-2302,-2350,-2198]],"type":"Polygon","properties":{"state":"MN","name":"OKLEE","zip":"56742"}},{"arcs":[[-2394,2435,-2367,-2363]],"type":"Polygon","properties":{"state":"MN","name":"OSLO","zip":"56744"}},{"arcs":[[2436,-2354,-2399,-2303,-2435,-2378]],"type":"Polygon","properties":{"state":"MN","name":"PLUMMER","zip":"56748"}},{"arcs":[[-2427,-2385,2437,-2437,-2377]],"type":"Polygon","properties":{"state":"MN","name":"RED LAKE FALLS","zip":"56750"}},{"arcs":[[-29,2438,2439,-2374,2440,2441,2442,-2343,-32]],"type":"Polygon","properties":{"state":"MN","name":"ROSEAU","zip":"56751"}},{"arcs":[[-2384,-2355,-2438]],"type":"Polygon","properties":{"state":"MN","name":"SAINT HILAIRE","zip":"56754"}},{"arcs":[[2443,-2433,-2424,-2407]],"type":"Polygon","properties":{"state":"MN","name":"SAINT VINCENT","zip":"56755"}},{"arcs":[[2444,-2443]],"type":"Polygon","properties":{"state":"MN","name":"SALOL","zip":"56756"}},{"arcs":[[2445,-2421,-2388,-2414,2446,2447,-2369]],"type":"Polygon","properties":{"state":"MN","name":"STEPHEN","zip":"56757"}},{"arcs":[[2448,-2447,-2413,2449,-2428,-2432,2450]],"type":"Polygon","properties":{"state":"MN","name":"STRANDQUIST","zip":"56758"}},{"arcs":[[-2370,-2401,-2375,-2440,2451,-2429,-2450,-2418]],"type":"Polygon","properties":{"state":"MN","name":"STRATHCONA","zip":"56759"}},{"arcs":[[2452,-2451,-2431,-2358]],"type":"Polygon","properties":{"state":"MN","name":"VIKING","zip":"56760"}},{"arcs":[[-2405,-2452,-2439]],"type":"Polygon","properties":{"state":"MN","name":"WANNASKA","zip":"56761"}},{"arcs":[[-2383,-2395,-2361,-2366,-2448,-2449,-2453,-2357]],"type":"Polygon","properties":{"state":"MN","name":"WARREN","zip":"56762"}},{"arcs":[[-2445,-2442,2453,-2348,-2344]],"type":"Polygon","properties":{"state":"MN","name":"WARROAD","zip":"56763"}}]}},"arcs":[[[25151,24354],[-198,-102]],[[24953,24252],[-85,-33],[-82,160],[113,54],[-176,12]],[[24723,24445],[-63,77]],[[24660,24522],[0,96]],[[24660,24618],[338,-63],[-45,-66],[203,-56],[-5,-79]],[[25178,23983],[-22,190]],[[25156,24173],[94,74]],[[25250,24247],[36,115],[167,15],[216,-160]],[[25669,24217],[-4,-148]],[[25665,24069],[-280,-178]],[[25385,23891],[-207,92]],[[26471,23609],[0,307],[-99,-22]],[[26372,23894],[-99,0]],[[26273,23894],[-5,0]],[[26268,23894],[-4,307]],[[26264,24201],[103,54]],[[26367,24255],[95,-209],[301,-56],[-211,-68],[211,-41],[-130,-120]],[[26633,23761],[-117,-127]],[[26516,23634],[-45,-25]],[[26651,23731],[99,5]],[[26750,23736],[-90,-28]],[[26660,23708],[-9,23]],[[26268,23894],[-194,0]],[[26074,23894],[-243,2]],[[25831,23896],[-162,43],[-4,130]],[[25669,24217],[176,-163],[419,147]],[[22904,24562],[104,-5],[0,-173]],[[23008,24384],[-307,0],[0,176]],[[22701,24560],[203,2]],[[23516,24384],[-504,0]],[[23012,24384],[-4,0]],[[22904,24562],[9,178]],[[22913,24740],[293,0]],[[23206,24740],[103,-43]],[[23309,24697],[59,-246],[148,-67]],[[22719,24028],[-9,158]],[[22710,24186],[302,20],[0,178]],[[23516,24384],[100,0]],[[23616,24384],[4,-89]],[[23620,24295],[-99,-81]],[[23521,24214],[-527,-186]],[[22994,24028],[-198,0]],[[22796,24028],[-77,0]],[[24836,20789],[0,89]],[[24836,20878],[18,0]],[[24854,20878],[45,0]],[[24899,20878],[14,-46]],[[24913,20832],[0,-31],[0,-12]],[[24913,20789],[-77,-16]],[[24836,20773],[0,16]],[[24638,21315],[-18,0]],[[24620,21315],[-158,0]],[[24462,21315],[0,3]],[[24462,21318],[59,35]],[[24521,21353],[99,0]],[[24620,21353],[18,-38]],[[24678,21679],[-18,-13]],[[24660,21666],[-202,-31]],[[24458,21635],[-32,34]],[[24426,21669],[9,10]],[[24435,21679],[122,66]],[[24557,21745],[63,-3]],[[24620,21742],[58,-63]],[[24976,21857],[-356,2]],[[24620,21859],[-63,130]],[[24557,21989],[522,-51]],[[25079,21938],[23,0]],[[25102,21938],[-68,-48],[-58,-33]],[[24390,21455],[5,137]],[[24395,21592],[31,0]],[[24426,21592],[194,-10]],[[24620,21582],[0,-79]],[[24620,21503],[4,-74]],[[24624,21429],[-234,26]],[[24863,20283],[-68,20]],[[24795,20303],[-94,99]],[[24701,20402],[0,28]],[[24701,20430],[99,76]],[[24800,20506],[45,23]],[[24845,20529],[63,-10]],[[24908,20519],[23,-135]],[[24931,20384],[-45,-101]],[[24886,20283],[-23,0]],[[24620,21315],[-72,-79]],[[24548,21236],[-86,0]],[[24462,21236],[0,79]],[[24922,21412],[-18,-115]],[[24904,21297],[-32,138]],[[24872,21435],[63,33]],[[24935,21468],[-13,-56]],[[24804,21234],[-27,25]],[[24777,21259],[-9,26]],[[24768,21285],[54,78]],[[24822,21363],[50,-129]],[[24872,21234],[-68,0]],[[24656,21058],[-68,0]],[[24588,21058],[32,89]],[[24620,21147],[0,15]],[[24620,21162],[54,-33]],[[24674,21129],[-14,-71]],[[24660,21058],[-4,0]],[[24836,20773],[-9,-73]],[[24827,20700],[-68,-3]],[[24759,20697],[-18,79]],[[24741,20776],[0,13]],[[24741,20789],[95,0]],[[24458,21635],[-32,-43]],[[24395,21592],[-50,43]],[[24345,21635],[-13,49]],[[24332,21684],[94,-15]],[[24773,20270],[-104,51]],[[24669,20321],[32,81]],[[24795,20303],[-22,-33]],[[24561,20283],[-81,58]],[[24480,20341],[32,18]],[[24512,20359],[49,-76]],[[24341,20461],[13,89]],[[24354,20550],[72,0]],[[24426,20550],[72,-82]],[[24498,20468],[-144,-7]],[[24354,20461],[-13,0]],[[24606,20224],[14,-119]],[[24620,20105],[-162,0]],[[24458,20105],[-45,0]],[[24413,20105],[4,30],[9,26],[-58,33]],[[24368,20194],[0,91]],[[24368,20285],[18,8]],[[24386,20293],[94,48]],[[24561,20283],[45,-13]],[[24606,20270],[0,-46]],[[24701,20486],[-77,-18]],[[24624,20468],[-85,-7]],[[24539,20461],[22,155]],[[24561,20616],[140,-8]],[[24701,20608],[22,-28]],[[24723,20580],[-22,-94]],[[24818,21162],[-9,-17]],[[24809,21145],[-135,-16]],[[24620,21162],[0,61]],[[24620,21223],[157,36]],[[24804,21234],[14,-72]],[[25264,20417],[-32,11]],[[25232,20428],[18,25]],[[25250,20453],[14,-36]],[[25066,20267],[-180,16]],[[24931,20384],[9,10]],[[24940,20394],[193,-25]],[[25133,20369],[41,-102]],[[25174,20267],[-108,0]],[[24557,21745],[63,30]],[[24620,21775],[0,-33]],[[24800,20506],[-99,-20]],[[24723,20580],[122,-51]],[[24620,21582],[40,3]],[[24660,21585],[158,5]],[[24818,21590],[54,-84]],[[24872,21506],[-252,-3]],[[24913,20789],[-32,-102],[0,-15],[-54,28]],[[24701,20608],[49,71]],[[24750,20679],[172,-48]],[[24922,20631],[-14,-112]],[[24557,21989],[49,56]],[[24606,22045],[473,-18],[0,-89]],[[24692,21058],[-32,0]],[[24809,21145],[18,-36]],[[24827,21109],[-54,-61]],[[24773,21048],[-81,10]],[[24521,21353],[-117,0]],[[24404,21353],[-41,87]],[[24363,21440],[27,15]],[[24624,21429],[9,-30]],[[24633,21399],[-13,-46]],[[25174,20239],[0,28]],[[25133,20369],[99,59]],[[25264,20417],[99,-86]],[[25363,20331],[0,-89]],[[25363,20242],[-95,-3]],[[25268,20239],[-94,0]],[[24773,20967],[81,-89]],[[24836,20878],[-32,0]],[[24804,20878],[-22,0]],[[24782,20878],[-9,89]],[[24899,20878],[14,25]],[[24913,20903],[0,-71]],[[24512,20461],[-14,7]],[[24426,20550],[59,89]],[[24485,20639],[54,0]],[[24539,20639],[22,0]],[[24561,20639],[0,-23]],[[24539,20461],[-27,0]],[[24904,21297],[4,-48]],[[24908,21249],[-36,-15]],[[24822,21363],[-13,16]],[[24809,21379],[63,56]],[[24386,20293],[-63,109]],[[24323,20402],[18,59]],[[24354,20461],[45,-44]],[[24399,20417],[113,-58]],[[24922,21162],[0,-17],[4,-72]],[[24926,21073],[-99,36]],[[24818,21162],[104,0]],[[24629,20084],[-171,21]],[[24620,20105],[9,-21]],[[24620,21859],[0,-84]],[[24435,21679],[63,68],[-171,130]],[[24327,21877],[0,61]],[[24327,21938],[68,66]],[[24395,22004],[112,0],[9,115]],[[24516,22119],[95,0]],[[24611,22119],[-5,-74]],[[24413,20105],[-90,0]],[[24323,20105],[0,89]],[[24323,20194],[45,0]],[[24606,20270],[63,51]],[[24773,20270],[-167,-46]],[[24741,20776],[-18,2]],[[24723,20778],[-4,39]],[[24719,20817],[18,-3]],[[24737,20814],[4,-25]],[[24872,21506],[50,-5],[36,-59]],[[24958,21442],[-23,26]],[[24809,21379],[-176,20]],[[24399,20417],[113,44]],[[24624,20468],[77,-38]],[[24656,19876],[-54,-127]],[[24602,19749],[-59,0]],[[24543,19749],[-9,0]],[[24534,19749],[-27,104],[-31,0],[-63,51]],[[24413,19904],[0,201]],[[24629,20084],[18,0]],[[24647,20084],[49,-68]],[[24696,20016],[-40,-140]],[[24976,21857],[-122,-178]],[[24854,21679],[-5,0],[-135,0],[-36,0]],[[24940,20394],[112,128]],[[25052,20522],[198,-69]],[[24561,20639],[45,61]],[[24606,20700],[41,0]],[[24647,20700],[67,0]],[[24714,20700],[36,-21]],[[24854,21679],[-36,-89]],[[24660,21585],[0,81]],[[24462,21318],[-67,7]],[[24395,21325],[-14,28]],[[24381,21353],[23,0]],[[24759,20697],[-36,81]],[[24611,22119],[275,0]],[[24886,22119],[193,-3],[0,89]],[[25079,22205],[99,0],[0,92]],[[25178,22297],[104,0]],[[25282,22297],[0,-262],[-180,-97]],[[24908,21249],[23,-15]],[[24931,21234],[-9,-72]],[[24985,21323],[-27,-64],[-27,-25]],[[24922,21412],[63,-89]],[[24719,20789],[-36,20]],[[24683,20809],[-5,3]],[[24678,20812],[0,35]],[[24678,20847],[14,0],[27,-58]],[[24710,20723],[-27,86]],[[24719,20789],[-9,-66]],[[24647,20700],[0,58]],[[24647,20758],[0,28]],[[24647,20786],[0,10]],[[24647,20796],[31,16]],[[24710,20723],[4,-23]],[[24768,21285],[-130,30]],[[24773,20967],[0,73]],[[24773,21040],[0,8]],[[24926,21073],[0,-35],[-40,-51],[27,-28],[-5,-38],[5,-18]],[[24958,21442],[22,-30],[23,-69],[-18,-20]],[[24922,20631],[130,-109]],[[24620,21223],[-72,13]],[[24660,20873],[-13,7]],[[24647,20880],[9,13]],[[24656,20893],[18,28]],[[24674,20921],[9,-48]],[[24683,20873],[-23,0]],[[24620,20855],[13,15]],[[24633,20870],[0,8]],[[24633,20878],[14,2]],[[24660,20873],[-40,-41]],[[24620,20832],[0,23]],[[24633,20878],[-18,17]],[[24615,20895],[5,21]],[[24620,20916],[36,-23]],[[24633,20870],[-58,-5]],[[24575,20865],[-5,18]],[[24570,20883],[0,5]],[[24570,20888],[18,13]],[[24588,20901],[27,-6]],[[24620,20855],[-45,7]],[[24575,20862],[0,3]],[[24710,20921],[4,-99]],[[24714,20822],[-31,51]],[[24674,20921],[4,2]],[[24678,20923],[32,-2]],[[24588,20901],[-18,5]],[[24570,20906],[0,15]],[[24570,20921],[45,0]],[[24615,20921],[5,-5]],[[24741,20964],[0,-43]],[[24741,20921],[-31,0]],[[24678,20923],[0,44]],[[24678,20967],[5,0]],[[24683,20967],[58,-3]],[[24773,21040],[-32,-73]],[[24741,20967],[0,-3]],[[24683,20967],[9,91]],[[24593,20814],[-18,-25]],[[24575,20789],[-14,0]],[[24561,20789],[9,33]],[[24570,20822],[9,10]],[[24579,20832],[14,-18]],[[24566,20967],[-14,30]],[[24552,20997],[0,61]],[[24552,21058],[32,-5]],[[24584,21053],[31,-86]],[[24615,20967],[-45,0]],[[24570,20967],[-4,0]],[[24647,20967],[-32,-46]],[[24570,20921],[0,28]],[[24570,20949],[0,18]],[[24615,20967],[32,0]],[[24570,20888],[0,18]],[[24773,20967],[-32,0]],[[24620,20832],[-45,30]],[[24647,20967],[0,7]],[[24647,20974],[31,-7]],[[24606,20812],[5,7]],[[24611,20819],[18,28],[49,0]],[[24647,20796],[-41,16]],[[24741,20921],[0,-43]],[[24741,20878],[5,-61]],[[24746,20817],[-9,-3]],[[24719,20817],[-5,5]],[[24611,20819],[-5,-7]],[[24647,20786],[-72,3]],[[24593,20814],[18,5]],[[24552,20753],[23,36]],[[24647,20758],[-45,0]],[[24602,20758],[-50,-7]],[[24552,20751],[0,2]],[[24557,20700],[-5,51]],[[24602,20758],[0,-58]],[[24602,20700],[-45,0]],[[24606,20700],[-4,0]],[[24539,20639],[0,15]],[[24539,20654],[18,46]],[[24741,20878],[41,0]],[[24804,20878],[-58,-61]],[[24584,21053],[4,5]],[[24656,21058],[-9,-84]],[[24260,21173],[-14,-8]],[[24246,21165],[-63,15]],[[24183,21180],[32,23]],[[24215,21203],[45,-30]],[[23940,21086],[-77,-7]],[[23863,21079],[-90,22]],[[23773,21101],[122,204]],[[23895,21305],[36,-36]],[[23931,21269],[9,-183]],[[24453,21147],[-9,-15]],[[24444,21132],[-4,-18]],[[24440,21114],[-108,69]],[[24332,21183],[63,142]],[[24462,21236],[-9,-89]],[[24525,21147],[-72,0]],[[24620,21147],[-72,0]],[[24548,21147],[-23,0]],[[24413,20908],[4,-46]],[[24417,20862],[-40,-10]],[[24377,20852],[0,15]],[[24377,20867],[-14,41]],[[24363,20908],[9,0]],[[24372,20908],[41,0]],[[24485,20639],[-9,0]],[[24476,20639],[0,30]],[[24476,20669],[63,-15]],[[23944,20639],[0,-89]],[[23944,20550],[-31,-89]],[[23913,20461],[-63,89]],[[23850,20550],[0,48]],[[23850,20598],[45,41]],[[23895,20639],[31,0]],[[23926,20639],[18,0]],[[24138,21452],[-54,-178]],[[24084,21274],[-72,51]],[[24012,21325],[81,135]],[[24093,21460],[45,-8]],[[24233,21361],[-64,-122]],[[24169,21239],[-85,35]],[[24138,21452],[49,8]],[[24187,21460],[46,-99]],[[23269,20550],[-32,0]],[[23237,20550],[0,208],[81,-28]],[[23318,20730],[14,-180]],[[23332,20550],[-63,0]],[[24318,21107],[63,-110]],[[24381,20997],[-58,0]],[[24323,20997],[0,66]],[[24323,21063],[-5,44]],[[23755,20585],[0,-35]],[[23755,20550],[-108,0]],[[23647,20550],[-4,150]],[[23643,20700],[67,30]],[[23710,20730],[45,-145]],[[24183,21071],[-68,-33]],[[24115,21038],[-58,-20]],[[24057,21018],[-36,20]],[[24021,21038],[-63,48]],[[23958,21086],[63,145]],[[24021,21231],[117,-58]],[[24138,21173],[54,-72]],[[24192,21101],[9,-17]],[[24201,21084],[-18,-13]],[[23507,20639],[-45,-16]],[[23462,20623],[0,196]],[[23462,20819],[54,-15]],[[23516,20804],[-9,-165]],[[24242,20641],[-41,-28]],[[24201,20613],[-68,10]],[[24133,20623],[64,41]],[[24197,20664],[72,36]],[[24269,20700],[-27,-59]],[[24435,21086],[-13,0]],[[24422,21086],[-18,23]],[[24404,21109],[-5,36]],[[24399,21145],[72,-59]],[[24471,21086],[-36,0]],[[24332,20789],[-9,-36]],[[24323,20753],[-54,43]],[[24269,20796],[54,23]],[[24323,20819],[9,-30]],[[24327,20728],[-58,-28]],[[24197,20664],[-28,66]],[[24169,20730],[32,51]],[[24201,20781],[32,13]],[[24233,20794],[36,2]],[[24323,20753],[4,-25]],[[23868,21414],[148,89]],[[24016,21503],[72,0]],[[24088,21503],[5,-43]],[[24012,21325],[-144,89]],[[23985,21315],[-14,-43]],[[23971,21272],[-40,-3]],[[23895,21305],[-77,63]],[[23818,21368],[50,31]],[[23868,21399],[117,-84]],[[23751,20908],[0,13]],[[23751,20921],[0,196]],[[23751,21117],[22,-16]],[[23863,21079],[-18,-171]],[[23845,20908],[-94,0]],[[24115,20623],[-45,84]],[[24070,20707],[-31,66]],[[24039,20773],[31,0]],[[24070,20773],[99,-43]],[[24133,20623],[-18,0]],[[23638,20918],[-27,5]],[[23611,20923],[45,163]],[[23656,21086],[-18,-168]],[[23751,20921],[-113,-3]],[[23656,21086],[0,48]],[[23656,21134],[54,-2]],[[23710,21132],[41,-15]],[[24404,21109],[-81,13]],[[24323,21122],[0,53]],[[24323,21175],[0,8]],[[24323,21183],[76,-38]],[[24138,21012],[-5,-134]],[[24133,20878],[-94,58]],[[24039,20936],[18,82]],[[24115,21038],[23,-26]],[[23453,21190],[-99,0]],[[23354,21190],[0,23]],[[23354,21213],[0,28]],[[23354,21241],[86,-28],[49,110]],[[23489,21323],[68,-44]],[[23557,21279],[-22,-104]],[[23535,21175],[-82,15]],[[24233,21361],[148,-8]],[[24332,21183],[-163,56]],[[24323,21175],[-63,-2]],[[24215,21203],[27,28]],[[24242,21231],[81,-48]],[[24233,20794],[-55,23]],[[24178,20817],[-18,12]],[[24160,20829],[100,26]],[[24260,20855],[67,-8]],[[24327,20847],[-4,-28]],[[23341,20372],[-63,43]],[[23278,20415],[63,-13],[-72,148]],[[23332,20550],[130,0]],[[23462,20550],[5,-178]],[[23467,20372],[-126,0]],[[23278,20415],[-77,35]],[[23201,20450],[5,100]],[[23206,20550],[31,0]],[[23755,20372],[0,178]],[[23755,20550],[95,0]],[[23913,20461],[0,-59]],[[23913,20402],[-77,-30]],[[23836,20372],[-81,0]],[[23562,20550],[4,-178]],[[23566,20372],[-99,0]],[[23462,20550],[0,73]],[[23507,20639],[55,-89]],[[23850,20598],[-95,-13]],[[23710,20730],[59,74]],[[23769,20804],[63,0]],[[23832,20804],[63,-56]],[[23895,20748],[0,-109]],[[24476,20669],[0,46]],[[24476,20715],[27,10]],[[24503,20725],[22,8]],[[24525,20733],[27,20]],[[23944,20639],[95,0]],[[24039,20639],[0,-28]],[[24039,20611],[0,-38]],[[24039,20573],[-95,-23]],[[23944,20692],[95,-53]],[[23926,20639],[18,53]],[[24323,20956],[-18,0]],[[24305,20956],[-54,-5]],[[24251,20951],[-14,31]],[[24237,20982],[0,74]],[[24237,21056],[86,7]],[[24323,20997],[0,-41]],[[24233,21109],[4,-30]],[[24237,21079],[-36,5]],[[24192,21101],[41,8]],[[23318,20730],[45,89]],[[23363,20819],[99,0]],[[24386,20819],[-9,33]],[[24417,20862],[23,-15]],[[24440,20847],[-23,-28]],[[24417,20819],[-31,0]],[[24417,20817],[5,-31]],[[24422,20786],[0,-25]],[[24422,20761],[-68,28]],[[24354,20789],[32,30]],[[24417,20819],[0,-2]],[[24327,20847],[50,20]],[[24386,20819],[-63,0]],[[24354,20789],[-22,0]],[[24422,20761],[0,-38]],[[24422,20723],[-95,5]],[[23940,21086],[0,-178]],[[23940,20908],[-95,0]],[[23751,20908],[18,-104]],[[23643,20700],[-127,104]],[[23462,20819],[73,74]],[[23535,20893],[76,30]],[[24354,20550],[-126,-11]],[[24228,20539],[-95,11],[68,63]],[[24242,20641],[121,-13]],[[24363,20628],[-9,-78]],[[23656,21134],[-22,28]],[[23634,21162],[18,163]],[[23652,21325],[49,41]],[[23701,21366],[99,8]],[[23800,21374],[-90,-242]],[[23944,20781],[-9,0]],[[23935,20781],[-40,-33]],[[23832,20804],[45,30]],[[23877,20834],[63,18]],[[23940,20852],[4,-71]],[[23440,20923],[13,267]],[[23535,21175],[99,-13]],[[23535,20893],[-95,30]],[[24305,20956],[-50,-73]],[[24255,20883],[-13,20]],[[24242,20903],[9,48]],[[24192,20997],[-9,74]],[[24237,21079],[0,-23]],[[24237,20982],[-45,15]],[[23958,21086],[-18,0]],[[23971,21272],[50,-41]],[[24242,20903],[-86,-58]],[[24156,20845],[-9,0]],[[24147,20845],[-14,33]],[[24138,21012],[54,-15]],[[24039,20773],[-18,16]],[[24021,20789],[-72,89]],[[23949,20878],[-9,30]],[[23940,20908],[49,0]],[[23989,20908],[9,-15]],[[23998,20893],[77,-61]],[[24075,20832],[-5,-59]],[[24183,21180],[-45,-7]],[[23985,21315],[257,-84]],[[23989,20908],[32,130]],[[24039,20936],[-41,-43]],[[24156,20834],[0,11]],[[24255,20883],[-4,-10],[-9,-13],[18,-5]],[[24160,20829],[-4,5]],[[23940,20852],[9,26]],[[24021,20789],[-77,-8]],[[24115,20623],[-76,-12]],[[23944,20692],[0,36]],[[23944,20728],[126,-21]],[[24417,21028],[0,-31]],[[24417,20997],[-36,0]],[[24318,21107],[5,15]],[[24422,21086],[-5,-58]],[[23935,20781],[9,-53]],[[24088,21503],[50,92]],[[24138,21595],[22,0]],[[24160,21595],[185,40]],[[24363,21440],[-176,20]],[[24363,20628],[59,41]],[[24422,20669],[54,-30]],[[24233,21109],[13,56]],[[24133,20832],[14,13]],[[24156,20834],[-23,-2]],[[24422,20669],[0,54]],[[24422,20723],[36,-8]],[[24458,20715],[18,0]],[[23845,20908],[32,-74]],[[23800,21374],[18,-6]],[[23647,20550],[-85,0]],[[24201,20781],[-23,36]],[[24075,20832],[58,0]],[[23557,21279],[63,59]],[[23620,21338],[32,-13]],[[24323,20956],[0,-7]],[[24323,20949],[40,-41]],[[23755,20372],[-189,0]],[[24516,20908],[0,3]],[[24516,20911],[-4,2]],[[24512,20913],[4,8]],[[24516,20921],[14,-10]],[[24530,20911],[-5,-5]],[[24525,20906],[-9,2]],[[24521,20903],[0,-2]],[[24521,20901],[-5,7]],[[24525,20906],[-4,-3]],[[24507,20890],[9,21]],[[24521,20901],[-14,-11]],[[24521,20883],[-14,0]],[[24507,20883],[0,7]],[[24521,20903],[13,-5]],[[24534,20898],[9,-5]],[[24543,20893],[0,-13]],[[24543,20880],[-22,3]],[[24507,20883],[-13,-5]],[[24494,20878],[-18,28]],[[24476,20906],[4,7]],[[24480,20913],[32,0]],[[24539,20845],[4,35]],[[24543,20893],[9,2]],[[24552,20895],[18,-50]],[[24570,20845],[-31,0]],[[24539,20845],[-18,0]],[[24521,20845],[0,20]],[[24521,20865],[0,18]],[[24480,20865],[14,13]],[[24521,20865],[-32,-3]],[[24489,20862],[-9,3]],[[24489,20840],[0,22]],[[24521,20845],[0,-5]],[[24521,20840],[-32,0]],[[24489,20817],[-9,0]],[[24480,20817],[-4,-3]],[[24476,20814],[0,38]],[[24476,20852],[4,13]],[[24489,20840],[0,-23]],[[24480,20913],[0,31]],[[24480,20944],[36,0]],[[24516,20944],[0,-23]],[[24480,20944],[0,28]],[[24480,20972],[27,-10]],[[24507,20962],[9,-18]],[[24570,20921],[-40,-5]],[[24530,20916],[-14,20]],[[24516,20936],[54,13]],[[24570,20883],[-13,12],[-23,16],[-4,5]],[[24539,20908],[-5,-10]],[[24530,20911],[9,-3]],[[24449,20847],[0,61]],[[24449,20908],[27,-2]],[[24476,20852],[-18,-5]],[[24458,20847],[-9,0]],[[24521,20817],[0,23]],[[24570,20845],[9,-13]],[[24570,20822],[-22,-5]],[[24548,20817],[-27,0]],[[24512,20967],[54,0]],[[24516,20936],[-4,31]],[[24521,20817],[-32,0]],[[24503,20725],[-5,64]],[[24498,20789],[32,0]],[[24530,20789],[-5,-56]],[[24512,21000],[40,-3]],[[24512,20967],[0,33]],[[24449,20908],[0,56]],[[24449,20964],[0,8]],[[24449,20972],[31,0]],[[24498,20789],[-18,0]],[[24480,20789],[0,28]],[[24548,20817],[-9,-28]],[[24539,20789],[-9,0]],[[24476,20814],[-18,3]],[[24458,20817],[0,30]],[[24539,20789],[22,0]],[[24449,20847],[-9,0]],[[24413,20908],[4,0]],[[24417,20908],[32,0]],[[24417,20908],[0,56]],[[24417,20964],[32,0]],[[24417,20964],[0,33]],[[24417,21028],[32,0]],[[24449,21028],[0,-8]],[[24449,21020],[0,-48]],[[24449,21020],[31,0]],[[24480,21020],[5,0]],[[24485,21020],[-5,-48]],[[24485,21020],[27,0]],[[24512,21020],[-5,-58]],[[24476,20715],[0,71]],[[24476,20786],[4,3]],[[24503,21051],[22,7]],[[24525,21058],[23,0]],[[24548,21058],[4,0]],[[24512,21000],[-9,51]],[[24444,21132],[77,-71]],[[24521,21061],[4,-3]],[[24503,21051],[-63,63]],[[24548,21147],[0,-89]],[[24521,21061],[4,86]],[[24476,20786],[-18,0]],[[24458,20786],[0,31]],[[24458,20817],[-41,0]],[[24458,20715],[-9,71]],[[24449,20786],[9,0]],[[24422,20786],[27,0]],[[24372,20908],[5,51]],[[24377,20959],[40,5]],[[24377,20959],[4,38]],[[24485,21079],[-5,-59]],[[24449,21028],[-14,58]],[[24471,21086],[14,-7]],[[24485,21079],[27,-59]],[[24377,20959],[-54,-10]],[[24539,20908],[4,-2],[5,-8],[4,-3]],[[25629,23187],[-158,7]],[[25471,23194],[0,125]],[[25471,23319],[90,61],[-90,104]],[[25471,23484],[0,56]],[[25471,23540],[203,87]],[[25674,23627],[0,-400]],[[25674,23227],[-14,-43]],[[25660,23184],[-31,3]],[[26273,23894],[-5,-435]],[[26268,23459],[-95,-87]],[[26173,23372],[-99,-7],[-49,129]],[[26025,23494],[49,400]],[[26651,23731],[-18,30]],[[26367,24255],[113,-153],[491,20],[153,-111]],[[27124,24011],[0,-145]],[[27124,23866],[-95,-49]],[[27029,23817],[-279,-81]],[[27169,23878],[-45,-12]],[[27124,24011],[337,2],[-292,-135]],[[27169,23878],[-140,-61]],[[26025,23494],[-50,46],[-4,-168]],[[25971,23372],[-297,-145]],[[25674,23627],[-9,180]],[[25665,23807],[108,46],[58,43]],[[26660,23708],[-144,-74]],[[26372,23894],[18,-344]],[[26390,23550],[-122,-91]],[[26056,23245],[-85,0],[0,127]],[[26173,23372],[-117,-127]],[[26471,23609],[-81,-59]],[[25575,23009],[0,12]],[[25575,23021],[81,11],[4,152]],[[26056,23245],[-387,-325]],[[25669,22920],[-94,89]],[[24980,22922],[-67,-18],[67,107]],[[24980,23011],[99,-2]],[[25079,23009],[0,-87],[-99,0]],[[25066,23716],[-198,2]],[[24868,23718],[-100,104],[298,-106]],[[24886,22119],[0,89]],[[24886,22208],[99,28]],[[24985,22236],[94,-31]],[[25471,23319],[-198,43]],[[25273,23362],[0,173]],[[25273,23535],[94,92]],[[25367,23627],[5,-143],[99,0]],[[25471,23616],[4,100],[-108,15]],[[25367,23731],[5,74]],[[25372,23805],[293,2]],[[25471,23540],[0,76]],[[25178,22564],[0,-92]],[[25178,22472],[-99,-46]],[[25079,22426],[-189,49]],[[24890,22475],[-4,86]],[[24886,22561],[54,76]],[[24940,22637],[103,-30]],[[25043,22607],[135,-43]],[[24579,23265],[0,-81]],[[24579,23184],[-99,-15]],[[24480,23169],[-117,35],[45,171],[-81,112]],[[24327,23487],[-45,137]],[[24282,23624],[158,-58],[49,94]],[[24489,23660],[90,-31]],[[24579,23629],[-99,-216],[45,-51]],[[24525,23362],[54,-97]],[[25075,23586],[-135,-61]],[[24940,23525],[-72,193]],[[25066,23716],[4,0]],[[25070,23716],[5,-130]],[[24980,22744],[-99,-2]],[[24881,22742],[0,162],[99,0]],[[24980,22904],[81,-76]],[[25061,22828],[-81,-84]],[[24985,22236],[-5,61]],[[24980,22297],[198,0]],[[25318,23095],[-72,-89]],[[25246,23006],[-68,-79],[-99,82]],[[25079,23009],[-4,86]],[[25075,23095],[243,0]],[[25282,22637],[0,-30]],[[25282,22607],[-104,-43]],[[25043,22607],[140,66]],[[25183,22673],[94,-31]],[[25277,22642],[5,-5]],[[24944,23456],[0,-5]],[[24944,23451],[-167,18],[9,252]],[[24786,23721],[82,-3]],[[24940,23525],[4,-69]],[[24940,22637],[13,8],[27,15],[0,84]],[[25061,22828],[171,-8]],[[25232,22820],[9,-78]],[[25241,22742],[-58,-69]],[[24197,23344],[85,-162],[-153,-41]],[[24129,23141],[0,155]],[[24129,23296],[68,48]],[[24489,23660],[95,61],[-221,20],[45,71]],[[24408,23812],[90,87]],[[24498,23899],[41,0]],[[24539,23899],[428,-3],[-5,127],[104,51],[0,-155],[103,25]],[[25169,23944],[0,-231]],[[25169,23713],[-99,3]],[[24786,23721],[-49,0]],[[24737,23721],[-77,10],[9,-102]],[[24669,23629],[-90,0]],[[25430,23192],[-112,-97]],[[25075,23095],[-99,0],[0,89]],[[24976,23184],[99,0]],[[25075,23184],[184,71]],[[25259,23255],[171,-63]],[[25156,24173],[0,77],[-203,2]],[[25151,24354],[99,-107]],[[24782,22564],[-5,45]],[[24777,22609],[91,133]],[[24868,22742],[13,0]],[[24886,22561],[-104,3]],[[25372,23805],[13,86]],[[25273,23543],[-90,86],[40,87]],[[25223,23716],[144,15]],[[25471,23616],[-104,11]],[[25273,23535],[0,8]],[[25277,22650],[0,-8]],[[25241,22742],[36,-92]],[[25084,23276],[-18,89]],[[25066,23365],[-14,89]],[[25052,23454],[23,30]],[[25075,23484],[45,-18]],[[25120,23466],[54,-89]],[[25174,23377],[85,-104]],[[25259,23273],[-175,3]],[[24516,22119],[-22,0]],[[24494,22119],[99,178],[94,0]],[[24687,22297],[104,0]],[[24791,22297],[-5,-89],[100,0]],[[24683,22765],[0,66]],[[24683,22831],[4,178]],[[24687,23009],[0,58]],[[24687,23067],[86,-13]],[[24773,23054],[207,-43]],[[24980,22922],[0,-18]],[[24868,22742],[-185,23]],[[25084,23276],[-9,-92]],[[24976,23184],[-99,43]],[[24877,23227],[99,138]],[[24976,23365],[90,0]],[[25273,23362],[-99,15]],[[25120,23466],[153,77]],[[24678,23095],[-99,0]],[[24579,23095],[0,89]],[[24579,23265],[99,8]],[[24678,23273],[0,-178]],[[24287,23011],[-163,3]],[[24124,23014],[5,127]],[[24197,23344],[85,72],[-81,124]],[[24201,23540],[126,-53]],[[24480,23169],[0,-74]],[[24480,23095],[5,-84]],[[24485,23011],[-198,0]],[[24678,23273],[0,89]],[[24678,23362],[5,270]],[[24683,23632],[54,89]],[[24944,23451],[32,-86]],[[24877,23227],[-100,-43],[-4,-130]],[[24687,23067],[-9,28]],[[24287,23011],[99,-178]],[[24386,22833],[0,-30]],[[24386,22803],[-153,33]],[[24233,22836],[27,132],[-136,-5]],[[24124,22963],[0,51]],[[25282,22490],[0,-107]],[[25282,22383],[-203,31]],[[25079,22414],[0,12]],[[25178,22472],[104,18]],[[24944,23456],[108,-2]],[[24683,22831],[-99,0]],[[24584,22831],[-131,2]],[[24453,22833],[41,89],[-45,-89]],[[24449,22833],[-63,0]],[[24485,23011],[202,-2]],[[24980,22297],[0,89]],[[24980,22386],[99,28]],[[25282,22383],[0,-86]],[[24890,22475],[-77,-84]],[[24813,22391],[-126,48]],[[24687,22439],[-4,165],[99,-40]],[[24386,22566],[0,135]],[[24386,22701],[90,66],[-90,-58]],[[24386,22709],[0,94]],[[24449,22833],[4,0]],[[24584,22831],[0,-265]],[[24584,22566],[-198,0]],[[25471,23194],[-41,-2]],[[25259,23255],[0,18]],[[24980,22386],[-167,5]],[[25075,23586],[0,-102]],[[24678,23362],[-153,0]],[[24669,23629],[14,3]],[[25178,23983],[-9,-39]],[[24539,23899],[-77,124]],[[24462,24023],[198,-10],[-4,303]],[[24656,24316],[67,129]],[[25273,22920],[-14,-100]],[[25259,22820],[-27,0]],[[25246,23006],[27,-86]],[[24687,22297],[0,89]],[[24687,22386],[0,53]],[[24980,22297],[-189,0]],[[24480,23095],[99,0]],[[24233,22836],[-109,12]],[[24124,22848],[-94,21]],[[24030,22869],[94,94]],[[24687,22386],[-162,0]],[[24525,22386],[59,180]],[[24683,22765],[-5,-130],[99,-26]],[[25223,23716],[-54,-3]],[[25282,22607],[0,-104],[0,-13]],[[25575,23021],[54,166]],[[25421,22731],[9,34]],[[25430,22765],[18,10]],[[25448,22775],[5,0]],[[25453,22775],[-32,-44]],[[25575,23009],[-113,-211]],[[25462,22798],[-14,2]],[[25448,22800],[-175,120]],[[25471,22790],[-9,8]],[[25669,22920],[-198,-130]],[[25430,22765],[-9,7]],[[25421,22772],[18,18]],[[25439,22790],[9,-15]],[[25390,22731],[-9,6]],[[25381,22737],[40,35]],[[25421,22731],[-13,-7]],[[25408,22724],[-18,7]],[[25381,22693],[-18,-2]],[[25363,22691],[-14,2]],[[25349,22693],[41,38]],[[25408,22724],[-27,-31]],[[25277,22650],[72,43]],[[25363,22691],[-81,-54]],[[25259,22820],[122,-83]],[[25448,22800],[-9,-10]],[[25471,22790],[-18,-15]],[[25075,19927],[0,45]],[[25075,19972],[76,64]],[[25151,20036],[0,-109]],[[25151,19927],[-76,0]],[[25075,19807],[0,120]],[[25151,19927],[-13,-117]],[[25138,19810],[-63,-3]],[[25259,19810],[0,-5]],[[25259,19805],[-121,5]],[[25151,19927],[63,-3]],[[25214,19924],[45,-114]],[[25151,20036],[0,51]],[[25151,20087],[63,15]],[[25214,20102],[45,-104]],[[25259,19998],[-45,-74]],[[24971,19390],[-76,0],[-14,0]],[[24881,19390],[0,15]],[[24881,19405],[32,74]],[[24913,19479],[58,0]],[[24971,19479],[0,-89]],[[25543,19924],[-95,89]],[[25448,20013],[-85,89]],[[25363,20102],[0,74]],[[25363,20176],[207,15]],[[25570,20191],[68,-109]],[[25638,20082],[0,-115]],[[25638,19967],[-5,-43]],[[25633,19924],[-58,0]],[[25575,19924],[-32,0]],[[24818,19568],[-32,-89]],[[24786,19479],[-94,0]],[[24692,19479],[0,89]],[[24692,19568],[0,165]],[[24692,19733],[94,16]],[[24786,19749],[0,-89]],[[24786,19660],[32,-92]],[[24656,19876],[135,51]],[[24791,19927],[0,-89]],[[24791,19838],[0,-89]],[[24791,19749],[-5,0]],[[24692,19733],[-90,16]],[[24881,19568],[-63,0]],[[24786,19660],[91,0]],[[24877,19660],[4,-92]],[[26079,19494],[-72,-28],[-9,89]],[[25998,19555],[81,72]],[[26079,19627],[0,-133]],[[25012,19807],[-14,0]],[[24998,19807],[-58,142]],[[24940,19949],[9,67]],[[24949,20016],[90,0]],[[25039,20016],[36,-44]],[[25075,19807],[-63,0]],[[25876,19390],[-63,178]],[[25813,19568],[158,74]],[[25971,19642],[27,-87]],[[26079,19494],[40,-104],[-22,0],[-153,0],[-68,0]],[[25611,19390],[-63,0],[-14,0]],[[25534,19390],[0,178]],[[25534,19568],[95,3]],[[25629,19571],[0,-3]],[[25629,19568],[-18,-178]],[[25345,19657],[-90,0]],[[25255,19657],[0,92]],[[25255,19749],[4,56]],[[25259,19810],[95,25]],[[25354,19835],[94,-41]],[[25448,19794],[95,-48]],[[25543,19746],[54,-89]],[[25597,19657],[-158,0]],[[25439,19657],[-94,0]],[[24696,20016],[95,0]],[[24791,20016],[0,-89]],[[25917,19779],[0,15]],[[25917,19794],[85,41]],[[26002,19835],[18,-30]],[[26020,19805],[-103,-26]],[[24971,19657],[0,-89]],[[24971,19568],[-90,0]],[[24877,19660],[94,-3]],[[24791,20016],[95,0]],[[24886,20016],[0,-67]],[[24886,19949],[0,-111]],[[24886,19838],[-95,0]],[[25390,19985],[58,-191]],[[25354,19835],[0,145]],[[25354,19980],[36,5]],[[25214,20102],[54,0]],[[25268,20102],[86,0]],[[25354,20102],[0,-89]],[[25354,20013],[-95,-15]],[[24913,19479],[-32,89]],[[24971,19568],[95,-74]],[[25066,19494],[0,-15]],[[25066,19479],[-95,0]],[[25354,20013],[0,-33]],[[25345,19568],[0,89]],[[25439,19657],[0,-76]],[[25439,19581],[-94,-13]],[[25160,19571],[-94,-77]],[[24971,19657],[189,-13]],[[25160,19644],[0,-73]],[[25534,19390],[-180,0],[-9,0]],[[25345,19390],[0,89]],[[25345,19479],[117,89]],[[25462,19568],[72,0]],[[24971,19733],[-90,16]],[[24881,19749],[-90,0]],[[24886,19838],[112,-31]],[[25012,19807],[-23,-74]],[[24989,19733],[-18,0]],[[25971,19642],[13,25]],[[25984,19667],[108,-7]],[[26092,19660],[-13,-33]],[[25813,19568],[-67,0]],[[25746,19568],[-18,209]],[[25728,19777],[189,17]],[[25917,19779],[67,-112]],[[24886,19949],[54,0]],[[25363,20176],[-95,15]],[[25268,20191],[0,48]],[[25363,20242],[203,-38]],[[25566,20204],[4,-13]],[[24863,20283],[23,-23]],[[24886,20260],[-73,-66],[64,-59]],[[24877,20135],[-230,-51]],[[26020,19805],[72,-145]],[[25462,19568],[-23,13]],[[25597,19657],[32,-86]],[[25160,19540],[0,-150]],[[25160,19390],[-81,0],[-13,0]],[[25066,19390],[0,89]],[[25160,19571],[0,-31]],[[25665,19866],[-36,-120]],[[25629,19746],[-41,38]],[[25588,19784],[-13,140]],[[25633,19924],[32,-58]],[[24881,19390],[-171,0],[-18,0]],[[24692,19390],[0,89]],[[24786,19479],[95,-74]],[[25629,19568],[67,0]],[[25696,19568],[23,0]],[[25719,19568],[0,-175]],[[25719,19393],[-108,-3]],[[24886,20016],[40,0]],[[24926,20016],[23,0]],[[25079,20102],[-31,69]],[[25048,20171],[18,96]],[[25174,20239],[-36,-137]],[[25138,20102],[-59,0]],[[25363,20102],[-9,0]],[[25268,20102],[0,89]],[[25728,19998],[-36,-28]],[[25692,19970],[0,58]],[[25692,20028],[36,-30]],[[25039,20016],[40,86]],[[25138,20102],[13,-15]],[[25223,19390],[-63,0]],[[25160,19540],[72,-10],[-9,-140]],[[25543,19746],[0,38]],[[25543,19784],[45,0]],[[25629,19746],[67,-178]],[[24926,20016],[-22,89]],[[24904,20105],[4,61]],[[24908,20166],[140,5]],[[25448,20013],[-58,-28]],[[25345,19479],[0,89]],[[25160,19733],[0,-89]],[[24971,19657],[0,76]],[[24989,19733],[171,0]],[[25692,19970],[-54,-3]],[[25638,20082],[54,-54]],[[25746,19568],[-27,0]],[[25665,19866],[63,-89]],[[25543,19924],[0,-140]],[[24877,19660],[4,89]],[[25876,19390],[-135,0],[-22,3]],[[25345,19390],[-81,0],[-41,0]],[[25160,19733],[95,16]],[[25255,19657],[90,-89]],[[25066,19390],[-81,0],[-14,0]],[[25363,20331],[203,-127]],[[24904,20105],[-27,30]],[[24886,20260],[22,-94]],[[25728,19998],[274,-163]],[[23850,19927],[0,48]],[[23850,19975],[0,119]],[[23850,20094],[90,56]],[[23940,20150],[99,0]],[[24039,20150],[0,-71]],[[24039,20079],[0,-63]],[[24039,20016],[0,-89]],[[24039,19927],[-95,0]],[[23944,19927],[-94,0]],[[23850,20094],[0,84]],[[23850,20178],[90,0]],[[23940,20178],[0,-28]],[[24318,19522],[0,46]],[[24318,19568],[95,0],[0,89]],[[24413,19657],[0,69]],[[24413,19726],[94,-8]],[[24507,19718],[0,-25]],[[24507,19693],[0,-28]],[[24507,19665],[-63,7],[63,-51]],[[24507,19621],[0,-53]],[[24507,19568],[0,-89]],[[24507,19479],[-148,0]],[[24359,19479],[-41,43]],[[24224,19390],[0,89]],[[24224,19479],[0,178]],[[24224,19657],[94,0]],[[24318,19657],[0,-89]],[[24318,19522],[0,-43]],[[24318,19479],[0,-51]],[[24318,19428],[0,-38]],[[24318,19390],[-36,0],[-58,0]],[[23944,19749],[-36,0]],[[23908,19749],[-198,0]],[[23710,19749],[-45,28]],[[23665,19777],[0,61]],[[23665,19838],[185,0]],[[23850,19838],[94,0]],[[23944,19838],[0,-89]],[[24228,20539],[-59,-78]],[[24169,20461],[-130,0]],[[24039,20461],[0,112]],[[23760,19436],[0,114]],[[23760,19550],[0,18]],[[23760,19568],[54,15]],[[23814,19583],[67,23]],[[23881,19606],[95,-7]],[[23976,19599],[63,-31]],[[24039,19568],[-18,-56]],[[24021,19512],[-77,-76]],[[23944,19436],[-184,0]],[[24039,19390],[-18,122]],[[24039,19568],[45,15]],[[24084,19583],[81,-104]],[[24165,19479],[-32,-89]],[[24133,19390],[-67,0],[-14,0],[-13,0]],[[24507,19665],[0,-44]],[[24133,20166],[-94,28]],[[24039,20194],[0,89]],[[24039,20283],[94,0]],[[24133,20283],[23,-89]],[[24156,20194],[-23,-28]],[[23282,19924],[-94,0]],[[23188,19924],[0,89]],[[23188,20013],[90,92]],[[23278,20105],[4,-92]],[[23282,20013],[0,-89]],[[24359,19479],[-41,0]],[[23755,20130],[-157,109]],[[23598,20239],[157,0]],[[23755,20239],[0,-109]],[[23377,19927],[-95,-3]],[[23282,20013],[95,3]],[[23377,20016],[0,-89]],[[23989,19749],[-13,-150]],[[23881,19606],[27,143]],[[23944,19749],[45,0]],[[24133,20072],[-40,-56]],[[24093,20016],[-54,0]],[[24039,20079],[94,-7]],[[24070,19657],[14,-74]],[[23989,19749],[50,0]],[[24039,19749],[31,-92]],[[24413,19726],[0,23]],[[24413,19749],[67,28],[-67,61]],[[24413,19838],[0,66]],[[24534,19749],[-27,-31]],[[23944,19436],[18,-46]],[[23962,19390],[-4,0],[-45,0],[-90,0],[-63,0]],[[23760,19390],[0,46]],[[24228,20105],[-95,0]],[[24133,20105],[0,61]],[[24156,20194],[72,0]],[[24228,20194],[0,-89]],[[24413,19390],[-68,0],[-27,0]],[[24318,19428],[95,-38]],[[23467,20275],[86,-51],[-86,-30]],[[23467,20194],[0,81]],[[23566,19390],[-95,92]],[[23471,19482],[36,175]],[[23507,19657],[104,0]],[[23611,19657],[9,-23]],[[23620,19634],[140,-84]],[[23760,19390],[-95,0],[-99,0]],[[24318,19749],[0,-92]],[[24224,19657],[0,92]],[[24224,19749],[4,0]],[[24228,19749],[90,0]],[[24039,19390],[-32,0],[-45,0]],[[23850,19927],[-95,0]],[[23755,19927],[5,43]],[[23760,19970],[90,5]],[[24543,19749],[-36,-56]],[[24507,19390],[0,89]],[[24507,19479],[90,0]],[[24597,19479],[95,0]],[[24692,19390],[-185,0]],[[23944,19927],[0,-89]],[[23850,19838],[0,89]],[[23760,19642],[0,-74]],[[23620,19634],[0,23]],[[23620,19657],[77,15]],[[23697,19672],[63,-30]],[[23665,20105],[0,-89]],[[23665,20016],[-94,0]],[[23571,20016],[-104,15]],[[23467,20031],[0,74]],[[23467,20105],[198,0]],[[24413,19657],[-95,0]],[[24318,19749],[95,0]],[[24507,19568],[90,0]],[[24597,19568],[0,-89]],[[24039,20461],[-126,-59]],[[24692,19568],[-95,0]],[[23760,19642],[54,-59]],[[24093,19927],[0,89]],[[24133,20072],[0,33]],[[24228,20105],[54,-23]],[[24282,20082],[-85,-155]],[[24197,19927],[0,-61]],[[24197,19866],[-104,61]],[[24039,20194],[0,-44]],[[23940,20178],[40,105]],[[23980,20283],[59,0]],[[24224,19390],[-82,0],[-9,0]],[[24165,19479],[59,0]],[[24323,20194],[-95,0]],[[24228,20194],[0,89]],[[24228,20283],[140,2]],[[23755,20283],[0,-44]],[[23598,20239],[-131,56]],[[23467,20295],[-95,66]],[[23372,20361],[-31,11]],[[23755,20372],[0,-89]],[[23760,19970],[-95,46]],[[23665,20105],[90,20]],[[23755,20125],[95,-31]],[[24133,20283],[45,89]],[[24178,20372],[50,0]],[[24228,20372],[0,-89]],[[23980,20283],[27,89],[-171,0]],[[24169,20461],[9,-89]],[[23665,19777],[-94,0]],[[23571,19777],[0,89]],[[23571,19866],[94,0]],[[23665,19866],[0,-28]],[[23571,19866],[0,150]],[[23755,19927],[-90,-61]],[[24039,19927],[0,-178]],[[24133,19749],[-63,-92]],[[24039,19749],[94,0]],[[24228,20372],[95,30]],[[24228,19749],[14,89]],[[24242,19838],[171,0]],[[23467,20105],[0,89]],[[23467,20275],[0,20]],[[23755,20130],[0,-5]],[[23755,20283],[95,0],[0,-105]],[[23611,19657],[9,0]],[[24039,19927],[54,0]],[[24197,19866],[-64,-117]],[[23571,19777],[-82,-28]],[[23489,19749],[-99,43]],[[23390,19792],[-13,46]],[[23377,19838],[0,89]],[[23377,20016],[90,15]],[[23093,20074],[-94,0]],[[22999,20074],[-5,120]],[[22994,20194],[95,0]],[[23089,20194],[31,0]],[[23120,20194],[-27,-120]],[[23278,20105],[0,89]],[[23278,20194],[94,167]],[[23188,20013],[-95,61]],[[23120,20194],[158,0]],[[23507,19657],[-18,0]],[[23489,19657],[0,61]],[[23489,19718],[0,31]],[[23710,19749],[-13,-77]],[[24507,19390],[-94,0]],[[24224,19749],[-91,0]],[[24197,19927],[45,-89]],[[24282,20082],[41,23]],[[23188,19835],[-95,3],[5,-89]],[[23098,19749],[0,-92]],[[23098,19657],[-95,3]],[[23003,19660],[0,89],[-94,0]],[[22909,19749],[-100,114]],[[22809,19863],[0,64]],[[22809,19927],[95,0]],[[22904,19927],[95,-3]],[[22999,19924],[189,0]],[[23188,19924],[0,-89]],[[22445,19390],[-95,89]],[[22350,19479],[0,89]],[[22350,19568],[95,0]],[[22445,19568],[45,0]],[[22490,19568],[45,-178]],[[22535,19390],[-36,0],[-54,0]],[[23192,19390],[0,178],[95,3]],[[23287,19571],[0,-89]],[[23287,19482],[0,-92]],[[23287,19390],[-50,0],[-31,0],[-14,0]],[[22138,20285],[0,89]],[[22138,20374],[194,0]],[[22332,20374],[14,-66]],[[22346,20308],[-14,-23]],[[22332,20285],[-94,0]],[[22238,20285],[-100,0]],[[22809,19863],[-184,-41]],[[22625,19822],[63,89]],[[22688,19911],[63,44]],[[22751,19955],[58,-28]],[[22566,20194],[-36,-178]],[[22530,20016],[-108,0]],[[22422,20016],[-27,162]],[[22395,20178],[126,46]],[[22521,20224],[45,-30]],[[22165,19479],[-126,3]],[[22039,19482],[0,58],[0,31]],[[22039,19571],[126,0],[0,-92]],[[22724,19390],[-36,0],[-90,0]],[[22598,19390],[18,92]],[[22616,19482],[108,-3],[0,-89]],[[23188,19749],[-90,0]],[[23188,19835],[0,-86]],[[22818,19568],[0,-43]],[[22818,19525],[-90,7],[-4,128]],[[22724,19660],[94,12]],[[22818,19672],[0,-15]],[[22818,19657],[0,-89]],[[23377,19838],[-95,-3]],[[23282,19835],[0,89]],[[23566,19390],[-36,0],[-99,0],[-50,3]],[[23381,19393],[-4,89]],[[23377,19482],[63,0]],[[23440,19482],[31,0]],[[22445,19749],[-54,0]],[[22391,19749],[0,89]],[[22391,19838],[76,30]],[[22467,19868],[32,-76]],[[22499,19792],[0,-43]],[[22499,19749],[-54,0]],[[22814,19970],[-63,-15]],[[22688,19911],[-144,120]],[[22544,20031],[81,25]],[[22625,20056],[94,3]],[[22719,20059],[90,-15]],[[22809,20044],[5,-74]],[[22814,19970],[-5,-43]],[[23381,19393],[-94,-3]],[[23287,19482],[90,0]],[[22165,19749],[-13,89]],[[22152,19838],[95,0]],[[22247,19838],[112,0]],[[22359,19838],[32,0]],[[22391,19749],[-41,0]],[[22350,19749],[-90,0]],[[22260,19749],[-95,0]],[[22445,19390],[-36,0],[-59,0]],[[22350,19390],[0,89]],[[22909,19749],[-91,-77]],[[22724,19660],[-90,28]],[[22634,19688],[-9,61]],[[22625,19749],[0,58]],[[22625,19807],[0,15]],[[22566,20194],[59,-138]],[[22544,20031],[-14,-15]],[[22260,19749],[0,-92]],[[22260,19657],[-95,3]],[[22165,19660],[0,89]],[[22138,20285],[-99,0]],[[22039,20285],[0,13],[0,163],[0,89],[0,2]],[[22039,20552],[90,-30]],[[22129,20522],[9,-148]],[[22954,19660],[-136,-3]],[[23003,19660],[-49,0]],[[22165,19390],[-31,0],[-95,0],[0,92]],[[22165,19479],[0,-89]],[[22341,20016],[0,-89]],[[22341,19927],[-94,0]],[[22247,19927],[-95,0],[95,89]],[[22247,20016],[94,0]],[[22625,19749],[-126,0]],[[22499,19792],[126,15]],[[22129,20522],[95,30]],[[22224,20552],[95,-2]],[[22319,20550],[13,-89]],[[22332,20461],[0,-87]],[[23098,19393],[0,264]],[[23188,19749],[94,0]],[[23282,19749],[5,-16]],[[23287,19733],[0,-73]],[[23287,19660],[0,-89]],[[23192,19390],[-94,3]],[[22165,19660],[-126,0]],[[22039,19660],[0,89],[0,89]],[[22039,19838],[113,0]],[[22999,19924],[0,92]],[[22999,20016],[0,58]],[[22350,19390],[-90,0]],[[22260,19390],[-4,89]],[[22256,19479],[94,0]],[[22260,19568],[0,89]],[[22350,19749],[0,-92]],[[22350,19657],[0,-89]],[[22350,19568],[-90,0]],[[22238,20285],[0,-180]],[[22238,20105],[-199,91]],[[22039,20196],[0,89]],[[23098,19393],[-135,-3],[-54,0]],[[22909,19390],[0,178]],[[22909,19568],[94,3],[-49,89]],[[22359,19838],[-18,89]],[[22341,20016],[81,0]],[[22530,20016],[14,-135],[-77,-13]],[[22904,20016],[-4,89]],[[22900,20105],[0,147]],[[22900,20252],[0,31]],[[22900,20283],[94,0]],[[22994,20283],[0,-89]],[[22999,20016],[-95,0]],[[22445,19660],[-95,-3]],[[22445,19749],[0,-89]],[[22445,19660],[0,-92]],[[22039,19571],[0,89]],[[22260,19568],[-4,-89]],[[22256,19479],[-91,0]],[[22458,20374],[63,-91]],[[22521,20283],[-175,25]],[[22332,20374],[95,0]],[[22427,20374],[31,0]],[[23282,19835],[0,-86]],[[23390,19792],[5,-43]],[[23395,19749],[-108,-16]],[[22909,19568],[-91,0]],[[23489,19718],[-94,31]],[[22039,19838],[0,267],[0,91]],[[22238,20105],[13,0]],[[22251,20105],[-4,-89]],[[22247,19927],[0,-89]],[[22629,19571],[-90,43]],[[22539,19614],[95,46]],[[22634,19660],[-5,-89]],[[22900,20105],[-64,0]],[[22836,20105],[-31,150]],[[22805,20255],[95,-3]],[[22909,19390],[-41,0],[-77,0],[-45,0]],[[22746,19390],[72,135]],[[22598,19390],[-63,0]],[[22490,19568],[49,46]],[[22629,19571],[-13,-89]],[[22377,20194],[-45,91]],[[22521,20283],[0,-59]],[[22395,20178],[-18,16]],[[22251,20105],[126,89]],[[23287,19660],[121,-31]],[[23408,19629],[32,-147]],[[22260,19390],[-95,0]],[[22904,19927],[0,89]],[[22710,20283],[9,-224]],[[22521,20283],[140,0]],[[22661,20283],[49,0]],[[23489,19657],[-81,-28]],[[22710,20283],[95,0]],[[22805,20283],[0,-28]],[[22836,20105],[-27,-61]],[[22634,19688],[0,-28]],[[22746,19390],[-22,0]],[[23246,20997],[-76,-58]],[[23170,20939],[-81,-8]],[[23089,20931],[-32,112]],[[23057,21043],[18,132]],[[23075,21175],[131,-35]],[[23206,21140],[40,-143]],[[22301,21442],[0,89]],[[22301,21531],[94,0],[0,-89],[-94,0]],[[22364,21086],[-54,26]],[[22310,21112],[-9,241]],[[22301,21353],[112,0]],[[22413,21353],[0,-178],[104,0]],[[22517,21175],[49,-89]],[[22566,21086],[-202,0]],[[23354,21190],[32,-239]],[[23386,20951],[-27,-12]],[[23359,20939],[-95,58]],[[23264,20997],[18,143]],[[23282,21140],[72,73]],[[22008,21531],[0,-89]],[[22008,21442],[-95,3]],[[21913,21445],[0,86]],[[21913,21531],[95,0]],[[21913,21445],[-108,0]],[[21805,21445],[-63,86]],[[21742,21531],[153,0]],[[21895,21531],[18,0]],[[22215,21155],[0,-158],[-99,0]],[[22116,20997],[-77,92]],[[22039,21089],[0,10],[0,107]],[[22039,21206],[68,-10]],[[22107,21196],[108,-41]],[[22868,20461],[23,160]],[[22891,20621],[90,-33]],[[22981,20588],[4,-5]],[[22985,20583],[-22,-122]],[[22963,20461],[-63,-28]],[[22900,20433],[-32,28]],[[22940,21279],[-158,-15],[5,-178]],[[22787,21086],[-158,0]],[[22629,21086],[-40,221]],[[22589,21307],[94,-43],[0,89]],[[22683,21353],[99,0]],[[22782,21353],[149,0]],[[22931,21353],[9,-74]],[[23170,20819],[-27,0]],[[23143,20819],[-63,0]],[[23080,20819],[-5,28]],[[23075,20847],[14,46]],[[23089,20893],[0,38]],[[23170,20939],[0,-120]],[[22418,20730],[-99,0]],[[22319,20730],[0,89]],[[22319,20819],[193,0]],[[22512,20819],[0,-30]],[[22512,20789],[-94,-59]],[[21895,21620],[0,-89]],[[21742,21531],[-18,21],[167,157]],[[21891,21709],[4,-89]],[[22039,20552],[0,89],[0,89]],[[22039,20730],[90,0]],[[22129,20730],[190,0]],[[22319,20730],[0,-89]],[[22319,20641],[-95,0],[0,-89]],[[22206,21353],[0,89]],[[22206,21442],[0,74]],[[22206,21516],[0,15]],[[22206,21531],[95,0]],[[22301,21442],[0,-89]],[[22301,21353],[-95,0]],[[22976,20819],[-94,-2]],[[22882,20817],[-64,109]],[[22818,20926],[113,71]],[[22931,20997],[45,-150]],[[22976,20847],[0,-28]],[[22557,20641],[-49,-89]],[[22508,20552],[-95,-2],[5,180]],[[22512,20789],[95,0]],[[22607,20789],[-50,-148]],[[23089,20237],[0,46]],[[23089,20283],[0,89],[94,0]],[[23183,20372],[0,-120],[-94,-15]],[[22206,21353],[-99,0]],[[22107,21353],[-99,0],[0,89]],[[22008,21442],[198,0]],[[22589,21307],[0,46]],[[22589,21353],[94,0]],[[22310,21112],[-95,43]],[[22215,21155],[-9,198]],[[23363,20819],[-4,0]],[[23359,20819],[0,120]],[[23386,20951],[54,-28]],[[22710,20461],[0,-28]],[[22710,20433],[-184,73]],[[22526,20506],[-18,46]],[[22508,20552],[193,-2]],[[22701,20550],[9,-89]],[[23080,20639],[0,180]],[[23143,20819],[31,-180],[-94,0]],[[22598,21086],[-32,0]],[[22517,21175],[9,178]],[[22526,21353],[63,0]],[[22629,21086],[-31,0]],[[22319,20819],[-9,89],[193,28]],[[22503,20936],[27,-28]],[[22530,20908],[68,-89],[-86,0]],[[22197,21620],[0,89]],[[22197,21709],[189,0]],[[22386,21709],[0,-89],[-189,0]],[[21895,21620],[302,89]],[[22197,21620],[9,-89]],[[22206,21516],[-198,15]],[[22805,20461],[-9,0]],[[22796,20461],[0,178]],[[22796,20639],[4,40]],[[22800,20679],[91,-58]],[[22868,20461],[-63,0]],[[22427,20374],[85,87]],[[22512,20461],[-54,-87]],[[22701,20639],[-144,2]],[[22607,20789],[94,28]],[[22701,20817],[95,0]],[[22796,20817],[4,-138]],[[22796,20639],[-95,0]],[[22526,21353],[-32,0]],[[22494,21353],[0,178],[86,0]],[[22580,21531],[9,-178]],[[22701,20639],[0,-89]],[[22485,21798],[0,-89]],[[22485,21709],[-99,0]],[[22197,21709],[0,89]],[[22197,21798],[189,0]],[[22386,21798],[99,0]],[[22413,21353],[81,0]],[[23264,20997],[-18,0]],[[23206,21140],[76,0]],[[22972,21203],[9,-117]],[[22981,21086],[-95,0]],[[22886,21086],[54,148]],[[22940,21234],[32,-31]],[[23359,20819],[-189,0]],[[22805,20283],[0,91]],[[22805,20374],[95,-2]],[[22900,20372],[0,-89]],[[22129,20730],[-13,267]],[[22364,21086],[139,-150]],[[22039,20730],[0,176],[0,106],[0,77]],[[22710,20433],[-49,-150]],[[22512,20461],[14,45]],[[22882,20817],[-86,0]],[[22701,20817],[117,109]],[[22598,21086],[0,-89]],[[22598,20997],[-95,-61]],[[22710,20461],[86,0]],[[22805,20461],[0,-87]],[[22332,20461],[50,89],[-63,0]],[[22319,20550],[0,91]],[[22530,20908],[68,89]],[[22787,21086],[99,0]],[[22981,21086],[-50,-89]],[[23089,20194],[0,43]],[[23183,20372],[95,43]],[[22485,21709],[95,0]],[[22580,21709],[0,-89]],[[22580,21620],[0,-89]],[[23201,20450],[-121,39],[49,61]],[[23129,20550],[77,0]],[[22940,21279],[0,-45]],[[23071,21193],[0,74]],[[23071,21267],[4,15]],[[23075,21282],[234,71]],[[23309,21353],[45,-89]],[[23354,21264],[-283,-71]],[[22386,21890],[0,-92]],[[22197,21798],[0,92]],[[22197,21890],[189,0]],[[22107,21196],[0,157]],[[23129,20550],[-49,28]],[[23080,20578],[0,61]],[[22039,21206],[-13,58],[-167,89],[-54,89],[0,3]],[[22972,21203],[99,64]],[[23071,21193],[4,-18]],[[23057,21043],[-76,43]],[[23012,20847],[77,46]],[[23075,20847],[-63,0]],[[23012,20847],[-36,0]],[[23089,20283],[-95,0]],[[22994,20283],[-18,104]],[[22976,20387],[-13,74]],[[22985,20583],[95,-5]],[[22981,20588],[-5,231]],[[22900,20372],[0,61]],[[22976,20387],[-76,-15]],[[23354,21264],[0,-23]],[[22931,21353],[108,0]],[[23039,21353],[32,-25]],[[23071,21328],[4,-46]],[[21891,21709],[45,61],[18,120]],[[21954,21890],[230,0]],[[22184,21890],[13,0]],[[23701,21366],[-63,97]],[[23638,21463],[113,35]],[[23751,21498],[36,0],[45,8]],[[23832,21506],[36,-107]],[[23751,21498],[-5,54]],[[23746,21552],[54,-6]],[[23800,21546],[32,-40]],[[23823,21518],[157,-15]],[[23980,21503],[36,0]],[[23868,21414],[-45,104]],[[23535,21488],[-68,-31]],[[23467,21457],[-63,13]],[[23404,21470],[108,254]],[[23512,21724],[68,-48]],[[23580,21676],[-45,-188]],[[22967,21834],[14,-97]],[[22981,21737],[-27,-28]],[[22954,21709],[-136,-10]],[[22818,21699],[-67,56]],[[22751,21755],[0,28],[0,15],[0,28]],[[22751,21826],[94,51],[-9,122]],[[22836,21999],[91,-23]],[[22927,21976],[18,-74]],[[22945,21902],[22,-68]],[[22584,22065],[-13,-96]],[[22571,21969],[-95,99]],[[22476,22068],[108,-3]],[[23598,21485],[-18,-12]],[[23580,21473],[-45,15]],[[23580,21676],[67,-33]],[[23647,21643],[54,-109],[-103,-49]],[[22386,21890],[185,-3]],[[22571,21887],[9,-28]],[[22580,21859],[-95,-61]],[[23071,21328],[121,203]],[[23192,21531],[50,13]],[[23242,21544],[81,-117]],[[23323,21427],[-14,-74]],[[23737,21724],[-4,0]],[[23733,21724],[-217,36]],[[23516,21760],[10,23]],[[23526,21783],[27,36]],[[23553,21819],[63,-21]],[[23616,21798],[58,-23]],[[23674,21775],[63,-51]],[[22647,21813],[86,252]],[[22733,22065],[40,-13]],[[22773,22052],[-63,-223]],[[22710,21829],[0,-16]],[[22710,21813],[-63,0]],[[23039,21353],[23,206]],[[23062,21559],[130,-28]],[[23507,21750],[0,-26]],[[23507,21724],[-58,0]],[[23449,21724],[-95,74]],[[23354,21798],[0,89]],[[23354,21887],[153,-119]],[[23507,21768],[0,-18]],[[23057,21938],[-18,-8]],[[23039,21930],[-94,-28]],[[22927,21976],[130,15]],[[23057,21991],[0,-15]],[[23057,21976],[0,-38]],[[23620,21338],[-40,135]],[[23598,21485],[40,-22]],[[22580,21620],[99,0]],[[22679,21620],[4,-267]],[[22670,22157],[0,-92]],[[22670,22065],[-86,0]],[[22476,22068],[-99,0]],[[22377,22068],[99,119]],[[22476,22187],[95,-30]],[[22571,22157],[99,0]],[[22629,21819],[-49,40]],[[22571,21887],[0,82]],[[22670,22065],[63,0]],[[22647,21813],[-18,6]],[[22751,21755],[-45,-120]],[[22706,21635],[-27,-15]],[[22580,21709],[112,0],[18,104]],[[22710,21829],[41,-3]],[[23980,21503],[-40,120]],[[23940,21623],[4,157]],[[23944,21780],[0,26]],[[23944,21806],[72,0]],[[24016,21806],[117,-33]],[[24133,21773],[18,-15]],[[24151,21758],[-13,-163]],[[24151,21758],[9,-163]],[[23363,21473],[14,251]],[[23377,21724],[72,0]],[[23507,21724],[5,0]],[[23404,21470],[-41,3]],[[22773,22052],[63,-35]],[[22836,22017],[0,-18]],[[22782,21353],[-9,267]],[[22773,21620],[45,79]],[[22954,21709],[-14,-89],[122,-25]],[[23062,21595],[0,-36]],[[23377,21724],[-72,0]],[[23305,21724],[-144,74]],[[23161,21798],[193,0]],[[24133,21864],[0,-91]],[[24016,21806],[-22,310]],[[23994,22116],[103,0]],[[24097,22116],[36,-252]],[[22629,21819],[-49,-110]],[[23733,21724],[-54,-58]],[[23679,21666],[-32,-23]],[[23507,21750],[9,10]],[[24318,22210],[77,-2]],[[24395,22208],[0,-94],[99,5]],[[24395,22004],[-41,104]],[[24354,22108],[-36,102]],[[23670,21819],[-54,-21]],[[23553,21819],[-18,78],[-23,0],[-27,64]],[[23485,21961],[162,104]],[[23647,22065],[32,0]],[[23679,22065],[-18,51]],[[23661,22116],[144,-13]],[[23805,22103],[-23,-239]],[[23782,21864],[-121,-5]],[[23661,21859],[31,173],[-22,-213]],[[23161,21798],[-104,140]],[[23057,21976],[99,0],[0,89]],[[23156,22065],[95,0]],[[23251,22065],[0,-89],[99,0]],[[23350,21976],[4,-89]],[[22773,21620],[-67,15]],[[24395,22208],[0,178],[130,0]],[[23242,21544],[63,180]],[[23363,21473],[-40,-46]],[[24133,21864],[163,-2]],[[24296,21862],[36,-178]],[[22836,22017],[208,48]],[[23044,22065],[13,-74]],[[23039,21930],[-72,-96]],[[24296,21862],[31,15]],[[24097,22116],[0,61]],[[24097,22177],[18,0]],[[24115,22177],[181,-76]],[[24296,22101],[31,-163]],[[23161,21798],[-99,0],[0,-89]],[[23062,21709],[-81,28]],[[22670,22157],[144,28],[-50,61]],[[22764,22246],[280,0]],[[23044,22246],[13,-92]],[[23057,22154],[-13,-89]],[[23467,21457],[22,-134]],[[23944,21806],[-162,58]],[[23805,22103],[99,13]],[[23904,22116],[90,0]],[[23940,21623],[-131,5]],[[23809,21628],[-63,86]],[[23746,21714],[198,66]],[[23787,21648],[-27,3]],[[23760,21651],[-54,0]],[[23706,21651],[-27,15]],[[23737,21724],[50,-76]],[[23746,21714],[-85,145]],[[23670,21819],[4,-44]],[[23706,21651],[40,-31]],[[23746,21620],[0,-68]],[[23760,21651],[-14,-31]],[[23787,21648],[13,-102]],[[23062,21595],[0,114]],[[23823,21518],[-27,44],[0,2],[13,64]],[[23526,21783],[-19,-15]],[[23350,21976],[94,0]],[[23444,21976],[41,-15]],[[24296,22101],[58,7]],[[23782,22304],[-85,-12]],[[23697,22292],[-72,66],[58,66]],[[23683,22424],[126,15]],[[23809,22439],[32,-15]],[[23841,22424],[27,-10]],[[23868,22414],[-86,-110]],[[23904,22116],[-234,61],[36,81]],[[23706,22258],[189,158]],[[23895,22416],[108,10]],[[24003,22426],[-5,-132],[86,0]],[[24084,22294],[13,-117]],[[23697,22253],[0,39]],[[23782,22304],[-85,-51]],[[24097,22274],[0,20]],[[24097,22294],[0,191],[-72,-10]],[[24025,22475],[-22,40]],[[24003,22515],[212,28],[-95,18]],[[24120,22561],[4,5]],[[24124,22566],[109,0]],[[24233,22566],[153,0]],[[24318,22210],[-40,122],[-181,-58]],[[23489,22976],[-54,-105]],[[23435,22871],[-99,87]],[[23336,22958],[0,178]],[[23336,23136],[99,0]],[[23435,23136],[54,-160]],[[23926,22780],[-94,2]],[[23832,22782],[-99,0]],[[23733,22782],[0,74],[-50,-119],[-347,-46]],[[23336,22691],[0,89]],[[23336,22780],[99,0],[0,91]],[[23435,22871],[271,11]],[[23706,22882],[220,25]],[[23926,22907],[5,-38]],[[23931,22869],[-5,-89]],[[23044,22246],[9,0]],[[23053,22246],[193,0]],[[23246,22246],[9,-92]],[[23255,22154],[-99,0]],[[23156,22154],[-99,0]],[[23444,22065],[0,-89]],[[23251,22065],[4,89]],[[23255,22154],[95,0]],[[23350,22154],[0,-89],[94,0]],[[23156,22065],[0,89]],[[23841,22424],[0,107]],[[23841,22531],[0,73]],[[23841,22604],[85,87]],[[23926,22691],[198,0]],[[24124,22691],[0,-125]],[[24120,22561],[-203,-28],[-49,-119]],[[24025,22475],[-22,-49]],[[23895,22416],[27,117],[81,-18]],[[23841,22604],[-9,120]],[[23832,22724],[94,-33]],[[23647,22065],[-203,0]],[[23350,22154],[13,92]],[[23363,22246],[185,0]],[[23548,22246],[135,-5]],[[23683,22241],[-4,-176]],[[24097,22294],[-13,0]],[[24124,22780],[0,-89]],[[23926,22691],[0,89]],[[23926,22780],[198,0]],[[23832,22724],[0,58]],[[23661,22116],[45,142]],[[24097,22274],[18,-97]],[[23489,22976],[244,-16]],[[23733,22960],[-27,-78]],[[23246,22335],[0,-89]],[[23053,22246],[0,89]],[[23053,22335],[31,0]],[[23084,22335],[162,0]],[[23237,23314],[0,-176]],[[23237,23138],[-198,0],[-9,178]],[[23030,23316],[0,89]],[[23030,23405],[99,0]],[[23129,23405],[108,-91]],[[23426,23314],[-76,-69],[85,-109]],[[23336,23136],[-99,2]],[[23237,23314],[189,0]],[[22850,22660],[9,31]],[[22859,22691],[41,89]],[[22900,22780],[144,61]],[[23044,22841],[193,-56]],[[23237,22785],[99,-5]],[[23336,22691],[-387,-33]],[[22949,22658],[-99,2]],[[23809,22439],[18,76]],[[23827,22515],[14,16]],[[23363,22246],[185,25]],[[23548,22271],[0,-25]],[[23237,22785],[5,175],[94,-2]],[[23683,22424],[-85,-15],[94,104]],[[23692,22513],[135,2]],[[24233,22566],[153,135],[-153,-135]],[[24124,22780],[0,68]],[[24386,22709],[0,-8]],[[23012,22871],[32,74],[-95,13]],[[22949,22958],[-58,-8],[148,173],[-198,15]],[[22841,23138],[99,178]],[[22940,23316],[90,0]],[[23044,22841],[-32,30]],[[23692,22513],[-144,-36]],[[23548,22477],[-50,36]],[[23498,22513],[14,89],[171,2],[23,44],[27,134]],[[23548,22271],[-68,59],[68,147]],[[23697,22253],[-14,-12]],[[23345,22513],[0,46]],[[23345,22559],[-9,132]],[[23498,22513],[-153,0]],[[22954,22513],[-5,145]],[[23345,22559],[-198,-46]],[[23147,22513],[-94,0]],[[23053,22513],[-99,0]],[[23246,22335],[99,178]],[[23084,22335],[63,178]],[[23053,22335],[0,89]],[[23053,22424],[0,89]],[[23719,23052],[14,-92]],[[23435,23136],[45,58]],[[23480,23194],[23,-150],[36,105],[180,-97]],[[22850,22780],[-99,0]],[[22751,22780],[-50,178],[-49,-178]],[[22652,22780],[-131,-89]],[[22521,22691],[-67,-3]],[[22454,22688],[-113,5]],[[22341,22693],[113,5],[-36,74]],[[22418,22772],[36,99]],[[22454,22871],[99,-2],[-9,89]],[[22544,22958],[67,135],[-67,-13]],[[22544,23080],[0,56]],[[22544,23136],[99,0]],[[22643,23136],[99,2]],[[22742,23138],[99,0]],[[22841,23138],[-113,-114],[122,-125]],[[22850,22899],[-72,-76],[72,0]],[[22850,22823],[0,-43]],[[22143,23316],[-90,-89]],[[22053,23227],[-198,-2]],[[21855,23225],[0,89]],[[21855,23314],[85,91]],[[21940,23405],[0,89]],[[21940,23494],[203,0]],[[22143,23494],[0,-89]],[[22143,23405],[0,-89]],[[22418,22772],[-63,-53],[0,239]],[[22355,22958],[99,-13]],[[22454,22945],[0,-74]],[[22256,22693],[-82,-91]],[[22174,22602],[-99,0]],[[22075,22602],[-108,0]],[[21967,22602],[99,180]],[[22066,22782],[190,0]],[[22256,22782],[0,-89]],[[22571,22157],[-9,267]],[[22562,22424],[99,0]],[[22661,22424],[0,-89]],[[22661,22335],[9,-89]],[[22670,22246],[0,-89]],[[22341,23405],[0,89]],[[22341,23494],[99,0]],[[22440,23494],[108,0]],[[22548,23494],[-9,-89],[-198,0]],[[21940,23494],[0,89]],[[21940,23583],[0,89]],[[21940,23672],[180,0]],[[22120,23672],[18,-86]],[[22138,23586],[5,-92]],[[23053,22424],[-99,0]],[[22954,22424],[0,89]],[[22053,23227],[0,-91]],[[22053,23136],[-99,2]],[[21954,23138],[-99,0]],[[21855,23138],[0,87]],[[21931,22157],[-49,178]],[[21882,22335],[0,89]],[[21882,22424],[198,0]],[[22080,22424],[94,0]],[[22174,22424],[0,-178]],[[22174,22246],[-85,-89]],[[22089,22157],[-158,0]],[[22544,22958],[-90,-13]],[[22355,22958],[-90,0]],[[22265,22958],[-23,89]],[[22242,23047],[302,33]],[[21945,21979],[4,104],[-18,74]],[[22089,22157],[99,0]],[[22188,22157],[0,-89]],[[22188,22068],[-99,0],[0,-89]],[[22089,21979],[-144,0]],[[21940,23583],[-211,0]],[[21729,23583],[-27,89],[-41,89]],[[21661,23761],[158,0]],[[21819,23761],[0,-89],[121,0]],[[22661,22335],[94,0]],[[22755,22335],[0,-89]],[[22755,22246],[-85,0]],[[23053,22335],[-198,0]],[[22855,22335],[0,89]],[[22855,22424],[99,0]],[[22562,22424],[-95,0]],[[22467,22424],[0,89]],[[22467,22513],[0,89]],[[22467,22602],[117,0]],[[22584,22602],[77,-31]],[[22661,22571],[0,-58]],[[22661,22513],[0,-89]],[[22184,21890],[4,89]],[[22188,21979],[189,-3],[0,92]],[[22368,22393],[-94,-58],[0,89]],[[22274,22424],[94,-31]],[[22467,22424],[-99,-31]],[[22274,22424],[-5,91]],[[22269,22515],[198,-2]],[[22440,23583],[-99,0]],[[22341,23583],[-22,178]],[[22319,23761],[99,0]],[[22418,23761],[22,-178]],[[22053,23047],[0,-89]],[[22053,22958],[-99,0]],[[21954,22958],[0,89]],[[21954,23047],[0,91]],[[22053,23136],[0,-89]],[[22188,22157],[-14,89]],[[22174,22424],[100,0]],[[22467,22424],[9,-237]],[[22377,22068],[-189,0]],[[22138,23586],[203,-3]],[[22341,23583],[0,-89]],[[22341,23405],[-198,0]],[[22638,23494],[-90,0]],[[22440,23494],[0,89]],[[22440,23583],[99,0],[0,89]],[[22539,23672],[81,0]],[[22620,23672],[99,0]],[[22719,23672],[23,0]],[[22742,23672],[0,-89]],[[22742,23583],[-104,0],[0,-89]],[[22584,22602],[-63,89]],[[22652,22780],[99,0]],[[22850,22780],[50,0]],[[22859,22691],[-207,0],[9,-120]],[[22341,23405],[0,-89]],[[22341,23316],[-198,0]],[[21751,23047],[-4,81],[-9,8]],[[21738,23136],[117,2]],[[21954,23047],[-203,0]],[[21886,22782],[-18,69],[0,20],[86,87]],[[22053,22958],[13,0]],[[22066,22958],[0,-176]],[[22066,22782],[-180,0]],[[21855,23314],[-113,0]],[[21742,23314],[-4,91]],[[21738,23405],[202,0]],[[22066,22958],[190,0]],[[22256,22958],[0,-176]],[[21855,23225],[-113,0]],[[21742,23225],[0,89]],[[22764,22246],[-9,0]],[[22755,22335],[100,0]],[[22053,23047],[189,0]],[[22265,22958],[-9,0]],[[21882,22335],[-45,89]],[[21837,22424],[45,0]],[[22341,22693],[-85,0]],[[22418,23761],[103,0]],[[22521,23761],[18,-89]],[[22341,23227],[0,89]],[[22638,23494],[104,0]],[[22742,23494],[0,-178]],[[22742,23316],[-99,-2],[0,-89]],[[22643,23225],[-302,2]],[[21886,22782],[0,-180]],[[21886,22602],[-103,0]],[[21783,22602],[-14,0],[9,129],[-4,79],[13,44],[-36,104],[0,89]],[[22188,22068],[0,-89]],[[22188,21979],[-99,0]],[[22643,23136],[0,89]],[[22742,23316],[0,-178]],[[22855,22424],[-100,0]],[[22755,22424],[0,89]],[[22755,22513],[95,147]],[[21940,23494],[-207,0]],[[21733,23494],[-4,87],[0,2]],[[22242,23047],[0,89]],[[22242,23136],[99,2]],[[22341,23138],[203,-2]],[[23012,22871],[-162,-48]],[[22850,22899],[99,59]],[[22661,22424],[94,0]],[[22269,22515],[-95,0],[0,87]],[[22454,22688],[13,-86]],[[22755,22513],[-94,0]],[[21738,23136],[0,84],[4,5]],[[22080,22424],[-5,178]],[[21967,22602],[-81,0]],[[21738,23405],[-14,-2],[9,89],[0,2]],[[21954,21890],[-9,89]],[[22341,23227],[0,-89]],[[22242,23136],[-189,0]],[[21837,22424],[-54,178]],[[23629,23494],[-99,-2],[-4,-89]],[[23526,23403],[-82,20],[-18,-109]],[[23129,23405],[0,267]],[[23129,23672],[194,0]],[[23323,23672],[72,0],[45,-2],[86,2]],[[23526,23672],[99,0],[4,-89]],[[23629,23583],[0,-89]],[[22742,23494],[0,89]],[[22742,23583],[198,3]],[[22940,23586],[0,-270]],[[23309,24697],[-4,196]],[[23305,24893],[792,-320]],[[24097,24573],[-207,-11]],[[23890,24562],[-274,143],[0,-321]],[[24025,23291],[-193,-64]],[[23832,23227],[-59,8]],[[23773,23235],[-36,69],[-130,-138],[27,89]],[[23634,23255],[-5,153]],[[23629,23408],[0,30]],[[23629,23438],[72,-30]],[[23701,23408],[99,-66],[63,99]],[[23863,23441],[162,-150]],[[24498,23899],[-283,43],[-91,-92]],[[24124,23850],[-85,3]],[[24039,23853],[-27,102]],[[24012,23955],[-392,132]],[[23620,24087],[0,30]],[[23620,24117],[0,178]],[[23616,24384],[274,120]],[[23890,24504],[252,-41]],[[24142,24463],[320,-440]],[[24129,23614],[-104,58]],[[24025,23672],[0,16]],[[24025,23688],[0,73]],[[24025,23761],[14,92]],[[24124,23850],[284,-38]],[[24282,23624],[-117,-23]],[[24165,23601],[-36,13]],[[23890,24562],[0,-58]],[[23526,23672],[0,178]],[[23526,23850],[99,0]],[[23625,23850],[103,0],[99,-178]],[[23827,23672],[-99,0],[0,-89]],[[23728,23583],[-99,0]],[[23526,23403],[103,5]],[[23634,23255],[-154,-61]],[[22818,23672],[113,199],[-135,157]],[[22994,24028],[27,-152]],[[23021,23876],[0,-69]],[[23021,23807],[0,-135]],[[23021,23672],[-203,0]],[[23629,23438],[0,56]],[[23728,23583],[171,0]],[[23899,23583],[126,0]],[[24025,23583],[45,-2]],[[24070,23581],[68,-41]],[[24138,23540],[63,0]],[[24129,23296],[-104,-5]],[[23863,23441],[45,84],[-198,20],[-9,-137]],[[24165,23601],[-27,-61]],[[24070,23581],[59,33]],[[23832,23227],[-9,-89]],[[23823,23138],[-68,0]],[[23755,23138],[-54,28],[72,69]],[[22719,23672],[0,267]],[[22719,23939],[0,89]],[[22818,23672],[-76,0]],[[22620,23672],[0,150]],[[22620,23822],[0,31]],[[22620,23853],[0,89]],[[22620,23942],[99,-3]],[[23323,23672],[0,135]],[[23323,23807],[0,43]],[[23323,23850],[203,0]],[[24660,24522],[-130,-59]],[[24530,24463],[-279,82]],[[24251,24545],[409,73]],[[23323,23850],[18,41]],[[23341,23891],[31,76]],[[23372,23967],[18,102]],[[23390,24069],[126,48]],[[23516,24117],[104,0]],[[23620,24087],[5,-87]],[[23625,24000],[0,-150]],[[23021,23672],[5,0]],[[23026,23672],[0,-89]],[[23026,23583],[-86,3]],[[24530,24463],[126,-147]],[[24142,24463],[27,77]],[[24169,24540],[82,5]],[[24097,24573],[72,-33]],[[23823,23138],[4,-180],[153,2],[-54,-53]],[[23719,23052],[36,86]],[[24025,23672],[0,-89]],[[23899,23583],[-22,89]],[[23877,23672],[49,0]],[[23926,23672],[99,16]],[[24012,23955],[-257,-51],[-130,96]],[[23877,23672],[-50,0]],[[24025,23761],[-103,0],[4,-89]],[[23931,22869],[99,0]],[[23372,23967],[-207,110],[225,-8]],[[23129,23672],[-103,0]],[[23021,23807],[185,-2]],[[23206,23805],[117,2]],[[23206,23805],[-50,81]],[[23156,23886],[185,5]],[[23021,23876],[135,10]],[[23125,24997],[81,-257]],[[22913,24740],[-117,0],[0,89]],[[22796,24829],[104,0]],[[22900,24829],[99,84]],[[22999,24913],[126,84]],[[23026,23583],[4,-178]],[[22900,24829],[72,89]],[[22972,24918],[27,-5]],[[22521,23761],[99,61]],[[23516,24117],[5,97]],[[23125,24997],[180,-104]],[[22508,24183],[9,-211]],[[22517,23972],[-198,-2]],[[22319,23970],[-14,89],[-288,-28]],[[22017,24031],[-14,0]],[[22003,24031],[0,89]],[[22003,24120],[104,69]],[[22107,24189],[302,-6]],[[22409,24183],[99,0]],[[21697,24298],[0,-112]],[[21697,24186],[-99,0]],[[21598,24186],[0,112]],[[21598,24298],[99,0]],[[23084,25185],[-31,242],[180,-66],[-149,-176]],[[21796,24387],[-99,-89]],[[21598,24298],[-76,0]],[[21522,24298],[-32,89],[13,0]],[[21503,24387],[293,0]],[[22193,24745],[-104,-2]],[[22089,24743],[-14,0]],[[22075,24743],[0,292]],[[22075,25035],[311,0]],[[22386,25035],[0,-290]],[[22386,24745],[-94,0]],[[22292,24745],[-99,0]],[[22319,23761],[0,89]],[[22319,23850],[99,3]],[[22418,23853],[0,-92]],[[22120,23761],[0,-89]],[[21819,23761],[-5,181]],[[21814,23942],[99,89]],[[21913,24031],[90,0]],[[22017,24031],[0,-61]],[[22017,23970],[103,-209]],[[21684,24565],[0,89],[103,0]],[[21787,24654],[-4,-89]],[[21783,24565],[-99,0]],[[21630,23942],[-32,-46]],[[21598,23896],[-9,36],[-18,25]],[[21571,23957],[59,-15]],[[21814,23942],[-184,0]],[[21571,23957],[-13,71],[-59,158]],[[21499,24186],[99,0]],[[21697,24186],[104,0],[0,-158],[112,3]],[[21661,23761],[-45,89],[-18,46]],[[22503,24473],[99,0],[0,-89],[-103,0]],[[22499,24384],[4,89]],[[22620,23942],[-103,30]],[[22508,24183],[202,3]],[[22292,24745],[0,-89],[-99,3],[0,86]],[[22409,24183],[0,204]],[[22409,24387],[90,-3]],[[22503,24473],[-4,89]],[[22499,24562],[202,-2]],[[21517,24743],[-59,178]],[[21458,24921],[109,0]],[[21567,24921],[202,-87]],[[21769,24834],[0,-91]],[[21769,24743],[-252,0]],[[21990,24743],[0,-87],[-104,-2],[0,89]],[[21886,24743],[104,0]],[[22089,24567],[-203,-2]],[[21886,24565],[-103,0]],[[21787,24654],[-4,89]],[[21783,24743],[103,0]],[[21990,24743],[85,0]],[[22089,24743],[0,-176]],[[21485,24565],[32,178]],[[21769,24743],[14,0]],[[21684,24565],[-199,0]],[[21769,24834],[104,-2],[0,203]],[[21873,25035],[202,0]],[[21567,24921],[0,5]],[[21567,24926],[0,109]],[[21567,25035],[306,0]],[[22120,23761],[199,0]],[[22193,24387],[0,180]],[[22193,24567],[306,-5]],[[22409,24387],[-216,0]],[[22107,24189],[-104,198]],[[22003,24387],[190,0]],[[21567,24926],[-140,86]],[[21427,25012],[9,23],[131,0]],[[22418,23853],[202,0]],[[21499,24186],[4,20],[19,89],[0,3]],[[22319,23850],[0,120]],[[22017,23970],[302,0]],[[22701,24560],[-4,185],[-198,0]],[[22499,24745],[-113,0]],[[22386,25035],[410,-2]],[[22796,25033],[-5,-117]],[[22791,24916],[-99,2],[0,-91],[104,2]],[[21458,24921],[-31,91]],[[22791,24916],[5,-87]],[[21503,24387],[0,58],[-18,120]],[[21886,24565],[0,-178]],[[21886,24387],[-90,0]],[[21900,24387],[-14,0]],[[22089,24567],[104,0]],[[22003,24387],[-103,0]],[[22499,24745],[0,-183]],[[22003,24120],[-103,267]],[[22796,25033],[126,0],[50,-115]]]}