{"type":"Topology","transform":{"scale":[0.0012831345112129487,0.0009745357309423489],"translate":[-124.73273099999999,24.60334863324381]},"objects":{"area":{"type":"GeometryCollection","geometries":[{"arcs":[[0,1,2,3,4,5]],"type":"Polygon","properties":{"state":"MO","name":"CHESTERFIELD","zip":"63005"}},{"arcs":[[6,7,8,9,10]],"type":"Polygon","properties":{"state":"MO","name":"ARNOLD","zip":"63010"}},{"arcs":[[11,12,13,-6,14,15]],"type":"Polygon","properties":{"state":"MO","name":"BALLWIN","zip":"63011"}},{"arcs":[[16,17,18,19,20]],"type":"Polygon","properties":{"state":"MO","name":"BARNHART","zip":"63012"}},{"arcs":[[21,22,23,24,25]],"type":"Polygon","properties":{"state":"MO","name":"BEAUFORT","zip":"63013"}},{"arcs":[[26,27,28,29]],"type":"Polygon","properties":{"state":"MO","name":"BERGER","zip":"63014"}},{"arcs":[[30,31,32,33]],"type":"Polygon","properties":{"state":"MO","name":"CATAWISSA","zip":"63015"}},{"arcs":[[34,-34,35,36,37]],"type":"Polygon","properties":{"state":"MO","name":"CEDAR HILL","zip":"63016"}},{"arcs":[[38,-15,-5,39,40,41]],"type":"Polygon","properties":{"state":"MO","name":"CHESTERFIELD","zip":"63017"}},{"arcs":[[42,43,44]],"type":"Polygon","properties":{"state":"MO","name":"CRYSTAL CITY","zip":"63019"}},{"arcs":[[45,46,47,48,49,50,51,52]],"type":"Polygon","properties":{"state":"MO","name":"DE SOTO","zip":"63020"}},{"arcs":[[53,54,-12,55,56,57,58,59]],"type":"Polygon","properties":{"state":"MO","name":"BALLWIN","zip":"63021"}},{"arcs":[[60,-51,61,62,63,64,-31,-35]],"type":"Polygon","properties":{"state":"MO","name":"DITTMER","zip":"63023"}},{"arcs":[[65,66,-60,67,68]],"type":"Polygon","properties":{"state":"MO","name":"EUREKA","zip":"63025"}},{"arcs":[[69,70,71,72,73,74,-8]],"type":"Polygon","properties":{"state":"MO","name":"FENTON","zip":"63026"}},{"arcs":[[75,76,77,-43,78,79,80,-53]],"type":"Polygon","properties":{"state":"MO","name":"FESTUS","zip":"63028"}},{"arcs":[[81,82,-49]],"type":"Polygon","properties":{"state":"MO","name":"FLETCHER","zip":"63030"}},{"arcs":[[83,84,85,86,87]],"type":"Polygon","properties":{"state":"MO","name":"FLORISSANT","zip":"63031"}},{"arcs":[[88,-87,89,90,91]],"type":"Polygon","properties":{"state":"MO","name":"FLORISSANT","zip":"63033"}},{"arcs":[[92,-90,-86,93]],"type":"Polygon","properties":{"state":"MO","name":"FLORISSANT","zip":"63034"}},{"arcs":[[94,95,96,-81]],"type":"Polygon","properties":{"state":"MO","name":"FRENCH VILLAGE","zip":"63036"}},{"arcs":[[97,98,99,100,101]],"type":"Polygon","properties":{"state":"MO","name":"GERALD","zip":"63037"}},{"arcs":[[102,-1,-14,103,-54,-67]],"type":"Polygon","properties":{"state":"MO","name":"GLENCOE","zip":"63038"}},{"arcs":[[104,105,106]],"type":"Polygon","properties":{"state":"MO","name":"GRAY SUMMIT","zip":"63039"}},{"arcs":[[-13,-55,-104]],"type":"Polygon","properties":{"state":"MO","name":"GROVER","zip":"63040"}},{"arcs":[[107,108,-64]],"type":"Polygon","properties":{"state":"MO","name":"GRUBVILLE","zip":"63041"}},{"arcs":[[109,110,111,112,-84,113]],"type":"Polygon","properties":{"state":"MO","name":"HAZELWOOD","zip":"63042"}},{"arcs":[[114,115,116,117,118,119]],"type":"Polygon","properties":{"state":"MO","name":"MARYLAND HEIGHTS","zip":"63043"}},{"arcs":[[120,121,-120,122,123,-112]],"type":"Polygon","properties":{"state":"MO","name":"BRIDGETON","zip":"63044"}},{"arcs":[[-123,-119,124]],"type":"Polygon","properties":{"state":"MO","name":"EARTH CITY","zip":"63045"}},{"arcs":[[-78,125,126,-44]],"type":"Polygon","properties":{"state":"MO","name":"HERCULANEUM","zip":"63048"}},{"arcs":[[127,128,-68,-59,129,-71]],"type":"Polygon","properties":{"state":"MO","name":"HIGH RIDGE","zip":"63049"}},{"arcs":[[-52,-61,-38,130,-17,131,-76]],"type":"Polygon","properties":{"state":"MO","name":"HILLSBORO","zip":"63050"}},{"arcs":[[-131,-37,132,-69,-129,133,-18]],"type":"Polygon","properties":{"state":"MO","name":"HOUSE SPRINGS","zip":"63051"}},{"arcs":[[-128,-70,-7,134,-19,-134]],"type":"Polygon","properties":{"state":"MO","name":"IMPERIAL","zip":"63052"}},{"arcs":[[135,-106,136,137,138,-3]],"type":"Polygon","properties":{"state":"MO","name":"LABADIE","zip":"63055"}},{"arcs":[[139,140,-23,141,-102]],"type":"Polygon","properties":{"state":"MO","name":"LESLIE","zip":"63056"}},{"arcs":[[142,143,144,145,-108,-63,146]],"type":"Polygon","properties":{"state":"MO","name":"LONEDELL","zip":"63060"}},{"arcs":[[147,-140,-101,148,-30,149]],"type":"Polygon","properties":{"state":"MO","name":"NEW HAVEN","zip":"63068"}},{"arcs":[[150,151,-107,-136,-2,-103,-66,-133,-36,-33]],"type":"Polygon","properties":{"state":"MO","name":"PACIFIC","zip":"63069"}},{"arcs":[[-132,-21,152,-126,-77]],"type":"Polygon","properties":{"state":"MO","name":"PEVELY","zip":"63070"}},{"arcs":[[153,-147,-62,-50,-83,154,155]],"type":"Polygon","properties":{"state":"MO","name":"RICHWOODS","zip":"63071"}},{"arcs":[[156,157,-151,-32,-65,-109,-146]],"type":"Polygon","properties":{"state":"MO","name":"ROBERTSVILLE","zip":"63072"}},{"arcs":[[-122,158,159,-115]],"type":"Polygon","properties":{"state":"MO","name":"SAINT ANN","zip":"63074"}},{"arcs":[[160,161,-157,-145,162,-26]],"type":"Polygon","properties":{"state":"MO","name":"SAINT CLAIR","zip":"63077"}},{"arcs":[[163,164,165,166,-98,-142,-22,-163,-144]],"type":"Polygon","properties":{"state":"MO","name":"SULLIVAN","zip":"63080"}},{"arcs":[[167,168,-161,-25]],"type":"Polygon","properties":{"state":"MO","name":"UNION","zip":"63084"}},{"arcs":[[169,-46,-97]],"type":"Polygon","properties":{"state":"MO","name":"VALLES MINES","zip":"63087"}},{"arcs":[[-58,170,-72,-130]],"type":"Polygon","properties":{"state":"MO","name":"VALLEY PARK","zip":"63088"}},{"arcs":[[-162,-169,171,-137,-105,-152,-158]],"type":"Polygon","properties":{"state":"MO","name":"VILLA RIDGE","zip":"63089"}},{"arcs":[[-148,172,-138,-172,-168,-24,-141]],"type":"Polygon","properties":{"state":"MO","name":"WASHINGTON","zip":"63090"}},{"arcs":[[173,174,-99,-167]],"type":"Polygon","properties":{"state":"MO","name":"ROSEBUD","zip":"63091"}},{"arcs":[[175,176,177]],"type":"Polygon","properties":{"state":"MO","name":"SAINT LOUIS","zip":"63101"}},{"arcs":[[178,-176,179,180,181,182]],"type":"Polygon","properties":{"state":"MO","name":"SAINT LOUIS","zip":"63102"}},{"arcs":[[183,184,185,-177,-179,186]],"type":"Polygon","properties":{"state":"MO","name":"SAINT LOUIS","zip":"63103"}},{"arcs":[[187,188,-187,-183,189]],"type":"Polygon","properties":{"state":"MO","name":"SAINT LOUIS","zip":"63104"}},{"arcs":[[190,191,192,193]],"type":"Polygon","properties":{"state":"MO","name":"SAINT LOUIS","zip":"63105"}},{"arcs":[[-178,-186,194,195,196,-180]],"type":"Polygon","properties":{"state":"MO","name":"SAINT LOUIS","zip":"63106"}},{"arcs":[[197,-197,198,199]],"type":"Polygon","properties":{"state":"MO","name":"SAINT LOUIS","zip":"63107"}},{"arcs":[[200,201,202,-195,-185]],"type":"Polygon","properties":{"state":"MO","name":"SAINT LOUIS","zip":"63108"}},{"arcs":[[203,204,205,206]],"type":"Polygon","properties":{"state":"MO","name":"SAINT LOUIS","zip":"63109"}},{"arcs":[[207,208,-191,209,-201,-184,-189]],"type":"Polygon","properties":{"state":"MO","name":"SAINT LOUIS","zip":"63110"}},{"arcs":[[210,211,212,213]],"type":"Polygon","properties":{"state":"MO","name":"SAINT LOUIS","zip":"63111"}},{"arcs":[[214,215,216,217,-202,-210]],"type":"Polygon","properties":{"state":"MO","name":"SAINT LOUIS","zip":"63112"}},{"arcs":[[-203,-218,218,-199,-196]],"type":"Polygon","properties":{"state":"MO","name":"SAINT LOUIS","zip":"63113"}},{"arcs":[[219,220,221,-116,-160,222,223]],"type":"Polygon","properties":{"state":"MO","name":"SAINT LOUIS","zip":"63114"}},{"arcs":[[-219,224,225,-200]],"type":"Polygon","properties":{"state":"MO","name":"SAINT LOUIS","zip":"63115"}},{"arcs":[[226,-208,227,-212,228,-204]],"type":"Polygon","properties":{"state":"MO","name":"SAINT LOUIS","zip":"63116"}},{"arcs":[[229,230,231,232,-192]],"type":"Polygon","properties":{"state":"MO","name":"SAINT LOUIS","zip":"63117"}},{"arcs":[[-213,-228,-188,233]],"type":"Polygon","properties":{"state":"MO","name":"SAINT LOUIS","zip":"63118"}},{"arcs":[[234,235,236,237,-206,238,239]],"type":"Polygon","properties":{"state":"MO","name":"SAINT LOUIS","zip":"63119"}},{"arcs":[[240,241,242,243,-225,-217]],"type":"Polygon","properties":{"state":"MO","name":"SAINT LOUIS","zip":"63120"}},{"arcs":[[244,245,246,-242,247,-224]],"type":"Polygon","properties":{"state":"MO","name":"SAINT LOUIS","zip":"63121"}},{"arcs":[[-57,248,249,-235,250,251,-73,-171]],"type":"Polygon","properties":{"state":"MO","name":"SAINT LOUIS","zip":"63122"}},{"arcs":[[252,-239,-205,-229,253,254]],"type":"Polygon","properties":{"state":"MO","name":"SAINT LOUIS","zip":"63123"}},{"arcs":[[255,256,257,258,-193,-233,259,-236,-250]],"type":"Polygon","properties":{"state":"MO","name":"SAINT LOUIS","zip":"63124"}},{"arcs":[[260,-254,-211,261]],"type":"Polygon","properties":{"state":"MO","name":"SAINT LOUIS","zip":"63125"}},{"arcs":[[262,263,-251,-240,-253]],"type":"Polygon","properties":{"state":"MO","name":"SAINT LOUIS","zip":"63126"}},{"arcs":[[264,-74,-252,-264]],"type":"Polygon","properties":{"state":"MO","name":"SAINT LOUIS","zip":"63127"}},{"arcs":[[-265,-263,-255,265,-9,-75]],"type":"Polygon","properties":{"state":"MO","name":"SAINT LOUIS","zip":"63128"}},{"arcs":[[-10,-266,-261,266]],"type":"Polygon","properties":{"state":"MO","name":"SAINT LOUIS","zip":"63129"}},{"arcs":[[-194,-259,267,-221,268,-215]],"type":"Polygon","properties":{"state":"MO","name":"SAINT LOUIS","zip":"63130"}},{"arcs":[[-39,269,-256,-249,-56,-16]],"type":"Polygon","properties":{"state":"MO","name":"SAINT LOUIS","zip":"63131"}},{"arcs":[[270,271,-222,-268,-258]],"type":"Polygon","properties":{"state":"MO","name":"SAINT LOUIS","zip":"63132"}},{"arcs":[[-220,-248,-241,-216,-269]],"type":"Polygon","properties":{"state":"MO","name":"SAINT LOUIS","zip":"63133"}},{"arcs":[[272,-110,273,-245,-223,-159]],"type":"Polygon","properties":{"state":"MO","name":"SAINT LOUIS","zip":"63134"}},{"arcs":[[-114,-88,-89,274,-246,-274]],"type":"Polygon","properties":{"state":"MO","name":"SAINT LOUIS","zip":"63135"}},{"arcs":[[275,-243,-247,-275,-92,276,277]],"type":"Polygon","properties":{"state":"MO","name":"SAINT LOUIS","zip":"63136"}},{"arcs":[[278,279,280,-278]],"type":"Polygon","properties":{"state":"MO","name":"SAINT LOUIS","zip":"63137"}},{"arcs":[[-279,-277,-91,-93,281]],"type":"Polygon","properties":{"state":"MO","name":"SAINT LOUIS","zip":"63138"}},{"arcs":[[282,-230,-209,-227,-207]],"type":"Polygon","properties":{"state":"MO","name":"SAINT LOUIS","zip":"63139"}},{"arcs":[[283,-271,-257,-270,-42]],"type":"Polygon","properties":{"state":"MO","name":"SAINT LOUIS","zip":"63141"}},{"arcs":[[-238,284,-231,-283]],"type":"Polygon","properties":{"state":"MO","name":"SAINT LOUIS","zip":"63143"}},{"arcs":[[-237,-260,-232,-285]],"type":"Polygon","properties":{"state":"MO","name":"SAINT LOUIS","zip":"63144"}},{"arcs":[[-121,-111,-273]],"type":"Polygon","properties":{"state":"MO","name":"SAINT LOUIS","zip":"63145"}},{"arcs":[[-284,-41,285,-117,-272]],"type":"Polygon","properties":{"state":"MO","name":"SAINT LOUIS","zip":"63146"}},{"arcs":[[-181,-198,-226,-244,-276,-281,286]],"type":"Polygon","properties":{"state":"MO","name":"SAINT LOUIS","zip":"63147"}},{"arcs":[[287,288,289,290,291,292,293]],"type":"Polygon","properties":{"state":"MO","name":"SAINT CHARLES","zip":"63301"}},{"arcs":[[294,295,-294,296]],"type":"Polygon","properties":{"state":"MO","name":"SAINT CHARLES","zip":"63303"}},{"arcs":[[297,298,299,-295,300]],"type":"Polygon","properties":{"state":"MO","name":"SAINT CHARLES","zip":"63304"}},{"arcs":[[301,302,303]],"type":"Polygon","properties":{"state":"MO","name":"ANNADA","zip":"63330"}},{"arcs":[[304,305,306,307]],"type":"Polygon","properties":{"state":"MO","name":"AUGUSTA","zip":"63332"}},{"arcs":[[308,309,310,311,312,313,314,315]],"type":"Polygon","properties":{"state":"MO","name":"BELLFLOWER","zip":"63333"}},{"arcs":[[316,317,318,319,320,321,322]],"type":"Polygon","properties":{"state":"MO","name":"BOWLING GREEN","zip":"63334"}},{"arcs":[[323,324,-323,325,326,-303]],"type":"Polygon","properties":{"state":"MO","name":"CLARKSVILLE","zip":"63336"}},{"arcs":[[327,328,329,330,-320]],"type":"Polygon","properties":{"state":"MO","name":"CURRYVILLE","zip":"63339"}},{"arcs":[[-307,331,332,333,-298,334]],"type":"Polygon","properties":{"state":"MO","name":"DEFIANCE","zip":"63341"}},{"arcs":[[335,336,-324,-302,337,338,339]],"type":"Polygon","properties":{"state":"MO","name":"ELSBERRY","zip":"63343"}},{"arcs":[[340,-317,-325,-337]],"type":"Polygon","properties":{"state":"MO","name":"EOLIA","zip":"63344"}},{"arcs":[[341,342,343,344]],"type":"Polygon","properties":{"state":"MO","name":"FARBER","zip":"63345"}},{"arcs":[[345,346,-339,347]],"type":"Polygon","properties":{"state":"MO","name":"FOLEY","zip":"63347"}},{"arcs":[[-306,348,349,350,351,352,-332]],"type":"Polygon","properties":{"state":"MO","name":"FORISTELL","zip":"63348"}},{"arcs":[[353,354,355,356]],"type":"Polygon","properties":{"state":"MO","name":"HAWK POINT","zip":"63349"}},{"arcs":[[357,358,359,-310]],"type":"Polygon","properties":{"state":"MO","name":"HIGH HILL","zip":"63350"}},{"arcs":[[-309,360,361,-358]],"type":"Polygon","properties":{"state":"MO","name":"JONESBURG","zip":"63351"}},{"arcs":[[362,363,364,365,-344]],"type":"Polygon","properties":{"state":"MO","name":"LADDONIA","zip":"63352"}},{"arcs":[[366,367,368,-326,-322]],"type":"Polygon","properties":{"state":"MO","name":"LOUISIANA","zip":"63353"}},{"arcs":[[369,370,-349,-305,371]],"type":"Polygon","properties":{"state":"MO","name":"MARTHASVILLE","zip":"63357"}},{"arcs":[[372,373,-328,-319,374,375,-313,376]],"type":"Polygon","properties":{"state":"MO","name":"MIDDLETOWN","zip":"63359"}},{"arcs":[[377,378,379,380,381,-377,-312]],"type":"Polygon","properties":{"state":"MO","name":"MONTGOMERY CITY","zip":"63361"}},{"arcs":[[382,383,-352,384,385]],"type":"Polygon","properties":{"state":"MO","name":"MOSCOW MILLS","zip":"63362"}},{"arcs":[[386,387,-378,-311,-360,388,389]],"type":"Polygon","properties":{"state":"MO","name":"NEW FLORENCE","zip":"63363"}},{"arcs":[[390,391,392,-289,393,-299,-334]],"type":"Polygon","properties":{"state":"MO","name":"O FALLON","zip":"63366"}},{"arcs":[[394,395,-392,396,-383]],"type":"Polygon","properties":{"state":"MO","name":"OLD MONROE","zip":"63369"}},{"arcs":[[397,-314,-376]],"type":"Polygon","properties":{"state":"MO","name":"OLNEY","zip":"63370"}},{"arcs":[[398,-291,399]],"type":"Polygon","properties":{"state":"MO","name":"PORTAGE DES SIOUX","zip":"63373"}},{"arcs":[[-300,-394,-288,-296]],"type":"Polygon","properties":{"state":"MO","name":"SAINT PETERS","zip":"63376"}},{"arcs":[[400,-315,-398,-375,-318,-341,-336,401,-356]],"type":"Polygon","properties":{"state":"MO","name":"SILEX","zip":"63377"}},{"arcs":[[-351,402,403,-357,-402,-340,-347,404,-385]],"type":"Polygon","properties":{"state":"MO","name":"TROY","zip":"63379"}},{"arcs":[[-316,-401,-355,405,-361]],"type":"Polygon","properties":{"state":"MO","name":"TRUXTON","zip":"63381"}},{"arcs":[[406,-342,407,408,-329,-374,409]],"type":"Polygon","properties":{"state":"MO","name":"VANDALIA","zip":"63382"}},{"arcs":[[410,-370,411,412,413,-389,-359,-362,-406,-354,-404]],"type":"Polygon","properties":{"state":"MO","name":"WARRENTON","zip":"63383"}},{"arcs":[[414,415,-410,-373,-382]],"type":"Polygon","properties":{"state":"MO","name":"WELLSVILLE","zip":"63384"}},{"arcs":[[-333,-353,-384,-397,-391]],"type":"Polygon","properties":{"state":"MO","name":"WENTZVILLE","zip":"63385"}},{"arcs":[[-292,-399,416]],"type":"Polygon","properties":{"state":"MO","name":"WEST ALTON","zip":"63386"}},{"arcs":[[417,418,-379,-388,419,420]],"type":"Polygon","properties":{"state":"MO","name":"WILLIAMSBURG","zip":"63388"}},{"arcs":[[-395,-386,-405,-346,421]],"type":"Polygon","properties":{"state":"MO","name":"WINFIELD","zip":"63389"}},{"arcs":[[-371,-411,-403,-350]],"type":"Polygon","properties":{"state":"MO","name":"WRIGHT CITY","zip":"63390"}},{"arcs":[[422,423,424]],"type":"Polygon","properties":{"state":"MO","name":"HANNIBAL","zip":"63401"}},{"arcs":[[425,426,427,428,429]],"type":"Polygon","properties":{"state":"MO","name":"ALEXANDRIA","zip":"63430"}},{"arcs":[[430,431,432,433]],"type":"Polygon","properties":{"state":"MO","name":"ANABEL","zip":"63431"}},{"arcs":[[434,435,436,437,438]],"type":"Polygon","properties":{"state":"MO","name":"ARBELA","zip":"63432"}},{"arcs":[[439,440,441,-368]],"type":"Polygon","properties":{"state":"MO","name":"ASHBURN","zip":"63433"}},{"arcs":[[442,443,444,445,446,447,448]],"type":"Polygon","properties":{"state":"MO","name":"BETHEL","zip":"63434"}},{"arcs":[[449,450,451,452,453,-430,454]],"type":"Polygon","properties":{"state":"MO","name":"CANTON","zip":"63435"}},{"arcs":[[455,456,457]],"type":"Polygon","properties":{"state":"MO","name":"CENTER","zip":"63436"}},{"arcs":[[458,459,460,461,462,463,-431]],"type":"Polygon","properties":{"state":"MO","name":"CLARENCE","zip":"63437"}},{"arcs":[[464,465,466]],"type":"Polygon","properties":{"state":"MO","name":"DURHAM","zip":"63438"}},{"arcs":[[467,468,469,-444,470]],"type":"Polygon","properties":{"state":"MO","name":"EMDEN","zip":"63439"}},{"arcs":[[471,472,-449,473,474,475,-465]],"type":"Polygon","properties":{"state":"MO","name":"EWING","zip":"63440"}},{"arcs":[[-331,476,-440,-367,-321]],"type":"Polygon","properties":{"state":"MO","name":"FRANKFORD","zip":"63441"}},{"arcs":[[477,478,479,-469,480]],"type":"Polygon","properties":{"state":"MO","name":"HUNNEWELL","zip":"63443"}},{"arcs":[[481,482,483,484,485,-427,486,-453]],"type":"Polygon","properties":{"state":"MO","name":"KAHOKA","zip":"63445"}},{"arcs":[[487,488,489,490]],"type":"Polygon","properties":{"state":"MO","name":"KNOX CITY","zip":"63446"}},{"arcs":[[491,-488,492,493,-474,-448]],"type":"Polygon","properties":{"state":"MO","name":"LA BELLE","zip":"63447"}},{"arcs":[[-476,494,-450,495,496,-466]],"type":"Polygon","properties":{"state":"MO","name":"LA GRANGE","zip":"63448"}},{"arcs":[[497,498,499,-462,500]],"type":"Polygon","properties":{"state":"MO","name":"LENTNER","zip":"63450"}},{"arcs":[[501,502,503,504,-460]],"type":"Polygon","properties":{"state":"MO","name":"LEONARD","zip":"63451"}},{"arcs":[[505,506,-494]],"type":"Polygon","properties":{"state":"MO","name":"LEWISTOWN","zip":"63452"}},{"arcs":[[507,-439,508,-484]],"type":"Polygon","properties":{"state":"MO","name":"LURAY","zip":"63453"}},{"arcs":[[-467,-497,509,510,511,512,-472]],"type":"Polygon","properties":{"state":"MO","name":"MAYWOOD","zip":"63454"}},{"arcs":[[513,514,515,-481,-468,516,517,518,-457]],"type":"Polygon","properties":{"state":"MO","name":"MONROE CITY","zip":"63456"}},{"arcs":[[-475,-507,-451,-495]],"type":"Polygon","properties":{"state":"MO","name":"MONTICELLO","zip":"63457"}},{"arcs":[[-447,519,-489,-492]],"type":"Polygon","properties":{"state":"MO","name":"NEWARK","zip":"63458"}},{"arcs":[[-519,520,-423,521,-441,-477,-330,-409,522,-458]],"type":"Polygon","properties":{"state":"MO","name":"NEW LONDON","zip":"63459"}},{"arcs":[[523,524,525,526,527,-503,528]],"type":"Polygon","properties":{"state":"MO","name":"NOVELTY","zip":"63460"}},{"arcs":[[-521,-518,529,-512,530,531,-424]],"type":"Polygon","properties":{"state":"MO","name":"PALMYRA","zip":"63461"}},{"arcs":[[-366,532,533,-514,-456,-523,-408,-345]],"type":"Polygon","properties":{"state":"MO","name":"PERRY","zip":"63462"}},{"arcs":[[-443,-473,-513,-530,-517,-471]],"type":"Polygon","properties":{"state":"MO","name":"PHILADELPHIA","zip":"63463"}},{"arcs":[[534,-504,-528,535,-520,-446]],"type":"Polygon","properties":{"state":"MO","name":"PLEVNA","zip":"63464"}},{"arcs":[[-487,-426,-454]],"type":"Polygon","properties":{"state":"MO","name":"SAINT PATRICK","zip":"63466"}},{"arcs":[[536,-498,537,-479]],"type":"Polygon","properties":{"state":"MO","name":"SHELBINA","zip":"63468"}},{"arcs":[[-538,-501,-461,-505,-535,-445,-470,-480]],"type":"Polygon","properties":{"state":"MO","name":"SHELBYVILLE","zip":"63469"}},{"arcs":[[-511,538,-531]],"type":"Polygon","properties":{"state":"MO","name":"TAYLOR","zip":"63471"}},{"arcs":[[-486,539,-428]],"type":"Polygon","properties":{"state":"MO","name":"WAYLAND","zip":"63472"}},{"arcs":[[-491,540,541,-482,-452,-506,-493]],"type":"Polygon","properties":{"state":"MO","name":"WILLIAMSTOWN","zip":"63473"}},{"arcs":[[542,543,-435,-508,-483,-542]],"type":"Polygon","properties":{"state":"MO","name":"WYACONDA","zip":"63474"}},{"arcs":[[544,545,546,547,548,549,550,551,552]],"type":"Polygon","properties":{"state":"MO","name":"KIRKSVILLE","zip":"63501"}},{"arcs":[[553,554,555,556,-529,-502,-459,-434,557]],"type":"Polygon","properties":{"state":"MO","name":"ATLANTA","zip":"63530"}},{"arcs":[[558,559,560,561]],"type":"Polygon","properties":{"state":"MO","name":"BARING","zip":"63531"}},{"arcs":[[562,563,-554,564]],"type":"Polygon","properties":{"state":"MO","name":"BEVIER","zip":"63532"}},{"arcs":[[565,566,-560,567,568,-549]],"type":"Polygon","properties":{"state":"MO","name":"BRASHEAR","zip":"63533"}},{"arcs":[[569,570,571,572,-555,-564,573,574]],"type":"Polygon","properties":{"state":"MO","name":"CALLAO","zip":"63534"}},{"arcs":[[575,576,577,578]],"type":"Polygon","properties":{"state":"MO","name":"COATSVILLE","zip":"63535"}},{"arcs":[[579,580,581,582,583]],"type":"Polygon","properties":{"state":"MO","name":"DOWNING","zip":"63536"}},{"arcs":[[584,-562,585,586,587,-543,-541,-490,-536,-527]],"type":"Polygon","properties":{"state":"MO","name":"EDINA","zip":"63537"}},{"arcs":[[-573,588,589,-556]],"type":"Polygon","properties":{"state":"MO","name":"ELMER","zip":"63538"}},{"arcs":[[590,591,-552,592,-589,-572,593]],"type":"Polygon","properties":{"state":"MO","name":"ETHEL","zip":"63539"}},{"arcs":[[-569,-525,594,-550]],"type":"Polygon","properties":{"state":"MO","name":"GIBBS","zip":"63540"}},{"arcs":[[595,596,-576,597]],"type":"Polygon","properties":{"state":"MO","name":"GLENWOOD","zip":"63541"}},{"arcs":[[-588,598,599,-436,-544]],"type":"Polygon","properties":{"state":"MO","name":"GORIN","zip":"63543"}},{"arcs":[[600,601,602,603]],"type":"Polygon","properties":{"state":"MO","name":"GREEN CASTLE","zip":"63544"}},{"arcs":[[604,605,606,607,-602,-546]],"type":"Polygon","properties":{"state":"MO","name":"GREEN CITY","zip":"63545"}},{"arcs":[[608,609,610,-580,611,-566,-548]],"type":"Polygon","properties":{"state":"MO","name":"GREENTOP","zip":"63546"}},{"arcs":[[-526,-568,-559,-585]],"type":"Polygon","properties":{"state":"MO","name":"HURDLAND","zip":"63547"}},{"arcs":[[612,-598,-579,613,-582]],"type":"Polygon","properties":{"state":"MO","name":"LANCASTER","zip":"63548"}},{"arcs":[[-593,-551,-595,-524,-557,-590]],"type":"Polygon","properties":{"state":"MO","name":"LA PLATA","zip":"63549"}},{"arcs":[[614,615,616,-577,-597]],"type":"Polygon","properties":{"state":"MO","name":"LIVONIA","zip":"63551"}},{"arcs":[[617,-565,-558,-433]],"type":"Polygon","properties":{"state":"MO","name":"MACON","zip":"63552"}},{"arcs":[[-584,618,-437,-600,619,-586,-561,-567,-612]],"type":"Polygon","properties":{"state":"MO","name":"MEMPHIS","zip":"63555"}},{"arcs":[[620,621,622,623,624,625,626,627,628,629,630,-606]],"type":"Polygon","properties":{"state":"MO","name":"MILAN","zip":"63556"}},{"arcs":[[631,632,633,634,-553,-592]],"type":"Polygon","properties":{"state":"MO","name":"NEW BOSTON","zip":"63557"}},{"arcs":[[635,636,637,-594,-571]],"type":"Polygon","properties":{"state":"MO","name":"NEW CAMBRIA","zip":"63558"}},{"arcs":[[-601,638,-609,-547]],"type":"Polygon","properties":{"state":"MO","name":"NOVINGER","zip":"63559"}},{"arcs":[[-631,639,640,641,-607]],"type":"Polygon","properties":{"state":"MO","name":"POLLOCK","zip":"63560"}},{"arcs":[[-611,642,-596,-613,-581]],"type":"Polygon","properties":{"state":"MO","name":"QUEEN CITY","zip":"63561"}},{"arcs":[[-620,-599,-587]],"type":"Polygon","properties":{"state":"MO","name":"RUTLEDGE","zip":"63563"}},{"arcs":[[643,644,645,-616,646,-603,-608,-642]],"type":"Polygon","properties":{"state":"MO","name":"UNIONVILLE","zip":"63565"}},{"arcs":[[647,-621,-605,-545,-635]],"type":"Polygon","properties":{"state":"MO","name":"WINIGAN","zip":"63566"}},{"arcs":[[-647,-615,-643,-610,-639,-604]],"type":"Polygon","properties":{"state":"MO","name":"WORTHINGTON","zip":"63567"}},{"arcs":[[648,649,650,651,652,653]],"type":"Polygon","properties":{"state":"MO","name":"PARK HILLS","zip":"63601"}},{"arcs":[[654,655,656,657,658,659,660]],"type":"Polygon","properties":{"state":"MO","name":"ANNAPOLIS","zip":"63620"}},{"arcs":[[661,662,-658]],"type":"Polygon","properties":{"state":"MO","name":"ARCADIA","zip":"63621"}},{"arcs":[[663,664,665,666,667]],"type":"Polygon","properties":{"state":"MO","name":"BELGRADE","zip":"63622"}},{"arcs":[[668,669,670,671,-665,672,673]],"type":"Polygon","properties":{"state":"MO","name":"BELLEVIEW","zip":"63623"}},{"arcs":[[674,675,676,-651,677,678]],"type":"Polygon","properties":{"state":"MO","name":"BISMARCK","zip":"63624"}},{"arcs":[[679,680,681,682,-671]],"type":"Polygon","properties":{"state":"MO","name":"BLACK","zip":"63625"}},{"arcs":[[683,684,-155,-82,-48]],"type":"Polygon","properties":{"state":"MO","name":"BLACKWELL","zip":"63626"}},{"arcs":[[685,686,-95,-80,687]],"type":"Polygon","properties":{"state":"MO","name":"BLOOMSDALE","zip":"63627"}},{"arcs":[[688,689,-684,-47,-170,-96,-687,690,691,-654]],"type":"Polygon","properties":{"state":"MO","name":"BONNE TERRE","zip":"63628"}},{"arcs":[[692,693,694,695,696,-682]],"type":"Polygon","properties":{"state":"MO","name":"BUNKER","zip":"63629"}},{"arcs":[[697,698,-156,-685,-690]],"type":"Polygon","properties":{"state":"MO","name":"CADET","zip":"63630"}},{"arcs":[[699,-673,-664,700,-676]],"type":"Polygon","properties":{"state":"MO","name":"CALEDONIA","zip":"63631"}},{"arcs":[[701,702,703,-693,-681]],"type":"Polygon","properties":{"state":"MO","name":"CENTERVILLE","zip":"63633"}},{"arcs":[[704,-660,705,706,707]],"type":"Polygon","properties":{"state":"MO","name":"DES ARC","zip":"63636"}},{"arcs":[[708,709,-678,-650,710]],"type":"Polygon","properties":{"state":"MO","name":"DOE RUN","zip":"63637"}},{"arcs":[[711,712,-655,713,714,715,716,717,-694,-704]],"type":"Polygon","properties":{"state":"MO","name":"ELLINGTON","zip":"63638"}},{"arcs":[[-649,-692,718,719,-711]],"type":"Polygon","properties":{"state":"MO","name":"FARMINGTON","zip":"63640"}},{"arcs":[[-659,-663,720,-709,-720,721,722,723,724,725,726,727,728,-706]],"type":"Polygon","properties":{"state":"MO","name":"FREDERICKTOWN","zip":"63645"}},{"arcs":[[729,730,-652,-677,-701,-668]],"type":"Polygon","properties":{"state":"MO","name":"IRONDALE","zip":"63648"}},{"arcs":[[-657,731,-669,732,-679,-710,-721,-662]],"type":"Polygon","properties":{"state":"MO","name":"IRONTON","zip":"63650"}},{"arcs":[[-680,-670,-732,-656,-713,733,-702]],"type":"Polygon","properties":{"state":"MO","name":"LESTERVILLE","zip":"63654"}},{"arcs":[[734,-726,735,736,737]],"type":"Polygon","properties":{"state":"MO","name":"MARQUAND","zip":"63655"}},{"arcs":[[-700,-675,-733,-674]],"type":"Polygon","properties":{"state":"MO","name":"MIDDLE BROOK","zip":"63656"}},{"arcs":[[-731,738,-698,-689,-653]],"type":"Polygon","properties":{"state":"MO","name":"MINERAL POINT","zip":"63660"}},{"arcs":[[739,740,-736,-725,741,742]],"type":"Polygon","properties":{"state":"MO","name":"PATTON","zip":"63662"}},{"arcs":[[743,744,745,746,747,-164,-143,-154,-699,-739,-730,-667]],"type":"Polygon","properties":{"state":"MO","name":"POTOSI","zip":"63664"}},{"arcs":[[-703,-734,-712]],"type":"Polygon","properties":{"state":"MO","name":"REDFORD","zip":"63665"}},{"arcs":[[-691,-686,748,749,-722,-719]],"type":"Polygon","properties":{"state":"MO","name":"SAINTE GENEVIEVE","zip":"63670"}},{"arcs":[[750,-723,-750,751]],"type":"Polygon","properties":{"state":"MO","name":"SAINT MARY","zip":"63673"}},{"arcs":[[752,-714,-661,-705]],"type":"Polygon","properties":{"state":"MO","name":"VULCAN","zip":"63675"}},{"arcs":[[753,754,755,756,757]],"type":"Polygon","properties":{"state":"MO","name":"CAPE GIRARDEAU","zip":"63701"}},{"arcs":[[758,759,760,761,762,763,764]],"type":"Polygon","properties":{"state":"MO","name":"ADVANCE","zip":"63730"}},{"arcs":[[765,766,767,768,769,770]],"type":"Polygon","properties":{"state":"MO","name":"ALTENBURG","zip":"63732"}},{"arcs":[[771,772,773,-764,774]],"type":"Polygon","properties":{"state":"MO","name":"BELL CITY","zip":"63735"}},{"arcs":[[775,776,777,778,779]],"type":"Polygon","properties":{"state":"MO","name":"BENTON","zip":"63736"}},{"arcs":[[780,781,782,783]],"type":"Polygon","properties":{"state":"MO","name":"BURFORDVILLE","zip":"63739"}},{"arcs":[[784,785,-755,786,-778,787]],"type":"Polygon","properties":{"state":"MO","name":"CHAFFEE","zip":"63740"}},{"arcs":[[788,789,790,791]],"type":"Polygon","properties":{"state":"MO","name":"DAISY","zip":"63743"}},{"arcs":[[792,793,794,-785]],"type":"Polygon","properties":{"state":"MO","name":"DELTA","zip":"63744"}},{"arcs":[[795,-792,796,797]],"type":"Polygon","properties":{"state":"MO","name":"FRIEDHEIM","zip":"63747"}},{"arcs":[[[798,799,800,-770]],[[801]]],"type":"MultiPolygon","properties":{"state":"MO","name":"FROHNA","zip":"63748"}},{"arcs":[[802,803,804,805,806,807]],"type":"Polygon","properties":{"state":"MO","name":"GIPSY","zip":"63750"}},{"arcs":[[808,-737,-741,809]],"type":"Polygon","properties":{"state":"MO","name":"GLENALLEN","zip":"63751"}},{"arcs":[[810,-738,-809,811,812,-806]],"type":"Polygon","properties":{"state":"MO","name":"GRASSY","zip":"63753"}},{"arcs":[[813,814,-766,815,-757,816,-784]],"type":"Polygon","properties":{"state":"MO","name":"JACKSON","zip":"63755"}},{"arcs":[[817,818]],"type":"Polygon","properties":{"state":"MO","name":"LEOPOLD","zip":"63760"}},{"arcs":[[819,-808,820,821]],"type":"Polygon","properties":{"state":"MO","name":"MC GEE","zip":"63763"}},{"arcs":[[822,-794,-762,823,-812,-810,-740,824,825,-782,826,-818]],"type":"Polygon","properties":{"state":"MO","name":"MARBLE HILL","zip":"63764"}},{"arcs":[[-783,-826,-790,827,-814]],"type":"Polygon","properties":{"state":"MO","name":"MILLERSVILLE","zip":"63766"}},{"arcs":[[-796,828,829,-767,-815,-828,-789]],"type":"Polygon","properties":{"state":"MO","name":"OAK RIDGE","zip":"63769"}},{"arcs":[[-830,830,831,-768]],"type":"Polygon","properties":{"state":"MO","name":"OLD APPLETON","zip":"63770"}},{"arcs":[[-763,-793,-788,-777,832,-775]],"type":"Polygon","properties":{"state":"MO","name":"ORAN","zip":"63771"}},{"arcs":[[-724,-751,833,-800,834,-831,-829,-798,835,-742]],"type":"Polygon","properties":{"state":"MO","name":"PERRYVILLE","zip":"63775"}},{"arcs":[[836,-779,-787,-754,837]],"type":"Polygon","properties":{"state":"MO","name":"SCOTT CITY","zip":"63780"}},{"arcs":[[-825,-743,-836,-797,-791]],"type":"Polygon","properties":{"state":"MO","name":"SEDGEWICKVILLE","zip":"63781"}},{"arcs":[[838,839,-760]],"type":"Polygon","properties":{"state":"MO","name":"STURDIVANT","zip":"63782"}},{"arcs":[[-832,-835,-799,-769]],"type":"Polygon","properties":{"state":"MO","name":"UNIONTOWN","zip":"63783"}},{"arcs":[[-795,-823,-819,-827,-781,-817,-756,-786]],"type":"Polygon","properties":{"state":"MO","name":"WHITEWATER","zip":"63785"}},{"arcs":[[-807,-813,-824,-761,-840,840,-821]],"type":"Polygon","properties":{"state":"MO","name":"ZALMA","zip":"63787"}},{"arcs":[[841,842,843,-772,-833,-776,844,845]],"type":"Polygon","properties":{"state":"MO","name":"SIKESTON","zip":"63801"}},{"arcs":[[846,847,848,849]],"type":"Polygon","properties":{"state":"MO","name":"ARBYRD","zip":"63821"}},{"arcs":[[850,851,852,853,854,855,856]],"type":"Polygon","properties":{"state":"MO","name":"BERNIE","zip":"63822"}},{"arcs":[[857,858,-846,859]],"type":"Polygon","properties":{"state":"MO","name":"BERTRAND","zip":"63823"}},{"arcs":[[860,861,-765,-774,862,863]],"type":"Polygon","properties":{"state":"MO","name":"BLOOMFIELD","zip":"63825"}},{"arcs":[[864,865,866,867,868]],"type":"Polygon","properties":{"state":"MO","name":"BRAGG CITY","zip":"63827"}},{"arcs":[[869,870,-848]],"type":"Polygon","properties":{"state":"MO","name":"CARDWELL","zip":"63829"}},{"arcs":[[871,872,873]],"type":"Polygon","properties":{"state":"MO","name":"CARUTHERSVILLE","zip":"63830"}},{"arcs":[[874,875,876,877]],"type":"Polygon","properties":{"state":"MO","name":"CATRON","zip":"63833"}},{"arcs":[[-845,-780,-837,878,879,-860]],"type":"Polygon","properties":{"state":"MO","name":"CHARLESTON","zip":"63834"}},{"arcs":[[880,881,882,883]],"type":"Polygon","properties":{"state":"MO","name":"CLARKTON","zip":"63837"}},{"arcs":[[884,-855,885,-864,886]],"type":"Polygon","properties":{"state":"MO","name":"DEXTER","zip":"63841"}},{"arcs":[[887,888,-858,-880,889]],"type":"Polygon","properties":{"state":"MO","name":"EAST PRAIRIE","zip":"63845"}},{"arcs":[[890,-887,-863,-773,-844,891]],"type":"Polygon","properties":{"state":"MO","name":"ESSEX","zip":"63846"}},{"arcs":[[892,893,894,-881,895,896]],"type":"Polygon","properties":{"state":"MO","name":"GIDEON","zip":"63848"}},{"arcs":[[897,898,899]],"type":"Polygon","properties":{"state":"MO","name":"GOBLER","zip":"63849"}},{"arcs":[[-873,900,-865,901,902,903]],"type":"Polygon","properties":{"state":"MO","name":"HAYTI","zip":"63851"}},{"arcs":[[904,905,906,-882,-895,907,-868]],"type":"Polygon","properties":{"state":"MO","name":"HOLCOMB","zip":"63852"}},{"arcs":[[908,909,-850,910,911,-898]],"type":"Polygon","properties":{"state":"MO","name":"HORNERSVILLE","zip":"63855"}},{"arcs":[[912,913,-905,-867,914,-899,-912]],"type":"Polygon","properties":{"state":"MO","name":"KENNETT","zip":"63857"}},{"arcs":[[915,916,-875]],"type":"Polygon","properties":{"state":"MO","name":"LILBOURN","zip":"63862"}},{"arcs":[[917,-857,918,-896,-884]],"type":"Polygon","properties":{"state":"MO","name":"MALDEN","zip":"63863"}},{"arcs":[[919,920,-917,921,922]],"type":"Polygon","properties":{"state":"MO","name":"MARSTON","zip":"63866"}},{"arcs":[[923,-842,-859,-889,924]],"type":"Polygon","properties":{"state":"MO","name":"MATTHEWS","zip":"63867"}},{"arcs":[[925,-877,-892,-843,-924]],"type":"Polygon","properties":{"state":"MO","name":"MOREHOUSE","zip":"63868"}},{"arcs":[[-878,-926,-925,-888,926,-922,-916]],"type":"Polygon","properties":{"state":"MO","name":"NEW MADRID","zip":"63869"}},{"arcs":[[927,-897,-919,-856,-885,-891,-876,-921]],"type":"Polygon","properties":{"state":"MO","name":"PARMA","zip":"63870"}},{"arcs":[[-903,928,-893,-928,-920,929]],"type":"Polygon","properties":{"state":"MO","name":"PORTAGEVILLE","zip":"63873"}},{"arcs":[[930,-913,-911,-849,-871]],"type":"Polygon","properties":{"state":"MO","name":"SENATH","zip":"63876"}},{"arcs":[[-915,-866,-901,-872,931,-909,-900]],"type":"Polygon","properties":{"state":"MO","name":"STEELE","zip":"63877"}},{"arcs":[[-902,-869,-908,-894,-929]],"type":"Polygon","properties":{"state":"MO","name":"WARDELL","zip":"63879"}},{"arcs":[[932,933,934,935,936,937,938,939,940,941,942]],"type":"Polygon","properties":{"state":"MO","name":"POPLAR BLUFF","zip":"63901"}},{"arcs":[[943,944]],"type":"Polygon","properties":{"state":"MO","name":"BRIAR","zip":"63931"}},{"arcs":[[945,946,-853,947,-933]],"type":"Polygon","properties":{"state":"MO","name":"BROSELEY","zip":"63932"}},{"arcs":[[-907,948,949,-851,-918,-883]],"type":"Polygon","properties":{"state":"MO","name":"CAMPBELL","zip":"63933"}},{"arcs":[[950,951,-944,952,953,954,955,956,957,958]],"type":"Polygon","properties":{"state":"MO","name":"DONIPHAN","zip":"63935"}},{"arcs":[[-854,-947,959,-942,960,-861,-886]],"type":"Polygon","properties":{"state":"MO","name":"DUDLEY","zip":"63936"}},{"arcs":[[961,-938,962,963,964,965]],"type":"Polygon","properties":{"state":"MO","name":"ELLSINORE","zip":"63937"}},{"arcs":[[966,967,968,-958]],"type":"Polygon","properties":{"state":"MO","name":"FAIRDEALING","zip":"63939"}},{"arcs":[[-960,-946,-943]],"type":"Polygon","properties":{"state":"MO","name":"FISK","zip":"63940"}},{"arcs":[[969,970,971,-955]],"type":"Polygon","properties":{"state":"MO","name":"FREMONT","zip":"63941"}},{"arcs":[[972,973,974,-953,-945,-952]],"type":"Polygon","properties":{"state":"MO","name":"GATEWOOD","zip":"63942"}},{"arcs":[[-957,975,-963,-937,-967]],"type":"Polygon","properties":{"state":"MO","name":"GRANDIN","zip":"63943"}},{"arcs":[[976,977,978,979,980,981,982,983]],"type":"Polygon","properties":{"state":"MO","name":"GREENVILLE","zip":"63944"}},{"arcs":[[984,985,-968,-936]],"type":"Polygon","properties":{"state":"MO","name":"HARVIELL","zip":"63945"}},{"arcs":[[986,-727,-735,-811,-805,987,988,-984]],"type":"Polygon","properties":{"state":"MO","name":"HIRAM","zip":"63947"}},{"arcs":[[989,990,-988,-804]],"type":"Polygon","properties":{"state":"MO","name":"LOWNDES","zip":"63951"}},{"arcs":[[991,-980,992,-966]],"type":"Polygon","properties":{"state":"MO","name":"MILL SPRING","zip":"63952"}},{"arcs":[[-969,-986,993,994,-959]],"type":"Polygon","properties":{"state":"MO","name":"NAYLOR","zip":"63953"}},{"arcs":[[995,996,-994,-985,-935]],"type":"Polygon","properties":{"state":"MO","name":"NEELYVILLE","zip":"63954"}},{"arcs":[[-982,997,-707,-729,998]],"type":"Polygon","properties":{"state":"MO","name":"PATTERSON","zip":"63956"}},{"arcs":[[999,-715,-753,-708,-998,-981,-992,-965]],"type":"Polygon","properties":{"state":"MO","name":"PIEDMONT","zip":"63957"}},{"arcs":[[-961,-941,1000,-822,-841,-839,-759,-862]],"type":"Polygon","properties":{"state":"MO","name":"PUXICO","zip":"63960"}},{"arcs":[[-934,-948,-852,-950,1001,-996]],"type":"Polygon","properties":{"state":"MO","name":"QULIN","zip":"63961"}},{"arcs":[[-989,-991,1002,-977]],"type":"Polygon","properties":{"state":"MO","name":"SHOOK","zip":"63963"}},{"arcs":[[-983,-999,-728,-987]],"type":"Polygon","properties":{"state":"MO","name":"SILVA","zip":"63964"}},{"arcs":[[1003,-716,-1000,-964,-976,-956,-972]],"type":"Polygon","properties":{"state":"MO","name":"VAN BUREN","zip":"63965"}},{"arcs":[[-940,1004,-978,-1003,-990,-803,-820,-1001]],"type":"Polygon","properties":{"state":"MO","name":"WAPPAPELLO","zip":"63966"}},{"arcs":[[-939,-962,-993,-979,-1005]],"type":"Polygon","properties":{"state":"MO","name":"WILLIAMSVILLE","zip":"63967"}},{"arcs":[[1005,1006,1007,1008,1009]],"type":"Polygon","properties":{"state":"MO","name":"ALMA","zip":"64001"}},{"arcs":[[1010,1011,1012,1013,1014,1015]],"type":"Polygon","properties":{"state":"MO","name":"BATES CITY","zip":"64011"}},{"arcs":[[1016,1017,1018,1019,1020,1021,1022,1023,1024]],"type":"Polygon","properties":{"state":"MO","name":"BELTON","zip":"64012"}},{"arcs":[[1025,1026,1027,1028]],"type":"Polygon","properties":{"state":"MO","name":"BLUE SPRINGS","zip":"64014"}},{"arcs":[[1029,1030,1031,-1028]],"type":"Polygon","properties":{"state":"MO","name":"BLUE SPRINGS","zip":"64015"}},{"arcs":[[1032,1033,1034,1035,1036,1037]],"type":"Polygon","properties":{"state":"MO","name":"BUCKNER","zip":"64016"}},{"arcs":[[1038,1039,1040,1041]],"type":"Polygon","properties":{"state":"MO","name":"CAMDEN","zip":"64017"}},{"arcs":[[1042,1043,1044]],"type":"Polygon","properties":{"state":"MO","name":"CAMDEN POINT","zip":"64018"}},{"arcs":[[1045,1046,1047,1048]],"type":"Polygon","properties":{"state":"MO","name":"CENTERVIEW","zip":"64019"}},{"arcs":[[1049,1050,1051,1052]],"type":"Polygon","properties":{"state":"MO","name":"CONCORDIA","zip":"64020"}},{"arcs":[[1053,1054,-1006]],"type":"Polygon","properties":{"state":"MO","name":"CORDER","zip":"64021"}},{"arcs":[[1055,1056,1057,-1055,1058]],"type":"Polygon","properties":{"state":"MO","name":"DOVER","zip":"64022"}},{"arcs":[[1059,1060,1061,1062,1063,1064]],"type":"Polygon","properties":{"state":"MO","name":"EXCELSIOR SPRINGS","zip":"64024"}},{"arcs":[[1065,1066,1067,1068,-1026,1069,-1038]],"type":"Polygon","properties":{"state":"MO","name":"GRAIN VALLEY","zip":"64029"}},{"arcs":[[1070,1071,1072,1073,1074,-1021]],"type":"Polygon","properties":{"state":"MO","name":"GRANDVIEW","zip":"64030"}},{"arcs":[[1075,1076,1077,1078]],"type":"Polygon","properties":{"state":"MO","name":"GREENWOOD","zip":"64034"}},{"arcs":[[1079,1080,1081,1082,1083,1084,1085]],"type":"Polygon","properties":{"state":"MO","name":"HARDIN","zip":"64035"}},{"arcs":[[-1041,1086,-1082,1087]],"type":"Polygon","properties":{"state":"MO","name":"HENRIETTA","zip":"64036"}},{"arcs":[[1088,-1052,1089,1090,1091,1092,-1059,-1054,-1010,1093]],"type":"Polygon","properties":{"state":"MO","name":"HIGGINSVILLE","zip":"64037"}},{"arcs":[[1094,1095,1096,1097,1098,-1011,1099,-1047]],"type":"Polygon","properties":{"state":"MO","name":"HOLDEN","zip":"64040"}},{"arcs":[[1100,1101,1102,1103,1104]],"type":"Polygon","properties":{"state":"MO","name":"HOLT","zip":"64048"}},{"arcs":[[1105,1106,1107,1108,1109,1110,1111]],"type":"Polygon","properties":{"state":"MO","name":"INDEPENDENCE","zip":"64050"}},{"arcs":[[1112,1113,1114,1115,-1108,1116,1117]],"type":"Polygon","properties":{"state":"MO","name":"INDEPENDENCE","zip":"64052"}},{"arcs":[[1118,-1115,1119,1120,1121,1122]],"type":"Polygon","properties":{"state":"MO","name":"INDEPENDENCE","zip":"64053"}},{"arcs":[[-1119,1123,-1109,-1116]],"type":"Polygon","properties":{"state":"MO","name":"INDEPENDENCE","zip":"64054"}},{"arcs":[[1124,-1117,-1107,1125,-1031,1126,1127]],"type":"Polygon","properties":{"state":"MO","name":"INDEPENDENCE","zip":"64055"}},{"arcs":[[1128,-1112,1129,-1034]],"type":"Polygon","properties":{"state":"MO","name":"INDEPENDENCE","zip":"64056"}},{"arcs":[[-1032,-1126,-1106,-1129,-1033,-1070,-1029]],"type":"Polygon","properties":{"state":"MO","name":"INDEPENDENCE","zip":"64057"}},{"arcs":[[[-1130,-1111,1130,1131,-1035]],[[1132,1133,1134]]],"type":"MultiPolygon","properties":{"state":"MO","name":"INDEPENDENCE","zip":"64058"}},{"arcs":[[1135,1136,-1105,1137,-1061,1138]],"type":"Polygon","properties":{"state":"MO","name":"KEARNEY","zip":"64060"}},{"arcs":[[1139,1140,-1012,-1099]],"type":"Polygon","properties":{"state":"MO","name":"KINGSVILLE","zip":"64061"}},{"arcs":[[-1104,1141,1142,1143,-1062,-1138]],"type":"Polygon","properties":{"state":"MO","name":"LAWSON","zip":"64062"}},{"arcs":[[1144,1145,-1127,-1030,-1027,-1069,1146]],"type":"Polygon","properties":{"state":"MO","name":"LEES SUMMIT","zip":"64064"}},{"arcs":[[1147,1148,1149,-1056,-1093,1150]],"type":"Polygon","properties":{"state":"MO","name":"LEXINGTON","zip":"64067"}},{"arcs":[[1151,1152,1153,1154,1155,-1139,-1060,1156,-1133,1157]],"type":"Polygon","properties":{"state":"MO","name":"LIBERTY","zip":"64068"}},{"arcs":[[1158,-1067,1159,-1013,-1141,1160,-1078]],"type":"Polygon","properties":{"state":"MO","name":"LONE JACK","zip":"64070"}},{"arcs":[[1161,-1151,-1092]],"type":"Polygon","properties":{"state":"MO","name":"MAYVIEW","zip":"64071"}},{"arcs":[[1162,-1015,1163,1164,1165,1166]],"type":"Polygon","properties":{"state":"MO","name":"NAPOLEON","zip":"64074"}},{"arcs":[[-1037,1167,-1164,-1014,-1160,-1066]],"type":"Polygon","properties":{"state":"MO","name":"OAK GROVE","zip":"64075"}},{"arcs":[[1168,-1048,-1100,-1016,-1163,1169,-1148,-1162,-1091]],"type":"Polygon","properties":{"state":"MO","name":"ODESSA","zip":"64076"}},{"arcs":[[-1064,1170,-1039,1171]],"type":"Polygon","properties":{"state":"MO","name":"ORRICK","zip":"64077"}},{"arcs":[[1172,-1024,1173,1174,1175,1176]],"type":"Polygon","properties":{"state":"MO","name":"PECULIAR","zip":"64078"}},{"arcs":[[1177,1178,1179,1180,1181,-1043,1182,1183,1184]],"type":"Polygon","properties":{"state":"MO","name":"PLATTE CITY","zip":"64079"}},{"arcs":[[1185,1186,-1175,1187,1188,-1079,-1161,-1140,-1098]],"type":"Polygon","properties":{"state":"MO","name":"PLEASANT HILL","zip":"64080"}},{"arcs":[[1189,1190,1191,1192,1193,1194]],"type":"Polygon","properties":{"state":"MO","name":"LEES SUMMIT","zip":"64081"}},{"arcs":[[1195,1196,-1195,1197,-1076,-1189]],"type":"Polygon","properties":{"state":"MO","name":"LEES SUMMIT","zip":"64082"}},{"arcs":[[1198,-1196,-1188,-1174,-1023]],"type":"Polygon","properties":{"state":"MO","name":"RAYMORE","zip":"64083"}},{"arcs":[[1199,-1063,-1144,1200]],"type":"Polygon","properties":{"state":"MO","name":"RAYVILLE","zip":"64084"}},{"arcs":[[-1200,1201,-1083,-1087,-1040,-1171]],"type":"Polygon","properties":{"state":"MO","name":"RICHMOND","zip":"64085"}},{"arcs":[[-1194,1202,-1147,-1068,-1159,-1077,-1198]],"type":"Polygon","properties":{"state":"MO","name":"LEES SUMMIT","zip":"64086"}},{"arcs":[[-1132,1203,-1165,-1168,-1036]],"type":"Polygon","properties":{"state":"MO","name":"SIBLEY","zip":"64088"}},{"arcs":[[1204,1205,1206,1207,-1184,1208,1209,-1136,-1156,1210]],"type":"Polygon","properties":{"state":"MO","name":"SMITHVILLE","zip":"64089"}},{"arcs":[[1211,1212,-1049,-1169,-1090,-1051,1213]],"type":"Polygon","properties":{"state":"MO","name":"WARRENSBURG","zip":"64093"}},{"arcs":[[1214,-1007,-1058,1215]],"type":"Polygon","properties":{"state":"MO","name":"WAVERLY","zip":"64096"}},{"arcs":[[-1149,-1170,-1167,1216]],"type":"Polygon","properties":{"state":"MO","name":"WELLINGTON","zip":"64097"}},{"arcs":[[1217,1218,1219,-1181,1220]],"type":"Polygon","properties":{"state":"MO","name":"WESTON","zip":"64098"}},{"arcs":[[1221,1222,1223,1224]],"type":"Polygon","properties":{"state":"MO","name":"KANSAS CITY","zip":"64101"}},{"arcs":[[1225,-1225,1226]],"type":"Polygon","properties":{"state":"MO","name":"KANSAS CITY","zip":"64102"}},{"arcs":[[1227,1228,-1223,1229]],"type":"Polygon","properties":{"state":"MO","name":"KANSAS CITY","zip":"64105"}},{"arcs":[[1230,1231,1232,1233,-1228,1234]],"type":"Polygon","properties":{"state":"MO","name":"KANSAS CITY","zip":"64106"}},{"arcs":[[1235,-1227,-1224,-1229,-1234,1236,1237,1238]],"type":"Polygon","properties":{"state":"MO","name":"KANSAS CITY","zip":"64108"}},{"arcs":[[1239,1240,-1238,1241,1242,1243]],"type":"Polygon","properties":{"state":"MO","name":"KANSAS CITY","zip":"64109"}},{"arcs":[[1244,1245,1246,1247,1248,-1240]],"type":"Polygon","properties":{"state":"MO","name":"KANSAS CITY","zip":"64110"}},{"arcs":[[1249,1250,-1239,-1241,-1249]],"type":"Polygon","properties":{"state":"MO","name":"KANSAS CITY","zip":"64111"}},{"arcs":[[1251,1252,-1250,-1248]],"type":"Polygon","properties":{"state":"MO","name":"KANSAS CITY","zip":"64112"}},{"arcs":[[1253,1254,1255,-1252,-1247]],"type":"Polygon","properties":{"state":"MO","name":"KANSAS CITY","zip":"64113"}},{"arcs":[[1256,1257,1258,-1255]],"type":"Polygon","properties":{"state":"MO","name":"KANSAS CITY","zip":"64114"}},{"arcs":[[1259,1260,1261,1262]],"type":"Polygon","properties":{"state":"MO","name":"KANSAS CITY","zip":"64116"}},{"arcs":[[-1260,1263,1264,1265]],"type":"Polygon","properties":{"state":"MO","name":"KANSAS CITY","zip":"64117"}},{"arcs":[[1266,-1263,1267,1268]],"type":"Polygon","properties":{"state":"MO","name":"KANSAS CITY","zip":"64118"}},{"arcs":[[1269,-1264,-1267,1270,1271,1272,-1152]],"type":"Polygon","properties":{"state":"MO","name":"KANSAS CITY","zip":"64119"}},{"arcs":[[1273,-1231,1274,-1122,1275,1276]],"type":"Polygon","properties":{"state":"MO","name":"KANSAS CITY","zip":"64120"}},{"arcs":[[1277,1278,-1277]],"type":"Polygon","properties":{"state":"MO","name":"KANSAS CITY","zip":"64123"}},{"arcs":[[1279,-1232,-1274,-1279]],"type":"Polygon","properties":{"state":"MO","name":"KANSAS CITY","zip":"64124"}},{"arcs":[[1280,-1278,-1276,-1121]],"type":"Polygon","properties":{"state":"MO","name":"KANSAS CITY","zip":"64125"}},{"arcs":[[1281,1282,-1281,-1120,-1114]],"type":"Polygon","properties":{"state":"MO","name":"KANSAS CITY","zip":"64126"}},{"arcs":[[-1237,-1233,-1280,-1283,1283,1284,-1242]],"type":"Polygon","properties":{"state":"MO","name":"KANSAS CITY","zip":"64127"}},{"arcs":[[1285,1286,-1243,-1285]],"type":"Polygon","properties":{"state":"MO","name":"KANSAS CITY","zip":"64128"}},{"arcs":[[-1284,-1282,-1113,1287,1288,-1286]],"type":"Polygon","properties":{"state":"MO","name":"KANSAS CITY","zip":"64129"}},{"arcs":[[1289,1290,-1245,-1244,-1287,-1289]],"type":"Polygon","properties":{"state":"MO","name":"KANSAS CITY","zip":"64130"}},{"arcs":[[1291,-1257,-1254,-1246,1292,1293,1294]],"type":"Polygon","properties":{"state":"MO","name":"KANSAS CITY","zip":"64131"}},{"arcs":[[1295,1296,-1293,-1291,1297]],"type":"Polygon","properties":{"state":"MO","name":"KANSAS CITY","zip":"64132"}},{"arcs":[[1298,1299,1300,-1298,-1290,-1288,-1118,-1125]],"type":"Polygon","properties":{"state":"MO","name":"KANSAS CITY","zip":"64133"}},{"arcs":[[1301,-1074,1302,1303,-1191]],"type":"Polygon","properties":{"state":"MO","name":"KANSAS CITY","zip":"64134"}},{"arcs":[[1304,-1299,-1128,-1146]],"type":"Polygon","properties":{"state":"MO","name":"KANSAS CITY","zip":"64136"}},{"arcs":[[-1073,-1294,-1297,1305,-1303]],"type":"Polygon","properties":{"state":"MO","name":"KANSAS CITY","zip":"64137"}},{"arcs":[[-1306,-1296,-1301,1306,-1192,-1304]],"type":"Polygon","properties":{"state":"MO","name":"KANSAS CITY","zip":"64138"}},{"arcs":[[-1193,-1307,-1300,-1305,-1145,-1203]],"type":"Polygon","properties":{"state":"MO","name":"KANSAS CITY","zip":"64139"}},{"arcs":[[1307,-1018,1308,-1258,-1292]],"type":"Polygon","properties":{"state":"MO","name":"KANSAS CITY","zip":"64145"}},{"arcs":[[1309,-1019,-1308,-1295,-1072]],"type":"Polygon","properties":{"state":"MO","name":"KANSAS CITY","zip":"64146"}},{"arcs":[[-1310,-1071,-1020]],"type":"Polygon","properties":{"state":"MO","name":"KANSAS CITY","zip":"64147"}},{"arcs":[[-1075,-1302,-1190,-1197,-1199,-1022]],"type":"Polygon","properties":{"state":"MO","name":"KANSAS CITY","zip":"64149"}},{"arcs":[[1310,1311,-1262,1312]],"type":"Polygon","properties":{"state":"MO","name":"RIVERSIDE","zip":"64150"}},{"arcs":[[1313,1314,1315,-1268,-1312]],"type":"Polygon","properties":{"state":"MO","name":"KANSAS CITY","zip":"64151"}},{"arcs":[[-1179,1316,-1314,-1311,1317]],"type":"Polygon","properties":{"state":"MO","name":"KANSAS CITY","zip":"64152"}},{"arcs":[[1318,-1315,-1317,-1178,1319,1320]],"type":"Polygon","properties":{"state":"MO","name":"KANSAS CITY","zip":"64153"}},{"arcs":[[1321,-1316,-1319,1322]],"type":"Polygon","properties":{"state":"MO","name":"KANSAS CITY","zip":"64154"}},{"arcs":[[-1269,-1322,1323,-1206,1324,1325,-1271]],"type":"Polygon","properties":{"state":"MO","name":"KANSAS CITY","zip":"64155"}},{"arcs":[[1326,-1272,-1326,1327]],"type":"Polygon","properties":{"state":"MO","name":"KANSAS CITY","zip":"64156"}},{"arcs":[[1328,-1327,1329,-1154]],"type":"Polygon","properties":{"state":"MO","name":"KANSAS CITY","zip":"64157"}},{"arcs":[[-1273,-1329,-1153]],"type":"Polygon","properties":{"state":"MO","name":"KANSAS CITY","zip":"64158"}},{"arcs":[[-1270,-1158,-1135,1330,-1265]],"type":"Polygon","properties":{"state":"MO","name":"KANSAS CITY","zip":"64161"}},{"arcs":[[1331,-1320,-1185,-1208]],"type":"Polygon","properties":{"state":"MO","name":"KANSAS CITY","zip":"64163"}},{"arcs":[[-1323,-1321,-1332,-1207,-1324]],"type":"Polygon","properties":{"state":"MO","name":"KANSAS CITY","zip":"64164"}},{"arcs":[[-1325,-1205,1332]],"type":"Polygon","properties":{"state":"MO","name":"KANSAS CITY","zip":"64165"}},{"arcs":[[1333,-1328,-1333,-1211]],"type":"Polygon","properties":{"state":"MO","name":"KANSAS CITY","zip":"64166"}},{"arcs":[[-1155,-1330,-1334]],"type":"Polygon","properties":{"state":"MO","name":"KANSAS CITY","zip":"64167"}},{"arcs":[[1334,1335,1336,1337,1338,1339]],"type":"Polygon","properties":{"state":"MO","name":"AGENCY","zip":"64401"}},{"arcs":[[1340,1341,1342,1343,1344,1345,1346]],"type":"Polygon","properties":{"state":"MO","name":"ALBANY","zip":"64402"}},{"arcs":[[1347,1348,1349,1350,1351]],"type":"Polygon","properties":{"state":"MO","name":"AMAZONIA","zip":"64421"}},{"arcs":[[1352,1353,1354,1355,1356]],"type":"Polygon","properties":{"state":"MO","name":"AMITY","zip":"64422"}},{"arcs":[[1357,1358,1359,1360,1361]],"type":"Polygon","properties":{"state":"MO","name":"BARNARD","zip":"64423"}},{"arcs":[[1362,1363,1364,1365,1366,1367,1368,1369]],"type":"Polygon","properties":{"state":"MO","name":"BETHANY","zip":"64424"}},{"arcs":[[1370,1371,1372,1373]],"type":"Polygon","properties":{"state":"MO","name":"BLYTHEDALE","zip":"64426"}},{"arcs":[[1374,1375,1376,-1359,1377,1378,1379,1380]],"type":"Polygon","properties":{"state":"MO","name":"BOLCKOW","zip":"64427"}},{"arcs":[[1381,1382,1383,1384,1385]],"type":"Polygon","properties":{"state":"MO","name":"BURLINGTON JUNCTION","zip":"64428"}},{"arcs":[[1386,1387,1388,1389,1390,1391,1392,1393]],"type":"Polygon","properties":{"state":"MO","name":"CAMERON","zip":"64429"}},{"arcs":[[1394,1395,1396,-1354,1397,1398]],"type":"Polygon","properties":{"state":"MO","name":"CLARKSDALE","zip":"64430"}},{"arcs":[[1399,1400,1401,1402,-1385]],"type":"Polygon","properties":{"state":"MO","name":"CLEARMONT","zip":"64431"}},{"arcs":[[1403,1404,1405,1406]],"type":"Polygon","properties":{"state":"MO","name":"CLYDE","zip":"64432"}},{"arcs":[[1407,1408,-1362,1409,-1405]],"type":"Polygon","properties":{"state":"MO","name":"CONCEPTION","zip":"64433"}},{"arcs":[[1410,1411,-1406,-1410,-1361]],"type":"Polygon","properties":{"state":"MO","name":"CONCEPTION JUNCTION","zip":"64434"}},{"arcs":[[1412,1413,1414,1415,-1395,1416]],"type":"Polygon","properties":{"state":"MO","name":"COSBY","zip":"64436"}},{"arcs":[[1417,1418,1419,1420]],"type":"Polygon","properties":{"state":"MO","name":"CRAIG","zip":"64437"}},{"arcs":[[1421,1422,-1341,1423]],"type":"Polygon","properties":{"state":"MO","name":"DARLINGTON","zip":"64438"}},{"arcs":[[-1182,-1220,1424,1425,1426,1427,-1044]],"type":"Polygon","properties":{"state":"MO","name":"DEARBORN","zip":"64439"}},{"arcs":[[-1219,1428,1429,1430,-1425]],"type":"Polygon","properties":{"state":"MO","name":"DE KALB","zip":"64440"}},{"arcs":[[1431,-1344,1432,1433,1434]],"type":"Polygon","properties":{"state":"MO","name":"DENVER","zip":"64441"}},{"arcs":[[1435,1436,1437,-1373,1438]],"type":"Polygon","properties":{"state":"MO","name":"EAGLEVILLE","zip":"64442"}},{"arcs":[[1439,1440,-1417,-1399,1441,-1337]],"type":"Polygon","properties":{"state":"MO","name":"EASTON","zip":"64443"}},{"arcs":[[-1428,1442,1443,-1209,-1183,-1045]],"type":"Polygon","properties":{"state":"MO","name":"EDGERTON","zip":"64444"}},{"arcs":[[1444,1445,1446,-1400,-1384,1447]],"type":"Polygon","properties":{"state":"MO","name":"ELMO","zip":"64445"}},{"arcs":[[1448,1449,1450,1451,-1418,1452]],"type":"Polygon","properties":{"state":"MO","name":"FAIRFAX","zip":"64446"}},{"arcs":[[-1431,1453,-1340,1454,-1426]],"type":"Polygon","properties":{"state":"MO","name":"FAUCETT","zip":"64448"}},{"arcs":[[1455,1456,-1381,1457,1458,-1351]],"type":"Polygon","properties":{"state":"MO","name":"FILLMORE","zip":"64449"}},{"arcs":[[1459,1460,-1420,1461]],"type":"Polygon","properties":{"state":"MO","name":"FOREST CITY","zip":"64451"}},{"arcs":[[1462,1463,-1433,-1343]],"type":"Polygon","properties":{"state":"MO","name":"GENTRY","zip":"64453"}},{"arcs":[[-1427,-1455,-1339,1464,1465,1466,-1443]],"type":"Polygon","properties":{"state":"MO","name":"GOWER","zip":"64454"}},{"arcs":[[1467,-1376,1468,1469]],"type":"Polygon","properties":{"state":"MO","name":"GRAHAM","zip":"64455"}},{"arcs":[[1470,-1435,1471,1472,1473,1474]],"type":"Polygon","properties":{"state":"MO","name":"GRANT CITY","zip":"64456"}},{"arcs":[[-1358,-1409,1475,1476,1477,-1378]],"type":"Polygon","properties":{"state":"MO","name":"GUILFORD","zip":"64457"}},{"arcs":[[1478,-1475,1479,-1437]],"type":"Polygon","properties":{"state":"MO","name":"HATFIELD","zip":"64458"}},{"arcs":[[-1416,1480,1481,1482,-1396]],"type":"Polygon","properties":{"state":"MO","name":"HELENA","zip":"64459"}},{"arcs":[[1483,1484,-1402,1485]],"type":"Polygon","properties":{"state":"MO","name":"HOPKINS","zip":"64461"}},{"arcs":[[1486,-1356,1487,1488,-1477,1489,-1422,1490]],"type":"Polygon","properties":{"state":"MO","name":"KING CITY","zip":"64463"}},{"arcs":[[1491,1492,1493,-1142,-1103]],"type":"Polygon","properties":{"state":"MO","name":"LATHROP","zip":"64465"}},{"arcs":[[1494,1495,-1469]],"type":"Polygon","properties":{"state":"MO","name":"MAITLAND","zip":"64466"}},{"arcs":[[-1432,-1471,-1479,-1436,1496,-1366,1497,-1345]],"type":"Polygon","properties":{"state":"MO","name":"MARTINSVILLE","zip":"64467"}},{"arcs":[[1498,-1382,1499,1500,-1411,-1360,-1377,-1468]],"type":"Polygon","properties":{"state":"MO","name":"MARYVILLE","zip":"64468"}},{"arcs":[[-1487,1501,1502,1503,-1389,1504,-1357]],"type":"Polygon","properties":{"state":"MO","name":"MAYSVILLE","zip":"64469"}},{"arcs":[[-1419,-1452,1505,-1495,-1375,-1457,1506,-1462]],"type":"Polygon","properties":{"state":"MO","name":"MOUND CITY","zip":"64470"}},{"arcs":[[1507,1508,-1346,-1498,-1365]],"type":"Polygon","properties":{"state":"MO","name":"NEW HAMPTON","zip":"64471"}},{"arcs":[[-1460,-1507,-1456,-1350,1509]],"type":"Polygon","properties":{"state":"MO","name":"OREGON","zip":"64473"}},{"arcs":[[1510,1511,-1505,-1388]],"type":"Polygon","properties":{"state":"MO","name":"OSBORN","zip":"64474"}},{"arcs":[[1512,1513,1514,-1484,1515]],"type":"Polygon","properties":{"state":"MO","name":"PARNELL","zip":"64475"}},{"arcs":[[-1386,-1403,-1485,-1515,1516,-1500]],"type":"Polygon","properties":{"state":"MO","name":"PICKERING","zip":"64476"}},{"arcs":[[-1102,1517,-1466,1518,-1511,-1387,1519,-1492]],"type":"Polygon","properties":{"state":"MO","name":"PLATTSBURG","zip":"64477"}},{"arcs":[[1520,-1407,-1412,-1501,-1517,-1514,1521]],"type":"Polygon","properties":{"state":"MO","name":"RAVENWOOD","zip":"64479"}},{"arcs":[[1522,-1482,1523,1524,-1379,-1478,-1489]],"type":"Polygon","properties":{"state":"MO","name":"REA","zip":"64480"}},{"arcs":[[1525,1526,-1367,-1497,-1439,-1372]],"type":"Polygon","properties":{"state":"MO","name":"RIDGEWAY","zip":"64481"}},{"arcs":[[1527,-1449,1528,1529,1530,1531]],"type":"Polygon","properties":{"state":"MO","name":"ROCK PORT","zip":"64482"}},{"arcs":[[1532,-1458,-1380,-1525]],"type":"Polygon","properties":{"state":"MO","name":"ROSENDALE","zip":"64483"}},{"arcs":[[1533,-1429,-1218,1534]],"type":"Polygon","properties":{"state":"MO","name":"RUSHVILLE","zip":"64484"}},{"arcs":[[-1415,1535,-1352,-1459,-1533,-1524,-1481]],"type":"Polygon","properties":{"state":"MO","name":"SAVANNAH","zip":"64485"}},{"arcs":[[-1513,1536,-1473,1537,1538,-1522]],"type":"Polygon","properties":{"state":"MO","name":"SHERIDAN","zip":"64486"}},{"arcs":[[-1451,1539,-1448,-1383,-1499,-1470,-1496,-1506]],"type":"Polygon","properties":{"state":"MO","name":"SKIDMORE","zip":"64487"}},{"arcs":[[-1423,-1490,-1476,-1408,-1404,-1521,-1539,-1463,-1342]],"type":"Polygon","properties":{"state":"MO","name":"STANBERRY","zip":"64489"}},{"arcs":[[-1442,-1398,-1353,-1512,-1519,-1465,-1338]],"type":"Polygon","properties":{"state":"MO","name":"STEWARTSVILLE","zip":"64490"}},{"arcs":[[-1450,-1528,1540,-1445,-1540]],"type":"Polygon","properties":{"state":"MO","name":"TARKIO","zip":"64491"}},{"arcs":[[-1444,-1467,-1518,-1101,-1137,-1210]],"type":"Polygon","properties":{"state":"MO","name":"TRIMBLE","zip":"64492"}},{"arcs":[[1541,-1493,-1520,-1394,1542]],"type":"Polygon","properties":{"state":"MO","name":"TURNEY","zip":"64493"}},{"arcs":[[-1397,-1483,-1523,-1488,-1355]],"type":"Polygon","properties":{"state":"MO","name":"UNION STAR","zip":"64494"}},{"arcs":[[1543,-1530]],"type":"Polygon","properties":{"state":"MO","name":"WATSON","zip":"64496"}},{"arcs":[[1544,-1390,-1504,1545]],"type":"Polygon","properties":{"state":"MO","name":"WEATHERBY","zip":"64497"}},{"arcs":[[-1541,-1532,1546,-1446]],"type":"Polygon","properties":{"state":"MO","name":"WESTBORO","zip":"64498"}},{"arcs":[[-1538,-1472,-1434,-1464]],"type":"Polygon","properties":{"state":"MO","name":"WORTH","zip":"64499"}},{"arcs":[[1547,1548,1549,1550,1551,1552]],"type":"Polygon","properties":{"state":"MO","name":"SAINT JOSEPH","zip":"64501"}},{"arcs":[[1553,1554,-1551]],"type":"Polygon","properties":{"state":"MO","name":"SAINT JOSEPH","zip":"64503"}},{"arcs":[[-1552,-1555,1555,-1335,-1454,-1430,-1534,1556]],"type":"Polygon","properties":{"state":"MO","name":"SAINT JOSEPH","zip":"64504"}},{"arcs":[[1557,-1548,1558,-1348,-1536,-1414]],"type":"Polygon","properties":{"state":"MO","name":"SAINT JOSEPH","zip":"64505"}},{"arcs":[[1559,-1549,-1558,-1413,-1441]],"type":"Polygon","properties":{"state":"MO","name":"SAINT JOSEPH","zip":"64506"}},{"arcs":[[-1336,-1556,-1554,-1550,-1560,-1440]],"type":"Polygon","properties":{"state":"MO","name":"SAINT JOSEPH","zip":"64507"}},{"arcs":[[1560,1561,1562,1563,1564,1565,1566,1567,1568,1569,1570]],"type":"Polygon","properties":{"state":"MO","name":"CHILLICOTHE","zip":"64601"}},{"arcs":[[1571,1572,1573,1574]],"type":"Polygon","properties":{"state":"MO","name":"ALTAMONT","zip":"64620"}},{"arcs":[[1575,1576,1577,1578,1579,1580]],"type":"Polygon","properties":{"state":"MO","name":"BOGARD","zip":"64622"}},{"arcs":[[1581,1582,1583,-1576,1584]],"type":"Polygon","properties":{"state":"MO","name":"BOSWORTH","zip":"64623"}},{"arcs":[[1585,-1086,1586,1587,1588,1589,-1579]],"type":"Polygon","properties":{"state":"MO","name":"BRAYMER","zip":"64624"}},{"arcs":[[1590,-1589,1591,1592]],"type":"Polygon","properties":{"state":"MO","name":"BRECKENRIDGE","zip":"64625"}},{"arcs":[[1593,1594,1595,-633,1596,1597,1598,1599]],"type":"Polygon","properties":{"state":"MO","name":"BROOKFIELD","zip":"64628"}},{"arcs":[[1600,1601,-623]],"type":"Polygon","properties":{"state":"MO","name":"BROWNING","zip":"64630"}},{"arcs":[[1602,-1597,-632,-591,-638]],"type":"Polygon","properties":{"state":"MO","name":"BUCKLIN","zip":"64631"}},{"arcs":[[1603,-1526,-1371,1604,1605]],"type":"Polygon","properties":{"state":"MO","name":"CAINSVILLE","zip":"64632"}},{"arcs":[[1606,-1577,-1584,1607,1608]],"type":"Polygon","properties":{"state":"MO","name":"CARROLLTON","zip":"64633"}},{"arcs":[[1609,1610,-1569,1611,1612,1613,1614]],"type":"Polygon","properties":{"state":"MO","name":"CHULA","zip":"64635"}},{"arcs":[[1615,-1363,1616]],"type":"Polygon","properties":{"state":"MO","name":"COFFEY","zip":"64636"}},{"arcs":[[1617,1618,1619,-1587,-1085]],"type":"Polygon","properties":{"state":"MO","name":"COWGILL","zip":"64637"}},{"arcs":[[1620,1621,-1564,-1580]],"type":"Polygon","properties":{"state":"MO","name":"DAWN","zip":"64638"}},{"arcs":[[-1608,-1583,1622,1623,1624]],"type":"Polygon","properties":{"state":"MO","name":"DE WITT","zip":"64639"}},{"arcs":[[1625,1626,-1572,1627,1628,1629,1630,-1593]],"type":"Polygon","properties":{"state":"MO","name":"GALLATIN","zip":"64640"}},{"arcs":[[1631,1632,1633,-626]],"type":"Polygon","properties":{"state":"MO","name":"GALT","zip":"64641"}},{"arcs":[[1634,1635,-1369,1636,1637]],"type":"Polygon","properties":{"state":"MO","name":"GILMAN CITY","zip":"64642"}},{"arcs":[[1638,-1562,1639,1640,-1585]],"type":"Polygon","properties":{"state":"MO","name":"HALE","zip":"64643"}},{"arcs":[[-1620,1641,1642,-1626,-1592,-1588]],"type":"Polygon","properties":{"state":"MO","name":"HAMILTON","zip":"64644"}},{"arcs":[[1643,1644,-629]],"type":"Polygon","properties":{"state":"MO","name":"HARRIS","zip":"64645"}},{"arcs":[[1645,-1615,1646,1647,-1632,-625]],"type":"Polygon","properties":{"state":"MO","name":"HUMPHREYS","zip":"64646"}},{"arcs":[[1648,1649,-1629]],"type":"Polygon","properties":{"state":"MO","name":"JAMESON","zip":"64647"}},{"arcs":[[-1568,1650,-1650,1651,-1617,-1370,-1636,1652,-1612]],"type":"Polygon","properties":{"state":"MO","name":"JAMESPORT","zip":"64648"}},{"arcs":[[1653,-1573,-1627,-1643,1654,-1392]],"type":"Polygon","properties":{"state":"MO","name":"KIDDER","zip":"64649"}},{"arcs":[[-1619,1655,-1543,-1393,-1655,-1642]],"type":"Polygon","properties":{"state":"MO","name":"KINGSTON","zip":"64650"}},{"arcs":[[1656,1657,1658,-1594]],"type":"Polygon","properties":{"state":"MO","name":"LACLEDE","zip":"64651"}},{"arcs":[[1659,-1647,-1614]],"type":"Polygon","properties":{"state":"MO","name":"LAREDO","zip":"64652"}},{"arcs":[[1660,1661,-1610,-1646,-624,-1602,1662,-1595,-1659]],"type":"Polygon","properties":{"state":"MO","name":"LINNEUS","zip":"64653"}},{"arcs":[[-1651,-1567,-1630]],"type":"Polygon","properties":{"state":"MO","name":"LOCK SPRINGS","zip":"64654"}},{"arcs":[[1663,1664,1665,-644,-641]],"type":"Polygon","properties":{"state":"MO","name":"LUCERNE","zip":"64655"}},{"arcs":[[-1590,1666,1667,-1621]],"type":"Polygon","properties":{"state":"MO","name":"LUDLOW","zip":"64656"}},{"arcs":[[-1424,-1347,-1509,1668,-1502,-1491]],"type":"Polygon","properties":{"state":"MO","name":"MC FALL","zip":"64657"}},{"arcs":[[1669,-1598,-1603,-637,1670,1671]],"type":"Polygon","properties":{"state":"MO","name":"MARCELINE","zip":"64658"}},{"arcs":[[1672,-1571,1673,-1661,-1658]],"type":"Polygon","properties":{"state":"MO","name":"MEADVILLE","zip":"64659"}},{"arcs":[[1674,1675,1676,1677,1678]],"type":"Polygon","properties":{"state":"MO","name":"MENDON","zip":"64660"}},{"arcs":[[1679,1680,-1606,1681]],"type":"Polygon","properties":{"state":"MO","name":"MERCER","zip":"64661"}},{"arcs":[[-1591,-1631,-1566,1682,-1667]],"type":"Polygon","properties":{"state":"MO","name":"MOORESVILLE","zip":"64664"}},{"arcs":[[-1645,1683,-1664,-640,-630]],"type":"Polygon","properties":{"state":"MO","name":"NEWTOWN","zip":"64667"}},{"arcs":[[-1586,-1578,-1607,1684,-1080]],"type":"Polygon","properties":{"state":"MO","name":"NORBORNE","zip":"64668"}},{"arcs":[[-1575,1685,-1546,-1503,-1669,-1508,-1364,-1616,-1652,-1649,-1628]],"type":"Polygon","properties":{"state":"MO","name":"PATTONSBURG","zip":"64670"}},{"arcs":[[-1202,-1201,-1143,-1494,-1542,-1656,-1618,-1084]],"type":"Polygon","properties":{"state":"MO","name":"POLO","zip":"64671"}},{"arcs":[[-1666,1686,-1680,1687,-645]],"type":"Polygon","properties":{"state":"MO","name":"POWERSVILLE","zip":"64672"}},{"arcs":[[-1527,-1604,-1681,-1687,-1665,-1684,-1644,-628,1688,-1637,-1368]],"type":"Polygon","properties":{"state":"MO","name":"PRINCETON","zip":"64673"}},{"arcs":[[-1596,-1663,-1601,-622,-648,-634]],"type":"Polygon","properties":{"state":"MO","name":"PURDIN","zip":"64674"}},{"arcs":[[-1678,1689,-1599,-1670]],"type":"Polygon","properties":{"state":"MO","name":"ROTHVILLE","zip":"64676"}},{"arcs":[[1690,-1638,-1689,-627,-1634]],"type":"Polygon","properties":{"state":"MO","name":"SPICKARD","zip":"64679"}},{"arcs":[[-1561,-1673,-1657,-1600,-1690,-1677,1691,-1640]],"type":"Polygon","properties":{"state":"MO","name":"SUMNER","zip":"64681"}},{"arcs":[[-1563,-1639,-1581]],"type":"Polygon","properties":{"state":"MO","name":"TINA","zip":"64682"}},{"arcs":[[-1613,-1653,-1635,-1691,-1633,-1648,-1660]],"type":"Polygon","properties":{"state":"MO","name":"TRENTON","zip":"64683"}},{"arcs":[[-1683,-1565,-1622,-1668]],"type":"Polygon","properties":{"state":"MO","name":"UTICA","zip":"64686"}},{"arcs":[[-1570,-1611,-1662,-1674]],"type":"Polygon","properties":{"state":"MO","name":"WHEELING","zip":"64688"}},{"arcs":[[-1545,-1686,-1574,-1654,-1391]],"type":"Polygon","properties":{"state":"MO","name":"WINSTON","zip":"64689"}},{"arcs":[[1692,1693,1694,-1176,-1187]],"type":"Polygon","properties":{"state":"MO","name":"HARRISONVILLE","zip":"64701"}},{"arcs":[[1695,1696,1697,1698]],"type":"Polygon","properties":{"state":"MO","name":"ADRIAN","zip":"64720"}},{"arcs":[[1699,1700,1701,1702]],"type":"Polygon","properties":{"state":"MO","name":"AMORET","zip":"64722"}},{"arcs":[[1703,-1703,1704,1705,-1696]],"type":"Polygon","properties":{"state":"MO","name":"AMSTERDAM","zip":"64723"}},{"arcs":[[1706,1707,1708]],"type":"Polygon","properties":{"state":"MO","name":"APPLETON CITY","zip":"64724"}},{"arcs":[[1709,1710,-1694,1711,1712,-1698]],"type":"Polygon","properties":{"state":"MO","name":"ARCHIE","zip":"64725"}},{"arcs":[[1713,1714,1715,1716,1717,-1096]],"type":"Polygon","properties":{"state":"MO","name":"BLAIRSTOWN","zip":"64726"}},{"arcs":[[1718,1719,1720,1721]],"type":"Polygon","properties":{"state":"MO","name":"BRONAUGH","zip":"64728"}},{"arcs":[[1722,-1700,-1704,-1699,-1713,1723,1724,1725,1726,1727,-1708,1728,1729,1730]],"type":"Polygon","properties":{"state":"MO","name":"BUTLER","zip":"64730"}},{"arcs":[[1731,1732,-1714,-1095,-1046,-1213]],"type":"Polygon","properties":{"state":"MO","name":"CHILHOWEE","zip":"64733"}},{"arcs":[[1733,1734,1735,-1025,-1173]],"type":"Polygon","properties":{"state":"MO","name":"CLEVELAND","zip":"64734"}},{"arcs":[[1736,1737,1738,-1727,1739,-1715,-1733,1740,1741,1742]],"type":"Polygon","properties":{"state":"MO","name":"CLINTON","zip":"64735"}},{"arcs":[[1743,1744,1745,1746]],"type":"Polygon","properties":{"state":"MO","name":"COLLINS","zip":"64738"}},{"arcs":[[1747,-1725,1748,-1717]],"type":"Polygon","properties":{"state":"MO","name":"CREIGHTON","zip":"64739"}},{"arcs":[[1749,1750,1751,-1737,1752,1753,1754]],"type":"Polygon","properties":{"state":"MO","name":"DEEPWATER","zip":"64740"}},{"arcs":[[1755,1756,1757,1758]],"type":"Polygon","properties":{"state":"MO","name":"DEERFIELD","zip":"64741"}},{"arcs":[[1759,-1735,1760,-1710,-1697,-1706]],"type":"Polygon","properties":{"state":"MO","name":"DREXEL","zip":"64742"}},{"arcs":[[1761,1762,1763,1764,1765,1766,1767]],"type":"Polygon","properties":{"state":"MO","name":"EL DORADO SPRINGS","zip":"64744"}},{"arcs":[[1768,1769,-1701,-1723]],"type":"Polygon","properties":{"state":"MO","name":"FOSTER","zip":"64745"}},{"arcs":[[-1734,-1177,-1695,-1711,-1761]],"type":"Polygon","properties":{"state":"MO","name":"FREEMAN","zip":"64746"}},{"arcs":[[-1693,-1186,-1097,-1718,-1749,-1724,-1712]],"type":"Polygon","properties":{"state":"MO","name":"GARDEN CITY","zip":"64747"}},{"arcs":[[1770,1771,1772,1773,1774,1775]],"type":"Polygon","properties":{"state":"MO","name":"GOLDEN CITY","zip":"64748"}},{"arcs":[[1776,1777,-1765]],"type":"Polygon","properties":{"state":"MO","name":"HARWOOD","zip":"64750"}},{"arcs":[[1778,1779,1780,1781]],"type":"Polygon","properties":{"state":"MO","name":"HORTON","zip":"64751"}},{"arcs":[[1782,-1769,-1731,1783,-1781,1784]],"type":"Polygon","properties":{"state":"MO","name":"HUME","zip":"64752"}},{"arcs":[[1785,1786,1787,1788,-1774]],"type":"Polygon","properties":{"state":"MO","name":"JASPER","zip":"64755"}},{"arcs":[[1789,1790,1791,1792,-1768]],"type":"Polygon","properties":{"state":"MO","name":"JERICO SPRINGS","zip":"64756"}},{"arcs":[[1793,1794,-1792,1795,-1775,-1789]],"type":"Polygon","properties":{"state":"MO","name":"LAMAR","zip":"64759"}},{"arcs":[[-1732,-1212,1796,1797,1798,-1741]],"type":"Polygon","properties":{"state":"MO","name":"LEETON","zip":"64761"}},{"arcs":[[-1788,1799,1800,1801,-1720,-1794]],"type":"Polygon","properties":{"state":"MO","name":"LIBERAL","zip":"64762"}},{"arcs":[[1802,-1751,1803,1804]],"type":"Polygon","properties":{"state":"MO","name":"LOWRY CITY","zip":"64763"}},{"arcs":[[1805,1806,1807]],"type":"Polygon","properties":{"state":"MO","name":"MILO","zip":"64767"}},{"arcs":[[1808,1809,-1801,1810]],"type":"Polygon","properties":{"state":"MO","name":"MINDENMINES","zip":"64769"}},{"arcs":[[1811,-1709,-1728,-1739]],"type":"Polygon","properties":{"state":"MO","name":"MONTROSE","zip":"64770"}},{"arcs":[[1812,-1722,1813,-1757,1814,-1807]],"type":"Polygon","properties":{"state":"MO","name":"MOUNDVILLE","zip":"64771"}},{"arcs":[[-1815,-1756,1815,-1780,1816,-1763,1817,-1808]],"type":"Polygon","properties":{"state":"MO","name":"NEVADA","zip":"64772"}},{"arcs":[[[1818,1819,1820,-1747,1821,-1766,-1778,1822,1823,-1707,-1812,-1738,-1752,-1803,1824]],[[-1804,-1750,1825]]],"type":"MultiPolygon","properties":{"state":"MO","name":"OSCEOLA","zip":"64776"}},{"arcs":[[-1759,1826,-1785,-1816]],"type":"Polygon","properties":{"state":"MO","name":"RICHARDS","zip":"64778"}},{"arcs":[[1827,-1782,-1784,-1730]],"type":"Polygon","properties":{"state":"MO","name":"RICH HILL","zip":"64779"}},{"arcs":[[1828,-1828,-1729,-1824]],"type":"Polygon","properties":{"state":"MO","name":"ROCKVILLE","zip":"64780"}},{"arcs":[[1829,-1779,-1829,-1823,-1777]],"type":"Polygon","properties":{"state":"MO","name":"SCHELL CITY","zip":"64783"}},{"arcs":[[-1813,-1806,-1818,-1762,-1793,-1795,-1719]],"type":"Polygon","properties":{"state":"MO","name":"SHELDON","zip":"64784"}},{"arcs":[[-1748,-1716,-1740,-1726]],"type":"Polygon","properties":{"state":"MO","name":"URICH","zip":"64788"}},{"arcs":[[-1830,-1764,-1817]],"type":"Polygon","properties":{"state":"MO","name":"WALKER","zip":"64790"}},{"arcs":[[1830,1831,1832,1833,1834]],"type":"Polygon","properties":{"state":"MO","name":"JOPLIN","zip":"64801"}},{"arcs":[[1835,1836,1837,1838,-1835,1839]],"type":"Polygon","properties":{"state":"MO","name":"JOPLIN","zip":"64804"}},{"arcs":[[1840,1841,1842,1843,1844,1845,1846]],"type":"Polygon","properties":{"state":"MO","name":"ANDERSON","zip":"64831"}},{"arcs":[[1847,1848,-1809,1849]],"type":"Polygon","properties":{"state":"MO","name":"ASBURY","zip":"64832"}},{"arcs":[[1850,1851,1852,-1772,1853]],"type":"Polygon","properties":{"state":"MO","name":"AVILLA","zip":"64833"}},{"arcs":[[1854,-1832,1855,-1848,1856]],"type":"Polygon","properties":{"state":"MO","name":"CARL JUNCTION","zip":"64834"}},{"arcs":[[-1834,1857,1858,-1786,-1773,-1853,1859,1860,1861,1862,-1840]],"type":"Polygon","properties":{"state":"MO","name":"CARTHAGE","zip":"64836"}},{"arcs":[[1863,-1836,-1863,1864,1865]],"type":"Polygon","properties":{"state":"MO","name":"DIAMOND","zip":"64840"}},{"arcs":[[1866,1867,1868,1869,1870]],"type":"Polygon","properties":{"state":"MO","name":"FAIRVIEW","zip":"64842"}},{"arcs":[[1871,1872,-1844,1873,1874]],"type":"Polygon","properties":{"state":"MO","name":"GOODMAN","zip":"64843"}},{"arcs":[[1875,-1866,1876,1877,1878]],"type":"Polygon","properties":{"state":"MO","name":"GRANBY","zip":"64844"}},{"arcs":[[1879,1880,-1846]],"type":"Polygon","properties":{"state":"MO","name":"LANAGAN","zip":"64847"}},{"arcs":[[1881,1882,1883,-1854,-1771,1884,1885]],"type":"Polygon","properties":{"state":"MO","name":"LA RUSSELL","zip":"64848"}},{"arcs":[[1886,-1837,-1864,-1876,1887,-1875]],"type":"Polygon","properties":{"state":"MO","name":"NEOSHO","zip":"64850"}},{"arcs":[[1888,1889,1890,-1847,-1881]],"type":"Polygon","properties":{"state":"MO","name":"NOEL","zip":"64854"}},{"arcs":[[-1850,-1811,-1800,-1787,-1859,1891,-1857]],"type":"Polygon","properties":{"state":"MO","name":"ORONOGO","zip":"64855"}},{"arcs":[[-1880,-1845,-1873,1892,1893,1894,-1889]],"type":"Polygon","properties":{"state":"MO","name":"PINEVILLE","zip":"64856"}},{"arcs":[[1895,-1860,-1852]],"type":"Polygon","properties":{"state":"MO","name":"REEDS","zip":"64859"}},{"arcs":[[1896,1897,1898,-1871,1899]],"type":"Polygon","properties":{"state":"MO","name":"ROCKY COMFORT","zip":"64861"}},{"arcs":[[-1896,-1851,-1884,1900,1901,1902,-1861]],"type":"Polygon","properties":{"state":"MO","name":"SARCOXIE","zip":"64862"}},{"arcs":[[1903,-1841,-1891]],"type":"Polygon","properties":{"state":"MO","name":"SOUTH WEST CITY","zip":"64863"}},{"arcs":[[-1843,1904,-1838,-1887,-1874]],"type":"Polygon","properties":{"state":"MO","name":"SENECA","zip":"64865"}},{"arcs":[[1905,1906,1907,1908,-1868,1909,-1878]],"type":"Polygon","properties":{"state":"MO","name":"STARK CITY","zip":"64866"}},{"arcs":[[1910,-1893,-1872,-1888,-1879,-1910,-1867,-1899]],"type":"Polygon","properties":{"state":"MO","name":"STELLA","zip":"64867"}},{"arcs":[[-1892,-1858,-1833,-1855]],"type":"Polygon","properties":{"state":"MO","name":"WEBB CITY","zip":"64870"}},{"arcs":[[-1865,-1862,-1903,1911,-1906,-1877]],"type":"Polygon","properties":{"state":"MO","name":"WENTWORTH","zip":"64873"}},{"arcs":[[1912,1913,-1900,-1870]],"type":"Polygon","properties":{"state":"MO","name":"WHEATON","zip":"64874"}},{"arcs":[[1914,1915,1916,1917]],"type":"Polygon","properties":{"state":"MO","name":"ARGYLE","zip":"65001"}},{"arcs":[[1918,1919,1920,1921,1922]],"type":"Polygon","properties":{"state":"MO","name":"ASHLAND","zip":"65010"}},{"arcs":[[1923,1924,1925,1926,1927,1928,1929]],"type":"Polygon","properties":{"state":"MO","name":"BARNETT","zip":"65011"}},{"arcs":[[1930,1931,1932,1933,1934,1935]],"type":"Polygon","properties":{"state":"MO","name":"BELLE","zip":"65013"}},{"arcs":[[1936,1937,-1934,1938,1939]],"type":"Polygon","properties":{"state":"MO","name":"BLAND","zip":"65014"}},{"arcs":[[1940,1941,1942,1943,1944]],"type":"Polygon","properties":{"state":"MO","name":"BONNOTS MILL","zip":"65016"}},{"arcs":[[1945,1946,1947,1948,1949,1950,1951]],"type":"Polygon","properties":{"state":"MO","name":"BRUMLEY","zip":"65017"}},{"arcs":[[1952,1953,1954,1955,1956,1957,1958,1959,1960,-1929]],"type":"Polygon","properties":{"state":"MO","name":"CALIFORNIA","zip":"65018"}},{"arcs":[[[1961,1962]],[[1963,1964,1965,1966,1967,1968,1969,1970]],[[1971,1972,1973]]],"type":"MultiPolygon","properties":{"state":"MO","name":"CAMDENTON","zip":"65020"}},{"arcs":[[1974,1975,1976,1977,-1958]],"type":"Polygon","properties":{"state":"MO","name":"CENTERTOWN","zip":"65023"}},{"arcs":[[1978,1979,-1943,1980]],"type":"Polygon","properties":{"state":"MO","name":"CHAMOIS","zip":"65024"}},{"arcs":[[1981,1982,1983,-1954]],"type":"Polygon","properties":{"state":"MO","name":"CLARKSBURG","zip":"65025"}},{"arcs":[[1984,-1924,1985,1986,1987,1988,1989]],"type":"Polygon","properties":{"state":"MO","name":"ELDON","zip":"65026"}},{"arcs":[[1990,1991,1992,1993,1994,-1988]],"type":"Polygon","properties":{"state":"MO","name":"EUGENE","zip":"65032"}},{"arcs":[[1995,1996,1997,1998]],"type":"Polygon","properties":{"state":"MO","name":"FORTUNA","zip":"65034"}},{"arcs":[[1999,-1918,2000,2001,2002,-1932]],"type":"Polygon","properties":{"state":"MO","name":"FREEBURG","zip":"65035"}},{"arcs":[[2003,2004,2005,2006,2007]],"type":"Polygon","properties":{"state":"MO","name":"GRAVOIS MILLS","zip":"65037"}},{"arcs":[[-1920,2008,2009,2010]],"type":"Polygon","properties":{"state":"MO","name":"HARTSBURG","zip":"65039"}},{"arcs":[[2011,-1993,2012,2013,2014]],"type":"Polygon","properties":{"state":"MO","name":"HENLEY","zip":"65040"}},{"arcs":[[[2015,-413,2016]],[[2017,2018,2019,-28,2020]]],"type":"MultiPolygon","properties":{"state":"MO","name":"HERMANN","zip":"65041"}},{"arcs":[[2021,-1986,-1930,-1961]],"type":"Polygon","properties":{"state":"MO","name":"HIGH POINT","zip":"65042"}},{"arcs":[[2022,2023,-2010,2024]],"type":"Polygon","properties":{"state":"MO","name":"HOLTS SUMMIT","zip":"65043"}},{"arcs":[[-1957,2025,2026,2027,-1975]],"type":"Polygon","properties":{"state":"MO","name":"JAMESTOWN","zip":"65046"}},{"arcs":[[2028,2029,2030,2031,-1947]],"type":"Polygon","properties":{"state":"MO","name":"KAISER","zip":"65047"}},{"arcs":[[2032,2033,-1917]],"type":"Polygon","properties":{"state":"MO","name":"KOELTZTOWN","zip":"65048"}},{"arcs":[[2034,-1990,2035,-2030,2036,2037]],"type":"Polygon","properties":{"state":"MO","name":"LAKE OZARK","zip":"65049"}},{"arcs":[[-1928,2038,-1996,2039,-1982,-1953]],"type":"Polygon","properties":{"state":"MO","name":"LATHAM","zip":"65050"}},{"arcs":[[2040,-1944,-1980,2041,2042,-1939,-1933,-2003]],"type":"Polygon","properties":{"state":"MO","name":"LINN","zip":"65051"}},{"arcs":[[[2043,-1946,2044]],[[-1951,2045,-1967,2046]]],"type":"MultiPolygon","properties":{"state":"MO","name":"LINN CREEK","zip":"65052"}},{"arcs":[[2047,-1959,-1978,2048]],"type":"Polygon","properties":{"state":"MO","name":"LOHMAN","zip":"65053"}},{"arcs":[[-2002,2049,2050,-1945,-2041]],"type":"Polygon","properties":{"state":"MO","name":"LOOSE CREEK","zip":"65054"}},{"arcs":[[2051,2052,2053,2054,-2033,-1916,2055,2056]],"type":"Polygon","properties":{"state":"MO","name":"META","zip":"65058"}},{"arcs":[[2057,2058,2059,2060]],"type":"Polygon","properties":{"state":"MO","name":"MOKANE","zip":"65059"}},{"arcs":[[2061,-2042,-1979,2062,-2019]],"type":"Polygon","properties":{"state":"MO","name":"MORRISON","zip":"65061"}},{"arcs":[[-2062,-2018,2063,-1940,-2043]],"type":"Polygon","properties":{"state":"MO","name":"MOUNT STERLING","zip":"65062"}},{"arcs":[[2064,-2025,-2009,-1919,2065]],"type":"Polygon","properties":{"state":"MO","name":"NEW BLOOMFIELD","zip":"65063"}},{"arcs":[[-2037,-2029,-2044,2066]],"type":"Polygon","properties":{"state":"MO","name":"OSAGE BEACH","zip":"65065"}},{"arcs":[[-2064,-2021,-27,-149,-100,-175,2067,2068,-1937]],"type":"Polygon","properties":{"state":"MO","name":"OWENSVILLE","zip":"65066"}},{"arcs":[[2069,2070,2071,-420,-387]],"type":"Polygon","properties":{"state":"MO","name":"PORTLAND","zip":"65067"}},{"arcs":[[-1956,2072,2073,2074,-2026]],"type":"Polygon","properties":{"state":"MO","name":"PRAIRIE HOME","zip":"65068"}},{"arcs":[[-2070,-390,-414,-2016,2075]],"type":"Polygon","properties":{"state":"MO","name":"RHINELAND","zip":"65069"}},{"arcs":[[-1925,-1985,-2035,2076]],"type":"Polygon","properties":{"state":"MO","name":"ROCKY MOUNT","zip":"65072"}},{"arcs":[[-2022,-1960,-2048,2077,-1991,-1987]],"type":"Polygon","properties":{"state":"MO","name":"RUSSELLVILLE","zip":"65074"}},{"arcs":[[2078,-1994,-2012,2079,-2053,2080]],"type":"Polygon","properties":{"state":"MO","name":"SAINT ELIZABETH","zip":"65075"}},{"arcs":[[2081,-2054,-2080,-2015,2082]],"type":"Polygon","properties":{"state":"MO","name":"SAINT THOMAS","zip":"65076"}},{"arcs":[[2083,-421,-2072,2084,-2060]],"type":"Polygon","properties":{"state":"MO","name":"STEEDMAN","zip":"65077"}},{"arcs":[[2085,2086,2087,2088,2089,-2006,2090]],"type":"Polygon","properties":{"state":"MO","name":"STOVER","zip":"65078"}},{"arcs":[[-2004,2091]],"type":"Polygon","properties":{"state":"MO","name":"SUNRISE BEACH","zip":"65079"}},{"arcs":[[-2023,-2065,2092,-2058,2093]],"type":"Polygon","properties":{"state":"MO","name":"TEBBETTS","zip":"65080"}},{"arcs":[[-1999,2094,2095,-1983,-2040]],"type":"Polygon","properties":{"state":"MO","name":"TIPTON","zip":"65081"}},{"arcs":[[-2036,-1989,-1995,-2079,2096,2097,-2031]],"type":"Polygon","properties":{"state":"MO","name":"TUSCUMBIA","zip":"65082"}},{"arcs":[[2098,-1948,-2032,-2098]],"type":"Polygon","properties":{"state":"MO","name":"ULMAN","zip":"65083"}},{"arcs":[[-2007,-2090,2099,2100,-1997,-2039,-1927,2101]],"type":"Polygon","properties":{"state":"MO","name":"VERSAILLES","zip":"65084"}},{"arcs":[[-2055,-2082,2102,-2050,-2001,-2034]],"type":"Polygon","properties":{"state":"MO","name":"WESTPHALIA","zip":"65085"}},{"arcs":[[-2083,-2014,2103,2104,-1941,-2051,-2103]],"type":"Polygon","properties":{"state":"MO","name":"JEFFERSON CITY","zip":"65101"}},{"arcs":[[-2049,-1977,2105,-2104,-2013,-1992,-2078]],"type":"Polygon","properties":{"state":"MO","name":"JEFFERSON CITY","zip":"65109"}},{"arcs":[[2106,-1922,2107,2108]],"type":"Polygon","properties":{"state":"MO","name":"COLUMBIA","zip":"65201"}},{"arcs":[[2109,2110,2111,2112,2113,2114,2115,2116,2117,2118,-2109]],"type":"Polygon","properties":{"state":"MO","name":"COLUMBIA","zip":"65202"}},{"arcs":[[2119,-2110,-2108,-1921,2120]],"type":"Polygon","properties":{"state":"MO","name":"COLUMBIA","zip":"65203"}},{"arcs":[[2121,2122,2123,2124,2125,2126]],"type":"Polygon","properties":{"state":"MO","name":"ARMSTRONG","zip":"65230"}},{"arcs":[[2127,-2117,2128,2129,2130,2131,-380,-419,2132]],"type":"Polygon","properties":{"state":"MO","name":"AUXVASSE","zip":"65231"}},{"arcs":[[2133,2134,-2131]],"type":"Polygon","properties":{"state":"MO","name":"BENTON CITY","zip":"65232"}},{"arcs":[[2135,2136,2137,2138,-2074,2139]],"type":"Polygon","properties":{"state":"MO","name":"BOONVILLE","zip":"65233"}},{"arcs":[[2140,2141,2142,-1624,2143,-1675,2144]],"type":"Polygon","properties":{"state":"MO","name":"BRUNSWICK","zip":"65236"}},{"arcs":[[2145,2146,-2140,-2073,-1955,-1984,-2096,2147]],"type":"Polygon","properties":{"state":"MO","name":"BUNCETON","zip":"65237"}},{"arcs":[[2148,2149,2150,2151]],"type":"Polygon","properties":{"state":"MO","name":"CAIRO","zip":"65239"}},{"arcs":[[2152,-2115,2153,2154,2155,2156,2157]],"type":"Polygon","properties":{"state":"MO","name":"CENTRALIA","zip":"65240"}},{"arcs":[[2158,2159,2160,2161,2162,-2156,2163,2164]],"type":"Polygon","properties":{"state":"MO","name":"CLARK","zip":"65243"}},{"arcs":[[2165,2166,-2126]],"type":"Polygon","properties":{"state":"MO","name":"CLIFTON HILL","zip":"65244"}},{"arcs":[[2167,-2141,2168]],"type":"Polygon","properties":{"state":"MO","name":"DALTON","zip":"65246"}},{"arcs":[[2169,2170,-574,-563,-618,-432,-464]],"type":"Polygon","properties":{"state":"MO","name":"EXCELLO","zip":"65247"}},{"arcs":[[2171,2172,-2123,2173,-2159,2174,2175,2176]],"type":"Polygon","properties":{"state":"MO","name":"FAYETTE","zip":"65248"}},{"arcs":[[2177,2178,2179,-2172]],"type":"Polygon","properties":{"state":"MO","name":"FRANKLIN","zip":"65250"}},{"arcs":[[-2059,-2093,-2066,-1923,-2107,-2119,2180,-2133,-418,-2084]],"type":"Polygon","properties":{"state":"MO","name":"FULTON","zip":"65251"}},{"arcs":[[-2180,2181,2182,-2124,-2173]],"type":"Polygon","properties":{"state":"MO","name":"GLASGOW","zip":"65254"}},{"arcs":[[2183,-2154,-2114]],"type":"Polygon","properties":{"state":"MO","name":"HALLSVILLE","zip":"65255"}},{"arcs":[[2184,-2175,-2165,2185,-2112]],"type":"Polygon","properties":{"state":"MO","name":"HARRISBURG","zip":"65256"}},{"arcs":[[-2174,-2122,2186,-2160]],"type":"Polygon","properties":{"state":"MO","name":"HIGBEE","zip":"65257"}},{"arcs":[[-2187,-2127,-2167,2187,-575,-2171,2188,-2150,2189,-2161]],"type":"Polygon","properties":{"state":"MO","name":"HUNTSVILLE","zip":"65259"}},{"arcs":[[-2170,2190,-2151,-2189]],"type":"Polygon","properties":{"state":"MO","name":"JACKSONVILLE","zip":"65260"}},{"arcs":[[2191,-2169,-2145,-1679,-1672]],"type":"Polygon","properties":{"state":"MO","name":"KEYTESVILLE","zip":"65261"}},{"arcs":[[-2118,-2128,-2181]],"type":"Polygon","properties":{"state":"MO","name":"KINGDOM CITY","zip":"65262"}},{"arcs":[[2192,-2152,-2191,-463,-500,2193,-2157,-2163]],"type":"Polygon","properties":{"state":"MO","name":"MADISON","zip":"65263"}},{"arcs":[[-381,-2132,-2135,2194,-415]],"type":"Polygon","properties":{"state":"MO","name":"MARTINSBURG","zip":"65264"}},{"arcs":[[2195,2196,-364,2197,-2195,-2134,-2130]],"type":"Polygon","properties":{"state":"MO","name":"MEXICO","zip":"65265"}},{"arcs":[[-2190,-2149,-2193,-2162]],"type":"Polygon","properties":{"state":"MO","name":"MOBERLY","zip":"65270"}},{"arcs":[[2198,2199,-2178,-2177]],"type":"Polygon","properties":{"state":"MO","name":"NEW FRANKLIN","zip":"65274"}},{"arcs":[[-499,-537,-478,-516,2200,2201,2202,-2158,-2194]],"type":"Polygon","properties":{"state":"MO","name":"PARIS","zip":"65275"}},{"arcs":[[2203,2204,2205,2206,-2136,-2147]],"type":"Polygon","properties":{"state":"MO","name":"PILOT GROVE","zip":"65276"}},{"arcs":[[-2120,2207,-2199,-2176,-2185,-2111]],"type":"Polygon","properties":{"state":"MO","name":"ROCHEPORT","zip":"65279"}},{"arcs":[[-416,-2198,-363,-343,-407]],"type":"Polygon","properties":{"state":"MO","name":"RUSH HILL","zip":"65280"}},{"arcs":[[-2183,2208,-2142,-2168,-2192,-1671,-636,-570,-2188,-2166,-2125]],"type":"Polygon","properties":{"state":"MO","name":"SALISBURY","zip":"65281"}},{"arcs":[[-2197,-2202,2209,-533,-365]],"type":"Polygon","properties":{"state":"MO","name":"SANTA FE","zip":"65282"}},{"arcs":[[-515,-534,-2210,-2201]],"type":"Polygon","properties":{"state":"MO","name":"STOUTSVILLE","zip":"65283"}},{"arcs":[[-2164,-2155,-2184,-2113,-2186]],"type":"Polygon","properties":{"state":"MO","name":"STURGEON","zip":"65284"}},{"arcs":[[-2129,-2116,-2153,-2203,-2196]],"type":"Polygon","properties":{"state":"MO","name":"THOMPSON","zip":"65285"}},{"arcs":[[-1641,-1692,-1676,-2144,-1623,-1582]],"type":"Polygon","properties":{"state":"MO","name":"TRIPLETT","zip":"65286"}},{"arcs":[[-2075,-2139,2210,-2027]],"type":"Polygon","properties":{"state":"MO","name":"WOOLDRIDGE","zip":"65287"}},{"arcs":[[2211,2212,2213,2214,-2205,2215,2216,2217,2218]],"type":"Polygon","properties":{"state":"MO","name":"SEDALIA","zip":"65301"}},{"arcs":[[2219,-1094,-1009,2220,2221]],"type":"Polygon","properties":{"state":"MO","name":"BLACKBURN","zip":"65321"}},{"arcs":[[2222,2223,-2137,-2207]],"type":"Polygon","properties":{"state":"MO","name":"BLACKWATER","zip":"65322"}},{"arcs":[[2224,2225,-1742,-1799,2226]],"type":"Polygon","properties":{"state":"MO","name":"CALHOUN","zip":"65323"}},{"arcs":[[2227,2228,2229,2230,-1962,2231]],"type":"Polygon","properties":{"state":"MO","name":"CLIMAX SPRINGS","zip":"65324"}},{"arcs":[[2232,2233,-2218,2234,2235,-2087,2236]],"type":"Polygon","properties":{"state":"MO","name":"COLE CAMP","zip":"65325"}},{"arcs":[[2237,2238,2239,-2230]],"type":"Polygon","properties":{"state":"MO","name":"EDWARDS","zip":"65326"}},{"arcs":[[-2089,2240,2241,2242,-2100]],"type":"Polygon","properties":{"state":"MO","name":"FLORENCE","zip":"65329"}},{"arcs":[[2243,2244]],"type":"Polygon","properties":{"state":"MO","name":"GILLIAM","zip":"65330"}},{"arcs":[[2245,2246,2247,-2212,2248,2249]],"type":"Polygon","properties":{"state":"MO","name":"GREEN RIDGE","zip":"65332"}},{"arcs":[[2250,2251,2252,2253]],"type":"Polygon","properties":{"state":"MO","name":"HOUSTONIA","zip":"65333"}},{"arcs":[[2254,-2251,2255,2256,-2214]],"type":"Polygon","properties":{"state":"MO","name":"HUGHESVILLE","zip":"65334"}},{"arcs":[[2257,-2249,-2219,-2234]],"type":"Polygon","properties":{"state":"MO","name":"IONIA","zip":"65335"}},{"arcs":[[2258,-1797,-1214,-1050,2259,2260,-2247]],"type":"Polygon","properties":{"state":"MO","name":"KNOB NOSTER","zip":"65336"}},{"arcs":[[-2248,-2261,2261,-2252,-2255,-2213]],"type":"Polygon","properties":{"state":"MO","name":"LA MONTE","zip":"65337"}},{"arcs":[[-2225,2262,-2250,-2258,-2233,2263,2264]],"type":"Polygon","properties":{"state":"MO","name":"LINCOLN","zip":"65338"}},{"arcs":[[-1215,2265,2266,2267,-2221,-1008]],"type":"Polygon","properties":{"state":"MO","name":"MALTA BEND","zip":"65339"}},{"arcs":[[2268,-2256,-2254,2269,-2222,-2268,2270,2271]],"type":"Polygon","properties":{"state":"MO","name":"MARSHALL","zip":"65340"}},{"arcs":[[2272,-2271,-2267,2273]],"type":"Polygon","properties":{"state":"MO","name":"MIAMI","zip":"65344"}},{"arcs":[[-2217,2274,-2235]],"type":"Polygon","properties":{"state":"MO","name":"MORA","zip":"65345"}},{"arcs":[[-2269,2275,2276,-2223,-2206,-2215,-2257]],"type":"Polygon","properties":{"state":"MO","name":"NELSON","zip":"65347"}},{"arcs":[[2277,-2204,-2146,2278,-2242]],"type":"Polygon","properties":{"state":"MO","name":"OTTERVILLE","zip":"65348"}},{"arcs":[[-2273,2279,-2244,2280,-2276,-2272]],"type":"Polygon","properties":{"state":"MO","name":"SLATER","zip":"65349"}},{"arcs":[[-2216,-2278,-2241,-2088,-2236,-2275]],"type":"Polygon","properties":{"state":"MO","name":"SMITHTON","zip":"65350"}},{"arcs":[[-2262,-2260,-1053,-1089,-2220,-2270,-2253]],"type":"Polygon","properties":{"state":"MO","name":"SWEET SPRINGS","zip":"65351"}},{"arcs":[[-2101,-2243,-2279,-2148,-2095,-1998]],"type":"Polygon","properties":{"state":"MO","name":"SYRACUSE","zip":"65354"}},{"arcs":[[[-2264,-2237,-2086,2281]],[[-1754,2282]],[[-2239,2283,2284]],[[2285,2286,-1819,2287]]],"type":"MultiPolygon","properties":{"state":"MO","name":"WARSAW","zip":"65355"}},{"arcs":[[-2227,-1798,-2259,-2246,-2263]],"type":"Polygon","properties":{"state":"MO","name":"WINDSOR","zip":"65360"}},{"arcs":[[2288,2289,2290,2291,2292,2293,2294]],"type":"Polygon","properties":{"state":"MO","name":"ROLLA","zip":"65401"}},{"arcs":[[2295,2296,2297]],"type":"Polygon","properties":{"state":"MO","name":"BENDAVIS","zip":"65433"}},{"arcs":[[2298,2299,2300,2301]],"type":"Polygon","properties":{"state":"MO","name":"BEULAH","zip":"65436"}},{"arcs":[[2302,2303,2304,2305,2306,2307,2308]],"type":"Polygon","properties":{"state":"MO","name":"BIRCH TREE","zip":"65438"}},{"arcs":[[-697,2309,2310,2311,-744,-666,-672,-683]],"type":"Polygon","properties":{"state":"MO","name":"BIXBY","zip":"65439"}},{"arcs":[[-696,2312,2313,-2310]],"type":"Polygon","properties":{"state":"MO","name":"BOSS","zip":"65440"}},{"arcs":[[2314,2315,2316,-165,-748]],"type":"Polygon","properties":{"state":"MO","name":"BOURBON","zip":"65441"}},{"arcs":[[2317,-2057,2318,2319]],"type":"Polygon","properties":{"state":"MO","name":"BRINKTOWN","zip":"65443"}},{"arcs":[[2320,2321,2322,2323,2324]],"type":"Polygon","properties":{"state":"MO","name":"BUCYRUS","zip":"65444"}},{"arcs":[[2325,2326,2327,2328,-2311,-2314]],"type":"Polygon","properties":{"state":"MO","name":"CHERRYVILLE","zip":"65446"}},{"arcs":[[2329,2330,2331,2332]],"type":"Polygon","properties":{"state":"MO","name":"COOK STATION","zip":"65449"}},{"arcs":[[2333,2334,2335,2336,2337,2338]],"type":"Polygon","properties":{"state":"MO","name":"CROCKER","zip":"65452"}},{"arcs":[[2339,2340,2341,-2068,-174,-166,-2317]],"type":"Polygon","properties":{"state":"MO","name":"CUBA","zip":"65453"}},{"arcs":[[2342,-2329,2343,-746]],"type":"Polygon","properties":{"state":"MO","name":"DAVISVILLE","zip":"65456"}},{"arcs":[[2344,2345,2346,2347,2348]],"type":"Polygon","properties":{"state":"MO","name":"DEVILS ELBOW","zip":"65457"}},{"arcs":[[2349,-2334,2350,-2320,2351,2352,-2292,2353,-2348,2354]],"type":"Polygon","properties":{"state":"MO","name":"DIXON","zip":"65459"}},{"arcs":[[2355,2356,2357,-2301]],"type":"Polygon","properties":{"state":"MO","name":"DUKE","zip":"65461"}},{"arcs":[[2358,-2302,-2358,-2345,2359,-2289]],"type":"Polygon","properties":{"state":"MO","name":"EDGAR SPRINGS","zip":"65462"}},{"arcs":[[2360,2361,-1971]],"type":"Polygon","properties":{"state":"MO","name":"ELDRIDGE","zip":"65463"}},{"arcs":[[2362,2363,2364,2365,2366]],"type":"Polygon","properties":{"state":"MO","name":"ELK CREEK","zip":"65464"}},{"arcs":[[2367,2368,2369,2370,-2306]],"type":"Polygon","properties":{"state":"MO","name":"EMINENCE","zip":"65466"}},{"arcs":[[2371,2372,2373,2374]],"type":"Polygon","properties":{"state":"MO","name":"EUNICE","zip":"65468"}},{"arcs":[[2375,2376,2377,2378,2379,2380,2381]],"type":"Polygon","properties":{"state":"MO","name":"FALCON","zip":"65470"}},{"arcs":[[2382,2383,2384,-2346,-2357,2385]],"type":"Polygon","properties":{"state":"MO","name":"FORT LEONARD WOOD","zip":"65473"}},{"arcs":[[2386,-2375,2387,2388,-2369]],"type":"Polygon","properties":{"state":"MO","name":"HARTSHORN","zip":"65479"}},{"arcs":[[2389,-2325,2390,2391,2392,-2367,2393,2394]],"type":"Polygon","properties":{"state":"MO","name":"HOUSTON","zip":"65483"}},{"arcs":[[2395,2396,-2321,-2390,2397,2398,-2298]],"type":"Polygon","properties":{"state":"MO","name":"HUGGINS","zip":"65484"}},{"arcs":[[-1949,-2099,-2097,-2081,-2052,-2318,-2351,-2339]],"type":"Polygon","properties":{"state":"MO","name":"IBERIA","zip":"65486"}},{"arcs":[[2399]],"type":"Polygon","properties":{"state":"MO","name":"JADWIN","zip":"65501"}},{"arcs":[[2400,-2354,-2291]],"type":"Polygon","properties":{"state":"MO","name":"JEROME","zip":"65529"}},{"arcs":[[2401,-2379,2402,2403,2404]],"type":"Polygon","properties":{"state":"MO","name":"LAQUEY","zip":"65534"}},{"arcs":[[2405,-2340,-2316]],"type":"Polygon","properties":{"state":"MO","name":"LEASBURG","zip":"65535"}},{"arcs":[[2406,2407,2408,2409,-2361,-1970,2410,2411,-2403,-2378,2412,2413]],"type":"Polygon","properties":{"state":"MO","name":"LEBANON","zip":"65536"}},{"arcs":[[2414,2415,-2359,-2295]],"type":"Polygon","properties":{"state":"MO","name":"LECOMA","zip":"65540"}},{"arcs":[[2416,2417,-2299,-2416]],"type":"Polygon","properties":{"state":"MO","name":"LENOX","zip":"65541"}},{"arcs":[[2418,2419,-2391,-2324,2420,2421,2422,-2386,-2356,-2300,-2418]],"type":"Polygon","properties":{"state":"MO","name":"LICKING","zip":"65542"}},{"arcs":[[2423,-2381,2424]],"type":"Polygon","properties":{"state":"MO","name":"LYNCHBURG","zip":"65543"}},{"arcs":[[2425,2426,2427,-2304,2428]],"type":"Polygon","properties":{"state":"MO","name":"MOUNTAIN VIEW","zip":"65548"}},{"arcs":[[-2360,-2349,-2401,-2290]],"type":"Polygon","properties":{"state":"MO","name":"NEWBURG","zip":"65550"}},{"arcs":[[2429,-2425,-2380,-2402,2430,-2383,-2423,2431,2432,-2322,-2397,2433]],"type":"Polygon","properties":{"state":"MO","name":"PLATO","zip":"65552"}},{"arcs":[[2434,-2392,-2420,2435,-2388,-2374]],"type":"Polygon","properties":{"state":"MO","name":"RAYMONDVILLE","zip":"65555"}},{"arcs":[[2436,-2336,2437,-2404,-2412]],"type":"Polygon","properties":{"state":"MO","name":"RICHLAND","zip":"65556"}},{"arcs":[[-2422,2438,-2432]],"type":"Polygon","properties":{"state":"MO","name":"ROBY","zip":"65557"}},{"arcs":[[2439,-1935,-1938,-2069,-2342,2440,-2332,2441,-2294]],"type":"Polygon","properties":{"state":"MO","name":"SAINT JAMES","zip":"65559"}},{"arcs":[[-2419,-2417,-2415,-2442,-2331,2442,-2326,-2313,-695,-718,2443,-2370,-2389,-2436],[-2400]],"type":"Polygon","properties":{"state":"MO","name":"SALEM","zip":"65560"}},{"arcs":[[2444,-2394,-2366]],"type":"Polygon","properties":{"state":"MO","name":"SOLO","zip":"65564"}},{"arcs":[[-2328,2445,-2333,-2441,-2341,-2406,-2315,-747,-2344]],"type":"Polygon","properties":{"state":"MO","name":"STEELVILLE","zip":"65565"}},{"arcs":[[-2343,-745,-2312]],"type":"Polygon","properties":{"state":"MO","name":"VIBURNUM","zip":"65566"}},{"arcs":[[-2411,-1969,2446,-2337,-2437]],"type":"Polygon","properties":{"state":"MO","name":"STOUTLAND","zip":"65567"}},{"arcs":[[-2439,-2421,-2323,-2433]],"type":"Polygon","properties":{"state":"MO","name":"SUCCESS","zip":"65570"}},{"arcs":[[-2305,-2428,2447,2448,-2372,-2387,-2368]],"type":"Polygon","properties":{"state":"MO","name":"SUMMERSVILLE","zip":"65571"}},{"arcs":[[-2293,-2353,2449,-1936,-2440]],"type":"Polygon","properties":{"state":"MO","name":"VICHY","zip":"65580"}},{"arcs":[[-2056,-1915,-2000,-1931,-2450,-2352,-2319]],"type":"Polygon","properties":{"state":"MO","name":"VIENNA","zip":"65582"}},{"arcs":[[-2431,-2405,-2438,-2335,-2350,2450,-2384]],"type":"Polygon","properties":{"state":"MO","name":"WAYNESVILLE","zip":"65583"}},{"arcs":[[-2385,-2451,-2355,-2347]],"type":"Polygon","properties":{"state":"MO","name":"SAINT ROBERT","zip":"65584"}},{"arcs":[[-2443,-2330,-2446,-2327]],"type":"Polygon","properties":{"state":"MO","name":"WESCO","zip":"65586"}},{"arcs":[[-2371,-2444,-717,-1004,-971,2451,-2307]],"type":"Polygon","properties":{"state":"MO","name":"WINONA","zip":"65588"}},{"arcs":[[-2393,-2435,-2373,-2449,2452,-2363]],"type":"Polygon","properties":{"state":"MO","name":"YUKON","zip":"65589"}},{"arcs":[[2453,2454,2455,2456,-2408,2457,2458,2459]],"type":"Polygon","properties":{"state":"MO","name":"LONG LANE","zip":"65590"}},{"arcs":[[-2046,-1950,-2338,-2447,-1968]],"type":"Polygon","properties":{"state":"MO","name":"MONTREAL","zip":"65591"}},{"arcs":[[2460,2461,2462,2463]],"type":"Polygon","properties":{"state":"MO","name":"ALDRICH","zip":"65601"}},{"arcs":[[2464,2465,2466,2467]],"type":"Polygon","properties":{"state":"MO","name":"ARCOLA","zip":"65603"}},{"arcs":[[2468,2469,2470,2471]],"type":"Polygon","properties":{"state":"MO","name":"ASH GROVE","zip":"65604"}},{"arcs":[[2472,2473,2474,2475,2476,2477,2478,2479,2480]],"type":"Polygon","properties":{"state":"MO","name":"AURORA","zip":"65605"}},{"arcs":[[-975,2481,2482,2483,2484,-2308,-2452,-970,-954]],"type":"Polygon","properties":{"state":"MO","name":"ALTON","zip":"65606"}},{"arcs":[[2485,2486,2487,2488,2489,2490,2491,2492,2493,2494,2495,2496,2497]],"type":"Polygon","properties":{"state":"MO","name":"AVA","zip":"65608"}},{"arcs":[[2498,2499,2500,2501]],"type":"Polygon","properties":{"state":"MO","name":"BAKERSFIELD","zip":"65609"}},{"arcs":[[2502,2503,2504,2505]],"type":"Polygon","properties":{"state":"MO","name":"BILLINGS","zip":"65610"}},{"arcs":[[2506,2507,2508,2509,2510,2511]],"type":"Polygon","properties":{"state":"MO","name":"BLUE EYE","zip":"65611"}},{"arcs":[[2512,2513,-2472,2514,2515,2516,2517]],"type":"Polygon","properties":{"state":"MO","name":"BOIS D ARC","zip":"65612"}},{"arcs":[[2518,2519,-2463,2520,2521,2522,2523,2524,2525,2526,2527,2528]],"type":"Polygon","properties":{"state":"MO","name":"BOLIVAR","zip":"65613"}},{"arcs":[[2529,2530,2531,2532,-2492,2533,2534,2535,2536,2537]],"type":"Polygon","properties":{"state":"MO","name":"BRADLEYVILLE","zip":"65614"}},{"arcs":[[2538,2539,2540,2541,2542,2543,2544]],"type":"Polygon","properties":{"state":"MO","name":"BRANSON","zip":"65616"}},{"arcs":[[2545,2546,-2529,2547]],"type":"Polygon","properties":{"state":"MO","name":"BRIGHTON","zip":"65617"}},{"arcs":[[2548,-2487,2549,2550,2551,2552]],"type":"Polygon","properties":{"state":"MO","name":"BRIXEY","zip":"65618"}},{"arcs":[[2553,2554,2555,2556,2557,2558]],"type":"Polygon","properties":{"state":"MO","name":"BROOKLINE STATION","zip":"65619"}},{"arcs":[[2559,2560,2561,2562,2563,2564]],"type":"Polygon","properties":{"state":"MO","name":"BRUNER","zip":"65620"}},{"arcs":[[2565,2566,2567,-2455,2568,2569]],"type":"Polygon","properties":{"state":"MO","name":"BUFFALO","zip":"65622"}},{"arcs":[[2570,2571,2572]],"type":"Polygon","properties":{"state":"MO","name":"BUTTERFIELD","zip":"65623"}},{"arcs":[[[2573,-2480,2574,2575]],[[2576,2577,2578]]],"type":"MultiPolygon","properties":{"state":"MO","name":"CAPE FAIR","zip":"65624"}},{"arcs":[[2579,-2571,2580,-2473,2581,2582,2583]],"type":"Polygon","properties":{"state":"MO","name":"CASSVILLE","zip":"65625"}},{"arcs":[[2584,2585,2586,2587,2588,2589,-2502]],"type":"Polygon","properties":{"state":"MO","name":"CAULFIELD","zip":"65626"}},{"arcs":[[2590,2591,2592,2593,2594]],"type":"Polygon","properties":{"state":"MO","name":"CEDARCREEK","zip":"65627"}},{"arcs":[[2595,2596,2597,2598]],"type":"Polygon","properties":{"state":"MO","name":"CHADWICK","zip":"65629"}},{"arcs":[[2599,2600,2601,2602,2603,2604]],"type":"Polygon","properties":{"state":"MO","name":"CHESTNUTRIDGE","zip":"65630"}},{"arcs":[[2605,2606,-2503,2607,-2556,2608,2609]],"type":"Polygon","properties":{"state":"MO","name":"CLEVER","zip":"65631"}},{"arcs":[[2610,-2459,2611,-2414,2612,2613]],"type":"Polygon","properties":{"state":"MO","name":"CONWAY","zip":"65632"}},{"arcs":[[2614,2615,2616,-2478]],"type":"Polygon","properties":{"state":"MO","name":"CRANE","zip":"65633"}},{"arcs":[[2617,2618,2619,2620,2621,-2284,-2238,-2229]],"type":"Polygon","properties":{"state":"MO","name":"CROSS TIMBERS","zip":"65634"}},{"arcs":[[2622,-2465,2623,2624,-2461,2625,2626]],"type":"Polygon","properties":{"state":"MO","name":"DADEVILLE","zip":"65635"}},{"arcs":[[2627,-2551,2628,2629,2630,2631,2632,-2586,2633]],"type":"Polygon","properties":{"state":"MO","name":"DORA","zip":"65637"}},{"arcs":[[2634,2635,2636,-2629,-2550,-2486]],"type":"Polygon","properties":{"state":"MO","name":"DRURY","zip":"65638"}},{"arcs":[[2637,2638,2639,2640,-2522]],"type":"Polygon","properties":{"state":"MO","name":"DUNNEGAN","zip":"65640"}},{"arcs":[[[2641,2642,-2583,2643,2644]],[[2645,2646]]],"type":"MultiPolygon","properties":{"state":"MO","name":"EAGLE ROCK","zip":"65641"}},{"arcs":[[2647,-2569,-2454,2648]],"type":"Polygon","properties":{"state":"MO","name":"ELKLAND","zip":"65644"}},{"arcs":[[-2514,2649,2650,2651,2652,-2627,2653,-2469]],"type":"Polygon","properties":{"state":"MO","name":"EVERTON","zip":"65646"}},{"arcs":[[2654,-1897,-1914,2655,-2572,-2580,2656]],"type":"Polygon","properties":{"state":"MO","name":"EXETER","zip":"65647"}},{"arcs":[[2657,-2570,-2648,2658,2659,2660]],"type":"Polygon","properties":{"state":"MO","name":"FAIR GROVE","zip":"65648"}},{"arcs":[[-2625,2661,-2638,-2521,-2462]],"type":"Polygon","properties":{"state":"MO","name":"FAIR PLAY","zip":"65649"}},{"arcs":[[2662,2663,2664,-2523,-2641]],"type":"Polygon","properties":{"state":"MO","name":"FLEMINGTON","zip":"65650"}},{"arcs":[[2665,-2562,2666,2667]],"type":"Polygon","properties":{"state":"MO","name":"FORDLAND","zip":"65652"}},{"arcs":[[2668,-2545,2669,2670,-2605,2671,2672,2673]],"type":"Polygon","properties":{"state":"MO","name":"FORSYTH","zip":"65653"}},{"arcs":[[2674,2675,2676,2677]],"type":"Polygon","properties":{"state":"MO","name":"FREISTATT","zip":"65654"}},{"arcs":[[2678,2679,2680,2681,2682,2683,2684,2685,2686]],"type":"Polygon","properties":{"state":"MO","name":"GAINESVILLE","zip":"65655"}},{"arcs":[[-2575,-2479,-2617,2687,2688,2689,2690,-2577,2691]],"type":"Polygon","properties":{"state":"MO","name":"GALENA","zip":"65656"}},{"arcs":[[2692,-2532,2693,-2672,-2604,2694,-2599]],"type":"Polygon","properties":{"state":"MO","name":"GARRISON","zip":"65657"}},{"arcs":[[2695,-2646,2696]],"type":"Polygon","properties":{"state":"MO","name":"GOLDEN","zip":"65658"}},{"arcs":[[2697,2698,2699,2700,-2526]],"type":"Polygon","properties":{"state":"MO","name":"GOODSON","zip":"65659"}},{"arcs":[[2701,-2434,-2396,-2297]],"type":"Polygon","properties":{"state":"MO","name":"GRAFF","zip":"65660"}},{"arcs":[[2702,2703,-2466,-2623,-2653]],"type":"Polygon","properties":{"state":"MO","name":"GREENFIELD","zip":"65661"}},{"arcs":[[2704,-2613,-2413,-2377,2705]],"type":"Polygon","properties":{"state":"MO","name":"GROVESPRING","zip":"65662"}},{"arcs":[[2706,-2527,-2701,2707,-2567]],"type":"Polygon","properties":{"state":"MO","name":"HALF WAY","zip":"65663"}},{"arcs":[[2708,-2684]],"type":"Polygon","properties":{"state":"MO","name":"HARDENVILLE","zip":"65666"}},{"arcs":[[2709,2710,2711,2712,2713,-2706,-2376]],"type":"Polygon","properties":{"state":"MO","name":"HARTVILLE","zip":"65667"}},{"arcs":[[2714,2715,2716,-2620,2717,2718,2719,-2699]],"type":"Polygon","properties":{"state":"MO","name":"HERMITAGE","zip":"65668"}},{"arcs":[[2720,2721,2722,2723,-2602]],"type":"Polygon","properties":{"state":"MO","name":"HIGHLANDVILLE","zip":"65669"}},{"arcs":[[2724,2725,2726,2727,-2540]],"type":"Polygon","properties":{"state":"MO","name":"HOLLISTER","zip":"65672"}},{"arcs":[[-2640,2728,-1745,2729,-2663]],"type":"Polygon","properties":{"state":"MO","name":"HUMANSVILLE","zip":"65674"}},{"arcs":[[2730,-2688,-2616,2731,-2606]],"type":"Polygon","properties":{"state":"MO","name":"HURLEY","zip":"65675"}},{"arcs":[[2732,2733,2734,2735,-2680]],"type":"Polygon","properties":{"state":"MO","name":"ISABELLA","zip":"65676"}},{"arcs":[[2736,-2725,-2539,-2669,2737,-2593,2738]],"type":"Polygon","properties":{"state":"MO","name":"KIRBYVILLE","zip":"65679"}},{"arcs":[[-2674,2739,-2530,2740,-2594,-2738]],"type":"Polygon","properties":{"state":"MO","name":"KISSEE MILLS","zip":"65680"}},{"arcs":[[-2509,2741]],"type":"Polygon","properties":{"state":"MO","name":"LAMPE","zip":"65681"}},{"arcs":[[-1776,-1796,-1791,-2467,-2704,2742,-2651,2743,-1885]],"type":"Polygon","properties":{"state":"MO","name":"LOCKWOOD","zip":"65682"}},{"arcs":[[-2700,-2720,2744,2745,2746,-2456,-2568,-2708]],"type":"Polygon","properties":{"state":"MO","name":"LOUISBURG","zip":"65685"}},{"arcs":[[2747,2748]],"type":"Polygon","properties":{"state":"MO","name":"KIMBERLING CITY","zip":"65686"}},{"arcs":[[2749,-2398,-2395,-2445,-2365,2750,2751]],"type":"Polygon","properties":{"state":"MO","name":"CABOOL","zip":"65689"}},{"arcs":[[2752,2753,2754,2755,-2482,-974]],"type":"Polygon","properties":{"state":"MO","name":"COUCH","zip":"65690"}},{"arcs":[[2756,2757,2758,-2484]],"type":"Polygon","properties":{"state":"MO","name":"KOSHKONONG","zip":"65692"}},{"arcs":[[-2491,2759,-2534]],"type":"Polygon","properties":{"state":"MO","name":"MC CLURG","zip":"65701"}},{"arcs":[[2760,-2497,2761]],"type":"Polygon","properties":{"state":"MO","name":"MACOMB","zip":"65702"}},{"arcs":[[-2496,2762,-2712,2763,-2762]],"type":"Polygon","properties":{"state":"MO","name":"MANSFIELD","zip":"65704"}},{"arcs":[[-2615,-2477,2764,-2504,-2607,-2732]],"type":"Polygon","properties":{"state":"MO","name":"MARIONVILLE","zip":"65705"}},{"arcs":[[2765,2766,-2659,-2649,-2460,-2611,2767,2768,-2668]],"type":"Polygon","properties":{"state":"MO","name":"MARSHFIELD","zip":"65706"}},{"arcs":[[2769,-1886,-2744,-2650,-2513]],"type":"Polygon","properties":{"state":"MO","name":"MILLER","zip":"65707"}},{"arcs":[[2770,-1908,2771,-2675,2772]],"type":"Polygon","properties":{"state":"MO","name":"MONETT","zip":"65708"}},{"arcs":[[2773,2774,-2519,-2547]],"type":"Polygon","properties":{"state":"MO","name":"MORRISVILLE","zip":"65710"}},{"arcs":[[2775,-2710,-2382,-2424,-2430,-2702,-2296,-2399,-2750,2776,-2636]],"type":"Polygon","properties":{"state":"MO","name":"MOUNTAIN GROVE","zip":"65711"}},{"arcs":[[2777,2778,-1882,-2770,-2518,2779,-2505,-2765,-2476,2780,-2677]],"type":"Polygon","properties":{"state":"MO","name":"MOUNT VERNON","zip":"65712"}},{"arcs":[[2781,-2768,-2614,-2705,-2714]],"type":"Polygon","properties":{"state":"MO","name":"NIANGUA","zip":"65713"}},{"arcs":[[2782,-2609,-2555,2783,2784,2785,-2723]],"type":"Polygon","properties":{"state":"MO","name":"NIXA","zip":"65714"}},{"arcs":[[-2635,-2498,-2761,-2764,-2711,-2776]],"type":"Polygon","properties":{"state":"MO","name":"NORWOOD","zip":"65717"}},{"arcs":[[-2533,-2693,-2598,2786,-2565,2787,-2493]],"type":"Polygon","properties":{"state":"MO","name":"OLDFIELD","zip":"65720"}},{"arcs":[[-2603,-2724,-2786,2788,2789,2790,-2596,-2695]],"type":"Polygon","properties":{"state":"MO","name":"OZARK","zip":"65721"}},{"arcs":[[-2458,-2407,-2612]],"type":"Polygon","properties":{"state":"MO","name":"PHILLIPSBURG","zip":"65722"}},{"arcs":[[-1902,2791,-2778,-2676,-2772,-1907,-1912]],"type":"Polygon","properties":{"state":"MO","name":"PIERCE CITY","zip":"65723"}},{"arcs":[[-2524,2792,-2716]],"type":"Polygon","properties":{"state":"MO","name":"PITTSBURG","zip":"65724"}},{"arcs":[[2793,-2548,-2528,-2707,-2566,-2658,2794]],"type":"Polygon","properties":{"state":"MO","name":"PLEASANT HOPE","zip":"65725"}},{"arcs":[[-2715,-2698,-2525]],"type":"Polygon","properties":{"state":"MO","name":"POLK","zip":"65727"}},{"arcs":[[-2610,-2783,-2722,2795,-2689,-2731]],"type":"Polygon","properties":{"state":"MO","name":"PONCE DE LEON","zip":"65728"}},{"arcs":[[2796,-2733,-2679]],"type":"Polygon","properties":{"state":"MO","name":"PONTIAC","zip":"65729"}},{"arcs":[[-1911,-1898,-2655,2797,2798,-1894]],"type":"Polygon","properties":{"state":"MO","name":"POWELL","zip":"65730"}},{"arcs":[[2799,-2718,-2619,2800]],"type":"Polygon","properties":{"state":"MO","name":"PRESTON","zip":"65732"}},{"arcs":[[-2591,2801,-2537,2802,2803,2804,2805]],"type":"Polygon","properties":{"state":"MO","name":"PROTEM","zip":"65733"}},{"arcs":[[-2656,-1913,-1869,-1909,-2771,2806,-2474,-2581,-2573]],"type":"Polygon","properties":{"state":"MO","name":"PURDY","zip":"65734"}},{"arcs":[[2807,2808,-1820,-2287]],"type":"Polygon","properties":{"state":"MO","name":"QUINCY","zip":"65735"}},{"arcs":[[-2578,-2691,2809,2810,-2542,2811,-2748,2812]],"type":"Polygon","properties":{"state":"MO","name":"REEDS SPRING","zip":"65737"}},{"arcs":[[-2608,-2506,-2780,-2517,2813,-2557]],"type":"Polygon","properties":{"state":"MO","name":"REPUBLIC","zip":"65738"}},{"arcs":[[[2814,-2727]],[[2815,-2511,2816]]],"type":"MultiPolygon","properties":{"state":"MO","name":"RIDGEDALE","zip":"65739"}},{"arcs":[[2817,-2670,-2544]],"type":"Polygon","properties":{"state":"MO","name":"ROCKAWAY BEACH","zip":"65740"}},{"arcs":[[-2561,2818,-2790,2819,2820,2821,2822,-2766,-2667]],"type":"Polygon","properties":{"state":"MO","name":"ROGERSVILLE","zip":"65742"}},{"arcs":[[-2741,-2538,-2802,-2595]],"type":"Polygon","properties":{"state":"MO","name":"RUETER","zip":"65744"}},{"arcs":[[2823,2824,-2642]],"type":"Polygon","properties":{"state":"MO","name":"SELIGMAN","zip":"65745"}},{"arcs":[[-2666,-2769,-2782,-2713,-2763,-2495,2825,-2563]],"type":"Polygon","properties":{"state":"MO","name":"SEYMOUR","zip":"65746"}},{"arcs":[[[-2582,-2481,-2574,2826,-2644]],[[-2507,2827]]],"type":"MultiPolygon","properties":{"state":"MO","name":"SHELL KNOB","zip":"65747"}},{"arcs":[[-2703,-2652,-2743]],"type":"Polygon","properties":{"state":"MO","name":"SOUTH GREENFIELD","zip":"65752"}},{"arcs":[[[-2597,-2791,-2819,-2560,-2787]],[[-2564,-2826,-2494,-2788]]],"type":"MultiPolygon","properties":{"state":"MO","name":"SPARTA","zip":"65753"}},{"arcs":[[-2690,-2796,-2721,-2601,2828,-2810]],"type":"Polygon","properties":{"state":"MO","name":"SPOKANE","zip":"65754"}},{"arcs":[[2829,-2489]],"type":"Polygon","properties":{"state":"MO","name":"SQUIRES","zip":"65755"}},{"arcs":[[-1901,-1883,-2779,-2792]],"type":"Polygon","properties":{"state":"MO","name":"STOTTS CITY","zip":"65756"}},{"arcs":[[2830,2831,-2660,-2767,-2823]],"type":"Polygon","properties":{"state":"MO","name":"STRAFFORD","zip":"65757"}},{"arcs":[[-2740,-2673,-2694,-2531]],"type":"Polygon","properties":{"state":"MO","name":"TANEYVILLE","zip":"65759"}},{"arcs":[[-2501,2832,-2685,-2709,-2683,2833,-2553,2834,-2634,-2585]],"type":"Polygon","properties":{"state":"MO","name":"TECUMSEH","zip":"65760"}},{"arcs":[[[-2803,-2536,2835,-2735,2836]],[[-2805,2837]]],"type":"MultiPolygon","properties":{"state":"MO","name":"THEODOSIA","zip":"65761"}},{"arcs":[[-2535,-2760,-2490,2838,-2681,-2736,-2836]],"type":"Polygon","properties":{"state":"MO","name":"THORNFIELD","zip":"65762"}},{"arcs":[[2839,2840,-2362,-2410,2841,-2746]],"type":"Polygon","properties":{"state":"MO","name":"TUNAS","zip":"65764"}},{"arcs":[[2842,-2686,-2833,-2500]],"type":"Polygon","properties":{"state":"MO","name":"UDALL","zip":"65766"}},{"arcs":[[-2745,-2719,-2800,-2840]],"type":"Polygon","properties":{"state":"MO","name":"URBANA","zip":"65767"}},{"arcs":[[2843,-2630,-2637,-2777,-2752]],"type":"Polygon","properties":{"state":"MO","name":"VANZANT","zip":"65768"}},{"arcs":[[-2807,-2773,-2678,-2781,-2475]],"type":"Polygon","properties":{"state":"MO","name":"VERONA","zip":"65769"}},{"arcs":[[-2626,-2464,-2520,-2775,2844,-2470,-2654]],"type":"Polygon","properties":{"state":"MO","name":"WALNUT GROVE","zip":"65770"}},{"arcs":[[-2818,-2543,-2811,-2829,-2600,-2671]],"type":"Polygon","properties":{"state":"MO","name":"WALNUT SHADE","zip":"65771"}},{"arcs":[[2845,-2798,-2657,-2584,-2643,-2825]],"type":"Polygon","properties":{"state":"MO","name":"WASHBURN","zip":"65772"}},{"arcs":[[-2682,-2839,-2830,-2488,-2549,-2834]],"type":"Polygon","properties":{"state":"MO","name":"WASOLA","zip":"65773"}},{"arcs":[[-1744,-1821,-2809,2846,-2664,-2730]],"type":"Polygon","properties":{"state":"MO","name":"WEAUBLEAU","zip":"65774"}},{"arcs":[[2847,-2632,2848,2849,-2429,-2303,2850,-2485,-2759,2851,2852,-2588]],"type":"Polygon","properties":{"state":"MO","name":"WEST PLAINS","zip":"65775"}},{"arcs":[[2853,-2589,-2853]],"type":"Polygon","properties":{"state":"MO","name":"MOODY","zip":"65777"}},{"arcs":[[2854,-2754]],"type":"Polygon","properties":{"state":"MO","name":"MYRTLE","zip":"65778"}},{"arcs":[[-2808,-2286,2855,-2621,-2717,-2793,-2665,-2847]],"type":"Polygon","properties":{"state":"MO","name":"WHEATLAND","zip":"65779"}},{"arcs":[[2856,2857,-2515,-2471,-2845,-2774,-2546,-2794]],"type":"Polygon","properties":{"state":"MO","name":"WILLARD","zip":"65781"}},{"arcs":[[-2457,-2747,-2842,-2409]],"type":"Polygon","properties":{"state":"MO","name":"WINDYVILLE","zip":"65783"}},{"arcs":[[-2552,-2628,-2835]],"type":"Polygon","properties":{"state":"MO","name":"ZANONI","zip":"65784"}},{"arcs":[[-1767,-1822,-1746,-2729,-2639,-2662,-2624,-2468,-1790]],"type":"Polygon","properties":{"state":"MO","name":"STOCKTON","zip":"65785"}},{"arcs":[[-2618,-2228,2858,-1973,2859,-1964,-2841,-2801]],"type":"Polygon","properties":{"state":"MO","name":"MACKS CREEK","zip":"65786"}},{"arcs":[[-1972,2860,-1965,-2860]],"type":"Polygon","properties":{"state":"MO","name":"ROACH","zip":"65787"}},{"arcs":[[-2309,-2851]],"type":"Polygon","properties":{"state":"MO","name":"PEACE VALLEY","zip":"65788"}},{"arcs":[[2861,-2426,-2850]],"type":"Polygon","properties":{"state":"MO","name":"POMONA","zip":"65789"}},{"arcs":[[-2633,-2848,-2587]],"type":"Polygon","properties":{"state":"MO","name":"POTTERSVILLE","zip":"65790"}},{"arcs":[[2862,-2757,-2483,-2756]],"type":"Polygon","properties":{"state":"MO","name":"THAYER","zip":"65791"}},{"arcs":[[-2844,-2751,-2364,-2453,-2448,-2427,-2862,-2849,-2631]],"type":"Polygon","properties":{"state":"MO","name":"WILLOW SPRINGS","zip":"65793"}},{"arcs":[[-2858,2863,-2831,-2822,2864,2865,2866,-2558,-2814,-2516]],"type":"Polygon","properties":{"state":"MO","name":"SPRINGFIELD","zip":"65802"}},{"arcs":[[-2864,-2857,-2795,-2661,-2832]],"type":"Polygon","properties":{"state":"MO","name":"SPRINGFIELD","zip":"65803"}},{"arcs":[[2867,2868,-2866,2869,-2820,-2789,-2785]],"type":"Polygon","properties":{"state":"MO","name":"SPRINGFIELD","zip":"65804"}},{"arcs":[[-2867,-2869,2870,-2559]],"type":"Polygon","properties":{"state":"MO","name":"SPRINGFIELD","zip":"65807"}},{"arcs":[[-2870,-2865,-2821]],"type":"Polygon","properties":{"state":"MO","name":"SPRINGFIELD","zip":"65809"}},{"arcs":[[-2784,-2554,-2871,-2868]],"type":"Polygon","properties":{"state":"MO","name":"SPRINGFIELD","zip":"65810"}}]}},"arcs":[[[26583,14393],[-85,-38]],[[26498,14355],[-27,-8]],[[26471,14347],[4,16]],[[26475,14363],[149,81]],[[26624,14444],[-14,-74]],[[26610,14370],[-27,23]],[[26799,14144],[-90,66]],[[26709,14210],[36,13]],[[26745,14223],[32,-10]],[[26777,14213],[22,-67]],[[26799,14146],[0,-2]],[[26696,14358],[-99,-8]],[[26597,14350],[-18,-5]],[[26579,14345],[4,48]],[[26610,14370],[77,21]],[[26687,14391],[9,-33]],[[26700,14052],[-40,49]],[[26660,14101],[18,25]],[[26678,14126],[99,-35]],[[26777,14091],[0,-16]],[[26777,14075],[-77,-23]],[[26191,14098],[-27,10]],[[26164,14108],[-45,84],[68,38]],[[26187,14230],[22,-17]],[[26209,14213],[19,-100]],[[26228,14113],[-37,-15]],[[26002,14307],[-4,-3]],[[25998,14304],[4,158]],[[26002,14462],[108,-79]],[[26110,14383],[-108,-76]],[[26502,14111],[-9,-5]],[[26493,14106],[-45,66]],[[26448,14172],[81,-8]],[[26529,14164],[-27,-53]],[[26579,14073],[-77,38]],[[26529,14164],[5,3]],[[26534,14167],[99,-69]],[[26633,14098],[-54,-25]],[[26691,14393],[-4,-2]],[[26624,14444],[27,8]],[[26651,14452],[36,-5]],[[26687,14447],[4,-54]],[[26790,13968],[-18,34]],[[26772,14002],[9,0]],[[26781,14002],[9,-34]],[[26745,13790],[-58,-20]],[[26687,13770],[-72,-20]],[[26615,13750],[-99,135]],[[26516,13885],[-27,30]],[[26489,13915],[-9,13]],[[26480,13928],[58,7]],[[26538,13935],[117,28]],[[26655,13963],[90,-173]],[[26592,14304],[9,33]],[[26601,14337],[-4,13]],[[26696,14358],[13,-16]],[[26709,14342],[-9,-10]],[[26700,14332],[-36,-25]],[[26664,14307],[-40,-13]],[[26624,14294],[-32,10]],[[26579,14073],[-41,-138]],[[26480,13928],[-18,28]],[[26462,13956],[0,5]],[[26462,13961],[22,91]],[[26484,14052],[9,54]],[[26556,14185],[-9,122]],[[26547,14307],[45,-3]],[[26624,14294],[-5,-76]],[[26619,14218],[-63,-33]],[[26709,14210],[-22,0]],[[26687,14210],[-18,86]],[[26669,14296],[40,18]],[[26709,14314],[23,-10]],[[26732,14304],[4,-33]],[[26736,14271],[9,-48]],[[26655,13963],[59,36]],[[26714,13999],[40,20]],[[26754,14019],[18,-17]],[[26790,13968],[81,-91]],[[26871,13877],[-76,-130]],[[26795,13747],[-50,43]],[[26516,13885],[-54,-11]],[[26462,13874],[27,41]],[[26817,14536],[-81,53]],[[26736,14589],[68,41]],[[26804,14630],[27,-41]],[[26831,14589],[0,-48]],[[26831,14541],[-14,-5]],[[26849,14538],[-18,3]],[[26831,14589],[59,-8]],[[26890,14581],[-5,-28]],[[26885,14553],[-36,-15]],[[26885,14609],[5,-28]],[[26804,14630],[81,-21]],[[26795,13747],[18,-46]],[[26813,13701],[-68,21]],[[26745,13722],[0,68]],[[26065,14055],[-13,-5]],[[26052,14050],[-50,170]],[[26002,14220],[0,76]],[[26002,14296],[90,-48]],[[26092,14248],[-27,-193]],[[26547,14307],[-49,48]],[[26579,14345],[22,-8]],[[26426,14243],[-23,26]],[[26403,14269],[41,-13]],[[26444,14256],[-18,-13]],[[26462,13961],[-32,56],[18,15],[14,28]],[[26462,14060],[22,-8]],[[26817,14530],[-31,-5]],[[26786,14525],[-9,0]],[[26777,14525],[-50,54]],[[26727,14579],[9,10]],[[26817,14536],[0,-6]],[[26750,14487],[0,-10]],[[26750,14477],[0,-15]],[[26750,14462],[-63,53]],[[26687,14515],[9,15]],[[26696,14530],[22,-12]],[[26718,14518],[32,-31]],[[26777,14525],[4,-20]],[[26781,14505],[-31,-18]],[[26718,14518],[-18,30]],[[26700,14548],[27,31]],[[26696,14530],[4,18]],[[26754,14019],[23,16]],[[26777,14035],[4,-33]],[[26687,14210],[-9,-41]],[[26678,14169],[-59,49]],[[26664,14307],[5,-11]],[[26633,14098],[27,3]],[[26700,14052],[14,-53]],[[26534,14167],[22,18]],[[26678,14169],[0,-43]],[[26799,14144],[-22,-53]],[[26471,14347],[-27,-91]],[[26403,14269],[-40,-11]],[[26363,14258],[0,38]],[[26363,14296],[112,67]],[[26092,14248],[95,18]],[[26187,14266],[0,-36]],[[26164,14108],[-99,-53]],[[26340,13958],[-27,0]],[[26313,13958],[14,66]],[[26327,14024],[72,84]],[[26399,14108],[63,-48]],[[26462,13956],[-122,2]],[[26173,14363],[14,-97]],[[26002,14296],[0,11]],[[26110,14383],[63,-20]],[[26448,14172],[-4,25]],[[26444,14197],[-18,46]],[[26777,14075],[0,-40]],[[26363,13806],[-23,152]],[[26462,13874],[-36,-68]],[[26426,13806],[-63,0]],[[26399,14108],[-23,44]],[[26376,14152],[68,45]],[[26781,14505],[0,-15]],[[26781,14490],[-31,-13]],[[26228,14113],[144,31]],[[26372,14144],[4,8]],[[26327,14024],[-136,74]],[[26313,13958],[-99,-30]],[[26214,13928],[-212,53]],[[26002,13981],[0,13]],[[26002,13994],[50,56]],[[26209,14213],[100,20]],[[26309,14233],[63,-89]],[[26745,13722],[-58,48]],[[26700,14332],[9,-18]],[[26309,14233],[54,25]],[[26173,14363],[190,-67]],[[26002,13994],[-22,61]],[[25980,14055],[22,165]],[[26921,14398],[-9,-7]],[[26912,14391],[5,5]],[[26917,14396],[4,2]],[[26912,14380],[0,11]],[[26921,14398],[-4,18]],[[26917,14416],[9,5]],[[26926,14421],[-5,-43]],[[26921,14378],[-9,2]],[[26885,14388],[0,8]],[[26885,14396],[5,7]],[[26890,14403],[27,-7]],[[26912,14380],[-27,8]],[[26912,14355],[-32,15]],[[26880,14370],[5,18]],[[26921,14378],[-9,-23]],[[26835,14411],[-4,-15]],[[26831,14396],[-36,7]],[[26795,14403],[4,18]],[[26799,14421],[36,-10]],[[26890,14403],[0,3]],[[26890,14406],[9,13]],[[26899,14419],[18,-3]],[[26894,14447],[23,-31]],[[26899,14419],[-9,5]],[[26890,14424],[4,23]],[[26885,14396],[-23,12]],[[26862,14408],[-4,13]],[[26858,14421],[32,-15]],[[26858,14358],[-18,-34]],[[26840,14324],[-14,26]],[[26826,14350],[-4,13]],[[26822,14363],[36,-5]],[[26880,14370],[-22,3]],[[26858,14373],[-27,23]],[[26835,14411],[27,-3]],[[26867,14294],[-9,20]],[[26858,14314],[22,28]],[[26880,14342],[14,-2]],[[26894,14340],[-27,-46]],[[26835,14411],[0,15]],[[26835,14426],[14,18]],[[26849,14444],[13,-8]],[[26862,14436],[-4,-15]],[[26862,14436],[28,-12]],[[26822,14457],[-9,-8]],[[26813,14449],[-14,-2]],[[26799,14447],[-49,15]],[[26781,14490],[27,-3]],[[26808,14487],[14,-30]],[[26862,14436],[18,23]],[[26880,14459],[14,-12]],[[26858,14358],[0,15]],[[26880,14370],[0,-28]],[[26858,14314],[-18,10]],[[26831,14396],[-5,-11]],[[26826,14385],[-18,0]],[[26808,14385],[-22,8]],[[26786,14393],[9,10]],[[26912,14355],[-18,-15]],[[26772,14335],[0,38]],[[26772,14373],[14,7]],[[26786,14380],[22,-10]],[[26808,14370],[14,-7]],[[26826,14350],[-45,-26]],[[26781,14324],[-9,11]],[[26849,14444],[0,5]],[[26849,14449],[9,18]],[[26858,14467],[18,5]],[[26876,14472],[4,-13]],[[26808,14487],[18,10]],[[26826,14497],[23,-12]],[[26849,14485],[9,-18]],[[26849,14449],[-27,8]],[[26709,14342],[45,33]],[[26754,14375],[18,-2]],[[26772,14335],[-13,-11]],[[26759,14324],[-27,-20]],[[26786,14286],[-5,38]],[[26858,14314],[-50,-43]],[[26808,14271],[-22,15]],[[26754,14375],[0,36]],[[26754,14411],[5,18]],[[26759,14429],[36,-5]],[[26795,14424],[4,-3]],[[26786,14393],[0,-13]],[[26853,14248],[-45,23]],[[26867,14294],[-14,-46]],[[26786,14286],[-14,3]],[[26772,14289],[-13,35]],[[26772,14289],[-36,-18]],[[26808,14271],[-31,-58]],[[26853,14248],[-54,-102]],[[26795,14424],[4,23]],[[26813,14449],[22,-23]],[[26691,14393],[63,18]],[[26759,14429],[-5,10]],[[26754,14439],[-4,23]],[[26781,14505],[5,20]],[[26817,14530],[5,-17],[-5,-18],[9,2]],[[26849,14538],[0,-53]],[[26880,14490],[-4,-18]],[[26885,14553],[-5,-15]],[[26880,14538],[0,-48]],[[26880,14538],[50,-5]],[[26930,14533],[-27,-41]],[[26903,14492],[-23,-2]],[[26885,14609],[86,-28],[-41,-48]],[[26822,14363],[4,22]],[[26687,14447],[67,-8]],[[26808,14370],[0,15]],[[26651,14452],[36,63]],[[26903,14492],[23,-71]],[[26628,14561],[-45,56]],[[26583,14617],[5,25]],[[26588,14642],[112,69]],[[26700,14711],[113,-36]],[[26813,14675],[36,-25]],[[26849,14650],[-162,-117]],[[26687,14533],[-59,28]],[[26624,14449],[-9,66]],[[26615,14515],[13,46]],[[26687,14533],[-63,-84]],[[26552,14454],[-45,33]],[[26507,14487],[22,43]],[[26529,14530],[86,-15]],[[26624,14449],[-72,5]],[[26502,15003],[-121,0]],[[26381,15003],[63,74]],[[26444,15077],[58,-74]],[[26318,14309],[40,107]],[[26358,14416],[32,13]],[[26390,14429],[63,-74]],[[26453,14355],[-32,-15],[-22,-18],[-81,-13]],[[26083,14744],[-58,-8]],[[26025,14736],[-50,0]],[[25975,14736],[-9,0]],[[25966,14736],[32,74]],[[25998,14810],[85,36]],[[26083,14846],[5,0]],[[26088,14846],[22,-36]],[[26110,14810],[-27,-66]],[[26250,15054],[-27,-51]],[[26223,15003],[-77,-12]],[[26146,14991],[-45,15]],[[26101,15006],[-36,196]],[[26065,15202],[63,18]],[[26128,15220],[118,-110]],[[26246,15110],[4,-56]],[[26381,15003],[-5,0]],[[26376,15003],[-126,51]],[[26246,15110],[72,74]],[[26318,15184],[126,-107]],[[26101,15006],[-144,3]],[[25957,15009],[-9,91]],[[25948,15100],[41,178]],[[25989,15278],[76,-76]],[[26390,14429],[-14,30]],[[26376,14459],[81,43]],[[26457,14502],[50,-15]],[[26552,14454],[-99,-99]],[[26300,14886],[27,79]],[[26327,14965],[49,38]],[[26502,15003],[27,-111]],[[26529,14892],[-135,-41]],[[26394,14851],[-94,35]],[[26327,14965],[-172,-15],[68,53]],[[25858,15103],[-4,-105]],[[25854,14998],[-54,18]],[[25800,15016],[4,89]],[[25804,15105],[54,-2]],[[26520,14787],[-130,21]],[[26390,14808],[4,43]],[[26529,14892],[-9,-105]],[[26358,14416],[-40,53]],[[26318,14469],[-14,181]],[[26304,14650],[32,8]],[[26336,14658],[31,0]],[[26367,14658],[9,-199]],[[26205,14696],[-45,7]],[[26160,14703],[-32,102]],[[26128,14805],[109,-5]],[[26237,14800],[-32,-104]],[[26025,14736],[9,-122]],[[26034,14614],[-59,0]],[[25975,14614],[0,122]],[[26083,14744],[0,-69]],[[26083,14675],[-49,-61]],[[25800,15016],[-131,0]],[[25669,15016],[-49,104]],[[25620,15120],[108,0]],[[25728,15120],[76,-15]],[[26128,15220],[0,22]],[[26128,15242],[113,8]],[[26241,15250],[77,-66]],[[26137,14375],[95,122]],[[26232,14497],[86,-28]],[[26318,14309],[-181,66]],[[25917,14843],[-18,79]],[[25899,14922],[58,87]],[[26146,14991],[-45,-127]],[[26101,14864],[-18,-18]],[[25998,14810],[-81,33]],[[25966,14736],[-175,-66]],[[25791,14670],[-59,79]],[[25732,14749],[32,26]],[[25764,14775],[31,-3]],[[25795,14772],[122,71]],[[26435,14757],[-9,-110]],[[26426,14647],[-59,11]],[[26336,14658],[63,96]],[[26399,14754],[36,3]],[[25786,14589],[5,33]],[[25791,14622],[0,48]],[[25975,14614],[-9,-40]],[[25966,14574],[-180,15]],[[26457,14502],[-27,51],[32,18],[-23,76]],[[26439,14647],[86,56]],[[26525,14703],[63,-61]],[[26583,14617],[-54,-87]],[[26435,14757],[99,-31]],[[26534,14726],[-9,-23]],[[26439,14647],[-13,0]],[[26101,14864],[-13,-18]],[[26808,14696],[5,-21]],[[26700,14711],[108,-15]],[[26128,14805],[-18,5]],[[26300,14886],[-63,-86]],[[26304,14650],[-81,10]],[[26223,14660],[-18,36]],[[26390,14808],[9,-54]],[[26160,14703],[-77,-28]],[[25854,14922],[0,76]],[[25858,15103],[14,0]],[[25872,15103],[76,-3]],[[25899,14922],[-45,0]],[[26223,14660],[9,-163]],[[26137,14375],[-175,102]],[[25962,14477],[4,71]],[[25966,14548],[0,26]],[[25795,14772],[5,153]],[[25800,14925],[54,-3]],[[26808,14696],[167,-110],[-126,64]],[[25692,14591],[-32,115]],[[25660,14706],[72,43]],[[25791,14622],[-86,-46]],[[25705,14576],[-13,15]],[[26520,14787],[14,-61]],[[26088,15433],[-221,43]],[[25867,15476],[135,89]],[[26002,15565],[86,-132]],[[25813,16056],[5,132]],[[25818,16188],[0,3]],[[25818,16191],[85,20]],[[25903,16211],[59,-20],[-59,-137]],[[25903,16054],[-90,2]],[[25246,15662],[31,-239]],[[25277,15423],[-49,25]],[[25228,15448],[4,199]],[[25232,15647],[14,15]],[[25552,16227],[0,-16]],[[25552,16211],[-90,3]],[[25462,16214],[4,203]],[[25466,16417],[86,3],[5,0]],[[25557,16420],[-5,-193]],[[26128,15242],[-58,100]],[[26070,15342],[63,45]],[[26133,15387],[108,-137]],[[25633,15715],[0,-28]],[[25633,15687],[-31,0]],[[25602,15687],[-167,62]],[[25435,15749],[27,0]],[[25462,15749],[86,-3]],[[25548,15746],[85,0]],[[25633,15746],[0,-31]],[[25894,15901],[-85,0]],[[25809,15901],[-131,53]],[[25678,15954],[5,107]],[[25683,16061],[45,-2]],[[25728,16059],[85,-3]],[[25903,16054],[-9,-153]],[[25804,15248],[5,66]],[[25809,15314],[40,81]],[[25849,15395],[59,-112],[-104,-35]],[[25246,15662],[36,-2]],[[25282,15660],[90,2]],[[25372,15662],[22,-91]],[[25394,15571],[-27,-117]],[[25367,15454],[-90,-61]],[[25277,15393],[0,30]],[[25719,15710],[90,84]],[[25809,15794],[0,-12]],[[25809,15782],[-90,-72]],[[25660,15588],[-4,-35]],[[25656,15553],[-95,10]],[[25561,15563],[41,124]],[[25633,15687],[27,-99]],[[25719,15710],[-9,-35]],[[25710,15675],[-77,40]],[[25633,15746],[45,104]],[[25678,15850],[126,-2]],[[25804,15848],[5,-54]],[[25989,15278],[81,64]],[[25629,15448],[-45,0]],[[25584,15448],[-50,120]],[[25534,15568],[27,-5]],[[25656,15553],[-27,-105]],[[25683,16061],[-45,0]],[[25638,16061],[0,163]],[[25638,16224],[4,201]],[[25642,16425],[90,-13],[18,-40]],[[25750,16372],[68,-181]],[[25818,16188],[-90,3],[0,-132]],[[25548,15954],[0,-119]],[[25548,15835],[-86,3]],[[25462,15838],[4,183],[82,-3]],[[25548,16018],[0,-64]],[[25548,15746],[0,89]],[[25548,15954],[81,0]],[[25629,15954],[49,-104]],[[25804,15848],[5,53]],[[25894,15901],[32,-119]],[[25926,15782],[-117,0]],[[25426,15555],[-14,-104]],[[25412,15451],[-4,0]],[[25408,15451],[-41,3]],[[25394,15571],[32,-16]],[[25282,15660],[-9,91]],[[25273,15751],[99,0]],[[25372,15751],[45,0]],[[25417,15751],[-45,-89]],[[25629,15954],[49,0]],[[25678,15954],[0,-104]],[[25638,16224],[-86,3]],[[25557,16420],[81,5],[4,0]],[[25926,15782],[13,-39]],[[25939,15743],[-135,-53]],[[25804,15690],[-49,-33]],[[25755,15657],[-45,18]],[[25809,15314],[-77,-26]],[[25732,15288],[-103,115]],[[25629,15403],[0,45]],[[25660,15588],[86,-15]],[[25746,15573],[103,-97]],[[25849,15476],[0,-81]],[[25462,15749],[0,89]],[[25849,15476],[18,0]],[[26088,15433],[45,-46]],[[25872,15103],[-68,145]],[[25241,15751],[0,87]],[[25241,15838],[0,89]],[[25241,15927],[131,0]],[[25372,15927],[0,-89]],[[25372,15838],[0,-87]],[[25273,15751],[-32,0]],[[25746,15573],[9,84]],[[25804,15690],[140,-38]],[[25944,15652],[58,-87]],[[25728,15120],[4,166]],[[25732,15286],[0,2]],[[25435,15749],[-18,2]],[[25372,15838],[90,0]],[[25584,15448],[-172,3]],[[25426,15555],[108,13]],[[25939,15743],[5,-91]],[[25750,16372],[131,-110],[22,-51]],[[25548,16018],[0,46]],[[25548,16064],[90,-3]],[[25548,16064],[0,43]],[[25548,16107],[4,104]],[[24849,15838],[-9,89]],[[24840,15927],[5,89]],[[24845,16016],[171,2],[5,99]],[[25021,16117],[85,10]],[[25106,16127],[0,-200]],[[25106,15927],[0,-89]],[[25106,15838],[-166,0]],[[24940,15838],[-14,0]],[[24926,15838],[-77,0]],[[25102,15649],[-59,18]],[[25043,15667],[-22,0]],[[25021,15667],[13,117]],[[25034,15784],[207,-33]],[[25232,15647],[-130,2]],[[25372,16021],[-131,0]],[[25241,16021],[0,89]],[[25241,16110],[131,0]],[[25372,16110],[0,-89]],[[25070,15456],[-27,-15]],[[25043,15441],[0,226]],[[25102,15649],[-32,-193]],[[25106,16127],[131,-17]],[[25237,16110],[4,0]],[[25241,16021],[0,-94]],[[25241,15927],[-135,0]],[[24971,15398],[0,76]],[[24971,15474],[5,140]],[[24976,15614],[-5,56]],[[24971,15670],[50,-3]],[[25043,15441],[-18,-43]],[[25025,15398],[-54,0]],[[25075,16361],[-95,-25]],[[24980,16336],[-27,69]],[[24953,16405],[59,0],[63,2]],[[25075,16407],[0,-46]],[[25237,16155],[-90,-2]],[[25147,16153],[-5,135]],[[25142,16288],[-9,122]],[[25133,16410],[104,2]],[[25237,16412],[0,-257]],[[25372,15927],[0,94]],[[25372,16110],[18,0]],[[25390,16110],[72,0]],[[25462,16110],[86,-3]],[[24971,15670],[-31,134]],[[24940,15804],[94,-20]],[[24881,15652],[-36,58]],[[24845,15710],[81,128]],[[24940,15838],[0,-34]],[[24976,15614],[-95,38]],[[25241,15838],[-135,0]],[[25075,16288],[-113,-3]],[[24962,16285],[18,51]],[[25075,16361],[0,-73]],[[25462,16110],[0,89]],[[25462,16199],[0,15]],[[24845,16188],[0,-172]],[[24845,16016],[-63,178]],[[24782,16194],[63,2]],[[24845,16196],[0,-8]],[[24840,15927],[-49,0]],[[24791,15927],[-81,134]],[[24710,16061],[0,135]],[[24710,16196],[72,-2]],[[25021,16117],[-41,38]],[[24980,16155],[-4,41]],[[24976,16196],[171,-43]],[[25237,16155],[0,-45]],[[25142,16288],[-67,0]],[[25075,16407],[58,3]],[[24962,16285],[-85,-2]],[[24877,16283],[49,119]],[[24926,16402],[27,3]],[[25228,15448],[-158,8]],[[25237,16412],[135,3],[94,2]],[[25462,16199],[-72,-89]],[[24791,15927],[-72,-89]],[[24719,15838],[-86,0]],[[24633,15838],[-94,-3]],[[24539,15835],[-5,0]],[[24534,15835],[23,142],[-77,36]],[[24480,16013],[-36,0]],[[24444,16013],[0,58]],[[24444,16071],[0,31]],[[24444,16102],[45,0]],[[24489,16102],[90,3]],[[24579,16105],[131,-44]],[[24845,15710],[-63,-7]],[[24782,15703],[-68,51]],[[24714,15754],[0,12]],[[24714,15766],[135,72]],[[24971,15474],[-131,18]],[[24840,15492],[0,20]],[[24840,15512],[41,140]],[[24845,16188],[135,-33]],[[24579,16105],[-31,89]],[[24548,16194],[31,89]],[[24579,16283],[131,-87]],[[24976,16196],[-14,89]],[[24579,16283],[-9,0]],[[24570,16283],[0,114]],[[24570,16397],[99,3],[36,0],[144,2],[50,0],[27,0]],[[24877,16283],[-32,-87]],[[24714,15766],[5,72]],[[26682,13610],[-13,-92]],[[26669,13518],[-32,-48]],[[26637,13470],[-72,94]],[[26565,13564],[5,33]],[[26570,13597],[0,33]],[[26570,13630],[40,-18],[9,-5],[63,3]],[[26484,13061],[-18,43]],[[26466,13104],[0,135]],[[26466,13239],[113,7]],[[26579,13246],[63,0]],[[26642,13246],[0,-188]],[[26642,13058],[-108,15]],[[26534,13073],[-50,-12]],[[26579,13246],[63,87]],[[26642,13333],[0,-87]],[[26448,13556],[-4,-81]],[[26444,13475],[-140,3]],[[26304,13478],[0,2]],[[26304,13480],[144,138]],[[26448,13618],[0,-62]],[[26511,13381],[-40,-41]],[[26471,13340],[-90,0]],[[26381,13340],[-81,16]],[[26300,13356],[4,122]],[[26444,13475],[58,3]],[[26502,13478],[9,-97]],[[26565,13432],[0,43]],[[26565,13475],[5,31]],[[26570,13506],[-5,58]],[[26637,13470],[-4,-61]],[[26633,13409],[-68,23]],[[26381,13340],[-27,-140]],[[26354,13200],[-140,67]],[[26214,13267],[-32,58]],[[26182,13325],[118,31]],[[26615,13750],[-45,-36]],[[26570,13714],[0,87],[-144,5]],[[26957,13808],[-140,-124]],[[26817,13684],[-4,17]],[[26871,13877],[86,-69]],[[26570,13630],[0,82]],[[26570,13712],[0,2]],[[26817,13684],[-18,-56]],[[26799,13628],[-117,-18]],[[26214,13267],[9,-120]],[[26223,13147],[-72,-15]],[[26151,13132],[-104,196]],[[26047,13328],[122,-3]],[[26169,13325],[13,0]],[[26570,13712],[-95,-3]],[[26475,13709],[-112,97]],[[26565,13475],[-63,3]],[[26448,13556],[122,-50]],[[26354,13200],[27,-96]],[[26381,13104],[-108,13]],[[26273,13117],[-50,30]],[[26547,13002],[-13,71]],[[26642,13058],[0,-13]],[[26642,13045],[-90,-43]],[[26552,13002],[-5,0]],[[26687,13381],[-36,0]],[[26651,13381],[-18,28]],[[26669,13518],[18,-137]],[[26273,13117],[103,-191],[18,155]],[[26394,13081],[72,23]],[[26484,13061],[14,-61]],[[26498,13000],[-36,-150]],[[26462,12850],[-185,-31]],[[26277,12819],[-86,148]],[[26191,12967],[-40,165]],[[26799,13628],[113,-21],[-54,-142]],[[26858,13465],[54,-87],[-225,3]],[[26642,13333],[9,48]],[[26858,13465],[99,-36]],[[26957,13429],[27,-20]],[[26984,13409],[-31,-76]],[[26953,13333],[9,-77]],[[26962,13256],[-149,-211]],[[26813,13045],[-41,0]],[[26772,13045],[-108,0]],[[26664,13045],[-22,0]],[[26448,13618],[9,0]],[[26457,13618],[113,-21]],[[26466,13239],[5,101]],[[26511,13381],[54,51]],[[26394,13081],[-13,23]],[[26899,13043],[-86,2]],[[26962,13256],[81,-50],[-86,-135]],[[26957,13071],[0,-23]],[[26957,13048],[-58,-5]],[[26457,13618],[18,91]],[[27074,13228],[-13,-139]],[[27061,13089],[-104,-18]],[[26953,13333],[121,2]],[[27074,13335],[0,-107]],[[26304,13480],[-90,0]],[[26214,13480],[-5,0]],[[26209,13480],[5,135]],[[26214,13615],[0,132]],[[26214,13747],[0,181]],[[26957,13808],[171,-101],[-31,-59]],[[27097,13648],[-117,-46],[49,-66],[-72,-107]],[[27169,13633],[-185,-224]],[[27097,13648],[40,-36],[32,21]],[[26547,13002],[-49,-2]],[[27448,12979],[-36,-12]],[[27412,12967],[-153,-18]],[[27259,12949],[9,81]],[[27268,13030],[229,145]],[[27497,13175],[-54,-142],[-9,-31],[14,-23]],[[27056,12730],[0,33]],[[27056,12763],[45,59]],[[27101,12822],[0,30]],[[27101,12852],[72,-2]],[[27173,12850],[59,-46]],[[27232,12804],[-50,-92]],[[27182,12712],[-126,18]],[[27439,13302],[-99,-15]],[[27340,13287],[-18,33]],[[27322,13320],[13,15]],[[27335,13335],[5,0]],[[27340,13335],[103,49]],[[27443,13384],[-4,-82]],[[27308,12761],[-31,-156]],[[27277,12605],[-77,49]],[[27200,12654],[-18,58]],[[27232,12804],[76,-43]],[[27497,12761],[-135,-46]],[[27362,12715],[14,119]],[[27376,12834],[40,46]],[[27416,12880],[81,-81]],[[27497,12799],[0,-38]],[[27241,13040],[-63,0]],[[27178,13040],[0,77]],[[27178,13117],[31,0]],[[27209,13117],[32,-77]],[[27250,12850],[0,91]],[[27250,12941],[9,8]],[[27412,12967],[4,-87]],[[27376,12834],[-126,16]],[[27227,13259],[-40,-31]],[[27187,13228],[-9,3]],[[27178,13231],[0,36]],[[27178,13267],[49,-8]],[[27250,12850],[-77,0]],[[27173,12850],[0,61]],[[27173,12911],[77,30]],[[27254,13323],[-27,-64]],[[27178,13267],[0,68]],[[27178,13335],[76,-12]],[[27340,13335],[-45,41]],[[27295,13376],[22,119]],[[27317,13495],[126,-111]],[[27344,13485],[36,-10],[9,-18],[-45,28]],[[26894,12809],[0,15]],[[26894,12824],[5,69]],[[26899,12893],[0,7]],[[26899,12900],[40,-2]],[[26939,12898],[-4,-89]],[[26935,12809],[-41,0]],[[26984,13035],[-27,13]],[[27061,13089],[-77,-54]],[[26899,12900],[0,143]],[[26984,13035],[0,-107]],[[26984,12928],[-45,-30]],[[27209,13117],[50,50]],[[27259,13167],[81,120]],[[27439,13302],[58,-127]],[[27268,13030],[-27,10]],[[27178,12977],[-81,17],[81,13]],[[27178,13007],[0,-30]],[[26908,12700],[-14,109]],[[26935,12809],[49,-46]],[[26984,12763],[-76,-63]],[[27178,12977],[-5,-66]],[[27101,12852],[-117,76]],[[27074,13228],[104,3]],[[27178,13231],[0,-114]],[[27178,13040],[0,-33]],[[27187,13228],[72,-61]],[[27254,13323],[23,15]],[[27277,13338],[45,-18]],[[27277,13338],[-5,5]],[[27272,13343],[63,-8]],[[27362,12715],[-54,46]],[[27169,13633],[13,15],[45,-28],[41,-30],[49,-95]],[[27295,13376],[-23,-33]],[[27178,13335],[-104,0]],[[27551,12794],[-54,5]],[[27448,12979],[103,-185]],[[27056,12763],[-27,0]],[[27029,12763],[72,59]],[[27029,12763],[-45,0]],[[27443,12588],[-94,-11]],[[27349,12577],[-45,-106]],[[27304,12471],[-27,134]],[[27497,12761],[5,-77]],[[27502,12684],[-59,-96]],[[26917,11693],[-73,-3],[-4,0]],[[26840,11690],[36,97]],[[26876,11787],[63,0]],[[26939,11787],[-22,-94]],[[27047,12341],[-94,0]],[[26953,12341],[4,18]],[[26957,12359],[-13,81]],[[26944,12440],[63,28]],[[27007,12468],[162,-69]],[[27169,12399],[-68,-58]],[[27101,12341],[-54,0]],[[27529,12565],[-27,-61]],[[27502,12504],[-59,84]],[[27502,12684],[27,-119]],[[27020,12565],[-13,30]],[[27007,12595],[49,135]],[[27200,12654],[-49,-107]],[[27151,12547],[-131,18]],[[27232,12023],[-14,-89]],[[27218,11934],[-117,3]],[[27101,11937],[0,89]],[[27101,12026],[23,0]],[[27124,12026],[108,-3]],[[26840,11690],[-68,0],[104,137]],[[26876,11827],[0,-40]],[[27353,11807],[-135,84]],[[27218,11891],[95,28]],[[27313,11919],[40,-112]],[[27304,12338],[-5,-76]],[[27299,12262],[-72,107],[77,84]],[[27304,12453],[27,-26]],[[27331,12427],[-27,-89]],[[27551,12794],[82,-84],[-18,81],[31,-5],[0,5],[122,-104],[-54,-216]],[[27714,12471],[-185,94]],[[27101,12206],[0,-112]],[[27101,12094],[-58,84]],[[27043,12178],[0,28]],[[27043,12206],[58,0]],[[27169,12412],[0,-13]],[[27007,12468],[13,97]],[[27151,12547],[18,-135]],[[27592,12346],[-77,114]],[[27515,12460],[-13,44]],[[27714,12471],[-32,-176],[-90,51]],[[27304,12453],[-135,-41]],[[27304,12471],[0,-18]],[[27187,12219],[4,-127]],[[27191,12092],[-36,0]],[[27155,12092],[-54,2]],[[27101,12206],[0,15]],[[27101,12221],[86,-2]],[[27101,11787],[-22,58]],[[27079,11845],[22,46]],[[27101,11891],[0,-104]],[[27218,11891],[0,43]],[[27232,12023],[27,0]],[[27259,12023],[103,3]],[[27362,12026],[41,-64],[-90,-43]],[[27101,12026],[-85,-13]],[[27016,12013],[-9,20],[-18,77]],[[26989,12110],[54,68]],[[27155,12092],[-31,-66]],[[27101,11787],[0,-94]],[[27101,11693],[-76,0],[-108,0]],[[26939,11787],[50,61]],[[26989,11848],[90,-3]],[[26989,11848],[-81,38]],[[26908,11886],[108,127]],[[27101,11937],[0,-46]],[[27304,12338],[67,-73]],[[27371,12265],[-72,-3]],[[27043,12206],[4,135]],[[27101,12341],[0,-120]],[[27425,12204],[-148,15]],[[27277,12219],[22,43]],[[27371,12265],[32,0]],[[27403,12265],[22,-61]],[[27340,12427],[9,150]],[[27515,12460],[-175,-33]],[[27340,12427],[-9,0]],[[27592,12346],[-99,-170],[-18,106],[-72,-17]],[[27277,12219],[-90,0]],[[27259,12023],[-68,69]],[[27425,12204],[14,-143],[-77,-35]],[[26876,11827],[9,13],[23,46]],[[27353,11807],[-76,-112],[-176,-2]],[[26849,12483],[-14,-124]],[[26835,12359],[-45,-59]],[[26790,12300],[-126,46]],[[26664,12346],[-85,92]],[[26579,12438],[-27,162]],[[26552,12600],[112,46]],[[26664,12646],[171,-23]],[[26835,12623],[32,18]],[[26867,12641],[4,-53]],[[26871,12588],[41,-66]],[[26912,12522],[-63,-39]],[[26237,12354],[171,7],[-131,-53]],[[26277,12308],[-40,46]],[[26849,12483],[63,13]],[[26912,12496],[32,-56]],[[26957,12359],[-122,0]],[[26989,12110],[-23,50],[-22,33],[-45,13]],[[26899,12206],[54,135]],[[26507,12206],[-50,0],[-180,0]],[[26277,12206],[0,102]],[[26237,12354],[-46,2]],[[26191,12356],[5,89]],[[26196,12445],[4,94]],[[26200,12539],[167,-10]],[[26367,12529],[149,-130]],[[26516,12399],[36,-66]],[[26552,12333],[-23,-7],[0,-77],[-22,-43]],[[26912,12496],[0,26]],[[26871,12588],[136,7]],[[26511,12707],[153,-61]],[[26552,12600],[-180,64]],[[26372,12664],[0,109],[90,0]],[[26462,12773],[27,-2]],[[26489,12771],[22,-64]],[[26516,12399],[63,39]],[[26579,12438],[27,-64]],[[26606,12374],[-54,-41]],[[26196,12445],[-108,18],[27,137]],[[26115,12600],[4,206],[86,0]],[[26205,12806],[-5,-267]],[[26277,12206],[-27,0],[-45,0],[-14,0]],[[26191,12206],[0,120]],[[26191,12326],[0,30]],[[26367,12529],[5,135]],[[26781,12857],[14,-122]],[[26795,12735],[0,-30]],[[26795,12705],[-158,78]],[[26637,12783],[-45,46]],[[26592,12829],[0,31]],[[26592,12860],[104,20]],[[26696,12880],[76,25]],[[26772,12905],[9,-48]],[[26664,12346],[-58,-8]],[[26606,12338],[0,36]],[[26772,12905],[14,107],[-14,33]],[[26899,12893],[-64,-36]],[[26835,12857],[-54,0]],[[26894,12824],[-36,0]],[[26858,12824],[-23,33]],[[26489,12771],[103,58]],[[26637,12783],[-126,-76]],[[26606,12338],[13,-132]],[[26619,12206],[-90,0],[-22,0]],[[26790,12300],[-58,-94]],[[26732,12206],[-5,0],[-108,0]],[[26592,12860],[-40,142]],[[26664,13045],[18,-43],[0,-48],[14,-74]],[[26462,12773],[0,77]],[[26867,12641],[41,59]],[[26899,12206],[-23,0],[-99,0],[-45,0]],[[26858,12824],[-63,-89]],[[26205,12806],[72,13]],[[26835,12623],[-40,82]],[[24251,14853],[13,77]],[[24264,14930],[90,0]],[[24354,14930],[0,-8]],[[24354,14922],[-4,-74]],[[24350,14848],[-99,5]],[[23922,14686],[-5,-23]],[[23917,14663],[-27,-16]],[[23890,14647],[-18,41]],[[23872,14688],[-4,143]],[[23868,14831],[54,5]],[[23922,14836],[0,-150]],[[23476,14495],[0,25],[0,97]],[[23476,14617],[18,-3]],[[23494,14614],[18,0]],[[23512,14614],[27,-2]],[[23539,14612],[27,0]],[[23566,14612],[5,0]],[[23571,14612],[4,-92]],[[23575,14520],[-54,-25]],[[23521,14495],[-45,0]],[[23764,14825],[-18,-104]],[[23746,14721],[-9,10]],[[23737,14731],[5,97]],[[23742,14828],[22,-3]],[[23737,14731],[-67,72]],[[23670,14803],[4,2]],[[23674,14805],[68,23]],[[23760,14841],[-9,15]],[[23751,14856],[-5,58]],[[23746,14914],[-4,26]],[[23742,14940],[90,-71]],[[23832,14869],[-9,-31]],[[23823,14838],[-63,3]],[[23872,14920],[18,96]],[[23890,15016],[104,-7]],[[23994,15009],[36,-46]],[[24030,14963],[-158,-43]],[[23395,15197],[-50,51]],[[23345,15248],[72,0]],[[23417,15248],[-22,-51]],[[24070,14431],[-13,-7]],[[24057,14424],[-50,216]],[[24007,14640],[63,40]],[[24070,14680],[63,-137],[-63,-112]],[[24318,14668],[-76,-26]],[[24242,14642],[-68,64]],[[24174,14706],[171,69]],[[24345,14775],[-27,-107]],[[24251,14853],[-45,61]],[[24206,14914],[58,16]],[[24147,14925],[18,58]],[[24165,14983],[99,36]],[[24264,15019],[0,-89]],[[24206,14914],[-59,11]],[[23724,15019],[-18,86]],[[23706,15105],[63,76]],[[23769,15181],[67,-28]],[[23836,15153],[36,-68]],[[23872,15085],[-144,-69]],[[23728,15016],[-4,3]],[[23823,14838],[-32,-147]],[[23791,14691],[0,-36]],[[23791,14655],[-45,61]],[[23746,14716],[0,5]],[[23764,14825],[-4,16]],[[23539,14612],[-27,25]],[[23512,14637],[4,43]],[[23516,14680],[28,0]],[[23544,14680],[27,-22]],[[23571,14658],[-5,-46]],[[23661,14591],[22,44]],[[23683,14635],[108,-3]],[[23791,14632],[0,-23]],[[23791,14609],[-130,-18]],[[24138,15311],[0,-325]],[[24138,14986],[-86,0]],[[24052,14986],[-31,35]],[[24021,15021],[76,232],[-103,7]],[[23994,15260],[0,51]],[[23994,15311],[58,3]],[[24052,15314],[86,-3]],[[23994,15009],[27,12]],[[24052,14986],[-22,-23]],[[24350,14818],[-5,-43]],[[24174,14706],[-50,0]],[[24124,14706],[-27,69]],[[24097,14775],[9,83]],[[24106,14858],[41,67]],[[24350,14848],[0,-30]],[[24057,14424],[-41,-89]],[[24016,14335],[-90,-5]],[[23926,14330],[-85,134]],[[23841,14464],[4,0]],[[23845,14464],[81,13],[-9,186]],[[23922,14686],[85,-46]],[[23602,15194],[0,46]],[[23602,15240],[36,15]],[[23638,15255],[108,15]],[[23746,15270],[-9,-30]],[[23737,15240],[-135,-46]],[[23656,14866],[0,-13]],[[23656,14853],[-40,0]],[[23616,14853],[-5,18]],[[23611,14871],[9,46]],[[23620,14917],[23,28]],[[23643,14945],[9,-41]],[[23652,14904],[4,-38]],[[23584,14836],[0,20]],[[23584,14856],[-4,13]],[[23580,14869],[22,2]],[[23602,14871],[9,0]],[[23616,14853],[-5,-33]],[[23611,14820],[-27,16]],[[23598,14899],[4,-28]],[[23580,14869],[0,5]],[[23580,14874],[-5,15]],[[23575,14889],[9,15]],[[23584,14904],[14,-5]],[[23598,14899],[22,18]],[[23629,14808],[-18,12]],[[23656,14853],[18,-48]],[[23670,14803],[-23,-8]],[[23647,14795],[-18,13]],[[23751,14856],[-95,10]],[[23652,14904],[94,10]],[[23643,14945],[139,41]],[[23782,14986],[-40,-46]],[[23634,14973],[22,-26]],[[23656,14947],[-18,-2]],[[23638,14945],[-4,28]],[[23589,15151],[-9,61]],[[23580,15212],[22,-18]],[[23737,15240],[32,-59]],[[23706,15105],[-117,46]],[[23845,14464],[14,138]],[[23859,14602],[31,45]],[[23746,15270],[68,44]],[[23814,15314],[76,-54]],[[23890,15260],[-54,-107]],[[23634,14716],[13,41]],[[23647,14757],[0,38]],[[23746,14716],[-112,0]],[[24043,14861],[-45,0]],[[23998,14861],[-9,66]],[[23989,14927],[176,56]],[[24106,14858],[-63,3]],[[23575,14973],[-9,30]],[[23566,15003],[27,21]],[[23593,15024],[-9,68]],[[23584,15092],[-18,21]],[[23566,15113],[23,38]],[[23724,15019],[-68,-72]],[[23634,14973],[-59,0]],[[23791,14632],[0,23]],[[23791,14691],[81,-3]],[[23859,14602],[-68,7]],[[24097,14775],[-54,86]],[[23935,14851],[-13,-15]],[[23868,14831],[0,53]],[[23868,14884],[0,33]],[[23868,14917],[63,13]],[[23931,14930],[4,-79]],[[23832,14869],[36,15]],[[24124,14706],[-54,-26]],[[23935,14851],[63,10]],[[23872,15085],[18,-69]],[[23872,14920],[-144,96]],[[23548,14434],[-27,61]],[[23575,14520],[50,13]],[[23625,14533],[36,-38]],[[23661,14495],[-59,-92]],[[23602,14403],[-54,31]],[[23359,15092],[-45,-45]],[[23314,15047],[-14,-3]],[[23300,15044],[-36,109]],[[23264,15153],[59,102]],[[23323,15255],[22,-7]],[[23395,15197],[45,-8]],[[23440,15189],[-5,-53]],[[23435,15136],[-76,-44]],[[23841,14464],[-50,-28]],[[23791,14436],[-130,59]],[[23625,14533],[13,61]],[[23638,14594],[23,-3]],[[23589,14655],[-5,20]],[[23584,14675],[27,39]],[[23611,14714],[9,0]],[[23620,14714],[14,0]],[[23634,14714],[4,-18],[54,-23],[-9,-26]],[[23683,14647],[-94,8]],[[23638,14594],[-22,15]],[[23616,14609],[-27,46]],[[23683,14647],[0,-12]],[[23571,14612],[45,-3]],[[23971,15230],[-99,-145]],[[23890,15260],[81,-30]],[[23971,15230],[23,30]],[[23634,14714],[0,2]],[[23782,14986],[86,-69]],[[23526,15115],[-32,0]],[[23494,15115],[-9,0]],[[23485,15115],[-32,21]],[[23453,15136],[-18,0]],[[23440,15189],[31,51]],[[23471,15240],[109,-28]],[[23566,15113],[-40,2]],[[24233,14426],[-100,-18]],[[24133,14408],[-63,23]],[[24242,14642],[27,-134],[-5,-28],[-31,-54]],[[24359,15072],[-5,-142]],[[24264,15019],[95,53]],[[23931,14930],[58,-3]],[[23138,15255],[59,64]],[[23197,15319],[67,0]],[[23264,15319],[59,-64]],[[23264,15153],[-126,102]],[[23480,14876],[0,8]],[[23480,14884],[9,-8]],[[23489,14876],[-4,0]],[[23485,14876],[-5,0]],[[23480,14858],[0,8],[0,10]],[[23485,14876],[-5,-18]],[[23494,14886],[4,-15]],[[23498,14871],[-9,5]],[[23480,14884],[-4,5],[18,-3]],[[23498,14892],[18,-6]],[[23516,14886],[0,-7]],[[23516,14879],[0,-8]],[[23516,14871],[-18,0]],[[23494,14886],[4,6]],[[23476,14846],[4,12]],[[23516,14871],[-4,-20]],[[23512,14851],[-14,-5]],[[23498,14846],[-22,0]],[[23512,14831],[-14,0]],[[23498,14831],[0,15]],[[23512,14851],[9,0]],[[23521,14851],[0,-20]],[[23521,14831],[-9,0]],[[23512,14831],[0,-44]],[[23512,14787],[-14,0]],[[23498,14787],[0,16]],[[23498,14803],[0,12]],[[23498,14815],[0,16]],[[23498,14815],[-22,3]],[[23476,14818],[0,28]],[[23498,14803],[-22,0]],[[23476,14803],[0,5],[0,10]],[[23498,14787],[-4,-15]],[[23494,14772],[-18,0]],[[23476,14772],[0,31]],[[23494,14772],[0,-89]],[[23494,14683],[-18,0]],[[23476,14683],[0,25],[0,49],[0,15]],[[23526,14958],[9,-33]],[[23535,14925],[-55,12]],[[23480,14937],[0,23]],[[23480,14960],[46,-2]],[[23526,14958],[40,0]],[[23566,14958],[-4,-28]],[[23562,14930],[-27,-5]],[[23521,15026],[5,-68]],[[23480,14960],[5,66]],[[23485,15026],[36,0]],[[23575,14973],[-9,-15]],[[23521,15026],[5,0]],[[23526,15026],[40,-2]],[[23566,15024],[0,-21]],[[23526,14886],[-10,0]],[[23498,14892],[86,12]],[[23575,14889],[-13,-3]],[[23562,14886],[-36,0]],[[23562,14886],[-14,-10]],[[23548,14876],[-22,10]],[[23548,14876],[-32,3]],[[23580,14874],[-32,2]],[[23584,14856],[-36,2]],[[23548,14858],[0,18]],[[23548,14858],[0,-7]],[[23548,14851],[-27,0]],[[23548,14851],[0,-23]],[[23548,14828],[-27,3]],[[23584,14836],[-36,-49]],[[23548,14787],[0,41]],[[23548,14787],[-4,0]],[[23544,14787],[-32,0]],[[23494,14680],[0,3]],[[23512,14787],[4,-61]],[[23516,14726],[0,-46]],[[23516,14680],[-22,0]],[[23544,14769],[-5,-43]],[[23539,14726],[-23,0]],[[23544,14787],[0,-18]],[[23629,14808],[-4,-44]],[[23625,14764],[0,-7]],[[23625,14757],[-81,12]],[[23584,14675],[-13,-17]],[[23544,14680],[0,44]],[[23544,14724],[67,-10]],[[23647,14757],[-22,7]],[[23539,14726],[5,-2]],[[23625,14757],[-5,-43]],[[23494,14680],[0,-66]],[[23476,14617],[0,2],[0,34],[0,30]],[[23512,14637],[0,-23]],[[23440,14953],[0,5]],[[23440,14958],[40,2]],[[23480,14937],[-40,16]],[[23440,14958],[-5,68]],[[23435,15026],[5,0]],[[23440,15026],[45,0]],[[23314,15047],[121,-21]],[[23440,14953],[-140,91]],[[23440,15087],[0,-61]],[[23359,15092],[72,-2]],[[23431,15090],[9,-3]],[[23480,15070],[5,-44]],[[23440,15087],[40,-17]],[[23480,15070],[5,45]],[[23494,15115],[36,-23]],[[23530,15092],[-4,-66]],[[23566,15092],[0,-68]],[[23530,15092],[36,0]],[[23593,15024],[-27,0]],[[23566,15092],[18,0]],[[23638,14945],[-76,-15]],[[23453,15136],[-22,-46]],[[23526,15115],[4,-23]],[[23566,15113],[0,-21]],[[23323,15420],[0,16]],[[23323,15436],[81,43]],[[23404,15479],[76,-20]],[[23480,15459],[0,-23]],[[23480,15436],[-90,-31]],[[23390,15405],[-67,15]],[[23683,15972],[-90,44]],[[23593,16016],[-18,91]],[[23575,16107],[122,89]],[[23697,16196],[85,-2]],[[23782,16194],[0,-46]],[[23782,16148],[0,-178]],[[23782,15970],[-99,2]],[[23278,15682],[-27,-53]],[[23251,15629],[-72,66]],[[23179,15695],[-5,71]],[[23174,15766],[27,0]],[[23201,15766],[77,-84]],[[23611,15629],[-58,0]],[[23553,15629],[-55,58]],[[23498,15687],[55,77]],[[23553,15764],[31,0]],[[23584,15764],[27,-135]],[[23372,16021],[-4,-92]],[[23368,15929],[-72,0]],[[23296,15929],[63,148]],[[23359,16077],[13,-28]],[[23372,16049],[0,-28]],[[23985,15937],[-72,0]],[[23913,15937],[-45,0]],[[23868,15937],[-27,165]],[[23841,16102],[31,89]],[[23872,16191],[171,-18]],[[24043,16173],[63,-74]],[[24106,16099],[-108,-162]],[[23998,15937],[-13,0]],[[24129,16392],[-86,-132]],[[24043,16260],[-49,23]],[[23994,16283],[4,106]],[[23998,16389],[32,0],[99,3]],[[23134,15876],[4,56]],[[23138,15932],[86,0]],[[23224,15932],[72,-3]],[[23368,15929],[31,0]],[[23399,15929],[-58,-51]],[[23341,15878],[-113,-35]],[[23228,15843],[-94,33]],[[23228,16244],[-31,-45]],[[23197,16199],[-99,45]],[[23098,16244],[13,46]],[[23111,16290],[117,-2]],[[23228,16288],[0,-44]],[[23688,15433],[0,92]],[[23688,15525],[0,104]],[[23688,15629],[58,33]],[[23746,15662],[54,-36]],[[23800,15626],[5,-43]],[[23805,15583],[0,-91]],[[23805,15492],[-14,-59]],[[23791,15433],[-103,0]],[[23480,15614],[-9,61]],[[23471,15675],[9,15]],[[23480,15690],[18,-3]],[[23553,15629],[-73,-56]],[[23480,15573],[0,41]],[[23111,16290],[45,99]],[[23156,16389],[81,0],[14,0]],[[23251,16389],[0,-73]],[[23251,16316],[-23,-28]],[[23480,16107],[0,-58]],[[23480,16049],[-63,5]],[[23417,16054],[5,53]],[[23422,16107],[58,0]],[[23480,16049],[0,-28]],[[23480,16021],[-108,0]],[[23372,16049],[45,5]],[[23359,16077],[0,30]],[[23359,16107],[63,0]],[[23399,15614],[-45,2]],[[23354,15616],[0,59]],[[23354,15675],[27,0]],[[23381,15675],[90,0]],[[23480,15614],[-81,0]],[[22742,16071],[185,-2]],[[22927,16069],[58,-224]],[[22985,15845],[-54,-48]],[[22931,15797],[-86,68],[14,39],[-117,167]],[[23602,15960],[-13,12]],[[23589,15972],[4,44]],[[23683,15972],[-81,-12]],[[23264,15319],[0,46]],[[23264,15365],[131,2]],[[23395,15367],[40,-33]],[[23435,15334],[-18,-86]],[[23197,15319],[-18,89]],[[23179,15408],[85,0]],[[23264,15408],[0,-43]],[[23773,16283],[9,-89]],[[23697,16196],[-32,0]],[[23665,16196],[0,87]],[[23665,16283],[108,0]],[[23872,16237],[0,46]],[[23872,16283],[32,104]],[[23904,16387],[36,0],[58,2]],[[23994,16283],[-122,-46]],[[23404,15479],[-32,61]],[[23372,15540],[27,74]],[[23480,15573],[0,-114]],[[23435,15334],[45,-5]],[[23480,15329],[-9,-89]],[[23035,16247],[-18,43]],[[23017,16290],[-5,102]],[[23012,16392],[45,0],[41,0],[58,-3]],[[23098,16244],[-63,3]],[[22706,16115],[103,89]],[[22809,16204],[226,-3]],[[23035,16201],[-5,-135]],[[23030,16066],[-103,3]],[[22742,16071],[-36,44]],[[23264,15408],[59,12]],[[23390,15405],[5,-38]],[[23174,15766],[-13,77]],[[23161,15843],[-27,33]],[[23228,15843],[18,-33]],[[23246,15810],[-45,-44]],[[23035,15845],[-5,-147]],[[23030,15698],[-99,99]],[[22985,15845],[50,0]],[[23575,16107],[5,89]],[[23580,16196],[85,0]],[[23480,15436],[68,0]],[[23548,15436],[-9,-110]],[[23539,15326],[-59,3]],[[23197,16082],[27,-150]],[[23138,15932],[-22,134]],[[23116,16066],[81,16]],[[23769,16300],[4,-17]],[[23665,16283],[-72,0]],[[23593,16283],[0,101]],[[23593,16384],[171,3],[5,0]],[[23769,16387],[0,-87]],[[23480,16021],[0,-49]],[[23480,15972],[-27,-58]],[[23453,15914],[-54,15]],[[23872,16283],[-103,17]],[[23769,16387],[81,0],[54,0]],[[23381,15675],[27,99]],[[23408,15774],[5,2]],[[23413,15776],[67,-86]],[[23372,16387],[0,-71]],[[23372,16316],[-121,0]],[[23251,16389],[121,-2]],[[23643,15840],[-59,-76]],[[23553,15764],[-100,91]],[[23453,15855],[0,59]],[[23480,15972],[109,0]],[[23602,15960],[41,-120]],[[23638,15255],[36,150]],[[23674,15405],[117,-18]],[[23791,15387],[23,-73]],[[23138,15932],[-94,0],[4,134]],[[23048,16066],[68,0]],[[23872,16237],[0,-46]],[[23841,16102],[-59,46]],[[23197,16082],[0,117]],[[23228,16244],[131,-2]],[[23359,16242],[0,-135]],[[23643,15840],[90,-2]],[[23733,15838],[13,-62]],[[23746,15776],[0,-114]],[[23688,15629],[-77,0]],[[23030,16066],[18,0]],[[23161,15843],[-126,2]],[[23868,15937],[-86,2]],[[23782,15939],[0,31]],[[23179,15695],[-149,3]],[[23688,15525],[-72,15]],[[23616,15540],[-5,89]],[[23458,16384],[18,-142]],[[23476,16242],[-104,0]],[[23372,16242],[0,74]],[[23372,16387],[86,-3]],[[23372,16242],[-13,0]],[[23602,15240],[-63,86]],[[23548,15436],[68,104]],[[23688,15433],[-14,-28]],[[23485,16196],[-5,-89]],[[23476,16242],[9,-46]],[[23453,15855],[-40,-79]],[[23408,15774],[-54,28]],[[23354,15802],[-13,76]],[[24043,16260],[18,-72]],[[24061,16188],[-18,-15]],[[22836,16293],[-27,-89]],[[22706,16115],[-45,122],[4,15]],[[22665,16252],[59,43],[-63,46]],[[22661,16341],[-41,-5],[-45,64],[261,-6]],[[22836,16394],[0,-101]],[[23354,15802],[-108,8]],[[23147,15451],[32,-43]],[[23138,15255],[-54,89],[63,107]],[[23354,15675],[-76,7]],[[23458,16384],[36,0],[90,0],[9,0]],[[23593,16283],[-13,-87]],[[23580,16196],[-95,0]],[[23035,16201],[0,46]],[[22836,16293],[181,-3]],[[23791,15403],[0,-16]],[[23791,15433],[0,-30]],[[22665,16252],[-13,15],[-23,28],[0,23],[32,23]],[[23841,15749],[-41,-123]],[[23746,15776],[95,-27]],[[22836,16394],[46,0],[90,-2],[40,0]],[[23278,15565],[22,11]],[[23300,15576],[23,-21]],[[23323,15555],[-27,-5]],[[23296,15550],[-9,-23]],[[23287,15527],[-5,8]],[[23282,15535],[-4,30]],[[23296,15550],[22,-43]],[[23318,15507],[-31,20]],[[23318,15507],[5,-71]],[[23147,15451],[135,84]],[[23354,15616],[-54,-40]],[[23278,15565],[-27,64]],[[23372,15540],[-49,15]],[[24521,15494],[-5,-89]],[[24516,15405],[-112,-2]],[[24404,15403],[-90,0]],[[24314,15403],[0,129]],[[24314,15532],[-104,26]],[[24210,15558],[-72,43]],[[24138,15601],[0,66]],[[24138,15667],[144,23]],[[24282,15690],[117,-15]],[[24399,15675],[45,-163]],[[24444,15512],[77,-18]],[[23881,15759],[18,-105]],[[23899,15654],[-18,0]],[[23881,15654],[-31,95]],[[23850,15749],[31,10]],[[24404,15316],[0,-89]],[[24404,15227],[-176,-5]],[[24228,15222],[0,89]],[[24228,15311],[0,89]],[[24228,15400],[86,3]],[[24314,15403],[90,-87]],[[24516,15316],[36,-89]],[[24552,15227],[-63,0]],[[24489,15227],[-85,0]],[[24404,15316],[112,0]],[[24228,15311],[-90,0]],[[24052,15314],[0,89]],[[24052,15403],[0,89]],[[24052,15492],[86,-3]],[[24138,15489],[90,-89]],[[24138,15578],[0,-89]],[[24052,15492],[0,89]],[[24052,15581],[86,-3]],[[24602,15497],[40,137]],[[24642,15634],[32,107]],[[24674,15741],[40,13]],[[24782,15703],[-32,-150]],[[24750,15553],[-36,-56]],[[24714,15497],[-76,0]],[[24638,15497],[-36,0]],[[24633,15838],[-90,-36]],[[24543,15802],[-4,33]],[[24840,15512],[-90,41]],[[24246,16285],[-185,-97]],[[24129,16392],[77,0],[40,0]],[[24246,16392],[0,-107]],[[24341,15047],[-113,175]],[[24489,15227],[-85,-178]],[[24404,15049],[-63,-2]],[[24489,15797],[-40,-122]],[[24449,15675],[-50,0]],[[24282,15690],[-27,71]],[[24255,15761],[86,33]],[[24341,15794],[108,-12]],[[24449,15782],[40,15]],[[23958,15883],[-45,54]],[[23985,15937],[-27,-54]],[[23994,15311],[-32,74]],[[23962,15385],[5,15]],[[23967,15400],[85,3]],[[24228,15400],[0,92]],[[24228,15492],[86,40]],[[24552,15227],[18,-2]],[[24570,15225],[77,-56]],[[24647,15169],[-113,-49],[-13,-17],[-117,-54]],[[24052,15581],[-139,43]],[[23913,15624],[-14,30]],[[23881,15759],[23,35]],[[23904,15794],[148,-35]],[[24052,15759],[86,-158]],[[24138,15601],[0,-23]],[[24480,16013],[-36,-92]],[[24444,15921],[-54,74]],[[24390,15995],[54,18]],[[24160,16005],[-27,-109]],[[24133,15896],[-135,41]],[[24106,16099],[27,-30]],[[24133,16069],[27,-64]],[[24404,15316],[0,87]],[[24516,15405],[9,-43]],[[24525,15362],[-9,-46]],[[23967,15400],[-90,89]],[[23877,15489],[36,135]],[[24444,16102],[0,46]],[[24444,16148],[45,-46]],[[24534,15835],[-45,-38]],[[24449,15782],[-5,50]],[[24444,15832],[0,89]],[[23904,15794],[54,51]],[[23958,15845],[94,-86]],[[24138,15667],[-86,92]],[[23958,15845],[0,38]],[[24133,15896],[36,-137],[86,2]],[[23805,15583],[76,71]],[[23877,15489],[-72,3]],[[23962,15385],[-171,18]],[[24602,15497],[-77,-3]],[[24525,15494],[23,122]],[[24548,15616],[94,18]],[[24341,15794],[103,38]],[[24548,15616],[-99,0]],[[24449,15616],[0,59]],[[24543,15802],[45,-115],[86,54]],[[24548,16194],[-104,-3]],[[24444,16191],[0,92]],[[24444,16283],[126,0]],[[24138,15489],[72,0]],[[24210,15489],[18,3]],[[23782,15939],[-49,-101]],[[24750,15403],[-36,94]],[[24840,15492],[-4,-89]],[[24836,15403],[-86,0]],[[24525,15494],[-4,0]],[[24444,15512],[5,104]],[[24719,15311],[-86,3]],[[24633,15314],[-58,45]],[[24575,15359],[58,46]],[[24633,15405],[117,-2]],[[24750,15403],[-31,-92]],[[24440,16394],[0,-111]],[[24440,16283],[-194,2]],[[24246,16392],[50,2],[144,0]],[[24210,15558],[0,-69]],[[24444,16148],[0,43]],[[24341,15047],[-203,-61]],[[23850,15749],[-9,0]],[[24444,16283],[-4,0]],[[24440,16394],[36,0],[94,3]],[[24444,16071],[-311,-2]],[[24633,15405],[5,92]],[[24390,15995],[-230,10]],[[24575,15359],[-50,3]],[[23791,14436],[-63,-117]],[[23728,14319],[-121,31]],[[23607,14350],[-5,53]],[[23553,14154],[0,31]],[[23553,14185],[45,48]],[[23598,14233],[126,-8]],[[23724,14225],[-171,-71]],[[23553,14065],[-5,-89]],[[23548,13976],[-72,3]],[[23476,13979],[0,76],[0,13]],[[23476,14068],[77,-3]],[[23553,14154],[0,-89]],[[23476,14068],[-5,134]],[[23471,14202],[82,-17]],[[23998,13963],[-4,-112],[-86,3]],[[23908,13854],[5,112]],[[23913,13966],[85,-3]],[[23598,14233],[-5,89]],[[23593,14322],[14,28]],[[23728,14319],[27,-106]],[[23755,14213],[-31,12]],[[24016,14335],[54,-56]],[[24070,14279],[-36,-59]],[[24034,14220],[-90,64]],[[23944,14284],[-45,46]],[[23899,14330],[27,0]],[[23656,13447],[-4,-61]],[[23652,13386],[-181,5]],[[23471,13391],[0,21],[0,53]],[[23471,13465],[185,-18]],[[23566,13864],[-18,112]],[[23755,14213],[72,-6]],[[23827,14207],[72,-2]],[[23899,14205],[0,-61]],[[23899,14144],[-4,-61]],[[23895,14083],[18,-117]],[[23908,13854],[-175,-18]],[[23733,13836],[-81,92],[-45,-64]],[[23607,13864],[-41,0]],[[24133,14408],[-4,-84]],[[24129,14324],[-59,-45]],[[23548,14434],[-22,-102]],[[23526,14332],[-50,10]],[[23476,14342],[0,117],[0,36]],[[24129,14040],[-63,-79]],[[24066,13961],[-18,0]],[[24048,13961],[-153,122]],[[23899,14144],[135,76]],[[24129,14324],[31,-2]],[[24160,14322],[122,-181]],[[24282,14141],[45,-61],[0,-51],[-198,11]],[[24287,13658],[-5,-89]],[[24282,13569],[-40,3]],[[24242,13572],[-140,61]],[[24102,13633],[185,25]],[[23944,14284],[-45,-79]],[[23827,14207],[72,123]],[[24287,13953],[-32,0]],[[24255,13953],[-113,5]],[[24142,13958],[-76,3]],[[24129,14040],[194,-38]],[[24323,14002],[0,-36]],[[24323,13966],[-36,-13]],[[23553,13597],[85,-91]],[[23638,13506],[-167,7]],[[23471,13513],[0,89]],[[23471,13602],[82,-5]],[[23471,14202],[0,3],[5,137]],[[23526,14332],[67,-10]],[[23899,13495],[-90,6]],[[23809,13501],[0,89]],[[23809,13590],[5,89]],[[23814,13679],[90,-6]],[[23904,13673],[112,-33]],[[24016,13640],[-18,-147]],[[23998,13493],[-99,2]],[[23566,13864],[-95,5]],[[23471,13869],[5,110]],[[23913,13017],[-5,-38]],[[23908,12979],[-85,-18]],[[23823,12961],[18,36]],[[23841,12997],[-68,99]],[[23773,13096],[117,87]],[[23890,13183],[23,-166]],[[23814,13679],[90,33]],[[23904,13712],[0,-39]],[[23733,13801],[-5,-120]],[[23728,13681],[-171,5]],[[23557,13686],[50,117]],[[23607,13803],[126,-2]],[[23471,13689],[0,96],[0,74],[0,10]],[[23607,13864],[0,-61]],[[23557,13686],[-86,3]],[[23841,12997],[-203,-30]],[[23638,12967],[-67,43],[49,109]],[[23620,13119],[0,28]],[[23620,13147],[153,-51]],[[23998,13493],[-4,-178]],[[23994,13315],[-99,2]],[[23895,13317],[0,59]],[[23895,13376],[4,119]],[[23620,13147],[32,239]],[[23652,13386],[243,-10]],[[23895,13317],[-5,-134]],[[24233,14426],[27,-35]],[[24260,14391],[-23,-72]],[[24237,14319],[-77,3]],[[23620,13119],[-58,46]],[[23562,13165],[-91,46]],[[23471,13211],[0,30],[0,87],[0,63]],[[24242,13839],[-104,5],[4,114]],[[24255,13953],[0,-15]],[[24255,13938],[-13,-99]],[[23805,13501],[-149,-39]],[[23656,13462],[0,44]],[[23656,13506],[149,-5]],[[23562,13122],[-91,15]],[[23471,13137],[0,74]],[[23562,13165],[0,-43]],[[24048,13961],[-50,2]],[[23656,13462],[0,-15]],[[23471,13465],[0,48]],[[23638,13506],[18,0]],[[23553,13597],[4,89]],[[23728,13681],[81,-91]],[[23809,13501],[-4,0]],[[24341,13940],[-5,-119]],[[24336,13821],[-4,-148]],[[24332,13673],[-45,-15]],[[24102,13633],[-86,7]],[[23904,13712],[0,71]],[[23904,13783],[4,71]],[[24242,13839],[-194,-92],[103,-43],[131,122],[-36,107],[95,7]],[[24287,13953],[-32,-15]],[[23471,13602],[0,87]],[[23733,13836],[0,-35]],[[23904,13783],[-171,18]],[[23814,13679],[-86,2]],[[23471,12809],[0,76]],[[23471,12885],[82,-2]],[[23553,12883],[58,-33],[-9,38],[27,23]],[[23629,12911],[18,-105]],[[23647,12806],[-176,3]],[[23665,12791],[-45,-104]],[[23620,12687],[-104,-13]],[[23516,12674],[-45,26]],[[23471,12700],[0,20],[0,89]],[[23647,12806],[18,-15]],[[23516,12300],[-45,36]],[[23471,12336],[0,28],[0,7],[0,11],[0,99]],[[23471,12481],[118,-5]],[[23589,12476],[63,-92]],[[23652,12384],[-32,-58]],[[23620,12326],[-54,-28]],[[23566,12298],[-50,2]],[[23548,12987],[-77,-43]],[[23471,12944],[0,193]],[[23562,13122],[-14,-135]],[[23908,12964],[-58,-43]],[[23850,12921],[-27,0]],[[23823,12921],[0,40]],[[23908,12979],[0,-15]],[[23557,12941],[-4,-58]],[[23471,12885],[0,48],[0,11]],[[23548,12987],[9,-46]],[[23629,12911],[-4,15]],[[23625,12926],[13,41]],[[23823,12921],[0,-89]],[[23823,12832],[-9,-59]],[[23814,12773],[-23,0]],[[23791,12773],[-126,18]],[[23706,12684],[-86,3]],[[23791,12773],[0,-30]],[[23791,12743],[-85,-59]],[[23841,12463],[-5,61]],[[23836,12524],[63,23]],[[23899,12547],[0,-18]],[[23899,12529],[0,-53]],[[23899,12476],[-58,-13]],[[23724,12468],[-5,-89]],[[23719,12379],[-67,5]],[[23589,12476],[-14,23]],[[23575,12499],[149,-31]],[[23742,12514],[-36,170]],[[23791,12743],[14,-84]],[[23805,12659],[-23,-130]],[[23782,12529],[-40,-15]],[[23620,12326],[-13,-41]],[[23607,12285],[-41,13]],[[24021,12900],[0,-30]],[[24021,12870],[-72,-13]],[[23949,12857],[-72,3],[31,104]],[[23913,13017],[72,-2]],[[23985,13015],[36,-115]],[[23575,12499],[-59,175]],[[23742,12514],[-18,-46]],[[23607,12285],[-5,-79]],[[23602,12206],[-81,0]],[[23521,12206],[-5,94]],[[23625,12926],[-68,15]],[[23719,12379],[27,-43]],[[23746,12336],[23,-130]],[[23769,12206],[-27,0],[-90,0],[-50,0]],[[23850,12921],[-27,-89]],[[23899,12463],[-4,-104]],[[23895,12359],[-77,2]],[[23818,12361],[23,102]],[[23899,12476],[0,-13]],[[23949,12857],[4,-58]],[[23953,12799],[-49,-28]],[[23904,12771],[-90,2]],[[23521,12206],[-50,0],[0,130]],[[23471,12481],[0,147],[0,72]],[[23805,12659],[99,0]],[[23904,12659],[0,-8]],[[23904,12651],[-5,-74]],[[23899,12577],[0,-30]],[[23836,12524],[-54,5]],[[23818,12361],[-72,-25]],[[23904,12771],[0,-112]],[[23899,12529],[54,-71]],[[23953,12458],[-54,5]],[[25543,14045],[-54,-36]],[[25489,14009],[-41,61]],[[25448,14070],[41,23]],[[25489,14093],[54,-48]],[[25394,14571],[-54,-97]],[[25340,14474],[-126,84]],[[25214,14558],[5,11]],[[25219,14569],[175,45]],[[25394,14614],[0,-43]],[[25030,14190],[-59,-127]],[[24971,14063],[-27,-3]],[[24944,14060],[-49,13]],[[24895,14073],[90,183]],[[24985,14256],[13,13]],[[24998,14269],[32,-21]],[[25030,14248],[0,-58]],[[25642,13907],[-27,140]],[[25615,14047],[36,99]],[[25651,14146],[50,-5]],[[25701,14141],[85,-211]],[[25786,13930],[-22,-25]],[[25764,13905],[-122,2]],[[25836,14241],[13,-339]],[[25849,13902],[-63,28]],[[25701,14141],[85,77]],[[25786,14218],[50,23]],[[25511,14258],[41,97]],[[25552,14355],[63,74]],[[25615,14429],[41,-105]],[[25656,14324],[-104,-55]],[[25552,14269],[-41,-11]],[[25052,13851],[-9,34]],[[25043,13885],[54,30]],[[25097,13915],[99,-74]],[[25196,13841],[-4,-73]],[[25192,13768],[-99,20]],[[25093,13788],[-27,28]],[[25066,13816],[0,5],[-5,25],[-9,0],[0,5]],[[24998,14269],[27,101]],[[25025,14370],[-18,130]],[[25007,14500],[5,25]],[[25012,14525],[40,-5]],[[25052,14520],[149,-30]],[[25201,14490],[-41,-160]],[[25160,14330],[-9,-31]],[[25151,14299],[-103,-38]],[[25048,14261],[-18,-13]],[[24849,13821],[5,71]],[[24854,13892],[59,-58],[-64,-13]],[[24845,13640],[0,89]],[[24845,13729],[59,0]],[[24904,13729],[-5,18],[-31,49],[81,0]],[[24949,13796],[72,-69]],[[25021,13727],[0,-38]],[[25021,13689],[-5,-54]],[[25016,13635],[-54,3]],[[24962,13638],[-117,2]],[[24863,13796],[-27,-62]],[[24836,13734],[-36,79]],[[24800,13813],[63,-17]],[[25201,14490],[0,12]],[[25201,14502],[31,-61]],[[25232,14441],[9,-99]],[[25241,14342],[-81,-12]],[[25791,14467],[-77,-145]],[[25714,14322],[-58,2]],[[25615,14429],[176,38]],[[25025,14370],[-49,-35]],[[24976,14335],[-41,132]],[[24935,14467],[72,33]],[[24971,14027],[0,36]],[[25030,14190],[40,-3]],[[25070,14187],[81,-2],[41,0]],[[25192,14185],[-5,-133]],[[25187,14052],[-117,-63]],[[25070,13989],[-99,38]],[[25192,14185],[31,17]],[[25223,14202],[32,3]],[[25255,14205],[-59,-94],[77,-18]],[[25273,14093],[-86,-56]],[[25187,14037],[0,15]],[[24940,14317],[-9,-36]],[[24931,14281],[-136,36]],[[24795,14317],[59,43]],[[24854,14360],[86,-43]],[[25615,14047],[-72,-2]],[[25489,14093],[40,92]],[[25529,14185],[59,-5]],[[25588,14180],[63,-34]],[[24895,13948],[-131,0]],[[24764,13948],[4,51]],[[24768,13999],[0,51]],[[24768,14050],[100,25]],[[24868,14075],[27,-127]],[[25340,14474],[27,-38]],[[25367,14436],[-13,-48]],[[25354,14388],[-140,170]],[[25336,14091],[-63,2]],[[25255,14205],[18,-5]],[[25273,14200],[31,-71]],[[25304,14129],[32,-38]],[[25917,14469],[49,79]],[[25962,14477],[-45,-8]],[[25858,14243],[-54,122]],[[25804,14365],[59,74]],[[25863,14439],[139,23]],[[25998,14304],[-140,-61]],[[25048,14261],[22,-74]],[[25507,14398],[22,-43]],[[25529,14355],[-175,33]],[[25367,14436],[140,-38]],[[25052,14520],[36,94]],[[25088,14614],[32,77]],[[25120,14691],[81,-189]],[[25043,13885],[-4,22]],[[25039,13907],[58,49]],[[25097,13956],[0,-36]],[[25097,13920],[0,-5]],[[25448,14070],[-4,18]],[[25444,14088],[45,5]],[[24967,13981],[4,46]],[[25070,13989],[27,-33]],[[25039,13907],[-9,11]],[[25030,13918],[-108,22],[103,18],[-58,23]],[[24985,14256],[-54,25]],[[24940,14317],[36,18]],[[25588,14180],[-36,89]],[[25714,14322],[77,-56]],[[25791,14266],[-5,-48]],[[25025,13874],[18,11]],[[25052,13851],[-27,23]],[[25093,13788],[-72,-61]],[[24949,13796],[18,50],[18,0],[13,0],[68,-30]],[[25232,14261],[-81,38]],[[25241,14342],[-9,-81]],[[25529,14185],[-36,50]],[[25493,14235],[18,23]],[[25367,13913],[-9,89]],[[25358,14002],[0,89]],[[25358,14091],[36,-8]],[[25394,14083],[50,5]],[[25489,14009],[-9,-99]],[[25480,13910],[-113,3]],[[25602,14416],[-50,56]],[[25552,14472],[77,46]],[[25629,14518],[27,-69]],[[25656,14449],[-54,-33]],[[25804,14365],[-13,-99]],[[25791,14467],[72,-28]],[[25858,14243],[-22,-2]],[[25543,14467],[-36,-69]],[[25394,14571],[149,-104]],[[25025,13874],[5,44]],[[25980,14055],[-108,-153]],[[25872,13902],[-23,0]],[[25786,14589],[0,-120]],[[25786,14469],[-54,5]],[[25732,14474],[-27,102]],[[25012,14525],[-36,74]],[[24976,14599],[54,41]],[[25030,14640],[58,-26]],[[25917,14469],[-131,0]],[[24967,13981],[-23,79]],[[25232,14261],[-9,-59]],[[25187,14024],[0,13]],[[25336,14091],[22,0]],[[25358,14002],[-171,22]],[[25421,14167],[-27,-84]],[[25304,14129],[117,38]],[[25629,14518],[63,73]],[[25732,14474],[-76,-25]],[[24669,14029],[5,89]],[[24674,14118],[4,173]],[[24678,14291],[0,18]],[[24678,14309],[99,-23]],[[24777,14286],[-9,-236]],[[24768,13999],[-99,30]],[[24895,13948],[117,-38],[-95,-71],[-153,109]],[[25543,14467],[9,5]],[[25602,14416],[-73,-61]],[[24854,14360],[0,89]],[[24854,14449],[81,18]],[[25187,14024],[-4,-106]],[[25183,13918],[-86,2]],[[25183,13918],[13,-77]],[[24777,14286],[5,28]],[[24782,14314],[13,3]],[[24895,14073],[-27,2]],[[25421,14167],[-40,63],[112,5]],[[25273,14200],[99,150]],[[25372,14350],[180,5]],[[25232,14441],[140,-91]],[[25408,14719],[-14,-105]],[[25219,14569],[31,173]],[[25250,14742],[158,-23]],[[25250,14742],[-99,2]],[[25151,14744],[-18,92]],[[25133,14836],[99,73]],[[25232,14909],[5,0]],[[25237,14909],[139,-91]],[[25376,14818],[50,20]],[[25426,14838],[13,0]],[[25439,14838],[23,-94]],[[25462,14744],[-5,-20]],[[25457,14724],[-49,-5]],[[25138,14675],[13,69]],[[25214,14558],[-76,117]],[[25025,15080],[0,-69]],[[25025,15011],[-81,-18]],[[24944,14993],[-27,125]],[[24917,15118],[41,-15]],[[24958,15103],[13,-5]],[[24971,15098],[54,-18]],[[25606,14716],[-144,28]],[[25439,14838],[45,0]],[[25484,14838],[181,-2]],[[25665,14836],[22,0]],[[25687,14836],[77,-61]],[[25660,14706],[-54,10]],[[25665,14836],[45,91]],[[25710,14927],[-23,-91]],[[24854,14625],[-27,81]],[[24827,14706],[18,46]],[[24845,14752],[239,-21]],[[25084,14731],[-54,-91]],[[24976,14599],[-122,26]],[[24714,15222],[-18,-91]],[[24696,15131],[0,-31]],[[24696,15100],[-49,69]],[[24570,15225],[63,89]],[[24719,15311],[-5,-89]],[[24800,14449],[45,53],[-117,34]],[[24728,14536],[126,89]],[[24854,14449],[-54,0]],[[25273,15296],[-153,-41]],[[25120,15255],[-23,104]],[[25097,15359],[176,8]],[[25273,15367],[0,-71]],[[25430,15123],[-4,-285]],[[25376,14818],[27,109],[-90,5]],[[25313,14932],[23,89]],[[25336,15021],[49,104]],[[25385,15125],[32,-2]],[[25417,15123],[13,0]],[[25124,14963],[-9,10]],[[25115,14973],[27,145]],[[25142,15118],[9,46]],[[25151,15164],[117,12]],[[25268,15176],[117,-51]],[[25336,15021],[-153,-89]],[[25183,14932],[-59,31]],[[24958,15103],[4,185]],[[24962,15288],[72,-2],[-63,-188]],[[24773,15128],[-77,3]],[[24714,15222],[59,-94]],[[25277,15393],[-180,5]],[[25097,15398],[-72,0]],[[24904,14841],[-50,35]],[[24854,14876],[90,117]],[[25025,15011],[90,-38]],[[25124,14963],[-22,-89]],[[25102,14874],[-41,-105]],[[25061,14769],[-157,72]],[[24904,14841],[27,-87]],[[24931,14754],[-131,38],[-5,115]],[[24795,14907],[59,-31]],[[25457,14724],[149,-8]],[[24795,14907],[54,102]],[[24849,15009],[68,109]],[[25237,14909],[76,23]],[[25133,14836],[-31,38]],[[25183,14932],[49,-23]],[[25025,15080],[117,38]],[[24962,15288],[9,110]],[[25097,15398],[0,-39]],[[25120,15255],[31,-91]],[[25277,15393],[-4,-26]],[[24836,15403],[-9,-272],[-54,-3]],[[25268,15176],[5,120]],[[25408,15451],[-18,-137],[27,-87],[0,-104]],[[25710,14927],[90,-2]],[[25484,14838],[50,282]],[[25534,15120],[86,0]],[[25669,15016],[131,-91]],[[25061,14769],[5,-20]],[[25066,14749],[-135,5]],[[25629,15403],[-68,-51],[36,-94]],[[25597,15258],[-63,-138]],[[25534,15120],[-104,3]],[[24728,14536],[-41,-3]],[[24687,14533],[0,97]],[[24687,14630],[45,78]],[[24732,14708],[95,-2]],[[25138,14675],[-72,74]],[[24849,15009],[-153,91]],[[25597,15258],[135,28]],[[25084,14731],[36,-40]],[[24467,14296],[-63,189]],[[24404,14485],[49,89]],[[24453,14574],[207,66]],[[24660,14640],[27,-10]],[[24687,14533],[-94,-193]],[[24593,14340],[-18,-46]],[[24575,14294],[-54,2]],[[24521,14296],[-54,0]],[[24449,14813],[-99,5]],[[24354,14922],[144,-5]],[[24498,14917],[-49,-104]],[[24732,14708],[50,128]],[[24782,14836],[63,-84]],[[24332,14174],[-5,-40]],[[24327,14134],[-45,7]],[[24237,14319],[95,-145]],[[24791,13821],[-113,-18]],[[24678,13803],[0,8]],[[24678,13811],[27,155]],[[24705,13966],[149,-74]],[[24849,13821],[-58,0]],[[24503,14124],[0,111]],[[24503,14235],[18,61]],[[24575,14294],[90,-3]],[[24665,14291],[13,0]],[[24674,14118],[-171,6]],[[24678,13811],[-126,2]],[[24552,13813],[-22,183]],[[24530,13996],[175,-30]],[[24678,14309],[5,148]],[[24683,14457],[99,-8]],[[24782,14449],[0,-135]],[[24840,14981],[-117,5],[-27,112]],[[24696,15098],[99,-67],[-9,-25],[54,-25]],[[24444,14269],[-112,30],[-9,122]],[[24323,14421],[13,26]],[[24336,14447],[68,38]],[[24467,14296],[0,-27]],[[24467,14269],[-23,0]],[[24597,14670],[-121,-53]],[[24476,14617],[-86,43]],[[24390,14660],[59,87]],[[24449,14747],[148,-77]],[[24453,14574],[23,43]],[[24597,14670],[32,33]],[[24629,14703],[31,-63]],[[24503,14235],[-36,34]],[[24323,14421],[-63,-30]],[[24318,14668],[27,-28]],[[24345,14640],[-9,-193]],[[24345,14640],[45,20]],[[24332,14174],[0,100],[112,-5]],[[24503,14124],[-171,7]],[[24332,14131],[-5,3]],[[24359,15072],[85,-61],[27,15],[32,64]],[[24503,15090],[-5,-115]],[[24498,14975],[0,-58]],[[24692,14897],[-63,-194]],[[24449,14747],[0,66]],[[24498,14975],[144,-2]],[[24642,14973],[50,-76]],[[24647,15164],[-5,-191]],[[24503,15090],[144,74]],[[24593,14340],[72,-49]],[[24692,14897],[81,-3]],[[24773,14894],[9,-58]],[[24683,14457],[4,76]],[[24800,14449],[-18,0]],[[24647,15164],[49,-66]],[[24840,14981],[-67,-87]],[[24669,14029],[-229,-43],[-108,145]],[[24323,14002],[85,30],[-76,-81],[-9,15]],[[24552,13813],[-72,3]],[[24480,13816],[-85,191],[135,-11]],[[24476,13816],[-68,2]],[[24408,13818],[-72,3]],[[24341,13940],[135,-124]],[[25660,13531],[-13,3]],[[25647,13534],[-27,175],[-113,-5]],[[25507,13704],[-14,5]],[[25493,13709],[104,122]],[[25597,13831],[108,-30]],[[25705,13801],[86,-72],[0,-198]],[[25791,13531],[-131,0]],[[25336,12949],[-23,33]],[[25313,12982],[18,56]],[[25331,13038],[5,-89]],[[25660,13442],[0,-107]],[[25660,13335],[-99,3]],[[25561,13338],[-23,104]],[[25538,13442],[122,0]],[[25777,12590],[0,26]],[[25777,12616],[0,155]],[[25777,12771],[0,5]],[[25777,12776],[243,23]],[[26020,12799],[9,-196]],[[26029,12603],[-99,-170],[-166,48]],[[25764,12481],[13,109]],[[26169,13325],[0,112]],[[26169,13437],[4,23]],[[26173,13460],[41,20]],[[26047,13328],[0,112]],[[26047,13440],[122,-3]],[[26214,13747],[-90,26]],[[26124,13773],[-68,99]],[[26056,13872],[-54,109]],[[25367,13762],[0,151]],[[25480,13910],[0,-48]],[[25480,13862],[-113,-100]],[[25439,13040],[-63,31]],[[25376,13071],[68,119]],[[25444,13190],[76,3]],[[25520,13193],[77,-46]],[[25597,13147],[-158,-107]],[[26047,13440],[0,89]],[[26047,13529],[5,89]],[[26052,13618],[117,-3]],[[26169,13615],[-54,-66],[58,-89]],[[25966,13600],[32,-71]],[[25998,13529],[-122,2]],[[25876,13531],[5,170]],[[25881,13701],[85,-101]],[[25336,13765],[27,-137]],[[25363,13628],[-59,-13]],[[25304,13615],[-112,64]],[[25192,13679],[0,15]],[[25192,13694],[0,74]],[[25192,13768],[144,-3]],[[26056,13872],[-72,-59],[72,-51]],[[26056,13762],[-175,-45]],[[25881,13717],[-9,185]],[[26209,13480],[-36,-20]],[[26169,13615],[45,0]],[[25489,13536],[0,-58]],[[25489,13478],[-59,58]],[[25430,13536],[-4,38]],[[25426,13574],[67,51]],[[25493,13625],[-4,-89]],[[25408,13628],[-45,0]],[[25336,13765],[31,-3]],[[25480,13862],[108,-3]],[[25588,13859],[9,-28]],[[25493,13709],[0,-84]],[[25426,13574],[-18,54]],[[25561,13338],[-72,0]],[[25489,13338],[0,140]],[[25489,13478],[49,-36]],[[25660,13531],[0,-89]],[[25489,13536],[158,-2]],[[24962,13638],[-22,-150],[-100,58]],[[24840,13546],[5,94]],[[25611,12926],[0,-64]],[[25611,12862],[-73,3]],[[25538,12865],[-40,63]],[[25498,12928],[72,33]],[[25570,12961],[41,-35]],[[25777,12776],[5,198]],[[25782,12974],[4,61]],[[25786,13035],[306,-127]],[[26092,12908],[-72,-109]],[[25701,12977],[-5,-10]],[[25696,12967],[-54,40]],[[25642,13007],[59,0]],[[25701,13007],[0,-30]],[[25187,13208],[-36,0]],[[25151,13208],[-40,20]],[[25111,13228],[108,156]],[[25219,13384],[94,-46]],[[25313,13338],[0,-66]],[[25313,13272],[-99,17],[14,-83]],[[25228,13206],[-41,2]],[[25444,13340],[-59,0]],[[25385,13340],[-22,199]],[[25363,13539],[67,-3]],[[25489,13338],[-45,2]],[[25782,12974],[-81,3]],[[25701,13007],[85,59]],[[25786,13066],[0,-31]],[[25444,12956],[-5,84]],[[25597,13147],[18,10]],[[25615,13157],[0,-147]],[[25615,13010],[-4,-84]],[[25570,12961],[-72,-2]],[[25498,12959],[-54,-3]],[[25331,13038],[-18,35]],[[25313,13073],[63,-2]],[[25444,12956],[-41,-5]],[[25403,12951],[-67,-2]],[[25957,13150],[-130,2],[4,92],[126,-5],[0,-89]],[[25507,13704],[-14,-79]],[[25313,13340],[0,-2]],[[25219,13384],[0,17]],[[25219,13401],[58,5],[-90,46],[41,61]],[[25228,13513],[85,-173]],[[26124,13773],[-68,-11]],[[24976,13295],[-127,56]],[[24849,13351],[0,45]],[[24849,13396],[-9,110]],[[24840,13506],[0,40]],[[25016,13635],[99,-137]],[[25115,13498],[104,-97]],[[25111,13228],[-104,44]],[[25007,13272],[-31,23]],[[25791,13531],[-5,-91]],[[25786,13440],[-126,2]],[[25786,13440],[-85,-143]],[[25701,13297],[-41,38]],[[25701,13297],[0,-142]],[[25701,13155],[-86,2]],[[25520,13193],[-45,56]],[[25475,13249],[-31,5]],[[25444,13254],[0,86]],[[25313,13206],[-85,0]],[[25313,13272],[0,-66]],[[25692,12608],[-14,18]],[[25678,12626],[-76,61],[112,99]],[[25714,12786],[63,-15]],[[25777,12616],[-85,-8]],[[25313,13145],[0,61]],[[25313,13340],[72,0]],[[25444,13254],[0,-48]],[[25444,13206],[0,-16]],[[25313,13073],[0,72]],[[25642,13007],[-27,3]],[[25701,13155],[85,-89]],[[25115,13498],[77,181]],[[25304,13615],[-76,-102]],[[25475,13249],[-31,-43]],[[25705,13801],[59,104]],[[25881,13717],[0,-16]],[[25876,13531],[-85,0]],[[25998,13529],[49,0]],[[26191,12967],[-99,-59]],[[25498,12928],[0,31]],[[26052,13618],[-86,-18]],[[25021,13689],[171,5]],[[25714,12786],[-67,76]],[[25647,12862],[49,105]],[[25588,13859],[54,48]],[[25408,13628],[-45,-89]],[[26115,12600],[-86,3]],[[25647,12862],[-36,0]],[[24759,13218],[-40,3]],[[24719,13221],[0,145]],[[24719,13366],[0,33]],[[24719,13399],[130,-3]],[[24849,13351],[-4,-64]],[[24845,13287],[-41,-69]],[[24804,13218],[-45,0]],[[24246,13211],[5,96]],[[24251,13307],[58,16]],[[24309,13323],[45,-97]],[[24354,13226],[-108,-15]],[[24129,13312],[-23,-106]],[[24106,13206],[-72,5]],[[24034,13211],[-40,104]],[[23994,13315],[135,-3]],[[24246,12972],[0,142]],[[24246,13114],[81,-61]],[[24327,13053],[14,-46]],[[24341,13007],[-95,-35]],[[24224,12407],[-68,46]],[[24156,12453],[0,53]],[[24156,12506],[-27,237]],[[24129,12743],[72,66]],[[24201,12809],[54,-168]],[[24255,12641],[0,-53]],[[24255,12588],[27,-94]],[[24282,12494],[0,-89]],[[24282,12405],[-58,2]],[[26191,12326],[-256,33]],[[25935,12359],[-72,0]],[[25863,12359],[-99,33]],[[25764,12392],[0,89]],[[25183,12605],[0,-89]],[[25183,12516],[-32,0]],[[25151,12516],[-54,3]],[[25097,12519],[-81,89],[-4,-89]],[[25012,12519],[-99,-23]],[[24913,12496],[-23,-10]],[[24890,12486],[-90,56]],[[24800,12542],[4,114]],[[24804,12656],[0,3]],[[24804,12659],[172,130]],[[24976,12789],[126,-3]],[[25102,12786],[4,0]],[[25106,12786],[77,-181]],[[25426,12206],[-32,0],[-40,0]],[[25354,12206],[4,41]],[[25358,12247],[5,18]],[[25363,12265],[63,-59]],[[24404,12806],[-63,-91]],[[24341,12715],[-86,91]],[[24255,12806],[0,16]],[[24255,12822],[149,-16]],[[24278,12216],[54,33]],[[24332,12249],[45,-2]],[[24377,12247],[36,5]],[[24413,12252],[72,13],[0,-8],[0,-3],[0,-7],[0,-15],[0,-5]],[[24485,12227],[0,-21]],[[24485,12206],[-86,0],[-121,0],[0,10]],[[24192,12898],[5,18]],[[24197,12916],[49,56]],[[24341,13007],[31,-30]],[[24372,12977],[-40,-66]],[[24332,12911],[-72,-16]],[[24260,12895],[-68,3]],[[24422,13269],[-45,-46]],[[24377,13223],[-23,3]],[[24309,13323],[32,81]],[[24341,13404],[31,74]],[[24372,13478],[68,71]],[[24440,13549],[58,-3]],[[24498,13546],[14,-48]],[[24512,13498],[13,-86]],[[24525,13412],[-31,-140]],[[24494,13272],[-18,-61]],[[24476,13211],[-54,58]],[[24795,12374],[-54,23]],[[24741,12397],[5,104]],[[24746,12501],[36,26]],[[24782,12527],[18,15]],[[24890,12486],[23,-36]],[[24913,12450],[0,-25]],[[24913,12425],[0,-89]],[[24913,12336],[-59,23]],[[24854,12359],[-59,15]],[[24620,12366],[-23,-28]],[[24597,12338],[-99,-53]],[[24498,12285],[-45,89]],[[24453,12374],[81,102]],[[24534,12476],[54,-33]],[[24588,12443],[27,-26]],[[24615,12417],[5,-51]],[[24462,13152],[-22,21]],[[24440,13173],[-18,96]],[[24476,13211],[-14,-59]],[[25165,12422],[-14,94]],[[25183,12516],[67,-2]],[[25250,12514],[0,-38]],[[25250,12476],[0,-56]],[[25250,12420],[-85,2]],[[24449,12862],[27,-43]],[[24476,12819],[-59,-28]],[[24417,12791],[-4,28]],[[24413,12819],[-27,76]],[[24386,12895],[40,-2]],[[24426,12893],[23,-31]],[[24732,12702],[-13,51]],[[24719,12753],[54,13]],[[24773,12766],[31,-3]],[[24804,12763],[0,-33]],[[24804,12730],[-36,-43]],[[24768,12687],[-36,15]],[[24579,13185],[-9,38]],[[24570,13223],[23,148]],[[24593,13371],[126,-5]],[[24719,13221],[-45,-74]],[[24674,13147],[-95,38]],[[24039,12458],[-9,-31]],[[24030,12427],[-50,31]],[[23980,12458],[59,0]],[[24282,12397],[0,8]],[[24282,12494],[63,-16]],[[24345,12478],[-63,-81]],[[24350,12478],[45,-2]],[[24395,12476],[-45,-74]],[[24350,12402],[0,76]],[[24030,12338],[0,89]],[[24039,12458],[117,-5]],[[24224,12407],[-27,-43]],[[24197,12364],[-145,-56]],[[24052,12308],[-22,30]],[[25363,12265],[-27,89]],[[25336,12354],[85,38]],[[25421,12392],[45,-66]],[[25466,12326],[41,0]],[[25507,12326],[-18,-120]],[[25489,12206],[-14,0],[-49,0]],[[24782,12275],[-5,-33]],[[24777,12242],[5,-36],[-5,0],[-4,0],[-14,0],[-27,0],[-9,0],[-45,122]],[[24678,12328],[27,10]],[[24705,12338],[36,0]],[[24741,12338],[41,-63]],[[24660,12611],[0,22]],[[24660,12633],[41,28]],[[24701,12661],[45,-45]],[[24746,12616],[-86,-5]],[[24615,12529],[-76,3]],[[24539,12532],[18,43]],[[24557,12575],[4,0]],[[24561,12575],[95,15]],[[24656,12590],[18,-61]],[[24674,12529],[-59,0]],[[24408,12664],[-63,5]],[[24345,12669],[-4,46]],[[24404,12806],[9,13]],[[24417,12791],[27,-127]],[[24444,12664],[-36,0]],[[24845,13218],[-41,0]],[[24845,13287],[131,8]],[[25007,13272],[-4,-59]],[[25003,13213],[-158,5]],[[24255,12641],[54,8]],[[24309,12649],[27,-54]],[[24336,12595],[-81,-7]],[[24678,13803],[0,-66]],[[24678,13737],[-144,-28]],[[24534,13709],[-72,33]],[[24462,13742],[27,23]],[[24489,13765],[-9,51]],[[24133,13193],[-27,13]],[[24129,13312],[22,105]],[[24151,13417],[100,-110]],[[24246,13211],[0,-23]],[[24246,13188],[-113,5]],[[25291,12379],[-41,97]],[[25250,12514],[18,89]],[[25268,12603],[171,-5]],[[25439,12598],[-4,-10]],[[25435,12588],[-14,-110]],[[25421,12478],[0,-86]],[[25336,12354],[-45,25]],[[25183,12605],[4,178],[68,0]],[[25255,12783],[18,0]],[[25273,12783],[-5,-180]],[[24341,13404],[-86,8]],[[24255,13412],[0,71]],[[24255,13483],[63,-3]],[[24318,13480],[54,-2]],[[24079,12206],[-27,74]],[[24052,12280],[0,28]],[[24197,12364],[9,-66]],[[24206,12298],[-64,-92],[-63,0]],[[24192,12239],[0,-33]],[[24192,12206],[-45,0],[45,33]],[[24674,13117],[0,30]],[[24759,13218],[0,-101],[-85,0]],[[24197,12916],[-82,99]],[[24115,13015],[-4,76]],[[24111,13091],[9,28]],[[24120,13119],[13,74]],[[24246,13188],[0,-74]],[[23895,12344],[0,15]],[[23953,12458],[27,0]],[[24030,12338],[-135,6]],[[24521,13086],[58,99]],[[24674,13117],[0,-26]],[[24674,13091],[-90,-43]],[[24584,13048],[-63,38]],[[24151,13417],[104,-5]],[[24318,13480],[0,74]],[[24318,13554],[36,-3]],[[24354,13551],[86,-2]],[[24822,12898],[-18,-135]],[[24773,12766],[-9,134]],[[24764,12900],[58,-2]],[[24678,12399],[-27,-28],[-27,-5],[-4,0]],[[24615,12417],[0,23]],[[24615,12440],[0,89]],[[24674,12529],[13,0]],[[24687,12529],[5,-99]],[[24692,12430],[-14,-31]],[[24043,12707],[-40,31]],[[24003,12738],[0,38]],[[24003,12776],[72,-26]],[[24075,12750],[-32,-43]],[[25133,12206],[-54,89]],[[25079,12295],[0,38]],[[25079,12333],[27,28]],[[25106,12361],[59,16]],[[25165,12377],[85,-56]],[[25250,12321],[-58,-33],[58,5]],[[25250,12293],[50,-31]],[[25300,12262],[9,-56]],[[25309,12206],[-135,0],[-41,0]],[[24336,12595],[59,-2]],[[24395,12593],[72,-28]],[[24467,12565],[-5,-31]],[[24462,12534],[-67,-58]],[[24350,12478],[-5,0]],[[24746,12616],[36,-89]],[[24746,12501],[-59,28]],[[24656,12590],[4,21]],[[24264,12206],[-40,0],[-32,0]],[[24192,12239],[54,64],[18,-97]],[[24512,13498],[22,48]],[[24534,13546],[50,-2]],[[24584,13544],[-32,-104]],[[24552,13440],[-27,-28]],[[25313,12982],[-67,135],[67,28]],[[24120,13119],[-90,3]],[[24030,13122],[4,89]],[[25030,13078],[-27,135]],[[25151,13208],[-49,-158],[-72,28]],[[24570,13223],[-76,49]],[[24552,13440],[41,-69]],[[25250,12321],[0,-28]],[[25187,13208],[5,-269]],[[25192,12939],[-54,-64]],[[25138,12875],[-158,86]],[[24980,12961],[-9,49]],[[24971,13010],[59,68]],[[24534,13546],[-36,0]],[[24498,13546],[-54,79]],[[24444,13625],[18,117]],[[24534,13709],[54,-76]],[[24588,13633],[-4,-74]],[[24584,13559],[0,-15]],[[24557,12575],[-77,28]],[[24480,12603],[-13,66]],[[24467,12669],[4,23]],[[24471,12692],[90,-117]],[[24597,12338],[14,-132]],[[24611,12206],[-59,0]],[[24552,12206],[-27,48]],[[24525,12254],[-27,31]],[[24255,13483],[-13,89]],[[24282,13569],[36,-15]],[[24408,12664],[-13,-71]],[[24309,12649],[36,20]],[[25079,12295],[-36,-51]],[[25043,12244],[-49,56]],[[24994,12300],[0,33]],[[24994,12333],[85,0]],[[24719,12206],[-108,0]],[[24678,12399],[27,-61]],[[24678,12328],[41,-122]],[[24692,12430],[49,-33]],[[24795,12374],[-54,-36]],[[24377,12247],[-27,81],[63,-76]],[[24030,13122],[81,-31]],[[24115,13015],[-130,0]],[[24584,13559],[85,-3]],[[24669,13556],[45,-45]],[[24714,13511],[5,-112]],[[24372,12384],[45,-18]],[[24417,12366],[-49,-58],[4,76]],[[25399,12778],[4,173]],[[25538,12865],[-99,-87]],[[25439,12778],[-40,0]],[[26191,12206],[-36,0]],[[26155,12206],[-121,-2]],[[26034,12204],[-63,0],[-32,2]],[[25939,12206],[-4,153]],[[25863,12359],[-99,-153]],[[25764,12206],[-68,0]],[[25696,12206],[50,155],[13,-5],[5,36]],[[24913,12496],[0,-46]],[[25138,12857],[40,-74],[-72,3]],[[25102,12786],[36,71]],[[24976,12789],[4,172]],[[25138,12875],[0,-18]],[[24201,12809],[54,-3]],[[24764,12900],[-9,100]],[[24755,13000],[-95,-3],[14,94]],[[24845,13218],[41,-183]],[[24886,13035],[-64,-137]],[[24192,12898],[-171,2]],[[24075,12542],[-176,35]],[[23904,12651],[99,87]],[[24043,12707],[32,-165]],[[24440,13173],[-68,-18]],[[24372,13155],[5,68]],[[25255,12783],[-63,156]],[[25399,12778],[-126,5]],[[24003,12776],[0,20]],[[24003,12796],[18,74]],[[24260,12895],[-5,-73]],[[24129,12743],[-54,7]],[[24971,13010],[-85,25]],[[24467,12669],[-23,-5]],[[24476,12819],[31,-3]],[[24507,12816],[14,0]],[[24521,12816],[-50,-124]],[[24701,12661],[31,41]],[[24768,12687],[36,-31]],[[24521,12816],[31,11]],[[24552,12827],[77,-59]],[[24629,12768],[31,-135]],[[23953,12799],[50,-3]],[[24440,13549],[4,76]],[[24485,13104],[-23,48]],[[24521,13086],[-36,18]],[[24480,12603],[-13,-38]],[[25133,12206],[-36,0],[-54,0],[-9,0],[9,38]],[[23895,12344],[-5,-138]],[[23890,12206],[-4,0],[-77,0],[-40,0]],[[24674,13648],[-86,-15]],[[24678,13737],[-4,-89]],[[24782,12275],[72,84]],[[24913,12336],[-5,-97]],[[24908,12239],[0,-10]],[[24908,12229],[0,-15]],[[24908,12214],[-18,-8],[-13,0],[-32,0],[-9,0],[-5,0],[-9,0],[-4,0],[-5,0],[-13,0],[-23,36]],[[24075,12542],[81,-36]],[[24408,13818],[-36,-147]],[[24372,13671],[-40,2]],[[24462,12534],[32,-2]],[[24494,12532],[40,-56]],[[24453,12374],[-13,-86],[-23,78]],[[24372,12384],[-22,18]],[[24332,12911],[54,-16]],[[24552,12206],[-49,0],[22,48]],[[24489,12206],[-4,0]],[[24485,12227],[4,-21]],[[24588,12443],[27,-3]],[[24719,12753],[-90,15]],[[24552,12827],[0,12]],[[24552,12839],[59,74]],[[24611,12913],[18,5]],[[24629,12918],[126,82]],[[24079,12206],[-22,0],[-126,0]],[[23931,12206],[121,74]],[[24804,12659],[0,71]],[[24282,12397],[86,-64],[-162,-35]],[[24278,12216],[-32,105],[86,-72]],[[24539,12532],[-45,0]],[[25097,12519],[-85,0]],[[24629,12918],[-41,49]],[[24588,12967],[-4,81]],[[25358,12247],[-58,15]],[[25165,12377],[0,45]],[[25250,12420],[41,-41]],[[24913,12425],[81,-92]],[[24994,12300],[18,-94],[-18,0],[-41,0],[-4,0],[-9,0],[-32,26],[0,5],[0,2]],[[24908,12229],[27,-23],[-13,0],[-14,8]],[[25012,12519],[13,-66],[54,-31],[27,-61]],[[24669,13556],[5,92]],[[24674,13648],[171,-8]],[[24840,13506],[-126,5]],[[25354,12206],[-45,0]],[[25439,12778],[0,-180]],[[24372,13155],[-45,-102]],[[23931,12206],[-41,0]],[[24372,13671],[-18,-120]],[[25466,12326],[45,81],[-90,71]],[[25435,12588],[81,-46]],[[25516,12542],[176,66]],[[25777,12590],[-76,-86],[63,-23]],[[25696,12206],[-18,0],[-112,0]],[[25566,12206],[-59,120]],[[25566,12206],[-5,0],[-72,0]],[[26155,12206],[-103,-2],[-18,0]],[[24476,13816],[13,-51]],[[24485,13104],[-104,-102]],[[24381,13002],[-9,-25]],[[24791,13821],[9,-8]],[[24836,13734],[9,-5]],[[24863,13796],[41,-67]],[[25516,12542],[-32,61],[194,23]],[[25939,12206],[-175,0]],[[24381,13002],[207,-35]],[[24611,12913],[-59,8]],[[24552,12921],[-36,10]],[[24516,12931],[-27,-8],[-63,-30]],[[24507,12816],[5,46]],[[24512,12862],[4,69]],[[24552,12921],[0,-82]],[[24512,12862],[-63,0]]]}