{"type":"Topology","transform":{"scale":[0.0012831345112129487,0.0009745357309423489],"translate":[-124.73273099999999,24.60334863324381]},"objects":{"area":{"type":"GeometryCollection","geometries":[{"arcs":[[0,1,2,3]],"type":"Polygon","properties":{"state":"MS","name":"ABBEVILLE","zip":"38601"}},{"arcs":[[4,5,6,7,8,9,10]],"type":"Polygon","properties":{"state":"MS","name":"ASHLAND","zip":"38603"}},{"arcs":[[11,12,13,14,15,16,17,18,19,20,21]],"type":"Polygon","properties":{"state":"MS","name":"BATESVILLE","zip":"38606"}},{"arcs":[[22,23,-9,24,25]],"type":"Polygon","properties":{"state":"MS","name":"BLUE MOUNTAIN","zip":"38610"}},{"arcs":[[26,27,28,29,30,31]],"type":"Polygon","properties":{"state":"MS","name":"BYHALIA","zip":"38611"}},{"arcs":[[32,33,34,35,36,37,38,39,40,41]],"type":"Polygon","properties":{"state":"MS","name":"CLARKSDALE","zip":"38614"}},{"arcs":[[42,-36,43,44,45]],"type":"Polygon","properties":{"state":"MS","name":"COAHOMA","zip":"38617"}},{"arcs":[[46,47,-32,48,49,50]],"type":"Polygon","properties":{"state":"MS","name":"COLDWATER","zip":"38618"}},{"arcs":[[51,52,53,54,55,56]],"type":"Polygon","properties":{"state":"MS","name":"COMO","zip":"38619"}},{"arcs":[[57,58,-12,59]],"type":"Polygon","properties":{"state":"MS","name":"COURTLAND","zip":"38620"}},{"arcs":[[60,61,62,63,-52,64,-17,65]],"type":"Polygon","properties":{"state":"MS","name":"CRENSHAW","zip":"38621"}},{"arcs":[[66,67,68,69,70]],"type":"Polygon","properties":{"state":"MS","name":"DUMAS","zip":"38625"}},{"arcs":[[71,-45,72,73,74,-63]],"type":"Polygon","properties":{"state":"MS","name":"DUNDEE","zip":"38626"}},{"arcs":[[75,76,77,78]],"type":"Polygon","properties":{"state":"MS","name":"ETTA","zip":"38627"}},{"arcs":[[79,80,81,-7]],"type":"Polygon","properties":{"state":"MS","name":"FALKNER","zip":"38629"}},{"arcs":[[82,83,84,85,-27,-48,86]],"type":"Polygon","properties":{"state":"MS","name":"HERNANDO","zip":"38632"}},{"arcs":[[-10,-24,87,88]],"type":"Polygon","properties":{"state":"MS","name":"HICKORY FLAT","zip":"38633"}},{"arcs":[[-55,89,-49,-31,90,91,92,93,94,95,96]],"type":"Polygon","properties":{"state":"MS","name":"HOLLY SPRINGS","zip":"38635"}},{"arcs":[[97,98,99]],"type":"Polygon","properties":{"state":"MS","name":"HORN LAKE","zip":"38637"}},{"arcs":[[100,-84,101,102,103]],"type":"Polygon","properties":{"state":"MS","name":"LAKE CORMORANT","zip":"38641"}},{"arcs":[[-93,104]],"type":"Polygon","properties":{"state":"MS","name":"LAMAR","zip":"38642"}},{"arcs":[[-39,105,-15,106,107,108]],"type":"Polygon","properties":{"state":"MS","name":"LAMBERT","zip":"38643"}},{"arcs":[[-43,109,-37]],"type":"Polygon","properties":{"state":"MS","name":"LYON","zip":"38645"}},{"arcs":[[-106,-38,-110,-46,-72,-62,110,-66,-16]],"type":"Polygon","properties":{"state":"MS","name":"MARKS","zip":"38646"}},{"arcs":[[111,112,-5,113]],"type":"Polygon","properties":{"state":"MS","name":"MICHIGAN CITY","zip":"38647"}},{"arcs":[[114,-79,115,-88,-23]],"type":"Polygon","properties":{"state":"MS","name":"MYRTLE","zip":"38650"}},{"arcs":[[116,-85,-101,117,-98,118,119]],"type":"Polygon","properties":{"state":"MS","name":"NESBIT","zip":"38651"}},{"arcs":[[120,121,-76,-115,-26,122,-68,123,124]],"type":"Polygon","properties":{"state":"MS","name":"NEW ALBANY","zip":"38652"}},{"arcs":[[125,126,127,-28,-86,-117]],"type":"Polygon","properties":{"state":"MS","name":"OLIVE BRANCH","zip":"38654"}},{"arcs":[[128,-20,129,-3,130,131,132,133]],"type":"Polygon","properties":{"state":"MS","name":"OXFORD","zip":"38655"}},{"arcs":[[-59,134,135,-13]],"type":"Polygon","properties":{"state":"MS","name":"POPE","zip":"38658"}},{"arcs":[[-131,-2,136,-95,137]],"type":"Polygon","properties":{"state":"MS","name":"POTTS CAMP","zip":"38659"}},{"arcs":[[138,-91,-30]],"type":"Polygon","properties":{"state":"MS","name":"RED BANKS","zip":"38661"}},{"arcs":[[-8,-82,139,140,141,142,-69,-123,-25]],"type":"Polygon","properties":{"state":"MS","name":"RIPLEY","zip":"38663"}},{"arcs":[[[143]],[[-102,-83,144,145]]],"type":"MultiPolygon","properties":{"state":"MS","name":"ROBINSONVILLE","zip":"38664"}},{"arcs":[[146,-53,-64,-75,147,-51]],"type":"Polygon","properties":{"state":"MS","name":"SARAH","zip":"38665"}},{"arcs":[[-57,148,-18,-65]],"type":"Polygon","properties":{"state":"MS","name":"SARDIS","zip":"38666"}},{"arcs":[[-50,-90,-54,-147]],"type":"Polygon","properties":{"state":"MS","name":"SENATOBIA","zip":"38668"}},{"arcs":[[-61,-111]],"type":"Polygon","properties":{"state":"MS","name":"SLEDGE","zip":"38670"}},{"arcs":[[149,150,-127,151,-119,-100]],"type":"Polygon","properties":{"state":"MS","name":"SOUTHAVEN","zip":"38671"}},{"arcs":[[-152,-126,-120]],"type":"Polygon","properties":{"state":"MS","name":"SOUTHAVEN","zip":"38672"}},{"arcs":[[152,-21,-129]],"type":"Polygon","properties":{"state":"MS","name":"TAYLOR","zip":"38673"}},{"arcs":[[-81,153,-140]],"type":"Polygon","properties":{"state":"MS","name":"TIPLERSVILLE","zip":"38674"}},{"arcs":[[154,-145,-87,-47,-148,-74]],"type":"Polygon","properties":{"state":"MS","name":"TUNICA","zip":"38676"}},{"arcs":[[-104,155,-150,-99,-118]],"type":"Polygon","properties":{"state":"MS","name":"WALLS","zip":"38680"}},{"arcs":[[156,157,-141,-154,-80,-6,-113,158]],"type":"Polygon","properties":{"state":"MS","name":"WALNUT","zip":"38683"}},{"arcs":[[-1,159,-96,-137]],"type":"Polygon","properties":{"state":"MS","name":"WATERFORD","zip":"38685"}},{"arcs":[[[160,161,162,163,164]],[[165,166,167,168]],[[169]]],"type":"MultiPolygon","properties":{"state":"MS","name":"GREENVILLE","zip":"38701"}},{"arcs":[[170,-163,171,172]],"type":"Polygon","properties":{"state":"MS","name":"GREENVILLE","zip":"38703"}},{"arcs":[[[173]],[[174,-34,175,176]]],"type":"MultiPolygon","properties":{"state":"MS","name":"ALLIGATOR","zip":"38720"}},{"arcs":[[177,178,179,180,181]],"type":"Polygon","properties":{"state":"MS","name":"ANGUILLA","zip":"38721"}},{"arcs":[[[182]],[[183,-173,184,185,186,187]]],"type":"MultiPolygon","properties":{"state":"MS","name":"BENOIT","zip":"38725"}},{"arcs":[[188,-186,189,190]],"type":"Polygon","properties":{"state":"MS","name":"BEULAH","zip":"38726"}},{"arcs":[[191,192,193]],"type":"Polygon","properties":{"state":"MS","name":"BOYLE","zip":"38730"}},{"arcs":[[194,-166,195]],"type":"Polygon","properties":{"state":"MS","name":"CHATHAM","zip":"38731"}},{"arcs":[[196,197,198,199,200,-193,201,-187,-189]],"type":"Polygon","properties":{"state":"MS","name":"CLEVELAND","zip":"38732"}},{"arcs":[[202,-194,-201,203,204,205,206,207]],"type":"Polygon","properties":{"state":"MS","name":"DODDSVILLE","zip":"38736"}},{"arcs":[[208,209,210,-41,211,212,213,214]],"type":"Polygon","properties":{"state":"MS","name":"DREW","zip":"38737"}},{"arcs":[[215,216,-176,-33,217]],"type":"Polygon","properties":{"state":"MS","name":"DUNCAN","zip":"38740"}},{"arcs":[[218,219,220,-167,-195]],"type":"Polygon","properties":{"state":"MS","name":"GLEN ALLAN","zip":"38744"}},{"arcs":[[221,222,223,-216,224]],"type":"Polygon","properties":{"state":"MS","name":"GUNNISON","zip":"38746"}},{"arcs":[[-169,225,226,-165,227,228,229,230,231,-179,232,-219,-196]],"type":"Polygon","properties":{"state":"MS","name":"HOLLANDALE","zip":"38748"}},{"arcs":[[233,234,-208,235,236,237,-229]],"type":"Polygon","properties":{"state":"MS","name":"INDIANOLA","zip":"38751"}},{"arcs":[[238,-230,-238,239,240,241]],"type":"Polygon","properties":{"state":"MS","name":"INVERNESS","zip":"38753"}},{"arcs":[[242,-231,-239]],"type":"Polygon","properties":{"state":"MS","name":"ISOLA","zip":"38754"}},{"arcs":[[-164,-171,-184,243,-234,-228]],"type":"Polygon","properties":{"state":"MS","name":"LELAND","zip":"38756"}},{"arcs":[[244,-209,245,-199]],"type":"Polygon","properties":{"state":"MS","name":"MERIGOLD","zip":"38759"}},{"arcs":[[246,-240,-237,247]],"type":"Polygon","properties":{"state":"MS","name":"MOORHEAD","zip":"38761"}},{"arcs":[[-245,-198,-222,248,-210]],"type":"Polygon","properties":{"state":"MS","name":"MOUND BAYOU","zip":"38762"}},{"arcs":[[-191,249,-223,-197]],"type":"Polygon","properties":{"state":"MS","name":"ROSEDALE","zip":"38769"}},{"arcs":[[250,-204,-200,-246,-215]],"type":"Polygon","properties":{"state":"MS","name":"RULEVILLE","zip":"38771"}},{"arcs":[[-202,-192,-203,-235,-244,-188]],"type":"Polygon","properties":{"state":"MS","name":"SHAW","zip":"38773"}},{"arcs":[[-225,-218,-42,-211,-249]],"type":"Polygon","properties":{"state":"MS","name":"SHELBY","zip":"38774"}},{"arcs":[[-236,-207,251,252,-248]],"type":"Polygon","properties":{"state":"MS","name":"SUNFLOWER","zip":"38778"}},{"arcs":[[253,-161,-227]],"type":"Polygon","properties":{"state":"MS","name":"WAYSIDE","zip":"38780"}},{"arcs":[[254,255,256,257,258]],"type":"Polygon","properties":{"state":"MS","name":"TUPELO","zip":"38801"}},{"arcs":[[259,260,261,262,263,264,265,-257]],"type":"Polygon","properties":{"state":"MS","name":"TUPELO","zip":"38804"}},{"arcs":[[266,267,268,269]],"type":"Polygon","properties":{"state":"MS","name":"AMORY","zip":"38821"}},{"arcs":[[270,271,-71,272,273]],"type":"Polygon","properties":{"state":"MS","name":"BALDWYN","zip":"38824"}},{"arcs":[[274,275,-260,-256]],"type":"Polygon","properties":{"state":"MS","name":"BELDEN","zip":"38826"}},{"arcs":[[276,277,278,279]],"type":"Polygon","properties":{"state":"MS","name":"BELMONT","zip":"38827"}},{"arcs":[[280,-125,281,282,-262]],"type":"Polygon","properties":{"state":"MS","name":"BLUE SPRINGS","zip":"38828"}},{"arcs":[[283,284,-273,-70,-143,285,286,287,288]],"type":"Polygon","properties":{"state":"MS","name":"BOONEVILLE","zip":"38829"}},{"arcs":[[289,-287,290,291,292]],"type":"Polygon","properties":{"state":"MS","name":"BURNSVILLE","zip":"38833"}},{"arcs":[[293,294,-157,295,-292]],"type":"Polygon","properties":{"state":"MS","name":"CORINTH","zip":"38834"}},{"arcs":[[296,297,298,-278]],"type":"Polygon","properties":{"state":"MS","name":"DENNIS","zip":"38838"}},{"arcs":[[299,-121,-281,-261,-276]],"type":"Polygon","properties":{"state":"MS","name":"ECRU","zip":"38841"}},{"arcs":[[300,301,302,303,-265,304,305,306]],"type":"Polygon","properties":{"state":"MS","name":"FULTON","zip":"38843"}},{"arcs":[[307,308,309]],"type":"Polygon","properties":{"state":"MS","name":"GATTMAN","zip":"38844"}},{"arcs":[[310,-294,-291]],"type":"Polygon","properties":{"state":"MS","name":"GLEN","zip":"38846"}},{"arcs":[[311,-297,-277,312,313,-307]],"type":"Polygon","properties":{"state":"MS","name":"GOLDEN","zip":"38847"}},{"arcs":[[314,-267,315,316,317,-309,318,319]],"type":"Polygon","properties":{"state":"MS","name":"GREENWOOD SPRINGS","zip":"38848"}},{"arcs":[[320,321,-282,-124,-67,-272]],"type":"Polygon","properties":{"state":"MS","name":"GUNTOWN","zip":"38849"}},{"arcs":[[322,323,324,325,326]],"type":"Polygon","properties":{"state":"MS","name":"HOULKA","zip":"38850"}},{"arcs":[[327,328,329,-323,330]],"type":"Polygon","properties":{"state":"MS","name":"HOUSTON","zip":"38851"}},{"arcs":[[331,332,-288,-290]],"type":"Polygon","properties":{"state":"MS","name":"IUKA","zip":"38852"}},{"arcs":[[333,-321,-271,334,335,-305,-264]],"type":"Polygon","properties":{"state":"MS","name":"MANTACHIE","zip":"38855"}},{"arcs":[[336,-335,-274,-285]],"type":"Polygon","properties":{"state":"MS","name":"MARIETTA","zip":"38856"}},{"arcs":[[337,338,339,340,-303,341,-269]],"type":"Polygon","properties":{"state":"MS","name":"NETTLETON","zip":"38858"}},{"arcs":[[-336,-337,-284,342,-298,-312,-306]],"type":"Polygon","properties":{"state":"MS","name":"NEW SITE","zip":"38859"}},{"arcs":[[343,344,-331,-327,345,346,-339]],"type":"Polygon","properties":{"state":"MS","name":"OKOLONA","zip":"38860"}},{"arcs":[[347,-258,-266,-304,-341]],"type":"Polygon","properties":{"state":"MS","name":"PLANTERSVILLE","zip":"38862"}},{"arcs":[[348,-346,-326,349,350,351,-122,-300,-275,-255]],"type":"Polygon","properties":{"state":"MS","name":"PONTOTOC","zip":"38863"}},{"arcs":[[-350,-325,352,353]],"type":"Polygon","properties":{"state":"MS","name":"RANDOLPH","zip":"38864"}},{"arcs":[[-158,-295,-311,-286,-142]],"type":"Polygon","properties":{"state":"MS","name":"RIENZI","zip":"38865"}},{"arcs":[[-263,-283,-322,-334]],"type":"Polygon","properties":{"state":"MS","name":"SALTILLO","zip":"38866"}},{"arcs":[[-349,-259,-348,-340,-347]],"type":"Polygon","properties":{"state":"MS","name":"SHANNON","zip":"38868"}},{"arcs":[[-270,-342,-302,354,-316]],"type":"Polygon","properties":{"state":"MS","name":"SMITHVILLE","zip":"38870"}},{"arcs":[[-77,-352,355]],"type":"Polygon","properties":{"state":"MS","name":"THAXTON","zip":"38871"}},{"arcs":[[-333,356,-279,-299,-343,-289]],"type":"Polygon","properties":{"state":"MS","name":"TISHOMINGO","zip":"38873"}},{"arcs":[[-301,-314,357,-317,-355]],"type":"Polygon","properties":{"state":"MS","name":"TREMONT","zip":"38876"}},{"arcs":[[358,359,-353,-324,-330]],"type":"Polygon","properties":{"state":"MS","name":"VARDAMAN","zip":"38878"}},{"arcs":[[360,361,362,363,364]],"type":"Polygon","properties":{"state":"MS","name":"GRENADA","zip":"38901"}},{"arcs":[[365,366,367,368]],"type":"Polygon","properties":{"state":"MS","name":"AVALON","zip":"38912"}},{"arcs":[[369,370,371,372]],"type":"Polygon","properties":{"state":"MS","name":"BANNER","zip":"38913"}},{"arcs":[[373,374,375,376]],"type":"Polygon","properties":{"state":"MS","name":"BIG CREEK","zip":"38914"}},{"arcs":[[377,-376,378,379,-370,380,381]],"type":"Polygon","properties":{"state":"MS","name":"BRUCE","zip":"38915"}},{"arcs":[[382,383,-377,-378,384,385]],"type":"Polygon","properties":{"state":"MS","name":"CALHOUN CITY","zip":"38916"}},{"arcs":[[386,387,388,-367,389]],"type":"Polygon","properties":{"state":"MS","name":"CARROLLTON","zip":"38917"}},{"arcs":[[390,391,392,393,394]],"type":"Polygon","properties":{"state":"MS","name":"CASCILLA","zip":"38920"}},{"arcs":[[395,-108,396,397,398,-393,399,400,-213]],"type":"Polygon","properties":{"state":"MS","name":"CHARLESTON","zip":"38921"}},{"arcs":[[401,402,-364,403,404,405,406,-379,-375]],"type":"Polygon","properties":{"state":"MS","name":"COFFEEVILLE","zip":"38922"}},{"arcs":[[407,408,-388,409,410,411,412]],"type":"Polygon","properties":{"state":"MS","name":"COILA","zip":"38923"}},{"arcs":[[413,414,415,416,417]],"type":"Polygon","properties":{"state":"MS","name":"CRUGER","zip":"38924"}},{"arcs":[[418,419,420,421,-365,-403,422,423]],"type":"Polygon","properties":{"state":"MS","name":"DUCK HILL","zip":"38925"}},{"arcs":[[-107,-14,-136,424,-397]],"type":"Polygon","properties":{"state":"MS","name":"ENID","zip":"38927"}},{"arcs":[[-423,-402,-374,-384]],"type":"Polygon","properties":{"state":"MS","name":"GORE SPRINGS","zip":"38929"}},{"arcs":[[-409,425,426,427,428,429,430,-368,-389]],"type":"Polygon","properties":{"state":"MS","name":"GREENWOOD","zip":"38930"}},{"arcs":[[431,-369,-431,432,-391,433,-362]],"type":"Polygon","properties":{"state":"MS","name":"HOLCOMB","zip":"38940"}},{"arcs":[[-247,-253,434,-427,435,-416,436,-241]],"type":"Polygon","properties":{"state":"MS","name":"ITTA BENA","zip":"38941"}},{"arcs":[[-432,-361,-422,437,-390,-366]],"type":"Polygon","properties":{"state":"MS","name":"MC CARLEY","zip":"38943"}},{"arcs":[[-251,-214,-401,438,-429,439,-205]],"type":"Polygon","properties":{"state":"MS","name":"MINTER CITY","zip":"38944"}},{"arcs":[[440,-398,-425,-135,-58,441,-406]],"type":"Polygon","properties":{"state":"MS","name":"OAKLAND","zip":"38948"}},{"arcs":[[442,-133,443,-372]],"type":"Polygon","properties":{"state":"MS","name":"PARIS","zip":"38949"}},{"arcs":[[-439,-400,-392,-433,-430]],"type":"Polygon","properties":{"state":"MS","name":"PHILIPP","zip":"38950"}},{"arcs":[[-382,444,-385]],"type":"Polygon","properties":{"state":"MS","name":"PITTSBORO","zip":"38951"}},{"arcs":[[-435,-252,-206,-440,-428]],"type":"Polygon","properties":{"state":"MS","name":"SCHLATER","zip":"38952"}},{"arcs":[[-363,-434,-395,445,-404]],"type":"Polygon","properties":{"state":"MS","name":"SCOBEY","zip":"38953"}},{"arcs":[[-417,-436,-426,-408]],"type":"Polygon","properties":{"state":"MS","name":"SIDON","zip":"38954"}},{"arcs":[[-399,-441,-405,-446,-394]],"type":"Polygon","properties":{"state":"MS","name":"TILLATOBA","zip":"38961"}},{"arcs":[[-109,-396,-212,-40]],"type":"Polygon","properties":{"state":"MS","name":"TUTWILER","zip":"38963"}},{"arcs":[[-407,-442,-60,-22,-153,-134,-443,-371,-380]],"type":"Polygon","properties":{"state":"MS","name":"WATER VALLEY","zip":"38965"}},{"arcs":[[-387,-438,-421,446,447,-410]],"type":"Polygon","properties":{"state":"MS","name":"WINONA","zip":"38967"}},{"arcs":[[-232,-243,-242,-437,-415,448,449,450,-180]],"type":"Polygon","properties":{"state":"MS","name":"BELZONI","zip":"39038"}},{"arcs":[[451,452,453,454,455]],"type":"Polygon","properties":{"state":"MS","name":"BENTON","zip":"39039"}},{"arcs":[[456,457,-456,458,459,460,461,462]],"type":"Polygon","properties":{"state":"MS","name":"BENTONIA","zip":"39040"}},{"arcs":[[463,464,465,466,-462,467]],"type":"Polygon","properties":{"state":"MS","name":"BOLTON","zip":"39041"}},{"arcs":[[468,469,470,471,472,473,474,475,476]],"type":"Polygon","properties":{"state":"MS","name":"BRANDON","zip":"39042"}},{"arcs":[[477,478,479,480,-469]],"type":"Polygon","properties":{"state":"MS","name":"BRAXTON","zip":"39044"}},{"arcs":[[481,482,483,484]],"type":"Polygon","properties":{"state":"MS","name":"CAMDEN","zip":"39045"}},{"arcs":[[485,-460,486,487,-483,488,489,490,491]],"type":"Polygon","properties":{"state":"MS","name":"CANTON","zip":"39046"}},{"arcs":[[492,493,494,-491,495,496,497,-473,498]],"type":"Polygon","properties":{"state":"MS","name":"BRANDON","zip":"39047"}},{"arcs":[[499,500,501,502,-489,-482,503,504,505]],"type":"Polygon","properties":{"state":"MS","name":"CARTHAGE","zip":"39051"}},{"arcs":[[506,507,-464,508]],"type":"Polygon","properties":{"state":"MS","name":"CLINTON","zip":"39056"}},{"arcs":[[509,510,511,512,-500,513]],"type":"Polygon","properties":{"state":"MS","name":"CONEHATTA","zip":"39057"}},{"arcs":[[514,515,516,517,518,519]],"type":"Polygon","properties":{"state":"MS","name":"CRYSTAL SPRINGS","zip":"39059"}},{"arcs":[[520,521,522,523]],"type":"Polygon","properties":{"state":"MS","name":"DURANT","zip":"39063"}},{"arcs":[[524,525,526,-466,527,528]],"type":"Polygon","properties":{"state":"MS","name":"EDWARDS","zip":"39066"}},{"arcs":[[529,530,531,532,533,534]],"type":"Polygon","properties":{"state":"MS","name":"ETHEL","zip":"39067"}},{"arcs":[[535,536,537,538,539,540,541]],"type":"Polygon","properties":{"state":"MS","name":"FAYETTE","zip":"39069"}},{"arcs":[[542,543,-509,-468,-461,-486,544]],"type":"Polygon","properties":{"state":"MS","name":"FLORA","zip":"39071"}},{"arcs":[[545,546,547,548,549,-470,-481,550,-520]],"type":"Polygon","properties":{"state":"MS","name":"FLORENCE","zip":"39073"}},{"arcs":[[551,552,553,554,-511,555,556]],"type":"Polygon","properties":{"state":"MS","name":"FOREST","zip":"39074"}},{"arcs":[[557,558,-516,559,560]],"type":"Polygon","properties":{"state":"MS","name":"GEORGETOWN","zip":"39078"}},{"arcs":[[561,562,-524,563]],"type":"Polygon","properties":{"state":"MS","name":"GOODMAN","zip":"39079"}},{"arcs":[[564,-560,-515,-551,-480]],"type":"Polygon","properties":{"state":"MS","name":"HARRISVILLE","zip":"39082"}},{"arcs":[[565,566,567,568,-517,-559,569,570,571]],"type":"Polygon","properties":{"state":"MS","name":"HAZLEHURST","zip":"39083"}},{"arcs":[[572,573,574,-525,575,-568]],"type":"Polygon","properties":{"state":"MS","name":"HERMANVILLE","zip":"39086"}},{"arcs":[[-505,576,577,-535,578,579]],"type":"Polygon","properties":{"state":"MS","name":"KOSCIUSKO","zip":"39090"}},{"arcs":[[-510,580,581,-556]],"type":"Polygon","properties":{"state":"MS","name":"LAKE","zip":"39092"}},{"arcs":[[-490,-503,582,-554,583,-496]],"type":"Polygon","properties":{"state":"MS","name":"LENA","zip":"39094"}},{"arcs":[[584,-453,585,586,-418,-413,587,-522]],"type":"Polygon","properties":{"state":"MS","name":"LEXINGTON","zip":"39095"}},{"arcs":[[588,589,590,-539]],"type":"Polygon","properties":{"state":"MS","name":"LORMAN","zip":"39096"}},{"arcs":[[591,592,-181,-451,593]],"type":"Polygon","properties":{"state":"MS","name":"LOUISE","zip":"39097"}},{"arcs":[[-534,594,595,-579]],"type":"Polygon","properties":{"state":"MS","name":"MC COOL","zip":"39108"}},{"arcs":[[596,597,-545,-492,-495]],"type":"Polygon","properties":{"state":"MS","name":"MADISON","zip":"39110"}},{"arcs":[[598,599,600,601,602]],"type":"Polygon","properties":{"state":"MS","name":"MAGEE","zip":"39111"}},{"arcs":[[[603,604,605,606,-220,-233,-178]],[[607]]],"type":"MultiPolygon","properties":{"state":"MS","name":"MAYERSVILLE","zip":"39113"}},{"arcs":[[608,609,-478,-477,610,-599]],"type":"Polygon","properties":{"state":"MS","name":"MENDENHALL","zip":"39114"}},{"arcs":[[611,-601,612,613,614]],"type":"Polygon","properties":{"state":"MS","name":"MIZE","zip":"39116"}},{"arcs":[[615,-475,616,-497,-584,-553,617]],"type":"Polygon","properties":{"state":"MS","name":"MORTON","zip":"39117"}},{"arcs":[[618,-602,-612,619]],"type":"Polygon","properties":{"state":"MS","name":"MOUNT OLIVE","zip":"39119"}},{"arcs":[[[620,621,622,-589,-538]],[[623]]],"type":"MultiPolygon","properties":{"state":"MS","name":"NATCHEZ","zip":"39120"}},{"arcs":[[624,625,626,627,-570,-558,628]],"type":"Polygon","properties":{"state":"MS","name":"NEWHEBRON","zip":"39140"}},{"arcs":[[629,-541,630,-573,-567]],"type":"Polygon","properties":{"state":"MS","name":"PATTISON","zip":"39144"}},{"arcs":[[-498,-617,-474]],"type":"Polygon","properties":{"state":"MS","name":"PELAHATCHIE","zip":"39145"}},{"arcs":[[631,-454,-585,-521,-563,632,-484,-488]],"type":"Polygon","properties":{"state":"MS","name":"PICKENS","zip":"39146"}},{"arcs":[[633,-629,-561,-565,-479,-610]],"type":"Polygon","properties":{"state":"MS","name":"PINOLA","zip":"39149"}},{"arcs":[[[634,635,-574,-631,-540,-591,636]],[[637]]],"type":"MultiPolygon","properties":{"state":"MS","name":"PORT GIBSON","zip":"39150"}},{"arcs":[[638,-618,-552]],"type":"Polygon","properties":{"state":"MS","name":"PULASKI","zip":"39152"}},{"arcs":[[-611,-476,-616,-639,-557,-582,639,640,-613,-600]],"type":"Polygon","properties":{"state":"MS","name":"RALEIGH","zip":"39153"}},{"arcs":[[-465,-508,641,642,643,644,-528]],"type":"Polygon","properties":{"state":"MS","name":"RAYMOND","zip":"39154"}},{"arcs":[[645,646,647]],"type":"Polygon","properties":{"state":"MS","name":"REDWOOD","zip":"39156"}},{"arcs":[[648,-597,-494,649,650]],"type":"Polygon","properties":{"state":"MS","name":"RIDGELAND","zip":"39157"}},{"arcs":[[-182,-593,651,652,653,-604]],"type":"Polygon","properties":{"state":"MS","name":"ROLLING FORK","zip":"39159"}},{"arcs":[[-485,-633,-562,654,-577,-504]],"type":"Polygon","properties":{"state":"MS","name":"SALLIS","zip":"39160"}},{"arcs":[[655,-653,656,-457,657,-648]],"type":"Polygon","properties":{"state":"MS","name":"SATARTIA","zip":"39162"}},{"arcs":[[658,-594,-450,659]],"type":"Polygon","properties":{"state":"MS","name":"SILVER CITY","zip":"39166"}},{"arcs":[[-641,660,661,662,-614]],"type":"Polygon","properties":{"state":"MS","name":"TAYLORSVILLE","zip":"39168"}},{"arcs":[[663,-660,-449,-414,-587]],"type":"Polygon","properties":{"state":"MS","name":"TCHULA","zip":"39169"}},{"arcs":[[-519,664,-644,665,666,-546]],"type":"Polygon","properties":{"state":"MS","name":"TERRY","zip":"39170"}},{"arcs":[[-569,-576,-529,-645,-665,-518]],"type":"Polygon","properties":{"state":"MS","name":"UTICA","zip":"39175"}},{"arcs":[[667,-411,-448,668,-531]],"type":"Polygon","properties":{"state":"MS","name":"VAIDEN","zip":"39176"}},{"arcs":[[669,-605,-654,-656,-647]],"type":"Polygon","properties":{"state":"MS","name":"VALLEY PARK","zip":"39177"}},{"arcs":[[-455,-632,-487,-459]],"type":"Polygon","properties":{"state":"MS","name":"VAUGHAN","zip":"39179"}},{"arcs":[[[-636,670,671,-526,-575]],[[672]]],"type":"MultiPolygon","properties":{"state":"MS","name":"VICKSBURG","zip":"39180"}},{"arcs":[[-672,673,-606,-670,-646,-658,-463,-467,-527]],"type":"Polygon","properties":{"state":"MS","name":"VICKSBURG","zip":"39183"}},{"arcs":[[-512,-555,-583,-502,674]],"type":"Polygon","properties":{"state":"MS","name":"WALNUT GROVE","zip":"39189"}},{"arcs":[[675,676,-571,-628]],"type":"Polygon","properties":{"state":"MS","name":"WESSON","zip":"39191"}},{"arcs":[[-588,-412,-668,-530,-578,-655,-564,-523]],"type":"Polygon","properties":{"state":"MS","name":"WEST","zip":"39192"}},{"arcs":[[-458,-657,-652,-592,-659,-664,-586,-452]],"type":"Polygon","properties":{"state":"MS","name":"YAZOO CITY","zip":"39194"}},{"arcs":[[677,678,679,680,681]],"type":"Polygon","properties":{"state":"MS","name":"JACKSON","zip":"39201"}},{"arcs":[[682,683,684,685,-681]],"type":"Polygon","properties":{"state":"MS","name":"JACKSON","zip":"39202"}},{"arcs":[[686,687,688,-683,-680]],"type":"Polygon","properties":{"state":"MS","name":"JACKSON","zip":"39203"}},{"arcs":[[689,690,691,692,-687,-679]],"type":"Polygon","properties":{"state":"MS","name":"JACKSON","zip":"39204"}},{"arcs":[[693,694,695,-651]],"type":"Polygon","properties":{"state":"MS","name":"JACKSON","zip":"39206"}},{"arcs":[[-550,696,-690,-678,697,-471]],"type":"Polygon","properties":{"state":"MS","name":"PEARL","zip":"39208"}},{"arcs":[[698,-642,-507,-544,699,-688,-693]],"type":"Polygon","properties":{"state":"MS","name":"JACKSON","zip":"39209"}},{"arcs":[[700,701,-694,-650,-493]],"type":"Polygon","properties":{"state":"MS","name":"JACKSON","zip":"39211"}},{"arcs":[[702,-666,-643,-699,-692,703,-548]],"type":"Polygon","properties":{"state":"MS","name":"JACKSON","zip":"39212"}},{"arcs":[[704,-684,-689,-700,-543,-598,-649,-696]],"type":"Polygon","properties":{"state":"MS","name":"JACKSON","zip":"39213"}},{"arcs":[[-705,-695,-702,705,-685]],"type":"Polygon","properties":{"state":"MS","name":"JACKSON","zip":"39216"}},{"arcs":[[-549,-704,-691,-697]],"type":"Polygon","properties":{"state":"MS","name":"RICHLAND","zip":"39218"}},{"arcs":[[-706,-701,-499,-472,-698,-682,-686]],"type":"Polygon","properties":{"state":"MS","name":"FLOWOOD","zip":"39232"}},{"arcs":[[-703,-547,-667]],"type":"Polygon","properties":{"state":"MS","name":"BYRAM","zip":"39272"}},{"arcs":[[706,707,708,709,710,711,712]],"type":"Polygon","properties":{"state":"MS","name":"MERIDIAN","zip":"39301"}},{"arcs":[[713,714,715,716,717,718,719,720,-709,721]],"type":"Polygon","properties":{"state":"MS","name":"MERIDIAN","zip":"39305"}},{"arcs":[[722,723,724,-722,-708,725]],"type":"Polygon","properties":{"state":"MS","name":"MERIDIAN","zip":"39307"}},{"arcs":[[726,727,728,-719]],"type":"Polygon","properties":{"state":"MS","name":"MERIDIAN","zip":"39309"}},{"arcs":[[729,730,-716]],"type":"Polygon","properties":{"state":"MS","name":"BAILEY","zip":"39320"}},{"arcs":[[731,732,733]],"type":"Polygon","properties":{"state":"MS","name":"BUCKATUNNA","zip":"39322"}},{"arcs":[[734,735,736,737,738,-723]],"type":"Polygon","properties":{"state":"MS","name":"CHUNKY","zip":"39323"}},{"arcs":[[-725,739,740,741,-714]],"type":"Polygon","properties":{"state":"MS","name":"COLLINSVILLE","zip":"39325"}},{"arcs":[[742,743,-717,-731]],"type":"Polygon","properties":{"state":"MS","name":"DALEVILLE","zip":"39326"}},{"arcs":[[744,745,746,747,748,-738]],"type":"Polygon","properties":{"state":"MS","name":"DECATUR","zip":"39327"}},{"arcs":[[-715,-742,749,750,751,752,753,-743,-730]],"type":"Polygon","properties":{"state":"MS","name":"DE KALB","zip":"39328"}},{"arcs":[[754,755,756,757,-735,-726,-707]],"type":"Polygon","properties":{"state":"MS","name":"ENTERPRISE","zip":"39330"}},{"arcs":[[758,759,-745,-737]],"type":"Polygon","properties":{"state":"MS","name":"HICKORY","zip":"39332"}},{"arcs":[[[-729,760,761,762,-720]],[[-744,-754,763,-727,-718]]],"type":"MultiPolygon","properties":{"state":"MS","name":"LAUDERDALE","zip":"39335"}},{"arcs":[[764,765,766]],"type":"Polygon","properties":{"state":"MS","name":"LAWRENCE","zip":"39336"}},{"arcs":[[-739,-749,767,768,-740,-724]],"type":"Polygon","properties":{"state":"MS","name":"LITTLE ROCK","zip":"39337"}},{"arcs":[[-765,769,770,771,772,773]],"type":"Polygon","properties":{"state":"MS","name":"LOUIN","zip":"39338"}},{"arcs":[[774,775,776,777,778,779,780,781,782,783]],"type":"Polygon","properties":{"state":"MS","name":"LOUISVILLE","zip":"39339"}},{"arcs":[[784,785,786,-775,787,788,789]],"type":"Polygon","properties":{"state":"MS","name":"MACON","zip":"39341"}},{"arcs":[[790,-770,-767,791,-746,-760]],"type":"Polygon","properties":{"state":"MS","name":"NEWTON","zip":"39345"}},{"arcs":[[792,793,-778]],"type":"Polygon","properties":{"state":"MS","name":"NOXAPATER","zip":"39346"}},{"arcs":[[794,795,796,797,-757]],"type":"Polygon","properties":{"state":"MS","name":"PACHUTA","zip":"39347"}},{"arcs":[[798,799,-772,800,801]],"type":"Polygon","properties":{"state":"MS","name":"PAULDING","zip":"39348"}},{"arcs":[[802,803,-793,-777,804,-750,-741,-769]],"type":"Polygon","properties":{"state":"MS","name":"PHILADELPHIA","zip":"39350"}},{"arcs":[[-728,-764,-753,805,806,-761]],"type":"Polygon","properties":{"state":"MS","name":"PORTERVILLE","zip":"39352"}},{"arcs":[[807,-751,-805,-776,-787]],"type":"Polygon","properties":{"state":"MS","name":"PRESTON","zip":"39354"}},{"arcs":[[-756,808,-712,809,810,-795]],"type":"Polygon","properties":{"state":"MS","name":"QUITMAN","zip":"39355"}},{"arcs":[[-771,-791,-759,-736,-758,-798,811,-801]],"type":"Polygon","properties":{"state":"MS","name":"ROSE HILL","zip":"39356"}},{"arcs":[[-808,-786,812,-790,813,-806,-752]],"type":"Polygon","properties":{"state":"MS","name":"SCOOBA","zip":"39358"}},{"arcs":[[814,815,-796,-811,816,817,818]],"type":"Polygon","properties":{"state":"MS","name":"SHUBUTA","zip":"39360"}},{"arcs":[[-813,-785]],"type":"Polygon","properties":{"state":"MS","name":"SHUQUALAK","zip":"39361"}},{"arcs":[[819,820,821,-732,822]],"type":"Polygon","properties":{"state":"MS","name":"STATE LINE","zip":"39362"}},{"arcs":[[-755,-713,-809]],"type":"Polygon","properties":{"state":"MS","name":"STONEWALL","zip":"39363"}},{"arcs":[[823,-710,-721,-763]],"type":"Polygon","properties":{"state":"MS","name":"TOOMSUBA","zip":"39364"}},{"arcs":[[-748,824,-803,-768]],"type":"Polygon","properties":{"state":"MS","name":"UNION","zip":"39365"}},{"arcs":[[825,-802,-812,-797,-816]],"type":"Polygon","properties":{"state":"MS","name":"VOSSBURG","zip":"39366"}},{"arcs":[[-822,826,827,-818,828,-733]],"type":"Polygon","properties":{"state":"MS","name":"WAYNESBORO","zip":"39367"}},{"arcs":[[829,830,831,832,833,834]],"type":"Polygon","properties":{"state":"MS","name":"HATTIESBURG","zip":"39401"}},{"arcs":[[835,836,837,-831]],"type":"Polygon","properties":{"state":"MS","name":"HATTIESBURG","zip":"39402"}},{"arcs":[[838,839,840,841,842,843]],"type":"Polygon","properties":{"state":"MS","name":"BASSFIELD","zip":"39421"}},{"arcs":[[844,845,-773,-800,846,847]],"type":"Polygon","properties":{"state":"MS","name":"BAY SPRINGS","zip":"39422"}},{"arcs":[[848,849,850,851,852,853]],"type":"Polygon","properties":{"state":"MS","name":"BEAUMONT","zip":"39423"}},{"arcs":[[854,855,856]],"type":"Polygon","properties":{"state":"MS","name":"BROOKLYN","zip":"39425"}},{"arcs":[[857,858,859,860]],"type":"Polygon","properties":{"state":"MS","name":"CARRIERE","zip":"39426"}},{"arcs":[[861,862,-840]],"type":"Polygon","properties":{"state":"MS","name":"CARSON","zip":"39427"}},{"arcs":[[863,-620,-615,-663,864,865,866,-841,-863]],"type":"Polygon","properties":{"state":"MS","name":"COLLINS","zip":"39428"}},{"arcs":[[867,868,869,870,-844,871,872,873,874]],"type":"Polygon","properties":{"state":"MS","name":"COLUMBIA","zip":"39429"}},{"arcs":[[875,876,-866,877,878]],"type":"Polygon","properties":{"state":"MS","name":"ELLISVILLE","zip":"39437"}},{"arcs":[[879,-847,-799,-826,-815]],"type":"Polygon","properties":{"state":"MS","name":"HEIDELBERG","zip":"39439"}},{"arcs":[[880,881]],"type":"Polygon","properties":{"state":"MS","name":"LAUREL","zip":"39440"}},{"arcs":[[882,883,884,-881,885,886,-848,-880,-819,-828]],"type":"Polygon","properties":{"state":"MS","name":"LAUREL","zip":"39443"}},{"arcs":[[887,888,889,890,891,-820]],"type":"Polygon","properties":{"state":"MS","name":"LEAKESVILLE","zip":"39451"}},{"arcs":[[892,893,894,895,896,-854,897,-889]],"type":"Polygon","properties":{"state":"MS","name":"LUCEDALE","zip":"39452"}},{"arcs":[[898,899,-873,900,901,-835,902]],"type":"Polygon","properties":{"state":"MS","name":"LUMBERTON","zip":"39455"}},{"arcs":[[-898,-853,903,-890]],"type":"Polygon","properties":{"state":"MS","name":"MC LAIN","zip":"39456"}},{"arcs":[[-833,904,-876,905]],"type":"Polygon","properties":{"state":"MS","name":"MOSELLE","zip":"39459"}},{"arcs":[[-904,-852,906,-891]],"type":"Polygon","properties":{"state":"MS","name":"NEELY","zip":"39461"}},{"arcs":[[907,908,-850,909,-855,910]],"type":"Polygon","properties":{"state":"MS","name":"NEW AUGUSTA","zip":"39462"}},{"arcs":[[911,912,913,-884]],"type":"Polygon","properties":{"state":"MS","name":"OVETT","zip":"39464"}},{"arcs":[[914,-908,915,-913]],"type":"Polygon","properties":{"state":"MS","name":"PETAL","zip":"39465"}},{"arcs":[[916,-861,917,918,919]],"type":"Polygon","properties":{"state":"MS","name":"PICAYUNE","zip":"39466"}},{"arcs":[[920,-874,-900,921,-859]],"type":"Polygon","properties":{"state":"MS","name":"POPLARVILLE","zip":"39470"}},{"arcs":[[922,-625,-634,-609,-603,-619,-864,-862,-839,-871,923]],"type":"Polygon","properties":{"state":"MS","name":"PRENTISS","zip":"39474"}},{"arcs":[[-902,924,-836,-830]],"type":"Polygon","properties":{"state":"MS","name":"PURVIS","zip":"39475"}},{"arcs":[[-851,-909,-915,-912,-883,-827,-821,-892,-907]],"type":"Polygon","properties":{"state":"MS","name":"RICHTON","zip":"39476"}},{"arcs":[[925,926,927,-868]],"type":"Polygon","properties":{"state":"MS","name":"SANDY HOOK","zip":"39478"}},{"arcs":[[-838,928,-842,-867,-877,-905,-832]],"type":"Polygon","properties":{"state":"MS","name":"SEMINARY","zip":"39479"}},{"arcs":[[-662,929,-878,-865]],"type":"Polygon","properties":{"state":"MS","name":"SOSO","zip":"39480"}},{"arcs":[[-845,-887,930]],"type":"Polygon","properties":{"state":"MS","name":"STRINGER","zip":"39481"}},{"arcs":[[-901,-872,-843,-929,-837,-925]],"type":"Polygon","properties":{"state":"MS","name":"SUMRALL","zip":"39482"}},{"arcs":[[931,932,933,934,935,-869,-928]],"type":"Polygon","properties":{"state":"MS","name":"FOXWORTH","zip":"39483"}},{"arcs":[[936,937,938,939]],"type":"Polygon","properties":{"state":"MS","name":"GULFPORT","zip":"39501"}},{"arcs":[[940,-938,941,942,943,944]],"type":"Polygon","properties":{"state":"MS","name":"GULFPORT","zip":"39503"}},{"arcs":[[-941,945,-939]],"type":"Polygon","properties":{"state":"MS","name":"GULFPORT","zip":"39507"}},{"arcs":[[946,947,948,-920,949,950,951]],"type":"Polygon","properties":{"state":"MS","name":"BAY SAINT LOUIS","zip":"39520"}},{"arcs":[[-951,952,953,954]],"type":"Polygon","properties":{"state":"MS","name":"DIAMONDHEAD","zip":"39525"}},{"arcs":[[955,956,957]],"type":"Polygon","properties":{"state":"MS","name":"BILOXI","zip":"39530"}},{"arcs":[[958,-956,959,-946]],"type":"Polygon","properties":{"state":"MS","name":"BILOXI","zip":"39531"}},{"arcs":[[960,961,962,963,-957,-959,-945],[964]],"type":"Polygon","properties":{"state":"MS","name":"BILOXI","zip":"39532"}},{"arcs":[[-965]],"type":"Polygon","properties":{"state":"MS","name":"DIBERVILLE","zip":"39540"}},{"arcs":[[965,966,967,968,969]],"type":"Polygon","properties":{"state":"MS","name":"GAUTIER","zip":"39553"}},{"arcs":[[970,-953,-950,-919,971,972]],"type":"Polygon","properties":{"state":"MS","name":"KILN","zip":"39556"}},{"arcs":[[-942,-937,973]],"type":"Polygon","properties":{"state":"MS","name":"LONG BEACH","zip":"39560"}},{"arcs":[[974,975]],"type":"Polygon","properties":{"state":"MS","name":"MC HENRY","zip":"39561"}},{"arcs":[[976,977,978,-894,979]],"type":"Polygon","properties":{"state":"MS","name":"MOSS POINT","zip":"39562"}},{"arcs":[[980,981,-968,982,-978]],"type":"Polygon","properties":{"state":"MS","name":"MOSS POINT","zip":"39563"}},{"arcs":[[-963,983,-966,984]],"type":"Polygon","properties":{"state":"MS","name":"OCEAN SPRINGS","zip":"39564"}},{"arcs":[[-967,-984,-962,985,986,-895,-979,-983]],"type":"Polygon","properties":{"state":"MS","name":"OCEAN SPRINGS","zip":"39565"}},{"arcs":[[987,988,-969,-982]],"type":"Polygon","properties":{"state":"MS","name":"PASCAGOULA","zip":"39567"}},{"arcs":[[-971,989,-954]],"type":"Polygon","properties":{"state":"MS","name":"PASS CHRISTIAN","zip":"39571"}},{"arcs":[[990,-948]],"type":"Polygon","properties":{"state":"MS","name":"PEARLINGTON","zip":"39572"}},{"arcs":[[-922,-899,991,-972,-918,-860]],"type":"Polygon","properties":{"state":"MS","name":"PERKINSTON","zip":"39573"}},{"arcs":[[-975,992,-986,-961,-944,993,994]],"type":"Polygon","properties":{"state":"MS","name":"SAUCIER","zip":"39574"}},{"arcs":[[-856,-910,-849,-897,995]],"type":"Polygon","properties":{"state":"MS","name":"WIGGINS","zip":"39577"}},{"arcs":[[-981,-977,996,-988]],"type":"Polygon","properties":{"state":"MS","name":"PASCAGOULA","zip":"39581"}},{"arcs":[[997,998,999,-572,-677,1000,1001,1002,1003]],"type":"Polygon","properties":{"state":"MS","name":"BROOKHAVEN","zip":"39601"}},{"arcs":[[1004,1005,1006,1007,-998]],"type":"Polygon","properties":{"state":"MS","name":"BOGUE CHITTO","zip":"39629"}},{"arcs":[[1008,1009,1010]],"type":"Polygon","properties":{"state":"MS","name":"CENTREVILLE","zip":"39631"}},{"arcs":[[1011,1012,1013]],"type":"Polygon","properties":{"state":"MS","name":"CROSBY","zip":"39633"}},{"arcs":[[1014,1015,-1011,1016,-1014,1017,1018,1019]],"type":"Polygon","properties":{"state":"MS","name":"GLOSTER","zip":"39638"}},{"arcs":[[1020,1021,-1003,1022,-934,1023,1024]],"type":"Polygon","properties":{"state":"MS","name":"JAYESS","zip":"39641"}},{"arcs":[[1025,-1024,-933]],"type":"Polygon","properties":{"state":"MS","name":"KOKOMO","zip":"39643"}},{"arcs":[[1026,1027,-1015,1028,1029,1030]],"type":"Polygon","properties":{"state":"MS","name":"LIBERTY","zip":"39645"}},{"arcs":[[1031,1032,-536,1033,-999,-1008,1034]],"type":"Polygon","properties":{"state":"MS","name":"MC CALL CREEK","zip":"39647"}},{"arcs":[[1035,1036,1037,1038]],"type":"Polygon","properties":{"state":"MS","name":"MCCOMB","zip":"39648"}},{"arcs":[[1039,-1038,1040,-1031]],"type":"Polygon","properties":{"state":"MS","name":"MAGNOLIA","zip":"39652"}},{"arcs":[[1041,-1032,1042,-1019]],"type":"Polygon","properties":{"state":"MS","name":"MEADVILLE","zip":"39653"}},{"arcs":[[1043,-935,-1023,-1002,1044,1045]],"type":"Polygon","properties":{"state":"MS","name":"MONTICELLO","zip":"39654"}},{"arcs":[[-870,-936,-1044,1046,-924]],"type":"Polygon","properties":{"state":"MS","name":"OAK VALE","zip":"39656"}},{"arcs":[[-1041,-1037,1047,1048,-1027]],"type":"Polygon","properties":{"state":"MS","name":"OSYKA","zip":"39657"}},{"arcs":[[-1013,1049,-621,-537,-1033,-1042,-1018]],"type":"Polygon","properties":{"state":"MS","name":"ROXIE","zip":"39661"}},{"arcs":[[1050,-1005,-1004,-1022]],"type":"Polygon","properties":{"state":"MS","name":"RUTH","zip":"39662"}},{"arcs":[[-1047,-1046,1051,-626,-923]],"type":"Polygon","properties":{"state":"MS","name":"SILVER CREEK","zip":"39663"}},{"arcs":[[-1043,-1035,-1007,1052,-1029,-1020]],"type":"Polygon","properties":{"state":"MS","name":"SMITHDALE","zip":"39664"}},{"arcs":[[-1001,-676,-627,-1052,-1045]],"type":"Polygon","properties":{"state":"MS","name":"SONTAG","zip":"39665"}},{"arcs":[[-1040,-1030,-1053,-1006,-1051,-1021,1053,-1039]],"type":"Polygon","properties":{"state":"MS","name":"SUMMIT","zip":"39666"}},{"arcs":[[1054,-1048,-1036,-1054,-1025,-1026,-932,-927]],"type":"Polygon","properties":{"state":"MS","name":"TYLERTOWN","zip":"39667"}},{"arcs":[[-542,-630,-566,-1000,-1034]],"type":"Polygon","properties":{"state":"MS","name":"UNION CHURCH","zip":"39668"}},{"arcs":[[[1055]],[[-1010,1056,-622,-1050,-1012,-1017]]],"type":"MultiPolygon","properties":{"state":"MS","name":"WOODVILLE","zip":"39669"}},{"arcs":[[1057,1058,1059,1060,1061,1062,1063]],"type":"Polygon","properties":{"state":"MS","name":"COLUMBUS","zip":"39701"}},{"arcs":[[1064,-1062,1065,1066]],"type":"Polygon","properties":{"state":"MS","name":"COLUMBUS","zip":"39702"}},{"arcs":[[1067,1068,1069,1070,-1066,-1061]],"type":"Polygon","properties":{"state":"MS","name":"COLUMBUS","zip":"39705"}},{"arcs":[[1071,1072,-344,-338,-268,-315,1073,1074]],"type":"Polygon","properties":{"state":"MS","name":"ABERDEEN","zip":"39730"}},{"arcs":[[1075,1076,1077,1078]],"type":"Polygon","properties":{"state":"MS","name":"ACKERMAN","zip":"39735"}},{"arcs":[[1079,1080,-1064,1081,-788,-784]],"type":"Polygon","properties":{"state":"MS","name":"BROOKSVILLE","zip":"39739"}},{"arcs":[[1082,1083,-1070,1084,-319,-308]],"type":"Polygon","properties":{"state":"MS","name":"CALEDONIA","zip":"39740"}},{"arcs":[[1085,1086,1087]],"type":"Polygon","properties":{"state":"MS","name":"CEDARBLUFF","zip":"39741"}},{"arcs":[[1088,-1058,-1081]],"type":"Polygon","properties":{"state":"MS","name":"CRAWFORD","zip":"39743"}},{"arcs":[[1089,1090,-424,-383,1091,-1078]],"type":"Polygon","properties":{"state":"MS","name":"EUPORA","zip":"39744"}},{"arcs":[[-595,-533,1092,-1076,1093]],"type":"Polygon","properties":{"state":"MS","name":"FRENCH CAMP","zip":"39745"}},{"arcs":[[1094,-1074,-320,-1085,-1069]],"type":"Polygon","properties":{"state":"MS","name":"HAMILTON","zip":"39746"}},{"arcs":[[-532,-669,-447,-420,1095,-1090,-1077,-1093]],"type":"Polygon","properties":{"state":"MS","name":"KILMICHAEL","zip":"39747"}},{"arcs":[[1096,1097,1098,1099,1100,1101]],"type":"Polygon","properties":{"state":"MS","name":"MABEN","zip":"39750"}},{"arcs":[[1102,1103,1104,1105,-1100]],"type":"Polygon","properties":{"state":"MS","name":"MANTEE","zip":"39751"}},{"arcs":[[1106,1107,-1103,-1099]],"type":"Polygon","properties":{"state":"MS","name":"MATHISTON","zip":"39752"}},{"arcs":[[1108,-1086,1109,-1102]],"type":"Polygon","properties":{"state":"MS","name":"PHEBA","zip":"39755"}},{"arcs":[[1110,-1072]],"type":"Polygon","properties":{"state":"MS","name":"PRAIRIE","zip":"39756"}},{"arcs":[[-1080,-783,1111,-1097,-1110,-1088,1112,-1059,-1089]],"type":"Polygon","properties":{"state":"MS","name":"STARKVILLE","zip":"39759"}},{"arcs":[[1113,-1067,-1071,-1084]],"type":"Polygon","properties":{"state":"MS","name":"STEENS","zip":"39766"}},{"arcs":[[-419,-1091,-1096]],"type":"Polygon","properties":{"state":"MS","name":"STEWART","zip":"39767"}},{"arcs":[[-1107,-1098,-1112,-782,1114]],"type":"Polygon","properties":{"state":"MS","name":"STURGIS","zip":"39769"}},{"arcs":[[-780,1115]],"type":"Polygon","properties":{"state":"MS","name":"WEIR","zip":"39772"}},{"arcs":[[-1101,-1106,1116,-328,-345,-1073,-1111,-1075,-1095,-1068,-1060,-1113,-1087,-1109]],"type":"Polygon","properties":{"state":"MS","name":"WEST POINT","zip":"39773"}},{"arcs":[[-359,-329,-1117,-1105,1117]],"type":"Polygon","properties":{"state":"MS","name":"WOODLAND","zip":"39776"}}]}},"arcs":[[[27484,10202],[18,-10]],[[27502,10192],[77,-13]],[[27579,10179],[-217,-81]],[[27362,10098],[122,104]],[[27696,10614],[139,8]],[[27835,10622],[0,-31]],[[27835,10591],[-13,-99]],[[27822,10492],[-45,-81]],[[27777,10411],[4,-20]],[[27781,10391],[-166,-105]],[[27615,10286],[0,237],[81,0],[0,91]],[[27272,9869],[-270,38],[50,-40]],[[27052,9867],[-41,-61]],[[27011,9806],[-49,0]],[[26962,9806],[0,61]],[[26962,9867],[-45,109]],[[26917,9976],[81,56]],[[26998,10032],[234,-48],[0,76]],[[27232,10060],[81,-28]],[[27313,10032],[-23,-53]],[[27290,9979],[-4,-120]],[[27286,9859],[-14,10]],[[27813,10223],[-32,33]],[[27781,10256],[0,135]],[[27777,10411],[130,-56],[0,-99]],[[27907,10256],[-94,-33]],[[27259,10434],[-9,63]],[[27250,10497],[36,166]],[[27286,10663],[121,0],[27,0]],[[27434,10663],[-27,-181]],[[27407,10482],[-13,-102],[-108,-5]],[[27286,10375],[-27,59]],[[26556,9658],[-130,107]],[[26426,9765],[-32,66]],[[26394,9831],[149,188],[-5,-5],[-9,-28],[27,-15],[0,8],[0,7],[0,33],[68,54]],[[26624,10073],[13,-153]],[[26637,9920],[81,-48]],[[26718,9872],[0,-36]],[[26718,9836],[0,-119]],[[26718,9717],[0,-89]],[[26718,9628],[-162,2]],[[26556,9630],[0,28]],[[26759,9963],[-122,-43]],[[26624,10073],[4,106]],[[26628,10179],[131,-101]],[[26759,10078],[0,-115]],[[26890,10289],[22,96]],[[26912,10385],[347,49]],[[27286,10375],[0,-23]],[[27286,10352],[-270,-43]],[[27016,10309],[-126,-20]],[[26998,10121],[0,61]],[[26998,10182],[63,28]],[[27061,10210],[265,0]],[[27326,10210],[99,3]],[[27425,10213],[-157,-89]],[[27268,10124],[-270,-3]],[[27277,9811],[-45,0]],[[27232,9811],[-180,56]],[[27272,9869],[5,-58]],[[26917,9991],[0,117],[-14,-117]],[[26903,9991],[-86,87]],[[26817,10078],[95,132]],[[26912,10210],[86,-28]],[[26998,10121],[-54,-74],[54,-15]],[[26917,9976],[0,15]],[[27979,10207],[-4,-2]],[[27975,10205],[-36,51]],[[27939,10256],[67,84]],[[28006,10340],[-13,-84],[49,-3]],[[28042,10253],[-63,-46]],[[26817,10078],[-58,0]],[[26628,10179],[5,178],[18,-20]],[[26651,10337],[-14,-89],[248,8]],[[26885,10256],[27,-46]],[[27736,10078],[5,-46]],[[27741,10032],[-86,28]],[[27655,10060],[0,91]],[[27655,10151],[81,-73]],[[27835,10591],[14,-7]],[[27849,10584],[76,-79]],[[27925,10505],[-103,-13]],[[26912,10434],[0,91]],[[26912,10525],[77,-30]],[[26989,10495],[157,46]],[[27146,10541],[104,-44]],[[26912,10385],[0,49]],[[27781,10256],[-126,-54]],[[27655,10202],[-40,84]],[[27326,10210],[-40,142]],[[27407,10482],[77,181]],[[27484,10663],[22,0]],[[27506,10663],[18,-133],[91,-23]],[[27615,10507],[0,-178]],[[27615,10329],[-54,-53]],[[27561,10276],[-59,104],[-72,-167]],[[27430,10213],[-5,0]],[[27056,10602],[-36,0]],[[27020,10602],[0,50]],[[27020,10652],[36,-50]],[[27007,10599],[-18,-104]],[[26912,10525],[-81,0]],[[26831,10525],[0,138],[131,0]],[[26962,10663],[-23,-74],[68,10]],[[27506,10663],[185,0],[5,-140],[-81,-16]],[[26718,9836],[244,31]],[[26962,9806],[0,-89]],[[26962,9717],[-77,0]],[[26885,9717],[-36,0],[-117,0],[-14,0]],[[26759,9963],[-41,-91]],[[26903,9991],[14,0]],[[27696,10663],[72,0],[67,0]],[[27835,10663],[0,-41]],[[27696,10614],[0,49]],[[27813,10223],[-77,-145]],[[27655,10151],[0,51]],[[27142,10571],[4,-30]],[[27007,10599],[13,3]],[[27056,10602],[63,-33]],[[27119,10569],[23,2]],[[27876,10047],[-108,-15]],[[27768,10032],[-27,0]],[[27907,10256],[32,0]],[[27975,10205],[-59,-13],[14,-41]],[[27930,10151],[-54,-104]],[[27142,10571],[-23,74]],[[27119,10645],[0,18]],[[27119,10663],[54,0],[27,0],[68,0],[18,0]],[[27439,9849],[-144,89],[117,38],[-122,3]],[[27313,10032],[4,0],[50,53],[-5,13]],[[27579,10179],[76,-28]],[[27655,10151],[0,-317]],[[27655,9834],[-207,5]],[[27448,9839],[-9,10]],[[27232,9811],[-108,0]],[[27124,9811],[-113,-5]],[[27502,10192],[59,84]],[[27615,10329],[40,-178]],[[27434,10663],[50,0]],[[27925,10505],[77,5]],[[28002,10510],[40,-36]],[[28042,10474],[27,-58]],[[28069,10416],[0,-79],[-63,3]],[[26714,10487],[0,3],[-5,0],[27,10],[-22,-13]],[[26912,10434],[-189,-33]],[[26723,10401],[108,124]],[[27016,10309],[45,-99]],[[26885,10256],[5,33]],[[27268,10124],[-36,-64]],[[27020,10652],[-13,11]],[[27007,10663],[36,0],[36,0],[40,0]],[[27119,10645],[0,-76]],[[27439,9849],[-153,10]],[[27849,10584],[81,10],[72,-84]],[[26651,10337],[-5,-51],[63,66],[-81,28],[95,21]],[[26962,10663],[45,0]],[[28038,10663],[54,-69],[-86,-43],[50,-71]],[[28056,10480],[-14,-6]],[[27835,10663],[5,0],[117,0],[81,0]],[[27484,10202],[-54,11]],[[26264,8893],[-23,18]],[[26241,8911],[-22,-28],[-28,15],[0,5],[-4,5],[-9,56],[31,48],[5,3],[0,2],[5,3],[27,35]],[[26246,9055],[27,-104],[117,31]],[[26390,8982],[54,0]],[[26444,8982],[4,-133],[-184,44]],[[26232,8722],[-18,-23]],[[26214,8699],[-23,-38]],[[26191,8661],[-4,23],[-18,18],[59,66]],[[26228,8768],[4,-46]],[[26146,9045],[45,21],[-22,-13],[-18,-10],[-5,2]],[[26331,9160],[-27,-115],[86,-63]],[[26246,9055],[-18,28],[-9,-10],[-5,-35],[-5,-5],[-85,127]],[[26124,9160],[180,81],[27,-81]],[[26372,9834],[-9,58],[31,-33],[-22,-25]],[[26367,9811],[72,-3],[-45,23]],[[26426,9765],[-95,0]],[[26331,9765],[36,46]],[[26358,8565],[0,58]],[[26358,8623],[0,94],[162,-2]],[[26520,8715],[36,-3]],[[26556,8712],[0,-145]],[[26556,8567],[-198,-2]],[[26178,9386],[0,28],[18,0],[4,-3],[-22,-25]],[[26349,9160],[-18,0]],[[26124,9160],[40,180],[59,-51],[-45,74],[63,48]],[[26241,9411],[72,-96]],[[26313,9315],[54,-36]],[[26367,9279],[-18,-119]],[[26313,9391],[0,-76]],[[26241,9411],[9,3],[23,-15],[18,7]],[[26291,9406],[22,-15]],[[26556,9312],[-162,-33]],[[26394,9279],[0,74],[162,-15]],[[26556,9338],[0,-26]],[[26259,8636],[-45,63]],[[26232,8722],[27,-86]],[[26313,9391],[81,112]],[[26394,9503],[68,0]],[[26462,9503],[112,-81]],[[26574,9422],[32,-61]],[[26606,9361],[-50,-23]],[[26394,9279],[-27,0]],[[26570,9233],[-14,79]],[[26606,9361],[112,-18]],[[26718,9343],[0,-31]],[[26718,9312],[-4,-73]],[[26714,9239],[-108,-44]],[[26606,9195],[-36,38]],[[26624,9439],[-68,59]],[[26556,9498],[0,81]],[[26556,9579],[0,51]],[[26718,9628],[0,-89]],[[26718,9539],[0,-89]],[[26718,9450],[0,-54]],[[26718,9396],[-94,43]],[[26417,9658],[-113,-13]],[[26304,9645],[68,97],[-14,-5],[-27,28]],[[26556,9658],[-139,0]],[[26259,8636],[14,-8]],[[26273,8628],[-100,0]],[[26173,8628],[5,16],[13,17]],[[26448,9569],[-54,-66]],[[26394,9503],[-135,31]],[[26259,9534],[18,104],[9,-18],[32,0],[-14,25]],[[26417,9658],[31,-89]],[[26228,8768],[-9,74],[22,18]],[[26241,8860],[23,33]],[[26444,8982],[31,2]],[[26475,8984],[23,-91]],[[26498,8893],[13,0]],[[26511,8893],[23,-89]],[[26534,8804],[-14,-89]],[[26358,8623],[-85,5]],[[26475,8984],[0,176]],[[26475,9160],[95,73]],[[26606,9195],[0,-71]],[[26606,9124],[9,-74]],[[26615,9050],[-117,-157]],[[26637,8908],[-126,-15]],[[26615,9050],[99,-48]],[[26714,9002],[0,-48]],[[26714,8954],[-77,-46]],[[26637,8908],[0,-104],[-103,0]],[[26349,9160],[126,0]],[[26462,9503],[94,-5]],[[26624,9439],[-50,-17]],[[26714,9134],[0,-132]],[[26606,9124],[108,10]],[[26448,9569],[108,10]],[[26291,9406],[-23,39],[-9,89]],[[26718,9396],[0,-53]],[[26714,9239],[0,-59]],[[26714,9180],[0,-46]],[[26241,8860],[0,51]],[[27984,9795],[-27,89]],[[27957,9884],[81,59]],[[28038,9943],[58,-74]],[[28096,9869],[9,-56]],[[28105,9813],[-121,-18]],[[28038,9943],[-54,58]],[[27984,10001],[0,16]],[[27984,10017],[22,30]],[[28006,10047],[95,-109],[18,56],[85,-8]],[[28204,9986],[0,-71]],[[28204,9915],[0,-86]],[[28204,9829],[-108,40]],[[28389,9651],[27,-44],[-63,-61]],[[28353,9546],[-99,13],[-27,-69],[-32,176]],[[28195,9666],[9,63],[86,3]],[[28290,9732],[-18,-59],[117,-22]],[[28250,10121],[-46,-66]],[[28204,10055],[-40,38],[36,41],[-86,-28],[-135,101]],[[28042,10253],[36,41],[154,-112]],[[28232,10182],[18,-61]],[[27957,9884],[-77,82]],[[27880,9966],[104,35]],[[28511,10172],[-77,-23]],[[28434,10149],[-58,-13],[126,130]],[[28502,10266],[22,15]],[[28524,10281],[-4,-43],[-9,-66]],[[27984,10017],[-108,30]],[[27930,10151],[81,-45]],[[28011,10106],[-5,-59]],[[28371,10253],[-81,0]],[[28290,10253],[-58,-71]],[[28069,10416],[59,-53],[185,55]],[[28313,10418],[45,-10]],[[28358,10408],[13,-25]],[[28371,10383],[-31,-15],[31,-115]],[[28407,10663],[-49,-255]],[[28313,10418],[31,133]],[[28344,10551],[0,112]],[[28344,10663],[14,0],[49,0]],[[28344,10551],[-94,25],[45,-51],[-27,-51]],[[28268,10474],[-212,6]],[[28038,10663],[63,0],[112,2],[14,0],[117,-2]],[[28434,10149],[-63,-31]],[[28371,10118],[0,120]],[[28371,10238],[131,28]],[[27880,9966],[-85,-23],[-27,89]],[[28461,9981],[-85,-231]],[[28376,9750],[-77,-18]],[[28299,9732],[23,104],[-118,-28]],[[28204,9808],[0,21]],[[28204,9915],[91,13],[49,190]],[[28344,10118],[23,0]],[[28367,10118],[9,-124],[85,-13]],[[28439,9439],[-41,-2],[5,86]],[[28403,9523],[45,8]],[[28448,9531],[-9,-92]],[[28313,10418],[-45,56]],[[28367,10118],[4,0]],[[28511,10172],[-18,-201],[-5,-18]],[[28488,9953],[-27,28]],[[28349,9467],[4,79]],[[28389,9651],[14,81]],[[28403,9732],[67,30]],[[28470,9762],[-18,-178],[-4,-53]],[[28403,9523],[-32,-73]],[[28371,9450],[-22,17]],[[28204,10055],[0,-43]],[[28204,10012],[-193,94]],[[27894,9663],[-153,-51]],[[27741,9612],[-27,107]],[[27714,9719],[-23,69],[54,-43],[27,78]],[[27772,9823],[18,-104],[153,0]],[[27943,9719],[0,-74],[-49,18]],[[28047,9447],[-144,-23]],[[27903,9424],[-81,71],[-81,-33]],[[27741,9462],[0,150]],[[27894,9663],[112,-79],[41,-137]],[[28407,10663],[59,0],[85,-105],[-9,-84],[-9,-119]],[[28533,10355],[-67,-38],[-27,86],[-68,-20]],[[28204,9986],[0,26]],[[28250,10121],[36,-3]],[[28286,10118],[58,0]],[[28290,10253],[-4,-135]],[[28195,9666],[-45,-28]],[[28150,9638],[-85,5],[0,61]],[[28065,9704],[58,104]],[[28123,9808],[81,0]],[[28299,9732],[-9,0]],[[28371,10253],[0,-15]],[[28150,9638],[-9,-99],[-76,40],[0,-132]],[[28065,9447],[-18,0]],[[27943,9719],[41,23]],[[27984,9742],[81,-38]],[[28123,9808],[-18,5]],[[27984,9795],[-41,3],[41,-56]],[[27772,9823],[-117,11]],[[27655,9834],[0,48]],[[27655,9882],[54,0],[0,76],[59,-23],[-63,59],[36,38]],[[27714,9719],[-54,3]],[[27660,9722],[-86,51],[81,61]],[[28376,9750],[27,-18]],[[27655,9882],[0,178]],[[28533,10355],[-9,-74]],[[28488,9953],[-4,-94],[-9,-84],[-5,-13]],[[27741,9462],[-41,-20]],[[27700,9442],[-49,10],[-5,158],[50,30],[-36,82]],[[27236,9310],[-22,0]],[[27214,9310],[-90,127],[58,102]],[[27182,9539],[59,-3]],[[27241,9536],[94,-150]],[[27335,9386],[-85,31],[49,-107],[-63,0]],[[27124,9310],[0,-84]],[[27124,9226],[-135,10]],[[26989,9236],[-18,74]],[[26971,9310],[153,0]],[[27597,9747],[-86,-71],[-59,76]],[[27452,9752],[0,56]],[[27452,9808],[122,0]],[[27574,9808],[23,-61]],[[27452,9447],[0,3]],[[27452,9450],[0,114]],[[27452,9564],[54,5]],[[27506,9569],[45,-96],[-99,-26]],[[27542,9579],[-36,-10]],[[27452,9564],[0,148]],[[27452,9712],[0,40]],[[27597,9747],[67,-66]],[[27664,9681],[-122,-102]],[[27669,9358],[-217,0]],[[27452,9358],[0,89]],[[27542,9579],[100,-23]],[[27642,9556],[27,-198]],[[27173,9122],[-27,-21]],[[27146,9101],[-76,0]],[[27070,9101],[-81,135]],[[27124,9226],[49,-104]],[[27128,9539],[-166,-92]],[[26962,9447],[0,3]],[[26962,9450],[0,178],[166,-16]],[[27128,9612],[0,-48]],[[27128,9564],[0,-25]],[[26718,9539],[140,7],[27,171]],[[26962,9717],[126,20]],[[27088,9737],[40,-99]],[[27128,9638],[0,-26]],[[26962,9450],[-36,-3]],[[26926,9447],[-208,3]],[[27452,9450],[-85,-49]],[[27367,9401],[-32,-15]],[[27241,9536],[4,31]],[[27245,9567],[-36,94]],[[27209,9661],[63,40]],[[27272,9701],[180,11]],[[26998,8933],[40,117]],[[27038,9050],[32,51]],[[27146,9101],[14,-74]],[[27160,9027],[-23,-73]],[[27137,8954],[-13,-66]],[[27124,8888],[-126,45]],[[26908,8842],[-100,41]],[[26808,8883],[0,43]],[[26808,8926],[9,76]],[[26817,9002],[181,-69]],[[26998,8933],[36,-106],[-126,15]],[[27452,9272],[-31,-72]],[[27421,9200],[-32,-22]],[[27389,9178],[-153,55]],[[27236,9233],[0,77]],[[27367,9401],[85,-43]],[[27452,9358],[0,-86]],[[27124,9811],[-36,-74]],[[27038,9050],[-189,79]],[[26849,9129],[-18,46]],[[26831,9175],[-5,137]],[[26826,9312],[73,46]],[[26899,9358],[63,-2]],[[26962,9356],[9,-46]],[[27214,9310],[-90,0]],[[26962,9356],[0,91]],[[27128,9539],[54,0]],[[26714,9180],[117,-5]],[[26849,9129],[-32,-127]],[[26808,8926],[-63,-64],[-31,92]],[[27236,9233],[-63,-111]],[[26926,9447],[-104,-84],[77,-5]],[[26826,9312],[-108,0]],[[27209,9661],[-81,-23]],[[27277,9811],[-5,-110]],[[27452,9808],[-4,31]],[[27655,9834],[-81,-26]],[[27664,9681],[-22,-125]],[[27128,9564],[117,3]],[[27389,9178],[-90,-87],[45,-69]],[[27344,9022],[-184,5]],[[26808,8883],[-76,-168]],[[26732,8715],[-95,-3]],[[26637,8712],[-81,0]],[[26822,8343],[-27,143],[90,48]],[[26885,8534],[59,28]],[[26944,8562],[49,-56]],[[26993,8506],[-72,-13],[36,-134]],[[26957,8359],[-135,-16]],[[26561,8150],[85,125]],[[26646,8275],[176,68]],[[26957,8359],[9,-49]],[[26966,8310],[-144,-76]],[[26822,8234],[-104,-56]],[[26718,8178],[-108,-79]],[[26610,8099],[-49,51]],[[26763,8089],[0,-188]],[[26763,7901],[-72,-18]],[[26691,7883],[-90,148]],[[26601,8031],[9,68]],[[26718,8178],[45,-89]],[[27155,7682],[-85,56]],[[27070,7738],[-45,64]],[[27025,7802],[4,124]],[[27029,7926],[9,0]],[[27038,7926],[122,72]],[[27160,7998],[54,-242],[63,61]],[[27277,7817],[49,3]],[[27326,7820],[-49,-181]],[[27277,7639],[-122,43]],[[27155,7682],[-63,-201]],[[27092,7481],[-58,26]],[[27034,7507],[-36,66]],[[26998,7573],[72,165]],[[27277,8499],[-5,-196]],[[27272,8303],[-193,56]],[[27079,8359],[85,43],[-22,91]],[[27142,8493],[135,6]],[[26912,8168],[-90,66]],[[26966,8310],[72,59]],[[27038,8369],[41,-10]],[[27272,8303],[5,-61]],[[27277,8242],[-41,-49]],[[27236,8193],[-121,-76]],[[27115,8117],[-203,51]],[[26975,7942],[41,58]],[[27016,8000],[0,41]],[[27016,8041],[99,76]],[[27236,8193],[9,-58]],[[27245,8135],[0,-5]],[[27245,8130],[-85,-132]],[[27038,7926],[-63,16]],[[27601,8181],[-4,0]],[[27597,8181],[-9,0]],[[27588,8181],[-109,48]],[[27479,8229],[-202,13]],[[27277,8499],[54,45]],[[27331,8544],[108,77],[162,-74]],[[27601,8547],[0,-366]],[[26772,8089],[41,-196]],[[26813,7893],[-50,8]],[[26763,8089],[9,0]],[[27628,7998],[-31,43]],[[27597,8041],[-91,140]],[[27506,8181],[73,0]],[[27579,8181],[18,0]],[[27601,8181],[90,-130],[-63,-53]],[[26894,7586],[23,-49]],[[26917,7537],[-64,-61]],[[26853,7476],[-220,92]],[[26633,7568],[-18,74],[85,0]],[[26700,7642],[190,0]],[[26890,7642],[4,-56]],[[27101,8626],[-9,0]],[[27092,8626],[32,234]],[[27124,8860],[121,-61],[-45,-117]],[[27200,8682],[-99,-56]],[[26502,7817],[0,5]],[[26502,7822],[72,137]],[[26574,7959],[27,72]],[[26691,7883],[-81,-23],[23,-107]],[[26633,7753],[-131,64]],[[27358,8760],[-45,148]],[[27313,8908],[49,3]],[[27362,8911],[131,0]],[[27493,8911],[40,0]],[[27533,8911],[-36,-138],[104,-91]],[[27601,8682],[-243,78]],[[26363,7191],[-23,0]],[[26340,7191],[-171,-2]],[[26169,7189],[-23,160]],[[26146,7349],[136,99]],[[26282,7448],[67,-20]],[[26349,7428],[14,-3]],[[26363,7425],[0,-234]],[[26880,8097],[-36,-8]],[[26844,8089],[-72,0]],[[26912,8168],[-32,-71]],[[26890,7642],[-14,106]],[[26876,7748],[18,56]],[[26894,7804],[27,0]],[[26921,7804],[45,-10]],[[26966,7794],[59,8]],[[26998,7573],[-104,13]],[[27448,7820],[-9,111]],[[27439,7931],[-68,145]],[[27371,8076],[108,105]],[[27479,8181],[27,0]],[[27597,8041],[-113,-221]],[[27484,7820],[-36,0]],[[26966,7408],[-9,-33]],[[26957,7375],[-104,101]],[[26917,7537],[45,-76]],[[26962,7461],[4,-53]],[[27205,8674],[-81,-153]],[[27124,8521],[-23,105]],[[27200,8682],[5,-8]],[[27034,7507],[-72,-46]],[[26493,7280],[0,28]],[[26493,7308],[18,178]],[[26511,7486],[54,36]],[[26565,7522],[68,46]],[[26957,7375],[18,-64]],[[26975,7311],[-293,81],[-99,-112]],[[26583,7280],[-90,0]],[[26511,7486],[-135,-10]],[[26376,7476],[-63,56],[77,59],[-18,127]],[[26372,7718],[130,104]],[[26502,7817],[63,-295]],[[27331,8544],[-14,168]],[[27317,8712],[41,48]],[[27601,8682],[0,-66]],[[27601,8616],[0,-69]],[[27628,7998],[-31,-178]],[[27597,7820],[-113,0]],[[27479,8229],[0,-48]],[[27371,8076],[-126,59]],[[27092,8626],[-148,-64]],[[26885,8534],[-81,92]],[[26804,8626],[104,216]],[[27124,8888],[0,-28]],[[26146,7349],[-63,3]],[[26083,7352],[-76,-10],[54,96],[18,-46],[9,39],[22,25]],[[26110,7456],[172,-8]],[[26664,8537],[-108,0]],[[26556,8537],[0,30]],[[26637,8712],[27,-175]],[[27533,8911],[46,0]],[[27579,8911],[117,-145],[-95,-150]],[[27016,8041],[-122,13]],[[26894,8054],[-14,43]],[[27164,7352],[-4,89],[148,58],[-9,140]],[[27299,7639],[41,-119]],[[27340,7520],[0,-156]],[[27340,7364],[-81,-5]],[[27259,7359],[-95,-7]],[[26358,8565],[-40,-295]],[[26318,8270],[0,-89]],[[26318,8181],[-63,0]],[[26255,8181],[13,73],[-68,-61],[28,372],[-46,25],[-9,38]],[[26182,8570],[-54,-41],[32,84],[22,-43]],[[27164,7352],[-27,-3]],[[27137,7349],[-45,132]],[[27277,7639],[22,0]],[[27389,7369],[-49,-5]],[[27340,7520],[139,-59]],[[27479,7461],[18,-84]],[[27497,7377],[-108,-8]],[[27362,7820],[-36,0]],[[27277,7817],[-32,313]],[[27439,7931],[-77,-111]],[[27259,7270],[0,89]],[[27389,7369],[-9,-101],[-121,2]],[[26169,7189],[-81,-115],[76,-155]],[[26164,6919],[-270,-33]],[[25894,6886],[113,445],[58,-2],[18,23]],[[25890,7189],[81,8],[0,-26],[-81,18]],[[27088,7334],[0,-71]],[[27088,7263],[-108,-13]],[[26980,7250],[9,38]],[[26989,7288],[-14,23]],[[26966,7408],[122,-74]],[[26493,7308],[-130,117]],[[26349,7428],[27,48]],[[27038,8369],[59,124],[-104,13]],[[27124,8521],[18,-28]],[[27137,7349],[-49,-15]],[[26232,7675],[27,15],[9,15],[0,3]],[[26268,7708],[104,10]],[[26110,7456],[122,219]],[[26228,7609],[-64,53],[64,-23],[0,-30]],[[27448,7820],[-86,0]],[[27597,7820],[0,-313]],[[27597,7507],[-118,-46]],[[26813,7893],[-9,-30]],[[26804,7863],[-5,-66]],[[26799,7797],[-72,-77]],[[26727,7720],[-94,33]],[[26493,8150],[-94,-107]],[[26399,8043],[0,138],[99,-10]],[[26498,8171],[-5,-21]],[[26930,8000],[-36,54]],[[27016,8000],[-59,-10]],[[26957,7990],[0,3],[-18,7],[-9,0]],[[26556,8537],[-54,-107],[23,-3],[22,-150]],[[26547,8277],[-40,-7]],[[26507,8270],[-189,0]],[[27205,8674],[112,38]],[[26498,8171],[9,99]],[[26547,8277],[99,-2]],[[26561,8150],[-68,0]],[[26786,8626],[-86,38],[-36,-127]],[[26732,8715],[54,-89]],[[27597,7507],[4,-120]],[[27601,7387],[-63,-119]],[[27538,7268],[-41,109]],[[26804,8626],[-18,0]],[[26700,7642],[27,78]],[[26799,7797],[36,7]],[[26835,7804],[41,-56]],[[27313,8908],[-176,46]],[[27344,9022],[18,-111]],[[26399,8043],[-81,13],[0,125]],[[26268,7708],[-4,2],[108,227],[4,12]],[[26376,7949],[198,10]],[[26200,7718],[-9,89],[95,-18],[5,-2],[-5,-31],[-36,-10],[0,-10],[0,-18],[-50,0]],[[26376,7949],[-13,-7],[-63,66],[18,18],[-5,17],[-9,8],[-9,3],[-22,-16],[-54,115],[58,-69],[-22,97]],[[27588,8181],[-9,0]],[[26989,7288],[-113,-61]],[[26876,7227],[-293,53]],[[26930,7878],[-9,-8]],[[26921,7870],[-4,23]],[[26917,7893],[4,8]],[[26921,7901],[18,-15]],[[26939,7886],[-9,-8]],[[26921,7901],[0,23]],[[26921,7924],[0,2]],[[26921,7926],[27,-5]],[[26948,7921],[-9,-35]],[[26917,7893],[-18,0]],[[26899,7893],[9,23]],[[26908,7916],[13,8]],[[26921,7870],[5,-7]],[[26926,7863],[-14,-10]],[[26912,7853],[-54,17]],[[26858,7870],[41,23]],[[26957,7990],[-9,-43]],[[26948,7947],[-22,-8]],[[26926,7939],[4,61]],[[26966,7794],[-40,69]],[[26930,7878],[99,48]],[[26858,7870],[-54,-7]],[[26844,8089],[64,-173]],[[26975,7942],[-9,-13]],[[26966,7929],[-18,18]],[[26894,7804],[-59,0]],[[26912,7853],[9,-49]],[[26926,7939],[-5,-13]],[[26966,7929],[-18,-8]],[[28020,7761],[36,61]],[[28056,7822],[18,163]],[[28074,7985],[36,23],[22,38],[27,2]],[[28159,8048],[104,-106],[45,40]],[[28308,7982],[-9,-76],[-9,-102],[-4,-33]],[[28286,7771],[-32,-28],[-18,79],[-59,-5],[5,-64],[-108,23]],[[28074,7776],[-54,-15]],[[27970,8041],[54,2],[-18,140]],[[28006,8183],[23,-2]],[[28029,8181],[27,-107],[22,43]],[[28078,8117],[59,31]],[[28137,8148],[0,-3]],[[28137,8145],[9,5]],[[28146,8150],[27,-58]],[[28173,8092],[-14,-44]],[[28074,7985],[-104,56]],[[27939,7926],[-23,74]],[[27916,8000],[0,71]],[[27916,8071],[54,-30]],[[28056,7822],[-117,104]],[[28137,8145],[58,38]],[[28195,8183],[9,0]],[[28204,8183],[28,-38],[-86,5]],[[28029,8181],[45,2]],[[28074,8183],[4,-66]],[[28272,7108],[-95,-54],[-36,56]],[[28141,7110],[127,143]],[[28268,7253],[4,-145]],[[27939,7926],[-32,-106]],[[27907,7820],[-54,0]],[[27853,7820],[45,101],[-31,79]],[[27867,8000],[4,0]],[[27871,8000],[45,0]],[[27916,8071],[-22,110]],[[27894,8181],[22,0]],[[27916,8181],[90,2]],[[28074,8183],[40,0]],[[28114,8183],[23,-35]],[[27867,8000],[-108,-46]],[[27759,7954],[-9,66],[-32,-53],[-54,33]],[[27664,8000],[-4,148]],[[27660,8148],[157,-23]],[[27817,8125],[54,-125]],[[27916,8181],[0,269]],[[27916,8450],[36,-89],[117,-7],[14,58]],[[28083,8412],[117,-46]],[[28200,8366],[-45,-183]],[[28155,8183],[-41,0]],[[28020,7761],[-23,-41]],[[27997,7720],[-31,-84]],[[27966,7636],[-50,107]],[[27916,7743],[-9,77]],[[27853,7820],[-31,0]],[[27822,7820],[9,89],[-72,45]],[[28204,8183],[122,0]],[[28326,8183],[-4,-18],[-9,-114]],[[28313,8051],[-140,41]],[[28155,8183],[40,0]],[[27669,7820],[-72,0]],[[27597,7820],[13,104]],[[27610,7924],[45,35],[14,-139]],[[27817,8125],[50,56]],[[27867,8181],[27,0]],[[27669,7820],[85,0]],[[27754,7820],[5,-171]],[[27759,7649],[-23,-35]],[[27736,7614],[-139,30]],[[27597,7644],[0,176]],[[27993,8794],[0,-214]],[[27993,8580],[-117,-46]],[[27876,8534],[-5,8]],[[27871,8542],[-99,104],[-148,-41]],[[27624,8605],[58,64],[0,145]],[[27682,8814],[9,5]],[[27691,8819],[72,0],[18,92]],[[27781,8911],[86,0],[27,-69],[31,69]],[[27925,8911],[68,0]],[[27993,8911],[0,-117]],[[28277,8542],[-9,91],[-118,-2],[-27,-89]],[[28123,8542],[-54,0]],[[28069,8542],[-76,38]],[[27993,8794],[193,12],[185,-117]],[[28371,8689],[-9,-81],[-4,-64]],[[28358,8544],[-81,-2]],[[27822,7820],[-68,0]],[[27610,7924],[54,76]],[[27871,8542],[-252,5]],[[27619,8547],[5,58]],[[27966,7636],[0,-94]],[[27966,7542],[-50,3]],[[27916,7545],[-36,86]],[[27880,7631],[32,59],[-45,48],[49,5]],[[27822,7553],[-18,-3]],[[27804,7550],[-68,64]],[[27759,7649],[63,-7]],[[27822,7642],[0,-89]],[[27867,8181],[-212,0]],[[27655,8181],[-54,0],[-22,89],[40,277]],[[27876,8534],[40,-84]],[[28200,8366],[140,-20]],[[28340,8346],[-5,-38],[-9,-97],[0,-28]],[[28069,8542],[14,-130]],[[27997,7720],[68,-2],[9,58]],[[28286,7771],[-5,-30],[-18,-221]],[[28263,7520],[-158,25],[-18,64],[-121,-67]],[[27880,7631],[-58,11]],[[28123,8542],[154,0]],[[28358,8544],[-9,-81],[-9,-117]],[[27930,7385],[27,114]],[[27957,7499],[-41,46]],[[28263,7520],[-4,-39]],[[28259,7481],[-100,36],[32,-66],[-126,-23],[-5,-76],[-94,-74]],[[27966,7278],[-50,43],[14,64]],[[28286,6861],[-176,0]],[[28110,6861],[-9,147],[-50,0]],[[28051,7008],[90,102]],[[28272,7108],[0,-16],[5,-81],[4,-125],[5,-25]],[[28313,8051],[-5,-69]],[[27660,8148],[-5,33]],[[27957,7499],[-27,-38],[-108,92]],[[28051,7008],[-72,18],[-36,143]],[[27943,7169],[23,109]],[[28259,7481],[4,-76],[5,-125],[0,-27]],[[27574,6604],[5,206]],[[27579,6810],[-41,198]],[[27538,7008],[0,23]],[[27538,7031],[77,-23]],[[27615,7008],[121,-213],[0,-160],[-90,-46]],[[27646,6589],[-72,15]],[[27579,6810],[-100,3]],[[27479,6813],[-4,195]],[[27475,7008],[63,0]],[[27232,7008],[0,66]],[[27232,7074],[45,112]],[[27277,7186],[103,-73]],[[27380,7113],[9,-92]],[[27389,7021],[-49,-48]],[[27340,6973],[-108,35]],[[27696,7403],[4,94],[-103,-26]],[[27597,7471],[0,173]],[[27804,7550],[-45,-43],[27,-104]],[[27786,7403],[-90,0]],[[27939,6472],[-68,0]],[[27871,6472],[9,302],[32,-22]],[[27912,6752],[45,-16],[13,66]],[[27970,6802],[0,-114]],[[27970,6688],[9,-127]],[[27979,6561],[0,-89],[-40,0]],[[27736,6635],[0,-59]],[[27736,6576],[-18,-104],[-72,86]],[[27646,6558],[9,77],[81,0]],[[27209,6162],[-9,10],[-4,122]],[[27196,6294],[292,-92]],[[27488,6202],[0,-23]],[[27488,6179],[-139,-101],[-140,84]],[[27232,7074],[-50,74],[77,41]],[[27259,7189],[18,-3]],[[27259,7189],[0,81]],[[27538,7268],[0,-15]],[[27538,7253],[0,-67]],[[27538,7186],[-158,-73]],[[27259,6566],[-18,79]],[[27241,6645],[-153,323]],[[27088,6968],[13,-3]],[[27101,6965],[131,43]],[[27340,6973],[0,-173]],[[27340,6800],[0,-234]],[[27340,6566],[-59,0]],[[27281,6566],[-22,0]],[[27660,7008],[0,97],[-95,15]],[[27565,7120],[-27,66]],[[27538,7253],[117,7]],[[27655,7260],[140,-117],[-135,-135]],[[27930,7385],[-90,-61],[-54,79]],[[27700,7242],[45,92],[-4,-97]],[[27741,7237],[-41,5]],[[27943,7169],[-49,-11],[0,-78]],[[27894,7080],[-32,76],[-81,13]],[[27781,7169],[-40,68]],[[27700,7242],[-81,31],[36,51],[-40,63]],[[27615,7387],[81,16]],[[28286,6861],[0,-71],[4,-110],[5,-117]],[[28295,6563],[-253,-2]],[[28042,6561],[-27,102]],[[28015,6663],[117,20],[-22,147]],[[28110,6830],[0,31]],[[28295,6563],[0,-33],[13,-305]],[[28308,6225],[-18,-41],[-13,64],[-95,-3],[-54,-78]],[[28128,6167],[4,86],[-49,38]],[[28083,6291],[-144,92]],[[27939,6383],[0,89]],[[27979,6561],[63,0]],[[27642,6393],[-59,-13]],[[27583,6380],[-243,186]],[[27340,6800],[81,0]],[[27421,6800],[9,-137],[144,-59]],[[27646,6589],[-4,-196]],[[27970,6688],[45,-25]],[[27538,7031],[27,89]],[[27660,7008],[-45,0]],[[27970,6802],[140,28]],[[27736,6795],[41,5]],[[27777,6800],[99,71],[36,-119]],[[27871,6472],[-135,104]],[[27736,6635],[0,160]],[[27894,7080],[-113,-97]],[[27781,6983],[-58,25]],[[27723,7008],[58,161]],[[27781,6983],[14,-66],[-54,-18],[36,-99]],[[27736,6795],[-72,48],[-49,163],[108,2]],[[27313,5986],[-90,127],[-14,49]],[[27488,6179],[-18,-106],[59,30]],[[27529,6103],[-54,-89]],[[27475,6014],[-162,-28]],[[27196,6294],[36,104],[36,120],[13,48]],[[27583,6380],[-9,-178],[-86,0]],[[27101,7059],[-13,204]],[[27101,6965],[0,94]],[[27421,6800],[58,13]],[[27259,6566],[-23,0],[-121,0]],[[27115,6566],[9,102]],[[27124,6668],[117,-23]],[[27475,7008],[-86,13]],[[27601,7387],[54,-127]],[[27615,7387],[-18,84]],[[27124,6668],[-81,81]],[[27043,6749],[108,48],[-122,84]],[[27029,6881],[5,28]],[[27034,6909],[36,59]],[[27070,6968],[18,0]],[[27750,5902],[-9,43]],[[27741,5945],[58,23]],[[27799,5968],[50,-33]],[[27849,5935],[-99,-33]],[[27849,5966],[-50,2]],[[27741,5945],[-50,18]],[[27691,5963],[-85,122]],[[27606,6085],[207,-35]],[[27813,6050],[36,-84]],[[27849,5966],[0,-31]],[[27394,5729],[-9,23]],[[27385,5752],[45,54],[-77,20]],[[27353,5826],[0,66],[-40,94]],[[27475,6014],[58,-102]],[[27533,5912],[28,-12]],[[27561,5900],[18,-61],[-41,-33],[-144,-77]],[[27533,5912],[37,49]],[[27570,5961],[13,-41]],[[27583,5920],[-22,-20]],[[27898,5940],[0,5],[14,23],[0,5]],[[27912,5973],[36,-5]],[[27948,5968],[-50,-28]],[[27849,5966],[63,7]],[[27898,5940],[-49,-5]],[[27813,6050],[-5,114],[131,-53]],[[27939,6111],[31,-107]],[[27970,6004],[-4,-20]],[[27966,5984],[-18,-16]],[[27934,5971],[5,51],[-36,-38],[31,-13]],[[28110,5910],[-45,38],[36,33]],[[28101,5981],[31,56],[59,-48]],[[28191,5989],[-14,-41]],[[28177,5948],[-27,-25]],[[28150,5923],[-40,-13]],[[27583,6134],[-13,-173]],[[27529,6103],[54,43]],[[27583,6146],[0,-12]],[[27750,5902],[-63,-23],[4,84]],[[27754,6233],[-94,0]],[[27660,6233],[85,58],[9,-58]],[[28281,5895],[-45,48]],[[28236,5943],[18,43],[-63,36]],[[28191,6022],[-9,114],[-54,31]],[[28308,6225],[0,-20],[0,-43],[5,-23],[4,-204],[-36,-40]],[[28236,5943],[-18,-8]],[[28218,5935],[-41,13]],[[28191,5989],[0,33]],[[27970,6004],[131,-23]],[[28110,5910],[-68,-15],[-76,89]],[[27939,6111],[0,122]],[[27939,6233],[0,58],[144,0]],[[28218,5935],[0,-48]],[[28218,5887],[-68,36]],[[27583,6134],[117,-257],[-117,43]],[[27385,5752],[-32,74]],[[27642,6393],[441,-102],[-356,0],[-144,-145]],[[27754,6233],[185,0]],[[27606,6085],[-23,61]],[[27583,6146],[77,87]],[[27939,6383],[-194,20],[0,-58],[-157,73],[63,23],[-5,117]],[[28281,5895],[-63,-8]],[[26844,7011],[-112,112],[-158,-66]],[[26574,7057],[0,134],[-81,0]],[[26493,7191],[0,89]],[[26876,7227],[0,-102]],[[26876,7125],[4,-61]],[[26880,7064],[0,-81]],[[26880,6983],[-36,28]],[[26844,7011],[-49,-89]],[[26795,6922],[-176,23]],[[26619,6945],[-45,51]],[[26574,6996],[0,61]],[[26304,6563],[-153,0],[-54,0]],[[26097,6563],[9,222],[135,-39]],[[26241,6746],[63,-183]],[[26241,6838],[-81,-10],[22,76]],[[26182,6904],[91,15]],[[26273,6919],[-32,-81]],[[26462,6884],[-108,-97],[4,-224]],[[26358,6563],[-54,0]],[[26241,6746],[0,92]],[[26273,6919],[31,3]],[[26304,6922],[149,0]],[[26453,6922],[9,-38]],[[26840,6861],[-5,38]],[[26835,6899],[45,84]],[[26880,7064],[154,-155]],[[27029,6881],[-22,-28]],[[27007,6853],[-167,8]],[[27043,6749],[-36,104]],[[26642,6591],[0,-28]],[[26642,6563],[-95,0],[-121,0],[-68,0]],[[26462,6884],[153,-61]],[[26615,6823],[27,-84]],[[26642,6739],[-122,-84],[122,-64]],[[26507,7016],[-144,38]],[[26363,7054],[-23,137]],[[26363,7191],[130,0]],[[26574,6996],[-67,20]],[[26835,6780],[32,-176]],[[26867,6604],[-50,5]],[[26817,6609],[-9,135],[-157,0]],[[26651,6744],[45,102],[139,-66]],[[26642,6739],[9,5]],[[26817,6609],[-175,-18]],[[26304,6922],[59,132]],[[26507,7016],[-54,-94]],[[27016,7059],[54,-91]],[[26876,7125],[104,82]],[[26980,7207],[36,-148]],[[27016,7059],[85,0]],[[26867,6604],[0,-41]],[[26867,6563],[-68,0],[-157,0]],[[26182,6904],[-18,15]],[[26835,6899],[-40,23]],[[26980,7207],[0,43]],[[26619,6945],[-4,-122]],[[26840,6861],[-5,-81]],[[27115,6566],[-212,-3],[-36,0]],[[25890,6891],[-5,3],[0,2],[-13,11],[0,5],[-5,2],[-18,38],[23,49],[0,-23],[22,-38],[18,-3],[-22,-46]],[[26097,6563],[-32,0],[-198,0],[-67,0],[58,56],[-76,206],[112,61]],[[28281,8913],[0,89],[-95,-36],[-18,67],[-63,-3]],[[28105,9030],[9,107]],[[28114,9137],[131,23]],[[28245,9160],[77,-8]],[[28322,9152],[-36,-97],[108,-129]],[[28394,8926],[-5,-13]],[[28389,8913],[-108,0]],[[28412,9167],[-5,-73],[-13,-120],[0,-48]],[[28322,9152],[22,31]],[[28344,9183],[68,-16]],[[28245,9160],[-18,124]],[[28227,9284],[68,23]],[[28295,9307],[40,-79]],[[28335,9228],[9,-45]],[[28101,9358],[40,87],[-76,-11]],[[28065,9434],[0,13]],[[28349,9467],[-77,-2],[-31,-150]],[[28241,9315],[-140,43]],[[27588,8931],[-37,150]],[[27551,9081],[0,8]],[[27551,9089],[122,63]],[[27673,9152],[108,-89],[-18,-244],[-175,112]],[[27993,8911],[90,0]],[[28083,8911],[198,2]],[[28389,8913],[-9,-107],[-9,-117]],[[28439,9439],[-14,-152]],[[28425,9287],[-90,-59]],[[28295,9307],[76,51],[0,92]],[[27948,9195],[-54,69]],[[27894,9264],[99,28],[36,-97]],[[28029,9195],[-81,0]],[[28083,8911],[-27,61],[49,58]],[[27551,9089],[-9,0]],[[27542,9089],[-90,183]],[[27669,9358],[4,-206]],[[27493,8911],[-54,58],[112,112]],[[27588,8931],[-9,-20]],[[28227,9284],[14,31]],[[27421,9200],[36,-134],[85,23]],[[27835,9155],[0,-82]],[[27835,9073],[-58,0]],[[27777,9073],[18,173]],[[27795,9246],[27,26]],[[27822,9272],[13,-11]],[[27835,9261],[32,-30],[-32,-76]],[[27795,9246],[-126,-7]],[[27669,9239],[31,134]],[[27700,9373],[122,3]],[[27822,9376],[0,-104]],[[27777,9073],[4,-10]],[[27781,9063],[-81,5],[-31,171]],[[27835,9261],[59,3]],[[27948,9195],[-113,-40]],[[28101,9358],[-36,76]],[[27925,8911],[-108,89],[18,73]],[[28029,9195],[76,0],[9,-58]],[[28425,9287],[-4,-23],[-9,-97]],[[27781,8911],[0,152]],[[27682,8814],[-81,5],[-18,112],[77,13],[31,-125]],[[27822,9376],[81,48]],[[27700,9373],[0,69]]]}