{"type":"Topology","transform":{"scale":[0.0012831345112129487,0.0009745357309423489],"translate":[-124.73273099999999,24.60334863324381]},"objects":{"area":{"type":"GeometryCollection","geometries":[{"arcs":[[0,1,2,3]],"type":"Polygon","properties":{"state":"MT","name":"BENTON LAKE NWR","zip":"00063"}},{"arcs":[[[4,5,6,7]],[[8,9,10]]],"type":"MultiPolygon","properties":{"state":"MT","name":"YELLOWSTONE NATL PARK","zip":"00075"}},{"arcs":[[11,12,13,14]],"type":"Polygon","properties":{"state":"MT","name":"CAMP CROOK","zip":"57724"}},{"arcs":[[15,16,17,18,19,20]],"type":"Polygon","properties":{"state":"MT","name":"ABSAROKEE","zip":"59001"}},{"arcs":[[21,22,23,24,25]],"type":"Polygon","properties":{"state":"MT","name":"ACTON","zip":"59002"}},{"arcs":[[26,27,28,29]],"type":"Polygon","properties":{"state":"MT","name":"ASHLAND","zip":"59003"}},{"arcs":[[30,31,32]],"type":"Polygon","properties":{"state":"MT","name":"BALLANTINE","zip":"59006"}},{"arcs":[[33,34,35]],"type":"Polygon","properties":{"state":"MT","name":"BEARCREEK","zip":"59007"}},{"arcs":[[36,37,38,-34]],"type":"Polygon","properties":{"state":"MT","name":"BELFRY","zip":"59008"}},{"arcs":[[39,40,41,42,43,44]],"type":"Polygon","properties":{"state":"MT","name":"BIGHORN","zip":"59010"}},{"arcs":[[[45,46,47,48,49]],[[50,51,52,53]]],"type":"MultiPolygon","properties":{"state":"MT","name":"BIG TIMBER","zip":"59011"}},{"arcs":[[54,55,56,57,-28]],"type":"Polygon","properties":{"state":"MT","name":"BIRNEY","zip":"59012"}},{"arcs":[[58,59,60,61,62,63,64,65,66,67,-37,-36]],"type":"Polygon","properties":{"state":"MT","name":"BRIDGER","zip":"59014"}},{"arcs":[[68,69,70,71,-23]],"type":"Polygon","properties":{"state":"MT","name":"BROADVIEW","zip":"59015"}},{"arcs":[[72,73,74,75,76,77,-57,78]],"type":"Polygon","properties":{"state":"MT","name":"BUSBY","zip":"59016"}},{"arcs":[[[79,80,81]],[[82,83,84,-16,85,86,87]]],"type":"MultiPolygon","properties":{"state":"MT","name":"COLUMBUS","zip":"59019"}},{"arcs":[[88,89,90,-75,91]],"type":"Polygon","properties":{"state":"MT","name":"CROW AGENCY","zip":"59022"}},{"arcs":[[[92,93,94,95,96]],[[97,98,99,100,-40,101]]],"type":"MultiPolygon","properties":{"state":"MT","name":"CUSTER","zip":"59024"}},{"arcs":[[102,103,-79,-56,104,105]],"type":"Polygon","properties":{"state":"MT","name":"DECKER","zip":"59025"}},{"arcs":[[[106,107,108,109,110]],[[111,112,113]],[[114,115,116]]],"type":"MultiPolygon","properties":{"state":"MT","name":"EMIGRANT","zip":"59027"}},{"arcs":[[117,118,-17,-85,119,120,121]],"type":"Polygon","properties":{"state":"MT","name":"FISHTAIL","zip":"59028"}},{"arcs":[[122,-62]],"type":"Polygon","properties":{"state":"MT","name":"FROMBERG","zip":"59029"}},{"arcs":[[[123,124,-11,125,-116,126,127,128,-122]],[[-7,129,-107,130]]],"type":"MultiPolygon","properties":{"state":"MT","name":"GARDINER","zip":"59030"}},{"arcs":[[131,132,-92,-74]],"type":"Polygon","properties":{"state":"MT","name":"GARRYOWEN","zip":"59031"}},{"arcs":[[133,134,135,136,137,138]],"type":"Polygon","properties":{"state":"MT","name":"GRASS RANGE","zip":"59032"}},{"arcs":[[[139,140,-49,141,142]],[[143,-54,144,145,-20]]],"type":"MultiPolygon","properties":{"state":"MT","name":"GREYCLIFF","zip":"59033"}},{"arcs":[[-91,146,147,-102,-45,148,-76]],"type":"Polygon","properties":{"state":"MT","name":"HARDIN","zip":"59034"}},{"arcs":[[149,150,151,152,-31]],"type":"Polygon","properties":{"state":"MT","name":"HUNTLEY","zip":"59037"}},{"arcs":[[[-96,153,154,155]],[[-101,156,157,-41]]],"type":"MultiPolygon","properties":{"state":"MT","name":"HYSHAM","zip":"59038"}},{"arcs":[[158,-154,-95,159,160,161,162]],"type":"Polygon","properties":{"state":"MT","name":"INGOMAR","zip":"59039"}},{"arcs":[[-61,163,-88,164,165,-63,-123]],"type":"Polygon","properties":{"state":"MT","name":"JOLIET","zip":"59041"}},{"arcs":[[166,-29,-58,-78]],"type":"Polygon","properties":{"state":"MT","name":"LAME DEER","zip":"59043"}},{"arcs":[[[167,168,169,170,171]],[[172,-64,-166,173]]],"type":"MultiPolygon","properties":{"state":"MT","name":"LAUREL","zip":"59044"}},{"arcs":[[174,175,176,177,178,179,-70]],"type":"Polygon","properties":{"state":"MT","name":"LAVINA","zip":"59046"}},{"arcs":[[[-110,180,181,-46,182]],[[183,-128,184,-112,185,-52]]],"type":"MultiPolygon","properties":{"state":"MT","name":"LIVINGSTON","zip":"59047"}},{"arcs":[[186,187,-132,-73,-104,188,-66]],"type":"Polygon","properties":{"state":"MT","name":"LODGE GRASS","zip":"59050"}},{"arcs":[[-51,-144,-19,189,-118,-129,-184]],"type":"Polygon","properties":{"state":"MT","name":"MC LEOD","zip":"59052"}},{"arcs":[[190,191,192]],"type":"Polygon","properties":{"state":"MT","name":"MARTINSDALE","zip":"59053"}},{"arcs":[[193,-142,-48,194,195,196,197,198]],"type":"Polygon","properties":{"state":"MT","name":"MELVILLE","zip":"59055"}},{"arcs":[[199,-80,200,-140,201,202,-175,-69,-22,203,-169]],"type":"Polygon","properties":{"state":"MT","name":"MOLT","zip":"59057"}},{"arcs":[[204,-162,205,206]],"type":"Polygon","properties":{"state":"MT","name":"MOSBY","zip":"59058"}},{"arcs":[[207,208,-160,-94,209,210]],"type":"Polygon","properties":{"state":"MT","name":"MUSSELSHELL","zip":"59059"}},{"arcs":[[-190,-18,-119]],"type":"Polygon","properties":{"state":"MT","name":"NYE","zip":"59061"}},{"arcs":[[-27,211,212,213,214,215,216,217,-105,-55]],"type":"Polygon","properties":{"state":"MT","name":"OTTER","zip":"59062"}},{"arcs":[[-200,-168,218,-81]],"type":"Polygon","properties":{"state":"MT","name":"PARK CITY","zip":"59063"}},{"arcs":[[-33,219,-98,-148,220,-150]],"type":"Polygon","properties":{"state":"MT","name":"POMPEYS PILLAR","zip":"59064"}},{"arcs":[[-115,221,-113,-185,-127]],"type":"Polygon","properties":{"state":"MT","name":"PRAY","zip":"59065"}},{"arcs":[[-194,222,-202,-143]],"type":"Polygon","properties":{"state":"MT","name":"RAPELJE","zip":"59067"}},{"arcs":[[223,-124,-121,224,225,-59,-35,-39]],"type":"Polygon","properties":{"state":"MT","name":"RED LODGE","zip":"59068"}},{"arcs":[[-21,-146,226,-86]],"type":"Polygon","properties":{"state":"MT","name":"REED POINT","zip":"59069"}},{"arcs":[[-226,227,-83,-164,-60]],"type":"Polygon","properties":{"state":"MT","name":"ROBERTS","zip":"59070"}},{"arcs":[[-225,-120,-84,-228]],"type":"Polygon","properties":{"state":"MT","name":"ROSCOE","zip":"59071"}},{"arcs":[[228,-71,-180,229,-139,230,-208]],"type":"Polygon","properties":{"state":"MT","name":"ROUNDUP","zip":"59072"}},{"arcs":[[-223,-199,231,232,-176,-203]],"type":"Polygon","properties":{"state":"MT","name":"RYEGATE","zip":"59074"}},{"arcs":[[-188,233,-89,-133]],"type":"Polygon","properties":{"state":"MT","name":"SAINT XAVIER","zip":"59075"}},{"arcs":[[-158,234,235,-42]],"type":"Polygon","properties":{"state":"MT","name":"SANDERS","zip":"59076"}},{"arcs":[[236,-163,-205,237,238,239]],"type":"Polygon","properties":{"state":"MT","name":"SAND SPRINGS","zip":"59077"}},{"arcs":[[240,241,-232,-198]],"type":"Polygon","properties":{"state":"MT","name":"SHAWMUT","zip":"59078"}},{"arcs":[[-72,-229,-211,242,243,244,-24]],"type":"Polygon","properties":{"state":"MT","name":"SHEPHERD","zip":"59079"}},{"arcs":[[245,-193,246,247,-241,-197]],"type":"Polygon","properties":{"state":"MT","name":"TWO DOT","zip":"59085"}},{"arcs":[[-182,248,249,250,-195,-47]],"type":"Polygon","properties":{"state":"MT","name":"WILSALL","zip":"59086"}},{"arcs":[[-231,-138,251,252,253,-206,-161,-209]],"type":"Polygon","properties":{"state":"MT","name":"WINNETT","zip":"59087"}},{"arcs":[[[-243,-210,-93,254]],[[-153,255,-99,-220,-32]]],"type":"MultiPolygon","properties":{"state":"MT","name":"WORDEN","zip":"59088"}},{"arcs":[[256,-67,-189,-103]],"type":"Polygon","properties":{"state":"MT","name":"WYOLA","zip":"59089"}},{"arcs":[[[-151,-221,-147,-90,-234,-187,-65,-173,257]],[[258,259,260,-171,261]]],"type":"MultiPolygon","properties":{"state":"MT","name":"BILLINGS","zip":"59101"}},{"arcs":[[262,263,-259]],"type":"Polygon","properties":{"state":"MT","name":"BILLINGS","zip":"59102"}},{"arcs":[[-260,-264,264,-25,-245,265]],"type":"Polygon","properties":{"state":"MT","name":"BILLINGS","zip":"59105"}},{"arcs":[[-26,-265,-263,-262,-170,-204]],"type":"Polygon","properties":{"state":"MT","name":"BILLINGS","zip":"59106"}},{"arcs":[[266,267,268,269,270,271]],"type":"Polygon","properties":{"state":"MT","name":"WOLF POINT","zip":"59201"}},{"arcs":[[272,273,274,275]],"type":"Polygon","properties":{"state":"MT","name":"ANTELOPE","zip":"59211"}},{"arcs":[[276,277,278,279]],"type":"Polygon","properties":{"state":"MT","name":"BAINVILLE","zip":"59212"}},{"arcs":[[280,281,282,283,284,285,286]],"type":"Polygon","properties":{"state":"MT","name":"BROCKTON","zip":"59213"}},{"arcs":[[287,288,289]],"type":"Polygon","properties":{"state":"MT","name":"BROCKWAY","zip":"59214"}},{"arcs":[[290,291,292,293,294,295,296,-290,297]],"type":"Polygon","properties":{"state":"MT","name":"CIRCLE","zip":"59215"}},{"arcs":[[-281,298,-277,299]],"type":"Polygon","properties":{"state":"MT","name":"CULBERTSON","zip":"59218"}},{"arcs":[[300,-279,301,302,303,-273,304]],"type":"Polygon","properties":{"state":"MT","name":"DAGMAR","zip":"59219"}},{"arcs":[[305,306,307,308,309]],"type":"Polygon","properties":{"state":"MT","name":"FAIRVIEW","zip":"59221"}},{"arcs":[[310,311,312,313,-284,314]],"type":"Polygon","properties":{"state":"MT","name":"FLAXVILLE","zip":"59222"}},{"arcs":[[315,316,317,318,319,320,321,322]],"type":"Polygon","properties":{"state":"MT","name":"FORT PECK","zip":"59223"}},{"arcs":[[323,324,-269,325]],"type":"Polygon","properties":{"state":"MT","name":"FRAZER","zip":"59225"}},{"arcs":[[-299,-287,326,-302,-278]],"type":"Polygon","properties":{"state":"MT","name":"FROID","zip":"59226"}},{"arcs":[[327,-321,328,329,330]],"type":"Polygon","properties":{"state":"MT","name":"GLASGOW","zip":"59230"}},{"arcs":[[331,332,333,334,335,336,-329,-320]],"type":"Polygon","properties":{"state":"MT","name":"HINSDALE","zip":"59241"}},{"arcs":[[337,338,-286]],"type":"Polygon","properties":{"state":"MT","name":"HOMESTEAD","zip":"59242"}},{"arcs":[[339,340,-308,341,342]],"type":"Polygon","properties":{"state":"MT","name":"LAMBERT","zip":"59243"}},{"arcs":[[343,344,-270,-325,345,-331]],"type":"Polygon","properties":{"state":"MT","name":"LARSLAN","zip":"59244"}},{"arcs":[[-339,346,-303,-327]],"type":"Polygon","properties":{"state":"MT","name":"MEDICINE LAKE","zip":"59247"}},{"arcs":[[-322,-328,-346,-324,347]],"type":"Polygon","properties":{"state":"MT","name":"NASHUA","zip":"59248"}},{"arcs":[[348,-336,349,350]],"type":"Polygon","properties":{"state":"MT","name":"OPHEIM","zip":"59250"}},{"arcs":[[351,352,353,354]],"type":"Polygon","properties":{"state":"MT","name":"OUTLOOK","zip":"59252"}},{"arcs":[[355,-351,356,357,358,-271,-345]],"type":"Polygon","properties":{"state":"MT","name":"PEERLESS","zip":"59253"}},{"arcs":[[359,360,-355,361,362,363,-275]],"type":"Polygon","properties":{"state":"MT","name":"PLENTYWOOD","zip":"59254"}},{"arcs":[[-267,364,-315,-283,365]],"type":"Polygon","properties":{"state":"MT","name":"POPLAR","zip":"59255"}},{"arcs":[[-362,-354,366]],"type":"Polygon","properties":{"state":"MT","name":"RAYMOND","zip":"59256"}},{"arcs":[[367,-313,368,369,-352,-361]],"type":"Polygon","properties":{"state":"MT","name":"REDSTONE","zip":"59257"}},{"arcs":[[-338,-285,-314,-368,-360,-274,-304,-347]],"type":"Polygon","properties":{"state":"MT","name":"RESERVE","zip":"59258"}},{"arcs":[[370,-294,371,-340,372]],"type":"Polygon","properties":{"state":"MT","name":"RICHEY","zip":"59259"}},{"arcs":[[-344,-330,-337,-349,-356]],"type":"Polygon","properties":{"state":"MT","name":"RICHLAND","zip":"59260"}},{"arcs":[[373,374,375,-333]],"type":"Polygon","properties":{"state":"MT","name":"SACO","zip":"59261"}},{"arcs":[[[376,377,378,379]],[[380,381,-373,-343,382,383]]],"type":"MultiPolygon","properties":{"state":"MT","name":"SAVAGE","zip":"59262"}},{"arcs":[[-359,384,-311,-365,-272]],"type":"Polygon","properties":{"state":"MT","name":"SCOBEY","zip":"59263"}},{"arcs":[[[-307,385,-383,-342]],[[386,-380,387]]],"type":"MultiPolygon","properties":{"state":"MT","name":"SIDNEY","zip":"59270"}},{"arcs":[[-316,388,-309,-341,-372,-293,389]],"type":"Polygon","properties":{"state":"MT","name":"VIDA","zip":"59274"}},{"arcs":[[-364,390,-305,-276]],"type":"Polygon","properties":{"state":"MT","name":"WESTBY","zip":"59275"}},{"arcs":[[-385,-358,391,-369,-312]],"type":"Polygon","properties":{"state":"MT","name":"WHITETAIL","zip":"59276"}},{"arcs":[[[392,393,394]],[[395,396,397,398]]],"type":"MultiPolygon","properties":{"state":"MT","name":"MILES CITY","zip":"59301"}},{"arcs":[[399,400,-13]],"type":"Polygon","properties":{"state":"MT","name":"ALZADA","zip":"59311"}},{"arcs":[[401,402,403,404,-397]],"type":"Polygon","properties":{"state":"MT","name":"ANGELA","zip":"59312"}},{"arcs":[[405,406,407,408,409,410]],"type":"Polygon","properties":{"state":"MT","name":"BAKER","zip":"59313"}},{"arcs":[[411,412,413,414,415,416,417,418,-217]],"type":"Polygon","properties":{"state":"MT","name":"BIDDLE","zip":"59314"}},{"arcs":[[419,-295,-371,-382,420]],"type":"Polygon","properties":{"state":"MT","name":"BLOOMFIELD","zip":"59315"}},{"arcs":[[421,-417,422]],"type":"Polygon","properties":{"state":"MT","name":"BOYES","zip":"59316"}},{"arcs":[[423,-214,424,425,-412,-216]],"type":"Polygon","properties":{"state":"MT","name":"BROADUS","zip":"59317"}},{"arcs":[[426,-238,-207,-254,427]],"type":"Polygon","properties":{"state":"MT","name":"BRUSETT","zip":"59318"}},{"arcs":[[428,-404,429,-240,430,-298,-289,431]],"type":"Polygon","properties":{"state":"MT","name":"COHAGEN","zip":"59322"}},{"arcs":[[432,-423,-416,433,434,435,-411,436,-15]],"type":"Polygon","properties":{"state":"MT","name":"EKALAKA","zip":"59324"}},{"arcs":[[[437,438,439]],[[440,441,442,443,444]]],"type":"MultiPolygon","properties":{"state":"MT","name":"FALLON","zip":"59326"}},{"arcs":[[[-159,-237,-430,-403,445,446,-155]],[[-236,447,448,-43]]],"type":"MultiPolygon","properties":{"state":"MT","name":"FORSYTH","zip":"59327"}},{"arcs":[[[449,450,-421,-381,451,-439]],[[452,-445,453,454]]],"type":"MultiPolygon","properties":{"state":"MT","name":"GLENDIVE","zip":"59330"}},{"arcs":[[-422,-433,-14,-401,455,-418]],"type":"Polygon","properties":{"state":"MT","name":"HAMMOND","zip":"59332"}},{"arcs":[[456,-393,457,458,-442,459,460,-434,-415]],"type":"Polygon","properties":{"state":"MT","name":"ISMAY","zip":"59336"}},{"arcs":[[-431,-239,-427,461,-291]],"type":"Polygon","properties":{"state":"MT","name":"JORDAN","zip":"59337"}},{"arcs":[[-429,462,463,-398,-405]],"type":"Polygon","properties":{"state":"MT","name":"KINSEY","zip":"59338"}},{"arcs":[[464,-296,-420,-451]],"type":"Polygon","properties":{"state":"MT","name":"LINDSAY","zip":"59339"}},{"arcs":[[465,-460,-441,-453,466,-408]],"type":"Polygon","properties":{"state":"MT","name":"MILDRED","zip":"59341"}},{"arcs":[[-215,-424]],"type":"Polygon","properties":{"state":"MT","name":"OLIVE","zip":"59343"}},{"arcs":[[467,-435,-461,-466,-407]],"type":"Polygon","properties":{"state":"MT","name":"PLEVNA","zip":"59344"}},{"arcs":[[468,-413,-426]],"type":"Polygon","properties":{"state":"MT","name":"POWDERVILLE","zip":"59345"}},{"arcs":[[[-402,-396,469,-446]],[[-149,-44,-449,470,471,-212,-30,-167,-77]]],"type":"MultiPolygon","properties":{"state":"MT","name":"ROSEBUD","zip":"59347"}},{"arcs":[[[-463,-432,-288,-297,-465,-450,-438,472]],[[-443,-459,473]]],"type":"MultiPolygon","properties":{"state":"MT","name":"TERRY","zip":"59349"}},{"arcs":[[-472,474,-394,-457,-414,-469,-425,-213]],"type":"Polygon","properties":{"state":"MT","name":"VOLBORG","zip":"59351"}},{"arcs":[[-455,475,-378,476,-409,-467]],"type":"Polygon","properties":{"state":"MT","name":"WIBAUX","zip":"59353"}},{"arcs":[[-468,-406,-436]],"type":"Polygon","properties":{"state":"MT","name":"WILLARD","zip":"59354"}},{"arcs":[[477,478,479,-4,480,481,482]],"type":"Polygon","properties":{"state":"MT","name":"GREAT FALLS","zip":"59404"}},{"arcs":[[483,484,485,486,487,488,489]],"type":"Polygon","properties":{"state":"MT","name":"GREAT FALLS","zip":"59405"}},{"arcs":[[490,491,492,493,494,495,496]],"type":"Polygon","properties":{"state":"MT","name":"AUGUSTA","zip":"59410"}},{"arcs":[[497,498,499,500]],"type":"Polygon","properties":{"state":"MT","name":"BABB","zip":"59411"}},{"arcs":[[501,502,-490,503,504,505]],"type":"Polygon","properties":{"state":"MT","name":"BELT","zip":"59412"}},{"arcs":[[506,507,508,509]],"type":"Polygon","properties":{"state":"MT","name":"BRADY","zip":"59416"}},{"arcs":[[510,511,512,-501,513]],"type":"Polygon","properties":{"state":"MT","name":"BROWNING","zip":"59417"}},{"arcs":[[514,515,516,517]],"type":"Polygon","properties":{"state":"MT","name":"BUFFALO","zip":"59418"}},{"arcs":[[518,519]],"type":"Polygon","properties":{"state":"MT","name":"BYNUM","zip":"59419"}},{"arcs":[[520,521,522]],"type":"Polygon","properties":{"state":"MT","name":"CARTER","zip":"59420"}},{"arcs":[[[523,524,525,-483,526,527,-491]],[[528,529,-487,530]]],"type":"MultiPolygon","properties":{"state":"MT","name":"CASCADE","zip":"59421"}},{"arcs":[[531,532,533,-496,534,535,536,537,-519,538,539,-508]],"type":"Polygon","properties":{"state":"MT","name":"CHOTEAU","zip":"59422"}},{"arcs":[[540,541,542,543]],"type":"Polygon","properties":{"state":"MT","name":"COFFEE CREEK","zip":"59424"}},{"arcs":[[544,545,546,547,548,549,-509,-540]],"type":"Polygon","properties":{"state":"MT","name":"CONRAD","zip":"59425"}},{"arcs":[[550,-514,-500,551,552,553,554,555]],"type":"Polygon","properties":{"state":"MT","name":"CUT BANK","zip":"59427"}},{"arcs":[[556,557,-541,558,559,560,561,562,563]],"type":"Polygon","properties":{"state":"MT","name":"DENTON","zip":"59430"}},{"arcs":[[-507,564,565,-532]],"type":"Polygon","properties":{"state":"MT","name":"DUTTON","zip":"59433"}},{"arcs":[[566,567,568,-498,-513,569]],"type":"Polygon","properties":{"state":"MT","name":"EAST GLACIER PARK","zip":"59434"}},{"arcs":[[570,-524,-497,-534,571]],"type":"Polygon","properties":{"state":"MT","name":"FAIRFIELD","zip":"59436"}},{"arcs":[[-481,-3,572,-521,573]],"type":"Polygon","properties":{"state":"MT","name":"FLOWEREE","zip":"59440"}},{"arcs":[[-230,-179,574,-134]],"type":"Polygon","properties":{"state":"MT","name":"FORESTGROVE","zip":"59441"}},{"arcs":[[[-573,-2,575,-565,-510,-550,576,577,578,579,580,-522]],[[581,582,583,584,585,-559,-544]]],"type":"MultiPolygon","properties":{"state":"MT","name":"FORT BENTON","zip":"59442"}},{"arcs":[[586,-525,-571,587,588]],"type":"Polygon","properties":{"state":"MT","name":"FORT SHAW","zip":"59443"}},{"arcs":[[589,590]],"type":"Polygon","properties":{"state":"MT","name":"GALATA","zip":"59444"}},{"arcs":[[591,-584]],"type":"Polygon","properties":{"state":"MT","name":"GERALDINE","zip":"59446"}},{"arcs":[[592,593,-582,-543,594,595]],"type":"Polygon","properties":{"state":"MT","name":"GEYSER","zip":"59447"}},{"arcs":[[596,-570,-512,597,-536]],"type":"Polygon","properties":{"state":"MT","name":"HEART BUTTE","zip":"59448"}},{"arcs":[[598,-504,-489,599,-585,-592,-583]],"type":"Polygon","properties":{"state":"MT","name":"HIGHWOOD","zip":"59450"}},{"arcs":[[600,601,-136,602,603,-562]],"type":"Polygon","properties":{"state":"MT","name":"HILGER","zip":"59451"}},{"arcs":[[-192,604,605,606,-596,607,608,-564,609,-517,610,-247]],"type":"Polygon","properties":{"state":"MT","name":"HOBSON","zip":"59452"}},{"arcs":[[-242,-248,-611,-516,611,-177,-233]],"type":"Polygon","properties":{"state":"MT","name":"JUDITH GAP","zip":"59453"}},{"arcs":[[612,613,-555,614]],"type":"Polygon","properties":{"state":"MT","name":"KEVIN","zip":"59454"}},{"arcs":[[615,616,-547]],"type":"Polygon","properties":{"state":"MT","name":"LEDGER","zip":"59456"}},{"arcs":[[617,-603,-135,-575,-178,-612,-515]],"type":"Polygon","properties":{"state":"MT","name":"LEWISTOWN","zip":"59457"}},{"arcs":[[-580,618,619]],"type":"Polygon","properties":{"state":"MT","name":"LOMA","zip":"59460"}},{"arcs":[[620,-557,-609]],"type":"Polygon","properties":{"state":"MT","name":"MOCCASIN","zip":"59462"}},{"arcs":[[621,-506,622,-593,-607,623,624]],"type":"Polygon","properties":{"state":"MT","name":"MONARCH","zip":"59463"}},{"arcs":[[-610,-563,-604,-618,-518]],"type":"Polygon","properties":{"state":"MT","name":"MOORE","zip":"59464"}},{"arcs":[[625,-624,-606]],"type":"Polygon","properties":{"state":"MT","name":"NEIHART","zip":"59465"}},{"arcs":[[626,-613,627]],"type":"Polygon","properties":{"state":"MT","name":"OILMONT","zip":"59466"}},{"arcs":[[-538,628,-545,-539,-520]],"type":"Polygon","properties":{"state":"MT","name":"PENDROY","zip":"59467"}},{"arcs":[[-533,-566,-576,-1,-480,629,-588,-572]],"type":"Polygon","properties":{"state":"MT","name":"POWER","zip":"59468"}},{"arcs":[[-623,-505,-599,-594]],"type":"Polygon","properties":{"state":"MT","name":"RAYNESFORD","zip":"59469"}},{"arcs":[[-602,630,631,-252,-137]],"type":"Polygon","properties":{"state":"MT","name":"ROY","zip":"59471"}},{"arcs":[[632,-484,-503]],"type":"Polygon","properties":{"state":"MT","name":"SAND COULEE","zip":"59472"}},{"arcs":[[633,-548,-617,634,-556,-614,-627,635,636,-590]],"type":"Polygon","properties":{"state":"MT","name":"SHELBY","zip":"59474"}},{"arcs":[[-608,-595,-542,-558,-621]],"type":"Polygon","properties":{"state":"MT","name":"STANFORD","zip":"59479"}},{"arcs":[[637,-485,-633,-502,-622]],"type":"Polygon","properties":{"state":"MT","name":"STOCKETT","zip":"59480"}},{"arcs":[[-615,-554,638,639,640,641,-636,-628]],"type":"Polygon","properties":{"state":"MT","name":"SUNBURST","zip":"59482"}},{"arcs":[[-526,-587,642,-478]],"type":"Polygon","properties":{"state":"MT","name":"SUN RIVER","zip":"59483"}},{"arcs":[[-553,643,-639]],"type":"Polygon","properties":{"state":"MT","name":"SWEET GRASS","zip":"59484"}},{"arcs":[[-598,-511,-551,-635,-616,-546,-629,-537]],"type":"Polygon","properties":{"state":"MT","name":"VALIER","zip":"59486"}},{"arcs":[[-589,-630,-479,-643]],"type":"Polygon","properties":{"state":"MT","name":"VAUGHN","zip":"59487"}},{"arcs":[[-601,-561,644,-631]],"type":"Polygon","properties":{"state":"MT","name":"WINIFRED","zip":"59489"}},{"arcs":[[645,646,647,648,649,650,651,652]],"type":"Polygon","properties":{"state":"MT","name":"HAVRE","zip":"59501"}},{"arcs":[[-579,653,654,655,656,657,-653,658,659,-619]],"type":"Polygon","properties":{"state":"MT","name":"BIG SANDY","zip":"59520"}},{"arcs":[[-658,660,661,-646]],"type":"Polygon","properties":{"state":"MT","name":"BOX ELDER","zip":"59521"}},{"arcs":[[-591,-637,-642,662,663,664,-577,-549,-634]],"type":"Polygon","properties":{"state":"MT","name":"CHESTER","zip":"59522"}},{"arcs":[[665,666,-651,667,668,669]],"type":"Polygon","properties":{"state":"MT","name":"CHINOOK","zip":"59523"}},{"arcs":[[670,671,672,673]],"type":"Polygon","properties":{"state":"MT","name":"DODSON","zip":"59524"}},{"arcs":[[674,675,-648,676,-661,-657]],"type":"Polygon","properties":{"state":"MT","name":"GILDFORD","zip":"59525"}},{"arcs":[[677,-674,678,-670,679,680]],"type":"Polygon","properties":{"state":"MT","name":"HARLEM","zip":"59526"}},{"arcs":[[681,-666,-679,-673,682]],"type":"Polygon","properties":{"state":"MT","name":"HAYS","zip":"59527"}},{"arcs":[[683,-675,-656]],"type":"Polygon","properties":{"state":"MT","name":"HINGHAM","zip":"59528"}},{"arcs":[[-669,684,685,-680]],"type":"Polygon","properties":{"state":"MT","name":"HOGELAND","zip":"59529"}},{"arcs":[[686,687,688,-654,-578,-665]],"type":"Polygon","properties":{"state":"MT","name":"INVERNESS","zip":"59530"}},{"arcs":[[-664,689,690,-687]],"type":"Polygon","properties":{"state":"MT","name":"JOPLIN","zip":"59531"}},{"arcs":[[-647,-662,-677]],"type":"Polygon","properties":{"state":"MT","name":"KREMLIN","zip":"59532"}},{"arcs":[[-652,-667,-682,691,692,-659]],"type":"Polygon","properties":{"state":"MT","name":"LLOYD","zip":"59535"}},{"arcs":[[693,694,695,696,-375]],"type":"Polygon","properties":{"state":"MT","name":"LORING","zip":"59537"}},{"arcs":[[697,-671,-678,698,-694,-374,-332,-319]],"type":"Polygon","properties":{"state":"MT","name":"MALTA","zip":"59538"}},{"arcs":[[-655,-689,699,-649,-676,-684]],"type":"Polygon","properties":{"state":"MT","name":"RUDYARD","zip":"59540"}},{"arcs":[[-681,-686,700,-695,-699]],"type":"Polygon","properties":{"state":"MT","name":"TURNER","zip":"59542"}},{"arcs":[[-376,-697,701,-334]],"type":"Polygon","properties":{"state":"MT","name":"WHITEWATER","zip":"59544"}},{"arcs":[[-663,-641,702,-690]],"type":"Polygon","properties":{"state":"MT","name":"WHITLASH","zip":"59545"}},{"arcs":[[-683,-672,-698,-318,703,-692]],"type":"Polygon","properties":{"state":"MT","name":"ZORTMAN","zip":"59546"}},{"arcs":[[704,705,706,707]],"type":"Polygon","properties":{"state":"MT","name":"HELENA","zip":"59601"}},{"arcs":[[[708,709,710]],[[711,712,713,714,715,-706]]],"type":"MultiPolygon","properties":{"state":"MT","name":"HELENA","zip":"59602"}},{"arcs":[[716,717,718,719,720,721,722,723]],"type":"Polygon","properties":{"state":"MT","name":"BOULDER","zip":"59632"}},{"arcs":[[724,725,726,-713]],"type":"Polygon","properties":{"state":"MT","name":"CANYON CREEK","zip":"59633"}},{"arcs":[[727,728,-708,729,730,-720,731]],"type":"Polygon","properties":{"state":"MT","name":"CLANCY","zip":"59634"}},{"arcs":[[-716,732,733,-730,-707]],"type":"Polygon","properties":{"state":"MT","name":"EAST HELENA","zip":"59635"}},{"arcs":[[734,735,736,-493,-726]],"type":"Polygon","properties":{"state":"MT","name":"LINCOLN","zip":"59639"}},{"arcs":[[737,738,739,740,741,-722]],"type":"Polygon","properties":{"state":"MT","name":"RADERSBURG","zip":"59641"}},{"arcs":[[742,743,744,745]],"type":"Polygon","properties":{"state":"MT","name":"RINGLING","zip":"59642"}},{"arcs":[[746,-745,747,748,749]],"type":"Polygon","properties":{"state":"MT","name":"TOSTON","zip":"59643"}},{"arcs":[[[-710,750,751,-746,-747,752]],[[753,754,-739]]],"type":"MultiPolygon","properties":{"state":"MT","name":"TOWNSEND","zip":"59644"}},{"arcs":[[-196,-251,755,-743,-752,756,-531,-486,-638,-625,-626,-605,-191,-246]],"type":"Polygon","properties":{"state":"MT","name":"WHITE SULPHUR SPRINGS","zip":"59645"}},{"arcs":[[-738,-721,-731,-734,757,-754]],"type":"Polygon","properties":{"state":"MT","name":"WINSTON","zip":"59647"}},{"arcs":[[-727,-492,-528,758,-529,-757,-751,-709,759,-714]],"type":"Polygon","properties":{"state":"MT","name":"WOLF CREEK","zip":"59648"}},{"arcs":[[760,761,762,763,-717]],"type":"Polygon","properties":{"state":"MT","name":"BUTTE","zip":"59701"}},{"arcs":[[764,765,766,767,768,769,770]],"type":"Polygon","properties":{"state":"MT","name":"ANACONDA","zip":"59711"}},{"arcs":[[771,772,773,774,-748,-744,-756,-250]],"type":"Polygon","properties":{"state":"MT","name":"BELGRADE","zip":"59714"}},{"arcs":[[-109,775,776,777,-772,-249,-181]],"type":"Polygon","properties":{"state":"MT","name":"BOZEMAN","zip":"59715"}},{"arcs":[[778,779,780,-773,-778]],"type":"Polygon","properties":{"state":"MT","name":"BOZEMAN","zip":"59718"}},{"arcs":[[781,782,783,784,785]],"type":"Polygon","properties":{"state":"MT","name":"CAMERON","zip":"59720"}},{"arcs":[[786,787,788,789,790,-723,-742,791,792,793]],"type":"Polygon","properties":{"state":"MT","name":"CARDWELL","zip":"59721"}},{"arcs":[[794,795,796,797,-728]],"type":"Polygon","properties":{"state":"MT","name":"DEER LODGE","zip":"59722"}},{"arcs":[[798,799,800]],"type":"Polygon","properties":{"state":"MT","name":"DELL","zip":"59724"}},{"arcs":[[801,802,-801,803,804,805,806,807,808]],"type":"Polygon","properties":{"state":"MT","name":"DILLON","zip":"59725"}},{"arcs":[[809,810,-807,811,812,-766,813,-762,814]],"type":"Polygon","properties":{"state":"MT","name":"DIVIDE","zip":"59727"}},{"arcs":[[815,-785,816,817,818]],"type":"Polygon","properties":{"state":"MT","name":"ENNIS","zip":"59729"}},{"arcs":[[819,-779,-777]],"type":"Polygon","properties":{"state":"MT","name":"GALLATIN GATEWAY","zip":"59730"}},{"arcs":[[-729,-798,820,821,-735,-725,-712,-705]],"type":"Polygon","properties":{"state":"MT","name":"GARRISON","zip":"59731"}},{"arcs":[[822,823,824,-821,-797,825]],"type":"Polygon","properties":{"state":"MT","name":"GOLD CREEK","zip":"59733"}},{"arcs":[[826,-793,827,828,829,-787]],"type":"Polygon","properties":{"state":"MT","name":"HARRISON","zip":"59735"}},{"arcs":[[830,831,832,-805]],"type":"Polygon","properties":{"state":"MT","name":"JACKSON","zip":"59736"}},{"arcs":[[-803,833,-783,834,-799]],"type":"Polygon","properties":{"state":"MT","name":"LIMA","zip":"59739"}},{"arcs":[[835,836,-774,-781]],"type":"Polygon","properties":{"state":"MT","name":"MANHATTAN","zip":"59741"}},{"arcs":[[837,-788,-830,838,-819]],"type":"Polygon","properties":{"state":"MT","name":"NORRIS","zip":"59745"}},{"arcs":[[-827,-794]],"type":"Polygon","properties":{"state":"MT","name":"PONY","zip":"59747"}},{"arcs":[[839,-771,840,-718,-764]],"type":"Polygon","properties":{"state":"MT","name":"RAMSAY","zip":"59748"}},{"arcs":[[841,842,-789,-838,-818,843,-809]],"type":"Polygon","properties":{"state":"MT","name":"SHERIDAN","zip":"59749"}},{"arcs":[[-814,-765,-840,-763]],"type":"Polygon","properties":{"state":"MT","name":"BUTTE","zip":"59750"}},{"arcs":[[844,-810,845,-790,-843]],"type":"Polygon","properties":{"state":"MT","name":"SILVER STAR","zip":"59751"}},{"arcs":[[846,-828,-792,-741,847,-749,-775,-837]],"type":"Polygon","properties":{"state":"MT","name":"THREE FORKS","zip":"59752"}},{"arcs":[[-808,-811,-845,-842]],"type":"Polygon","properties":{"state":"MT","name":"TWIN BRIDGES","zip":"59754"}},{"arcs":[[-834,-802,-844,-817,-784]],"type":"Polygon","properties":{"state":"MT","name":"VIRGINIA CITY","zip":"59755"}},{"arcs":[[-841,-770,848,-795,-732,-719]],"type":"Polygon","properties":{"state":"MT","name":"WARM SPRINGS","zip":"59756"}},{"arcs":[[-6,849,-786,-816,-839,-829,-847,-836,-780,-820,-776,-108,-130]],"type":"Polygon","properties":{"state":"MT","name":"WEST YELLOWSTONE","zip":"59758"}},{"arcs":[[-761,-724,-791,-846,-815]],"type":"Polygon","properties":{"state":"MT","name":"WHITEHALL","zip":"59759"}},{"arcs":[[850,-832,851,852,-767,-813]],"type":"Polygon","properties":{"state":"MT","name":"WISDOM","zip":"59761"}},{"arcs":[[-851,-812,-806,-833]],"type":"Polygon","properties":{"state":"MT","name":"WISE RIVER","zip":"59762"}},{"arcs":[[853,854,855,856,857]],"type":"Polygon","properties":{"state":"MT","name":"MISSOULA","zip":"59801"}},{"arcs":[[858,-857,859,860,861,862,863,864]],"type":"Polygon","properties":{"state":"MT","name":"MISSOULA","zip":"59802"}},{"arcs":[[865,866,867,868,-854,869,-865,870,871,872]],"type":"Polygon","properties":{"state":"MT","name":"MISSOULA","zip":"59803"}},{"arcs":[[873,874,875,-855,-869]],"type":"Polygon","properties":{"state":"MT","name":"MISSOULA","zip":"59804"}},{"arcs":[[-856,-876,876,877,878,-860]],"type":"Polygon","properties":{"state":"MT","name":"MISSOULA","zip":"59808"}},{"arcs":[[-859,-870,-858]],"type":"Polygon","properties":{"state":"MT","name":"MISSOULA","zip":"59812"}},{"arcs":[[879,880,881,-877,-875,882,883]],"type":"Polygon","properties":{"state":"MT","name":"ALBERTON","zip":"59820"}},{"arcs":[[884,885,886,887,-861,-879]],"type":"Polygon","properties":{"state":"MT","name":"ARLEE","zip":"59821"}},{"arcs":[[888,-871,-864,889,890]],"type":"Polygon","properties":{"state":"MT","name":"BONNER","zip":"59823"}},{"arcs":[[891,892,893,894]],"type":"Polygon","properties":{"state":"MT","name":"CHARLO","zip":"59824"}},{"arcs":[[895,-872,-889]],"type":"Polygon","properties":{"state":"MT","name":"CLINTON","zip":"59825"}},{"arcs":[[896,897,898,899,900,901]],"type":"Polygon","properties":{"state":"MT","name":"CONDON","zip":"59826"}},{"arcs":[[902,903,904,905,906]],"type":"Polygon","properties":{"state":"MT","name":"CONNER","zip":"59827"}},{"arcs":[[907,908,909,910,911]],"type":"Polygon","properties":{"state":"MT","name":"CORVALLIS","zip":"59828"}},{"arcs":[[912,913,914,-906]],"type":"Polygon","properties":{"state":"MT","name":"DARBY","zip":"59829"}},{"arcs":[[915,916,917,918,-893,919,-886]],"type":"Polygon","properties":{"state":"MT","name":"DIXON","zip":"59831"}},{"arcs":[[920,921,-912,922,-873,-896,-891,923,924,-824]],"type":"Polygon","properties":{"state":"MT","name":"DRUMMOND","zip":"59832"}},{"arcs":[[925,926,-867,927,928]],"type":"Polygon","properties":{"state":"MT","name":"FLORENCE","zip":"59833"}},{"arcs":[[-882,929,-916,-885,-878]],"type":"Polygon","properties":{"state":"MT","name":"FRENCHTOWN","zip":"59834"}},{"arcs":[[930,-924,-890,-863,931,932]],"type":"Polygon","properties":{"state":"MT","name":"GREENOUGH","zip":"59836"}},{"arcs":[[933,-921,-823]],"type":"Polygon","properties":{"state":"MT","name":"HALL","zip":"59837"}},{"arcs":[[934,935,-914,936,937,-909]],"type":"Polygon","properties":{"state":"MT","name":"HAMILTON","zip":"59840"}},{"arcs":[[-931,938,-736,-822,-825,-925]],"type":"Polygon","properties":{"state":"MT","name":"HELMVILLE","zip":"59843"}},{"arcs":[[939,940,941,942]],"type":"Polygon","properties":{"state":"MT","name":"HERON","zip":"59844"}},{"arcs":[[943,-894,-919,944,945,946,947,948,949,950,951]],"type":"Polygon","properties":{"state":"MT","name":"HOT SPRINGS","zip":"59845"}},{"arcs":[[-881,952,953,-917,-930]],"type":"Polygon","properties":{"state":"MT","name":"HUSON","zip":"59846"}},{"arcs":[[954,-883,-874,-868,-927]],"type":"Polygon","properties":{"state":"MT","name":"LOLO","zip":"59847"}},{"arcs":[[955,-951]],"type":"Polygon","properties":{"state":"MT","name":"LONEPINE","zip":"59848"}},{"arcs":[[956,957,958,-943]],"type":"Polygon","properties":{"state":"MT","name":"NOXON","zip":"59853"}},{"arcs":[[-939,-933,959,-897,960,-494,-737]],"type":"Polygon","properties":{"state":"MT","name":"OVANDO","zip":"59854"}},{"arcs":[[-908,-922,-934,-826,-796,-849,-769,961,-935]],"type":"Polygon","properties":{"state":"MT","name":"PHILIPSBURG","zip":"59858"}},{"arcs":[[962,963,964,965,966,967,-945,-918,-954]],"type":"Polygon","properties":{"state":"MT","name":"PLAINS","zip":"59859"}},{"arcs":[[968,969,-952,-956,-950,970,971,972]],"type":"Polygon","properties":{"state":"MT","name":"POLSON","zip":"59860"}},{"arcs":[[973,-895,-944,-970,-900]],"type":"Polygon","properties":{"state":"MT","name":"RONAN","zip":"59864"}},{"arcs":[[974,-887,-920,-892,-974,-899]],"type":"Polygon","properties":{"state":"MT","name":"SAINT IGNATIUS","zip":"59865"}},{"arcs":[[975,976,977,-964]],"type":"Polygon","properties":{"state":"MT","name":"SAINT REGIS","zip":"59866"}},{"arcs":[[-932,-862,-888,-975,-898,-960]],"type":"Polygon","properties":{"state":"MT","name":"SEELEY LAKE","zip":"59868"}},{"arcs":[[978,-928,-866,-923,-911]],"type":"Polygon","properties":{"state":"MT","name":"STEVENSVILLE","zip":"59870"}},{"arcs":[[[979,-907,-915,-936,-962,-768,-853]],[[980,-904]]],"type":"MultiPolygon","properties":{"state":"MT","name":"SULA","zip":"59871"}},{"arcs":[[981,-976,-963,-953,-880]],"type":"Polygon","properties":{"state":"MT","name":"SUPERIOR","zip":"59872"}},{"arcs":[[-978,982,983,-965]],"type":"Polygon","properties":{"state":"MT","name":"THOMPSON FALLS","zip":"59873"}},{"arcs":[[-984,984,-940,-959,985,-966]],"type":"Polygon","properties":{"state":"MT","name":"TROUT CREEK","zip":"59874"}},{"arcs":[[986,-929,-979,-910,-938]],"type":"Polygon","properties":{"state":"MT","name":"VICTOR","zip":"59875"}},{"arcs":[[-495,-961,-902,987,988,989,990,991,992,993,994,995,-567,-597,-535]],"type":"Polygon","properties":{"state":"MT","name":"KALISPELL","zip":"59901"}},{"arcs":[[996,997,-972]],"type":"Polygon","properties":{"state":"MT","name":"BIG ARM","zip":"59910"}},{"arcs":[[-969,998,999,-988,-901]],"type":"Polygon","properties":{"state":"MT","name":"BIGFORK","zip":"59911"}},{"arcs":[[1000,1001,1002,-995]],"type":"Polygon","properties":{"state":"MT","name":"COLUMBIA FALLS","zip":"59912"}},{"arcs":[[1003,1004,1005]],"type":"Polygon","properties":{"state":"MT","name":"DAYTON","zip":"59914"}},{"arcs":[[1006,1007,-1004,1008,-997,-971,-949]],"type":"Polygon","properties":{"state":"MT","name":"ELMO","zip":"59915"}},{"arcs":[[-996,-1003,1009,1010,-568]],"type":"Polygon","properties":{"state":"MT","name":"ESSEX","zip":"59916"}},{"arcs":[[1011,1012,1013,1014,1015]],"type":"Polygon","properties":{"state":"MT","name":"EUREKA","zip":"59917"}},{"arcs":[[1016,-991,1017,1018,-947]],"type":"Polygon","properties":{"state":"MT","name":"KILA","zip":"59920"}},{"arcs":[[1019,1020,-1018,-990,1021,1022]],"type":"Polygon","properties":{"state":"MT","name":"LAKESIDE","zip":"59922"}},{"arcs":[[1023,1024,-1013,1025,-993,1026,-967,-986,-958]],"type":"Polygon","properties":{"state":"MT","name":"LIBBY","zip":"59923"}},{"arcs":[[-968,-1027,-992,-1017,-946]],"type":"Polygon","properties":{"state":"MT","name":"MARION","zip":"59925"}},{"arcs":[[1027,-1016,1028,-1010,-1002]],"type":"Polygon","properties":{"state":"MT","name":"POLEBRIDGE","zip":"59928"}},{"arcs":[[-948,-1019,-1021,1029,-1007]],"type":"Polygon","properties":{"state":"MT","name":"PROCTOR","zip":"59929"}},{"arcs":[[-1025,1030,1031,-1014]],"type":"Polygon","properties":{"state":"MT","name":"REXFORD","zip":"59930"}},{"arcs":[[-1008,-1030,-1020,1032,-1005]],"type":"Polygon","properties":{"state":"MT","name":"ROLLINS","zip":"59931"}},{"arcs":[[-1000,1033,-1022,-989]],"type":"Polygon","properties":{"state":"MT","name":"SOMERS","zip":"59932"}},{"arcs":[[-942,1034,-1031,-1024,-957]],"type":"Polygon","properties":{"state":"MT","name":"TROY","zip":"59935"}},{"arcs":[[-994,-1026,-1012,-1028,-1001]],"type":"Polygon","properties":{"state":"MT","name":"WHITEFISH","zip":"59937"}}]}},"arcs":[[[10448,23642],[-63,56]],[[10385,23698],[85,0]],[[10470,23698],[9,-33]],[[10479,23665],[-31,-23]],[[11042,20921],[-383,10],[5,-542],[-36,13]],[[10628,20402],[-45,585],[85,18]],[[10668,21005],[212,-8]],[[10880,20997],[45,-33],[14,-5],[103,-38]],[[11479,20934],[-401,-13],[-27,0],[-9,0]],[[11042,20921],[-72,38]],[[10970,20959],[509,-25]],[[16126,21511],[0,-107],[0,-130]],[[16126,21274],[-229,87]],[[15897,21361],[18,183],[108,-15]],[[16023,21529],[103,-18]],[[11943,21488],[0,-48]],[[11943,21440],[-243,-92]],[[11700,21348],[-86,117]],[[11614,21465],[207,115]],[[11821,21580],[0,12]],[[11821,21592],[5,-91],[117,-13]],[[12456,21803],[27,94]],[[12483,21897],[81,31]],[[12564,21928],[45,-31]],[[12609,21897],[-81,-76]],[[12528,21821],[-72,-18]],[[14415,21590],[0,-196]],[[14415,21394],[-76,58]],[[14339,21452],[45,128]],[[14384,21580],[31,10]],[[13006,21758],[-149,114]],[[12857,21872],[189,71]],[[13046,21943],[-40,-185]],[[12254,21048],[-163,0]],[[12091,21048],[37,120]],[[12128,21168],[162,-31],[-36,-89]],[[12254,21048],[-54,-119]],[[12200,20929],[-145,7]],[[12055,20936],[73,23],[-37,89]],[[13420,22002],[36,101]],[[13456,22103],[225,122]],[[13681,22225],[131,3]],[[13812,22228],[54,-191]],[[13866,22037],[0,-213]],[[13866,21824],[-446,178]],[[11308,21696],[-54,87]],[[11254,21783],[0,219]],[[11254,22002],[441,-155]],[[11695,21847],[-67,-102]],[[11628,21745],[-90,61],[-230,-110]],[[11542,21661],[-230,-87]],[[11312,21574],[-4,122]],[[11308,21696],[306,49]],[[11614,21745],[-72,-84]],[[14415,21394],[-36,-280]],[[14379,21114],[-369,-2],[-9,180]],[[14001,21292],[31,56]],[[14032,21348],[181,-30],[126,134]],[[12128,21168],[-18,48]],[[12110,21216],[103,76]],[[12213,21292],[5,0]],[[12218,21292],[103,-23],[63,138]],[[12384,21407],[9,58]],[[12393,21465],[104,0]],[[12497,21465],[40,-58]],[[12537,21407],[-40,-245],[446,-10]],[[12943,21152],[-95,-223]],[[12848,20929],[-284,2],[-9,0],[-355,-2]],[[12483,21897],[-162,46],[0,148]],[[12321,22091],[108,0]],[[12429,22091],[203,0]],[[12632,22091],[-68,-163]],[[13803,21292],[0,36]],[[13803,21328],[4,170]],[[13807,21498],[0,143]],[[13807,21641],[81,-11]],[[13888,21630],[144,-5]],[[14032,21625],[0,-277]],[[14001,21292],[-198,0]],[[11956,21646],[145,73],[40,-76]],[[12141,21643],[-4,-94]],[[12137,21549],[-181,97]],[[12087,21407],[-117,-16]],[[11970,21391],[-18,0]],[[11952,21391],[-9,49]],[[11943,21488],[99,97]],[[12042,21585],[122,-54]],[[12164,21531],[-77,-124]],[[13402,21498],[-414,8]],[[12988,21506],[0,122]],[[12988,21628],[328,2],[50,89],[441,-78]],[[13807,21498],[-405,0]],[[13267,22037],[-180,84],[27,242]],[[13114,22363],[94,0],[5,101]],[[13213,22464],[31,-15]],[[13244,22449],[212,-323]],[[13456,22126],[-189,-89]],[[13303,22002],[-68,10]],[[13235,22012],[9,13]],[[13244,22025],[208,89]],[[13452,22114],[4,-11]],[[13420,22002],[-117,0]],[[13816,20926],[-4,102]],[[13812,21028],[-9,264]],[[14379,21114],[14,-191]],[[14393,20923],[-131,0],[-446,3]],[[10777,21137],[-113,-94]],[[10664,21043],[9,247],[95,0]],[[10768,21290],[0,28]],[[10768,21318],[148,-11]],[[10916,21307],[-139,-170]],[[10916,21307],[5,-7]],[[10921,21300],[-32,-26]],[[10889,21274],[27,33]],[[10876,21262],[0,-59]],[[10876,21203],[-95,-63]],[[10781,21140],[95,122]],[[11434,21107],[0,180],[99,36]],[[11533,21323],[167,25]],[[11952,21391],[-113,-86]],[[11839,21305],[-198,-204]],[[11641,21101],[-207,6]],[[12218,21292],[166,115]],[[11641,21101],[-4,-170]],[[11637,20931],[-158,3]],[[10970,20959],[-189,181]],[[10876,21203],[103,-102]],[[10979,21101],[221,92],[117,-86]],[[11317,21107],[117,0]],[[10668,21005],[-4,38]],[[10777,21137],[103,-140]],[[13803,21328],[-356,48]],[[13447,21376],[-45,122]],[[12384,22726],[-63,247],[-202,5]],[[12119,22978],[4,135]],[[12123,23113],[54,38]],[[12177,23151],[302,61]],[[12479,23212],[-14,-130],[99,-7],[-13,-351]],[[12551,22724],[-167,2]],[[11835,21811],[-14,-145]],[[11821,21666],[-193,79]],[[11695,21847],[171,55]],[[11866,21902],[-31,-91]],[[11821,21580],[-279,81]],[[11614,21745],[207,-87]],[[11821,21658],[0,-66]],[[12988,21628],[0,71]],[[12988,21699],[94,-8],[-22,115],[243,196]],[[13866,21824],[22,-194]],[[13006,21758],[-18,-26]],[[12988,21732],[-248,76]],[[12740,21808],[117,125]],[[12857,21933],[0,-61]],[[13244,22449],[338,3]],[[13582,22452],[216,-181]],[[13798,22271],[-216,-7],[-126,-138]],[[13452,22114],[225,162]],[[13677,22276],[4,-51]],[[13587,22838],[99,-254],[-104,-132]],[[13213,22464],[-36,267]],[[13177,22731],[-54,97]],[[13123,22828],[175,0]],[[13298,22828],[289,10]],[[12213,21292],[-4,107],[-122,8]],[[12164,21531],[139,21]],[[12303,21552],[9,-115],[81,28]],[[14032,21625],[352,-45]],[[12384,21557],[-54,112]],[[12330,21669],[95,-6]],[[12425,21663],[72,-28]],[[12497,21635],[22,0]],[[12519,21635],[-135,-78]],[[12542,21641],[-45,-176]],[[12303,21552],[239,89]],[[12321,22091],[-90,0]],[[12231,22091],[-112,86],[-32,392],[-131,94]],[[11956,22663],[0,5]],[[11956,22668],[154,58]],[[12110,22726],[144,0]],[[12254,22726],[139,-440],[171,-106],[-135,-89]],[[10768,21318],[99,442]],[[10867,21760],[328,94],[59,-71]],[[11308,21696],[-216,-38],[-176,-351]],[[11312,21574],[5,-467]],[[10979,21101],[68,145],[-126,54]],[[10916,21307],[162,336],[230,53]],[[12537,21407],[257,-5]],[[12794,21402],[234,-90],[419,64]],[[13812,21028],[-595,40],[-135,130],[-31,-140],[-108,94]],[[11614,21465],[-81,0],[0,-142]],[[11263,22454],[-225,105],[-5,188]],[[11033,22747],[234,-61]],[[11267,22686],[-4,-232]],[[11934,22002],[-68,-100]],[[11254,22002],[9,142]],[[11263,22144],[0,38]],[[11263,22182],[428,0]],[[11691,22182],[58,0]],[[11749,22182],[50,-180],[135,0]],[[12330,21669],[-189,-26]],[[11956,21646],[-135,20]],[[11835,21811],[284,-8],[-5,288]],[[12114,22091],[117,0]],[[12456,21803],[-31,-140]],[[13289,23021],[9,-193]],[[13123,22828],[4,148]],[[13127,22976],[162,45]],[[12808,22225],[54,247],[99,28],[-59,229]],[[12902,22729],[275,2]],[[13114,22363],[-207,-140]],[[12907,22223],[-99,2]],[[14415,21590],[36,150]],[[14451,21740],[361,0],[-5,-77]],[[14807,21663],[-32,-111]],[[14775,21552],[-40,-69],[135,-48]],[[14870,21435],[86,-166]],[[14956,21269],[-284,-338]],[[14672,20931],[-81,-8],[-135,0],[-63,0]],[[12384,21557],[-247,-8]],[[13046,21943],[189,69]],[[12988,21699],[0,33]],[[10876,21262],[13,12]],[[11934,22002],[4,89],[176,0]],[[12055,20936],[-310,-5],[-108,0]],[[11839,21305],[122,-61]],[[11961,21244],[149,-28]],[[11821,21658],[221,-73]],[[11961,21244],[9,147]],[[12808,22225],[-176,-134]],[[12254,22726],[130,0]],[[12551,22724],[351,5]],[[11749,22182],[189,0],[18,308]],[[11956,22490],[0,173]],[[12794,21402],[194,104]],[[13677,22276],[139,-5]],[[13816,22271],[-4,-43]],[[13879,22838],[-292,0]],[[13289,23021],[379,176]],[[13668,23197],[112,74],[41,-89]],[[13821,23182],[49,-199],[-67,-76],[76,-69]],[[11691,22182],[-63,288]],[[11628,22470],[328,20]],[[12907,22223],[27,-87],[-104,-20],[32,-175]],[[12862,21941],[-72,-84]],[[12790,21857],[-181,40]],[[11263,22182],[0,272]],[[11267,22686],[397,-18]],[[11664,22668],[-36,-198]],[[10867,21760],[-41,170]],[[10826,21930],[45,224]],[[10871,22154],[392,-10]],[[12479,23212],[315,92],[5,269]],[[12799,23573],[292,-18],[-13,-201]],[[13078,23354],[49,-378]],[[13267,22037],[-405,-96]],[[12857,21933],[387,92]],[[13816,20926],[-67,0],[-113,5],[-189,0],[-338,0],[-261,-2]],[[12542,21641],[198,167]],[[12560,21674],[63,78]],[[12623,21752],[54,0]],[[12677,21752],[-158,-117]],[[12497,21635],[63,39]],[[12560,21674],[36,81]],[[12596,21755],[27,-3]],[[12596,21755],[-68,66]],[[12790,21857],[-113,-105]],[[15091,24585],[58,-99],[-36,-379]],[[15113,24107],[-392,-86]],[[14721,24021],[32,501]],[[14753,24522],[0,63]],[[14753,24585],[243,0]],[[14996,24585],[95,0]],[[15955,24735],[-13,-104]],[[15942,24631],[-207,28]],[[15735,24659],[157,135]],[[15892,24794],[63,-59]],[[15960,24046],[-95,183]],[[15865,24229],[198,178]],[[16063,24407],[59,0]],[[16122,24407],[0,-402],[-162,41]],[[15622,24229],[59,-76]],[[15681,24153],[-329,-79]],[[15352,24074],[-41,511]],[[15311,24585],[90,0]],[[15401,24585],[253,-89]],[[15654,24496],[54,-89]],[[15708,24407],[-86,-178]],[[14978,23169],[-347,-92],[0,92],[-99,0]],[[14532,23169],[-67,0],[0,147]],[[14465,23316],[396,11],[117,-158]],[[14366,23494],[9,31]],[[14375,23525],[4,0],[18,10],[0,5],[0,8],[0,2],[63,69]],[[14460,23619],[419,-36],[-18,133],[131,2],[4,-99],[99,-3]],[[15095,23616],[-31,-132]],[[15064,23484],[0,-142]],[[15064,23342],[0,-173]],[[15064,23169],[-86,0]],[[14465,23316],[-99,36],[0,142]],[[15622,24229],[243,0]],[[15960,24046],[-279,107]],[[16122,24735],[0,-76],[0,-239],[0,-13]],[[16063,24407],[-72,0]],[[15991,24407],[14,112],[-95,82]],[[15910,24601],[32,30]],[[15955,24735],[167,0]],[[16122,24003],[4,-191],[-22,-7]],[[16104,23805],[-162,35]],[[15942,23840],[-716,69]],[[15226,23909],[0,165]],[[15226,24074],[459,79],[437,-150]],[[15149,24585],[14,328]],[[15163,24913],[184,0]],[[15347,24913],[54,-257]],[[15401,24656],[0,-71]],[[15311,24585],[-162,0]],[[14271,24021],[0,-13]],[[14271,24008],[-189,-43],[81,-69],[-162,-142],[-203,-3],[90,-63],[-391,12]],[[13497,23700],[9,397]],[[13506,24097],[22,224],[72,0]],[[13600,24321],[221,-150],[252,48]],[[14073,24219],[266,-91]],[[14339,24128],[13,-61]],[[14352,24067],[-81,-46]],[[14537,24046],[-9,407]],[[14528,24453],[225,69]],[[14721,24021],[-184,25]],[[15708,24407],[283,0]],[[14235,24456],[104,-328]],[[14073,24219],[-176,183],[235,288]],[[14132,24690],[18,-31]],[[14150,24659],[85,-203]],[[13600,24321],[18,216]],[[13618,24537],[41,191]],[[13659,24728],[22,307]],[[13681,25035],[270,0]],[[13951,25035],[271,-134],[-14,-92]],[[14208,24809],[-76,-119]],[[15654,24496],[63,3]],[[15717,24499],[-9,-92]],[[15694,23599],[-297,15],[0,89],[-203,0],[0,91]],[[15194,23794],[32,115]],[[15942,23840],[36,-94],[-90,-89],[63,-18]],[[15951,23639],[-257,-40]],[[14150,24659],[432,-3]],[[14582,24656],[171,-71]],[[14528,24453],[-45,92],[-248,-89]],[[15717,24499],[193,102]],[[14537,24046],[-185,21]],[[14483,24852],[-275,-43]],[[13951,25035],[559,-2]],[[14510,25033],[-27,-181]],[[15586,24852],[-158,94],[59,87]],[[15487,25033],[104,0]],[[15591,25033],[117,-92]],[[15708,24941],[0,-84],[-122,-5]],[[14582,24656],[0,191],[-99,5]],[[14510,25033],[320,0]],[[14830,25033],[139,-150]],[[14969,24883],[-63,0],[113,-76],[-23,-222]],[[15735,24659],[-239,-3]],[[15496,24656],[90,196]],[[15708,24941],[0,92]],[[15708,25033],[211,0]],[[15919,25033],[-67,-104],[40,-135]],[[15091,24585],[58,0]],[[15352,24074],[-239,33]],[[15591,25033],[117,0]],[[15496,24656],[-95,0]],[[15347,24913],[-13,120]],[[15334,25033],[153,0]],[[15640,23502],[-266,-5],[-108,107],[-202,-120]],[[15095,23616],[0,176],[99,2]],[[15694,23599],[-54,-97]],[[13618,24537],[-396,33]],[[13222,24570],[108,219]],[[13330,24789],[329,-61]],[[16122,23677],[0,-287]],[[16122,23390],[-275,-46]],[[15847,23344],[189,328]],[[16036,23672],[86,5]],[[15829,23344],[-72,92]],[[15757,23436],[0,89],[-117,-23]],[[15951,23639],[58,5]],[[16009,23644],[-180,-300]],[[14969,24883],[194,30]],[[16104,23805],[22,-21],[0,-15],[-117,-125]],[[16122,23761],[0,-84]],[[16036,23672],[86,89]],[[14271,24021],[955,53]],[[14460,23619],[-166,351],[85,-38],[-108,76]],[[15919,25033],[203,0],[0,-107],[0,-191]],[[14830,25033],[504,0]],[[14807,22472],[90,-109]],[[14897,22363],[-76,-105],[-194,46]],[[14627,22304],[180,168]],[[14478,22269],[14,183]],[[14492,22452],[13,10]],[[14505,22462],[289,5]],[[14794,22467],[-316,-198]],[[16126,21274],[0,-127],[-13,-221],[-239,3],[-36,0]],[[15838,20929],[90,195],[-148,186],[117,51]],[[14492,22452],[-293,254]],[[14199,22706],[-22,117]],[[14177,22823],[355,0]],[[14532,22823],[-27,-361]],[[15852,21999],[18,155],[-95,0]],[[15775,22154],[-18,140],[144,132],[-216,216]],[[15685,22642],[0,16]],[[15685,22658],[437,-44]],[[16122,22614],[0,-104],[0,-267],[0,-343],[0,-66]],[[16122,21834],[-270,165]],[[14956,21269],[270,369]],[[15226,21638],[103,99]],[[15329,21737],[5,0]],[[15334,21737],[58,0]],[[15392,21737],[0,-33]],[[15392,21704],[-45,-496]],[[15347,21208],[0,-277]],[[15347,20931],[-40,0],[-392,0],[-243,0]],[[15379,23243],[-315,99]],[[15757,23436],[-180,41],[-135,-72],[27,-190],[-90,28]],[[15541,21714],[95,-51],[-158,-157],[189,-160],[-212,-194],[-108,56]],[[15392,21704],[149,10]],[[14870,21435],[108,76],[-203,41]],[[14807,21663],[302,-45]],[[15109,21618],[117,20]],[[13483,23586],[90,-115],[-13,-208],[108,-66]],[[13078,23354],[198,257],[207,-25]],[[14532,22838],[0,-15]],[[14177,22823],[-298,15]],[[13821,23182],[513,170],[32,142]],[[14532,23169],[0,-331]],[[16023,21529],[-180,180],[-302,5]],[[15392,21737],[77,359]],[[15469,22096],[243,0]],[[15712,22096],[140,-97]],[[16122,21834],[4,-323]],[[15289,22836],[54,33]],[[15343,22869],[27,-28]],[[15370,22841],[-81,-5]],[[15442,22838],[-63,-104],[99,-193]],[[15478,22541],[-482,56]],[[14996,22597],[266,216]],[[15262,22813],[112,25]],[[15374,22838],[68,0]],[[14199,22706],[-95,-71],[59,-374]],[[14163,22261],[-365,10]],[[13816,22271],[410,-35]],[[14226,22236],[-122,-191],[-238,-8]],[[15343,22869],[-216,96],[0,112]],[[15127,23077],[292,46],[-40,120]],[[15829,23344],[-459,-503]],[[15690,22838],[-248,0]],[[15374,22838],[433,471]],[[15807,23309],[108,-285],[-225,-186]],[[15838,20929],[-491,2]],[[15334,21737],[40,201],[-238,450],[-239,-25]],[[14807,22472],[176,160]],[[14983,22632],[13,-35]],[[15478,22541],[108,43]],[[15586,22584],[0,-132],[-135,-10],[18,-346]],[[13483,23586],[27,104],[270,-91],[135,73],[-22,-89],[40,145],[235,-28],[54,211],[175,-312],[0,-3],[0,-2],[0,-3],[0,-8],[0,-23],[-22,-35]],[[14532,22838],[361,-28],[58,-178]],[[14951,22632],[-157,-165]],[[15127,23077],[-63,92]],[[15685,22642],[-99,-58]],[[15690,22838],[-5,-180]],[[15775,22154],[-63,-58]],[[15109,21618],[-59,122],[279,-3]],[[14478,22269],[-315,-8]],[[14226,22236],[252,30]],[[14478,22266],[-27,-526]],[[15289,22836],[-338,-204]],[[14983,22632],[67,135],[212,46]],[[14478,22266],[149,38]],[[15807,23309],[40,35]],[[16122,23390],[0,-69],[0,-600],[0,-107]],[[10308,23426],[-103,109]],[[10205,23535],[90,18]],[[10295,23553],[153,89]],[[10479,23665],[194,-38]],[[10673,23627],[-162,-102],[-36,-8],[-23,-132],[-139,41]],[[10313,23426],[-5,0]],[[10659,23421],[-130,22],[-5,-101]],[[10524,23342],[-45,-359]],[[10479,22983],[-162,0]],[[10317,22983],[81,232],[-85,208]],[[10313,23423],[135,-43],[13,122],[45,18],[158,76]],[[10664,23596],[144,-76]],[[10808,23520],[-149,-99]],[[9885,23512],[4,-333]],[[9889,23179],[-148,25],[-108,-147]],[[9633,23057],[-536,425]],[[9097,23482],[-68,112]],[[9029,23594],[-18,137],[144,229]],[[9155,23960],[104,-333],[338,-46]],[[9597,23581],[288,-69]],[[8818,24748],[-149,285]],[[8669,25033],[401,0]],[[9070,25033],[58,-148]],[[9128,24885],[-310,-137]],[[10677,23151],[-85,79],[54,145]],[[10646,23375],[13,46]],[[10808,23520],[176,-110]],[[10984,23410],[-99,-61],[-5,-216]],[[10880,23133],[-203,18]],[[10385,23995],[-451,-2]],[[9934,23993],[0,58]],[[9934,24051],[451,49]],[[10385,24100],[0,-105]],[[9745,24501],[-72,-160],[-207,-15]],[[9466,24326],[-360,0]],[[9106,24326],[-158,117],[-130,305]],[[9128,24885],[207,-84],[54,-277],[356,-23]],[[11790,22876],[-23,-208]],[[11767,22668],[-85,0]],[[11682,22668],[-68,109],[50,99]],[[11664,22876],[126,0]],[[9754,24013],[-162,-28],[77,31]],[[9669,24016],[85,-3]],[[10781,23761],[-167,-2]],[[10614,23759],[190,7]],[[10804,23766],[-23,-5]],[[9885,23512],[90,-15]],[[9975,23497],[90,0]],[[10065,23497],[-27,-89],[108,-46],[162,64]],[[10313,23426],[-311,-316]],[[10002,23110],[-113,69]],[[10191,22894],[-99,0],[-4,216],[-77,-5]],[[10011,23105],[302,318]],[[10317,22983],[-126,-89]],[[9934,23993],[-27,-117],[90,-89]],[[9997,23787],[54,-82]],[[10051,23705],[-288,64],[-166,-188]],[[9155,23960],[81,30],[-103,153]],[[9133,24143],[22,0]],[[9155,24143],[415,0]],[[9570,24143],[99,-127]],[[9754,24013],[50,84]],[[9804,24097],[130,-46]],[[11457,23469],[58,-252]],[[11515,23217],[-198,132]],[[11317,23349],[0,61]],[[11317,23410],[140,59]],[[9804,24097],[-86,46]],[[9718,24143],[329,165]],[[10047,24308],[135,-74]],[[10182,24234],[203,0]],[[10385,24234],[0,-91]],[[10385,24143],[0,-43]],[[9781,24499],[-36,2]],[[9070,25033],[702,0]],[[9772,25033],[0,-64]],[[9772,24969],[5,-112]],[[9777,24857],[0,-127]],[[9777,24730],[0,-135],[4,-63],[0,-33]],[[11673,23039],[0,132],[-90,18]],[[11583,23189],[-68,28]],[[11457,23469],[135,56],[22,188]],[[11614,23713],[144,23]],[[11758,23736],[45,-214]],[[11803,23522],[-108,-218],[41,-191]],[[11736,23113],[-63,-76]],[[11673,23037],[0,2]],[[10385,23995],[0,-193]],[[10385,23802],[-388,-15]],[[8872,24326],[-5,8]],[[8867,24334],[-90,241],[-180,36],[-50,246],[-162,-10],[-72,186]],[[8313,25033],[356,0]],[[9106,24326],[-234,0]],[[10101,23609],[-117,0],[-9,-112]],[[10051,23705],[50,-96]],[[10470,23698],[144,61]],[[10781,23761],[-108,-134]],[[12110,22726],[-73,107],[118,33],[-36,112]],[[10385,23698],[0,104]],[[10385,24143],[441,0],[68,91]],[[10894,24234],[94,0]],[[10988,24234],[-40,-180],[67,-76]],[[11015,23978],[-63,-64],[68,-38]],[[11020,23876],[-216,-110]],[[11317,23410],[-284,0]],[[11033,23410],[18,153]],[[11051,23563],[270,-43],[41,81],[-315,10]],[[11047,23611],[-261,150]],[[10786,23761],[562,288],[82,-224],[184,-112]],[[10151,23540],[-86,-43]],[[10101,23609],[14,0]],[[10115,23609],[36,-69]],[[10488,24369],[-162,117],[162,117]],[[10488,24603],[0,-234]],[[11051,23563],[-4,48]],[[10979,23034],[0,10]],[[10979,23044],[54,366]],[[11317,23349],[-95,-175],[59,-48],[-149,-100]],[[11132,23026],[-153,8]],[[9133,24143],[-261,183]],[[9466,24326],[-311,-183]],[[11033,23410],[-49,0]],[[10664,23596],[122,165]],[[11803,23522],[442,-15]],[[12245,23507],[-163,-168],[95,-188]],[[12123,23113],[-113,79],[-148,-120]],[[11862,23072],[-126,41]],[[11033,22747],[-58,53]],[[10975,22800],[4,204]],[[10979,23004],[0,30]],[[11132,23026],[144,-86],[181,69]],[[11457,23009],[216,30]],[[11673,23037],[-9,-161]],[[11682,22668],[-18,0]],[[11767,22668],[189,0]],[[10029,24857],[-77,-81],[77,-53]],[[10029,24723],[-252,7]],[[9777,24857],[252,0]],[[10047,24308],[36,61]],[[10083,24369],[99,-2],[0,-133]],[[11790,22876],[94,-25],[-22,221]],[[11015,23978],[108,137],[113,-92]],[[11236,24023],[-216,-147]],[[11457,23009],[126,180]],[[10668,22988],[9,163]],[[10880,23133],[99,-89]],[[10979,23004],[-166,-95]],[[10813,22909],[-145,79]],[[10975,22800],[-162,109]],[[10268,24723],[-239,0]],[[10029,24857],[239,-45],[0,-89]],[[9570,24143],[148,0]],[[10295,23553],[-180,56]],[[12245,23507],[270,112]],[[12515,23619],[284,-46]],[[10646,23375],[-122,-33]],[[10488,24369],[0,-130],[-103,-5]],[[10083,24369],[-302,130]],[[10268,24723],[220,-21]],[[10488,24702],[0,-99]],[[10668,22988],[-90,84],[-99,-89]],[[9772,24969],[410,61]],[[10182,25030],[311,0]],[[10493,25030],[-5,-262]],[[10488,24768],[0,-66]],[[10151,23540],[54,-5]],[[9772,25033],[410,-3]],[[11758,23736],[509,69],[248,-186]],[[11695,24158],[86,3],[-50,239],[-180,73]],[[11551,24473],[81,107],[-103,10],[-154,237]],[[11375,24827],[-193,163]],[[11182,24990],[-113,43]],[[11069,25033],[811,2]],[[11880,25035],[-50,-763]],[[11830,24272],[14,-124]],[[11844,24148],[-149,10]],[[10988,24234],[5,89]],[[10993,24323],[103,0]],[[11096,24323],[117,0]],[[11213,24323],[185,0]],[[11398,24323],[203,0],[94,-165]],[[11844,24148],[-5,-407]],[[11839,23741],[-247,-20],[-162,106],[-55,212],[-139,-16]],[[11398,24323],[0,87]],[[11398,24410],[153,63]],[[10488,24768],[325,-61]],[[10813,24707],[-9,-412],[90,-45]],[[10894,24250],[0,-16]],[[12348,24557],[0,-274]],[[12348,24283],[-49,81],[-469,-92]],[[11880,25035],[504,-2]],[[12384,25033],[-148,-257]],[[12236,24776],[112,-219]],[[12772,24440],[-14,-521]],[[12758,23919],[-86,-13],[14,79]],[[12686,23985],[36,478]],[[12722,24463],[50,-23]],[[11213,24323],[-54,639]],[[11159,24962],[23,28]],[[11375,24827],[-63,-295],[86,-122]],[[12794,24751],[-22,-311]],[[12722,24463],[-374,94]],[[12236,24776],[414,23]],[[12650,24799],[144,-48]],[[12353,23929],[-5,354]],[[12686,23985],[-333,-56]],[[11096,24323],[-13,565],[76,74]],[[12384,25033],[257,0]],[[12641,25033],[9,-234]],[[10894,24250],[9,783]],[[10903,25033],[117,0]],[[11020,25033],[-27,-710]],[[10813,24707],[-100,326]],[[10713,25033],[190,0]],[[12353,23929],[-5,-193]],[[12348,23736],[-509,5]],[[13222,24570],[-383,209]],[[12839,24779],[18,254]],[[12857,25033],[504,0]],[[13361,25033],[59,-87],[-90,-157]],[[13506,24097],[-320,3],[-95,-117],[-333,-64]],[[12794,24751],[45,28]],[[11020,25033],[49,0]],[[12641,25033],[216,0]],[[13361,25033],[320,2]],[[10493,25030],[220,3]],[[13497,23700],[-23,-76],[-257,74],[95,-41],[-180,-208],[-72,139],[-541,28],[-171,120]],[[9682,22388],[0,145]],[[9682,22533],[288,56]],[[9970,22589],[-13,-48]],[[9957,22541],[-275,-153]],[[10051,22696],[154,-5]],[[10205,22691],[0,-122]],[[10205,22569],[-154,127]],[[9682,22533],[-4,84]],[[9678,22617],[94,13],[-58,94],[184,20]],[[9898,22744],[113,-25]],[[10011,22719],[131,-112]],[[10142,22607],[-172,-18]],[[9588,22035],[-59,38]],[[9529,22073],[-54,66]],[[9475,22139],[-9,64]],[[9466,22203],[626,114]],[[10092,22317],[0,-117]],[[10092,22200],[0,-148]],[[10092,22052],[-81,-45]],[[10011,22007],[-167,2],[-9,153],[-247,-127]],[[9678,22617],[-171,130]],[[9507,22747],[49,86],[-72,110],[149,114]],[[9633,23057],[265,-313]],[[9489,22228],[45,79]],[[9534,22307],[148,81]],[[9957,22541],[131,0]],[[10088,22541],[4,-224]],[[9466,22203],[23,25]],[[10142,22607],[45,-66]],[[10187,22541],[-99,0]],[[9507,22747],[-127,61]],[[9380,22808],[-76,2],[0,191]],[[9304,23001],[-9,163],[-198,2],[0,316]],[[10092,22200],[216,5]],[[10308,22205],[23,-56]],[[10331,22149],[22,-15]],[[10353,22134],[-166,-234]],[[10187,21900],[-95,152]],[[10650,22317],[127,69],[81,-74],[-18,-158]],[[10840,22154],[-185,0]],[[10655,22154],[-18,43]],[[10637,22197],[13,120]],[[10335,22205],[302,-8]],[[10655,22154],[-176,-5]],[[10479,22149],[-85,-84]],[[10394,22065],[-59,140]],[[10205,22691],[108,48]],[[10313,22739],[337,-422]],[[10335,22205],[-130,364]],[[10308,22205],[-54,173]],[[10254,22378],[77,-229]],[[10871,22154],[-31,0]],[[10313,22739],[-122,155]],[[10187,22541],[67,-163]],[[10002,23110],[-86,-134],[86,132],[4,-3],[5,0]],[[10051,22696],[-130,277],[90,-254]],[[9588,22035],[67,-277]],[[9655,21758],[-257,78]],[[9398,21836],[23,155]],[[9421,21991],[108,82]],[[9317,22032],[-112,-142]],[[9205,21890],[-126,-77]],[[9079,21813],[-225,-106],[-113,185]],[[8741,21892],[0,3]],[[8741,21895],[189,122],[-9,168],[194,0]],[[9115,22185],[202,-125]],[[9317,22060],[0,-28]],[[10826,21930],[-189,-216]],[[10637,21714],[-108,-23]],[[10529,21691],[-90,153]],[[10439,21844],[40,305]],[[10768,21290],[-32,53]],[[10736,21343],[-90,165]],[[10646,21508],[-9,206]],[[10646,21508],[-68,-10],[23,89],[-171,-43]],[[10430,21544],[0,46]],[[10430,21590],[99,101]],[[10407,20674],[-72,-43]],[[10335,20631],[-329,74]],[[10006,20705],[9,478]],[[10015,21183],[118,-145],[36,198],[243,-58]],[[10412,21178],[-5,-504]],[[10020,21602],[22,-22]],[[10042,21580],[-144,-87]],[[9898,21493],[-54,69]],[[9844,21562],[68,229]],[[9912,21791],[99,216]],[[10187,21900],[0,-115],[-113,-35]],[[10074,21750],[-90,48],[-32,-160],[59,-5]],[[10011,21633],[-77,-41],[86,10]],[[9489,22228],[-374,3]],[[9115,22231],[0,137]],[[9115,22368],[139,51]],[[9254,22419],[104,89],[176,-201]],[[9493,20705],[-194,-239],[-202,99]],[[9097,20565],[-131,178],[-153,18],[-18,142],[0,10]],[[8795,20913],[450,3],[108,147],[140,-358]],[[9592,21254],[-27,-234],[207,-91],[23,-178]],[[9795,20751],[-167,104],[-135,-150]],[[8795,20913],[-108,173]],[[8687,21086],[261,13],[113,351]],[[9061,21450],[103,-38],[0,134],[176,107]],[[9340,21653],[49,-81]],[[9389,21572],[-9,-143],[190,-155]],[[9570,21274],[22,-20]],[[9646,21694],[-248,-117]],[[9398,21577],[-9,-5]],[[9340,21653],[-248,150]],[[9092,21803],[-13,10]],[[9205,21890],[193,-54]],[[9655,21758],[-9,-64]],[[10191,21394],[221,-216]],[[10015,21183],[5,165]],[[10020,21348],[-36,41]],[[9984,21389],[207,5]],[[10736,21343],[-306,-28],[0,229]],[[9254,22419],[-63,96],[54,173]],[[9245,22688],[135,120]],[[9115,22378],[0,150]],[[9115,22528],[0,183]],[[9115,22711],[130,-23]],[[9115,22368],[0,10]],[[10020,21602],[-9,31]],[[10074,21750],[216,-160]],[[10290,21590],[-36,-38]],[[10254,21552],[-212,28]],[[8687,21086],[-81,122],[-32,117],[-76,140],[4,28]],[[8502,21493],[509,53]],[[9011,21546],[50,-96]],[[9795,20751],[211,-46]],[[10335,20631],[5,-163],[-117,0],[-536,10],[-68,-119],[-261,66],[-68,-135],[-157,74],[-36,201]],[[10430,21590],[-135,0]],[[10295,21590],[67,246],[77,8]],[[9984,21389],[-86,104]],[[10254,21552],[-63,-158]],[[9421,21991],[-104,41]],[[9317,22060],[158,79]],[[9570,21274],[135,69],[45,226]],[[9750,21569],[94,-7]],[[10020,21348],[-194,-193],[-234,99]],[[9750,21569],[-352,8]],[[9646,21694],[77,-66],[189,163]],[[10295,21590],[-5,0]],[[10353,22134],[14,-186],[27,117]],[[9115,22185],[0,46]],[[10628,20402],[-221,272]],[[9092,21803],[-130,10],[49,-267]],[[8502,21493],[-90,150]],[[8412,21643],[329,249]],[[8381,22836],[-54,-26]],[[8327,22810],[9,51]],[[8336,22861],[13,-7]],[[8349,22854],[32,-13]],[[8381,22841],[0,-5]],[[8385,22841],[-4,0]],[[8349,22854],[-36,200]],[[8313,23054],[104,79]],[[8417,23133],[67,-61]],[[8484,23072],[131,-107]],[[8615,22965],[-158,-129]],[[8457,22836],[-72,5]],[[8498,22635],[-5,0]],[[8493,22635],[-175,79]],[[8318,22714],[-27,66]],[[8291,22780],[36,30]],[[8381,22836],[4,5]],[[8457,22836],[-45,-125],[72,-10]],[[8484,22701],[86,-69]],[[8570,22632],[-72,3]],[[8291,22780],[-203,71]],[[8088,22851],[113,61]],[[8201,22912],[135,-51]],[[8201,22912],[-27,69]],[[8174,22981],[72,142]],[[8246,23123],[67,-69]],[[7642,22818],[288,234]],[[7930,23052],[136,-48]],[[8066,23004],[108,-23]],[[8088,22851],[-167,15],[14,-142],[-95,-13]],[[7840,22711],[-198,107]],[[8246,23123],[-27,0]],[[8219,23123],[-14,145]],[[8205,23268],[297,-56]],[[8502,23212],[-85,-79]],[[8768,22780],[-189,48],[-95,-127]],[[8615,22965],[144,-45],[36,-140]],[[8795,22780],[-27,0]],[[8354,23436],[-162,-89]],[[8192,23347],[-95,61]],[[8097,23408],[45,58]],[[8142,23466],[212,-30]],[[8768,22780],[-198,-148]],[[8782,23599],[0,-334]],[[8782,23265],[-77,138],[-203,-140]],[[8502,23263],[-63,175]],[[8439,23438],[-36,161]],[[8403,23599],[248,-3]],[[8651,23596],[131,3]],[[8403,21641],[-54,2]],[[8349,21643],[-225,-15],[36,127],[-189,-89]],[[7971,21666],[-50,56],[140,122]],[[8061,21844],[95,-92],[108,166],[112,-3]],[[8376,21915],[27,-274]],[[8534,22271],[0,-23]],[[8534,22248],[-293,28]],[[8241,22276],[27,105]],[[8268,22381],[207,7]],[[8475,22388],[59,-117]],[[8061,21844],[-59,219]],[[8002,22063],[433,-125]],[[8435,21938],[-59,-23]],[[8219,23123],[-81,-13]],[[8138,23110],[-203,130]],[[7935,23240],[194,66],[-122,168]],[[8007,23474],[122,18],[-32,-84]],[[8192,23347],[13,-79]],[[9115,22528],[-180,59],[-63,-89]],[[8872,22498],[-136,45],[-76,-221],[-126,-51]],[[8475,22388],[23,247]],[[8795,22780],[113,30]],[[8908,22810],[207,-99]],[[8066,22434],[40,201]],[[8106,22635],[36,96],[176,-17]],[[8493,22635],[-229,-79],[-32,-117]],[[8232,22439],[-166,-5]],[[8066,23004],[72,106]],[[8908,22884],[0,-74]],[[8484,23072],[424,38]],[[8908,23110],[0,-226]],[[9115,22378],[-135,142],[-122,-104],[14,82]],[[8534,22248],[4,-259]],[[8538,21989],[-103,-51]],[[8002,22063],[32,229]],[[8034,22292],[207,-16]],[[8908,22884],[54,94],[342,23]],[[6980,23985],[-139,-84]],[[6841,23901],[-72,84],[0,115],[0,129]],[[6769,24229],[148,-7]],[[6917,24222],[63,-237]],[[8106,23586],[-40,-109],[76,-11]],[[8007,23474],[-257,33],[54,201],[-76,173]],[[7728,23881],[117,0]],[[7845,23881],[135,10]],[[7980,23891],[13,-48]],[[7993,23843],[0,-31]],[[7993,23812],[-99,-20]],[[7894,23792],[-90,-130],[104,-2]],[[7908,23660],[198,-74]],[[7930,23052],[-189,206]],[[7741,23258],[194,-18]],[[8106,22635],[-207,-28],[-59,104]],[[7894,23792],[14,-132]],[[6917,24222],[95,56]],[[7012,24278],[135,-255]],[[7147,24023],[-167,-38]],[[8908,23110],[-126,56],[0,99]],[[8782,23599],[247,-5]],[[8741,21895],[-203,94]],[[7741,23258],[-130,46]],[[7611,23304],[-149,137]],[[7462,23441],[-108,310]],[[7354,23751],[9,145]],[[7363,23896],[216,127]],[[7579,24023],[14,-145],[135,3]],[[8336,23883],[85,8],[-18,-292]],[[8403,23599],[-297,-13]],[[7993,23812],[91,-30]],[[8084,23782],[94,30]],[[8178,23812],[126,-119],[32,190]],[[8439,23438],[-85,-2]],[[8502,23263],[0,-51]],[[7611,23304],[-194,-173]],[[7417,23131],[-423,285],[103,58]],[[7097,23474],[365,-33]],[[8268,22381],[-36,58]],[[8412,21643],[-9,-2]],[[8349,21643],[-103,-142],[-153,-97],[-167,99],[45,163]],[[7642,22818],[-27,94],[-198,219]],[[7097,23474],[-67,38],[-32,38],[18,115]],[[7016,23665],[338,86]],[[7016,23665],[-175,236]],[[7147,24023],[31,-112],[185,-15]],[[8034,22292],[32,142]],[[8651,23596],[-32,310],[-184,242],[-158,-46]],[[8277,24102],[-166,-41]],[[8111,24061],[-23,-22]],[[8088,24039],[-162,73]],[[7926,24112],[-329,127]],[[7597,24239],[108,0],[0,138]],[[7705,24377],[424,-18]],[[8129,24359],[175,-56],[5,183]],[[8309,24486],[175,33],[239,-272],[144,87]],[[8084,23782],[9,45]],[[8093,23827],[85,-15]],[[8336,23883],[-72,184]],[[8264,24067],[13,35]],[[8129,24359],[58,150]],[[8187,24509],[68,20]],[[8255,24529],[54,-43]],[[8151,23858],[-45,33]],[[8106,23891],[95,0]],[[8201,23891],[-50,-33]],[[7993,23843],[100,48]],[[8093,23891],[13,0]],[[8151,23858],[-58,-31]],[[8255,24529],[-262,506]],[[7993,25035],[320,-2]],[[7858,24758],[9,-74],[-189,0],[27,-300]],[[7705,24384],[-108,125],[23,120],[-158,-26]],[[7462,24603],[77,305],[-86,125]],[[7453,25033],[342,2]],[[7795,25035],[63,-277]],[[7845,23881],[-27,186],[108,45]],[[8088,24039],[-9,-69]],[[8079,23970],[-99,-79]],[[8219,23970],[-90,0]],[[8129,23970],[-50,0]],[[8111,24061],[81,0]],[[8192,24061],[27,-91]],[[7012,24278],[-50,378],[144,-38],[72,257]],[[7178,24875],[284,-272]],[[7705,24384],[0,-7]],[[7597,24239],[-18,-216]],[[8187,24509],[-329,249]],[[7795,25035],[198,0]],[[8129,23970],[-36,-79]],[[7178,24875],[131,61],[-45,99]],[[7264,25035],[189,-2]],[[8219,23970],[-18,-79]],[[8264,24067],[-72,-6]],[[6769,24229],[0,46],[0,249],[0,120],[0,391],[495,0]]]}