{"type":"Topology","transform":{"scale":[0.0012831345112129487,0.0009745357309423489],"translate":[-124.73273099999999,24.60334863324381]},"objects":{"area":{"type":"GeometryCollection","geometries":[{"arcs":[[0,1,2,3,4,5]],"type":"Polygon","properties":{"state":"ND","name":"AMENIA","zip":"58004"}},{"arcs":[[6,7,-4,8,9,10,11]],"type":"Polygon","properties":{"state":"ND","name":"ARGUSVILLE","zip":"58005"}},{"arcs":[[-3,12,13,14,-9]],"type":"Polygon","properties":{"state":"ND","name":"ARTHUR","zip":"58006"}},{"arcs":[[15,16,17,-1,18]],"type":"Polygon","properties":{"state":"ND","name":"AYR","zip":"58007"}},{"arcs":[[19,20,21,22,23]],"type":"Polygon","properties":{"state":"ND","name":"BARNEY","zip":"58008"}},{"arcs":[[24,25,26,27]],"type":"Polygon","properties":{"state":"ND","name":"BLANCHARD","zip":"58009"}},{"arcs":[[28,29,-16,30,31]],"type":"Polygon","properties":{"state":"ND","name":"BUFFALO","zip":"58011"}},{"arcs":[[32,-5,-8,33,34]],"type":"Polygon","properties":{"state":"ND","name":"CASSELTON","zip":"58012"}},{"arcs":[[35,36,37,38,39]],"type":"Polygon","properties":{"state":"ND","name":"CAYUGA","zip":"58013"}},{"arcs":[[40,41,42,43,44]],"type":"Polygon","properties":{"state":"ND","name":"CHRISTINE","zip":"58015"}},{"arcs":[[45,46,47,-27]],"type":"Polygon","properties":{"state":"ND","name":"CLIFFORD","zip":"58016"}},{"arcs":[[48,49,50,51,52]],"type":"Polygon","properties":{"state":"ND","name":"COGSWELL","zip":"58017"}},{"arcs":[[53,-23,54,-43,55]],"type":"Polygon","properties":{"state":"ND","name":"COLFAX","zip":"58018"}},{"arcs":[[56,57,58,59]],"type":"Polygon","properties":{"state":"ND","name":"DAVENPORT","zip":"58021"}},{"arcs":[[60,61,62,63,64]],"type":"Polygon","properties":{"state":"ND","name":"ENDERLIN","zip":"58027"}},{"arcs":[[-2,-18,65,66,67,-13]],"type":"Polygon","properties":{"state":"ND","name":"ERIE","zip":"58029"}},{"arcs":[[68,69,70]],"type":"Polygon","properties":{"state":"ND","name":"FAIRMOUNT","zip":"58030"}},{"arcs":[[71,72,73,74,75,-32,76,77,-64]],"type":"Polygon","properties":{"state":"ND","name":"FINGAL","zip":"58031"}},{"arcs":[[78,79,80,81,82,-49]],"type":"Polygon","properties":{"state":"ND","name":"FORMAN","zip":"58032"}},{"arcs":[[83,84,85,86,87,88,89]],"type":"Polygon","properties":{"state":"ND","name":"FORT RANSOM","zip":"58033"}},{"arcs":[[90,91,-46,-26,92,93,-67]],"type":"Polygon","properties":{"state":"ND","name":"GALESBURG","zip":"58035"}},{"arcs":[[94,95,96,-10,-15]],"type":"Polygon","properties":{"state":"ND","name":"GARDNER","zip":"58036"}},{"arcs":[[97,98,99,-96]],"type":"Polygon","properties":{"state":"ND","name":"GRANDIN","zip":"58038"}},{"arcs":[[[100,101,102,-90]],[[-53,103,104,-79]]],"type":"MultiPolygon","properties":{"state":"ND","name":"GWINNER","zip":"58040"}},{"arcs":[[105,106,107,108,109,-70]],"type":"Polygon","properties":{"state":"ND","name":"HANKINSON","zip":"58041"}},{"arcs":[[110,111,-34,-7,112]],"type":"Polygon","properties":{"state":"ND","name":"HARWOOD","zip":"58042"}},{"arcs":[[113,-82,114,-38]],"type":"Polygon","properties":{"state":"ND","name":"HAVANA","zip":"58043"}},{"arcs":[[115,-93,-25,116,117,118,119,120,-99]],"type":"Polygon","properties":{"state":"ND","name":"HILLSBORO","zip":"58045"}},{"arcs":[[121,122,-47,-92,123]],"type":"Polygon","properties":{"state":"ND","name":"HOPE","zip":"58046"}},{"arcs":[[124,-60,125,126,-45,127]],"type":"Polygon","properties":{"state":"ND","name":"HORACE","zip":"58047"}},{"arcs":[[-14,-68,-94,-116,-98,-95]],"type":"Polygon","properties":{"state":"ND","name":"HUNTER","zip":"58048"}},{"arcs":[[128,-86,129,130,-73]],"type":"Polygon","properties":{"state":"ND","name":"KATHRYN","zip":"58049"}},{"arcs":[[131,-57,-125,132]],"type":"Polygon","properties":{"state":"ND","name":"KINDRED","zip":"58051"}},{"arcs":[[133,-65,-78,134,135,-58,-132,136,137,138]],"type":"Polygon","properties":{"state":"ND","name":"LEONARD","zip":"58052"}},{"arcs":[[139,-36,140,141,-107]],"type":"Polygon","properties":{"state":"ND","name":"LIDGERWOOD","zip":"58053"}},{"arcs":[[142,-62,143,144,145,146,-88]],"type":"Polygon","properties":{"state":"ND","name":"LISBON","zip":"58054"}},{"arcs":[[147,148,149,150,151,152,153,-122]],"type":"Polygon","properties":{"state":"ND","name":"LUVERNE","zip":"58056"}},{"arcs":[[154,-145,155,-139,156]],"type":"Polygon","properties":{"state":"ND","name":"MCLEOD","zip":"58057"}},{"arcs":[[-142,157,-20,158,-108]],"type":"Polygon","properties":{"state":"ND","name":"MANTADOR","zip":"58058"}},{"arcs":[[159,-35,-112,160,161,-59,-136]],"type":"Polygon","properties":{"state":"ND","name":"MAPLETON","zip":"58059"}},{"arcs":[[-105,162,-146,-155,163,-40,164,-80]],"type":"Polygon","properties":{"state":"ND","name":"MILNOR","zip":"58060"}},{"arcs":[[-159,-24,-54,165,-109]],"type":"Polygon","properties":{"state":"ND","name":"MOORETON","zip":"58061"}},{"arcs":[[-87,-129,-72,-63,-143]],"type":"Polygon","properties":{"state":"ND","name":"NOME","zip":"58062"}},{"arcs":[[166,-149,167,168,-75]],"type":"Polygon","properties":{"state":"ND","name":"ORISKA","zip":"58063"}},{"arcs":[[169,-168,-148,-124,-91,-66,-17,-30]],"type":"Polygon","properties":{"state":"ND","name":"PAGE","zip":"58064"}},{"arcs":[[-115,-81,-165,-39]],"type":"Polygon","properties":{"state":"ND","name":"RUTLAND","zip":"58067"}},{"arcs":[[-156,-144,-61,-134]],"type":"Polygon","properties":{"state":"ND","name":"SHELDON","zip":"58068"}},{"arcs":[[-52,170,-101,-89,-147,-163,-104]],"type":"Polygon","properties":{"state":"ND","name":"STIRUM","zip":"58069"}},{"arcs":[[-76,-169,-170,-29]],"type":"Polygon","properties":{"state":"ND","name":"TOWER CITY","zip":"58071"}},{"arcs":[[171,172,173,174,-150,-167,-74,-131]],"type":"Polygon","properties":{"state":"ND","name":"VALLEY CITY","zip":"58072"}},{"arcs":[[175,-71,-110,-166,-56,-42]],"type":"Polygon","properties":{"state":"ND","name":"WAHPETON","zip":"58075"}},{"arcs":[[176,-137,-133,-128,-44,-55,-22]],"type":"Polygon","properties":{"state":"ND","name":"WALCOTT","zip":"58077"}},{"arcs":[[-111,177,178,179,-161]],"type":"Polygon","properties":{"state":"ND","name":"WEST FARGO","zip":"58078"}},{"arcs":[[-135,-77,-31,-19,-6,-33,-160]],"type":"Polygon","properties":{"state":"ND","name":"WHEATLAND","zip":"58079"}},{"arcs":[[-141,-164,-157,-138,-177,-21,-158]],"type":"Polygon","properties":{"state":"ND","name":"WYNDMERE","zip":"58081"}},{"arcs":[[180,-178,-113,-12,181]],"type":"Polygon","properties":{"state":"ND","name":"FARGO","zip":"58102"}},{"arcs":[[182,183,-179,-181]],"type":"Polygon","properties":{"state":"ND","name":"FARGO","zip":"58103"}},{"arcs":[[184,-126,-162,-180,-184]],"type":"Polygon","properties":{"state":"ND","name":"FARGO","zip":"58104"}},{"arcs":[[185,186,187,188]],"type":"Polygon","properties":{"state":"ND","name":"GRAND FORKS","zip":"58201"}},{"arcs":[[189,190,191,-189]],"type":"Polygon","properties":{"state":"ND","name":"GRAND FORKS","zip":"58203"}},{"arcs":[[192,193,194]],"type":"Polygon","properties":{"state":"ND","name":"GRAND FORKS AFB","zip":"58204"}},{"arcs":[[195,196,197,-193]],"type":"Polygon","properties":{"state":"ND","name":"GRAND FORKS AFB","zip":"58205"}},{"arcs":[[198,199,200,201,202]],"type":"Polygon","properties":{"state":"ND","name":"ADAMS","zip":"58210"}},{"arcs":[[203,204,205,206,207,208]],"type":"Polygon","properties":{"state":"ND","name":"ANETA","zip":"58212"}},{"arcs":[[209,210,211]],"type":"Polygon","properties":{"state":"ND","name":"ARDOCH","zip":"58213"}},{"arcs":[[212,213,-197,214,215]],"type":"Polygon","properties":{"state":"ND","name":"ARVILLA","zip":"58214"}},{"arcs":[[216,217,218,219]],"type":"Polygon","properties":{"state":"ND","name":"BATHGATE","zip":"58216"}},{"arcs":[[220,-118,221,222,223,224,225]],"type":"Polygon","properties":{"state":"ND","name":"BUXTON","zip":"58218"}},{"arcs":[[226,227,-120]],"type":"Polygon","properties":{"state":"ND","name":"CALEDONIA","zip":"58219"}},{"arcs":[[228,229,230,231,-219,232,233,234]],"type":"Polygon","properties":{"state":"ND","name":"CAVALIER","zip":"58220"}},{"arcs":[[235,236,237,238,239]],"type":"Polygon","properties":{"state":"ND","name":"CRYSTAL","zip":"58222"}},{"arcs":[[-119,-221,240,-227]],"type":"Polygon","properties":{"state":"ND","name":"CUMMINGS","zip":"58223"}},{"arcs":[[241,242,243,244]],"type":"Polygon","properties":{"state":"ND","name":"DAHLEN","zip":"58224"}},{"arcs":[[245,246,247,248,249]],"type":"Polygon","properties":{"state":"ND","name":"DRAYTON","zip":"58225"}},{"arcs":[[250,251,-238,252,253,254,-202]],"type":"Polygon","properties":{"state":"ND","name":"EDINBURG","zip":"58227"}},{"arcs":[[-196,-195,255,256,-190,-188,257,258,-215]],"type":"Polygon","properties":{"state":"ND","name":"EMERADO","zip":"58228"}},{"arcs":[[259,260,261,-200]],"type":"Polygon","properties":{"state":"ND","name":"FAIRDALE","zip":"58229"}},{"arcs":[[262,263,264,265,266,-123,-154]],"type":"Polygon","properties":{"state":"ND","name":"FINLEY","zip":"58230"}},{"arcs":[[267,268,269,-245]],"type":"Polygon","properties":{"state":"ND","name":"FORDVILLE","zip":"58231"}},{"arcs":[[270,271,272]],"type":"Polygon","properties":{"state":"ND","name":"FOREST RIVER","zip":"58233"}},{"arcs":[[273,274,275,276,-273]],"type":"Polygon","properties":{"state":"ND","name":"GILBY","zip":"58235"}},{"arcs":[[277,278,279,280,-247,281,282,-271,283]],"type":"Polygon","properties":{"state":"ND","name":"GRAFTON","zip":"58237"}},{"arcs":[[284,-233,-218,285,-249]],"type":"Polygon","properties":{"state":"ND","name":"HAMILTON","zip":"58238"}},{"arcs":[[286,287,288,289]],"type":"Polygon","properties":{"state":"ND","name":"HANNAH","zip":"58239"}},{"arcs":[[290,291,-266,292,293,-223]],"type":"Polygon","properties":{"state":"ND","name":"HATTON","zip":"58240"}},{"arcs":[[294,-240,295,-234]],"type":"Polygon","properties":{"state":"ND","name":"HENSEL","zip":"58241"}},{"arcs":[[296,-253,-237,-280]],"type":"Polygon","properties":{"state":"ND","name":"HOOPLE","zip":"58243"}},{"arcs":[[297,298,299,-242,-270,300,-284,-277]],"type":"Polygon","properties":{"state":"ND","name":"INKSTER","zip":"58244"}},{"arcs":[[301,302,-288,303,304,305,306,-230,307,308,309]],"type":"Polygon","properties":{"state":"ND","name":"LANGDON","zip":"58249"}},{"arcs":[[310,311,-203,-255,312,313,-268,314]],"type":"Polygon","properties":{"state":"ND","name":"LANKIN","zip":"58250"}},{"arcs":[[315,316,-298,-276,317,-213,318,-209]],"type":"Polygon","properties":{"state":"ND","name":"LARIMORE","zip":"58251"}},{"arcs":[[319,320,321,322,-207,323,324]],"type":"Polygon","properties":{"state":"ND","name":"MCVILLE","zip":"58254"}},{"arcs":[[325,326,-305]],"type":"Polygon","properties":{"state":"ND","name":"MAIDA","zip":"58255"}},{"arcs":[[327,-191,-257,328,-274,329,-210]],"type":"Polygon","properties":{"state":"ND","name":"MANVEL","zip":"58256"}},{"arcs":[[330,-291,-222,-117,-28]],"type":"Polygon","properties":{"state":"ND","name":"MAYVILLE","zip":"58257"}},{"arcs":[[-275,-329,-256,-194,-198,-214,-318]],"type":"Polygon","properties":{"state":"ND","name":"MEKINOCK","zip":"58258"}},{"arcs":[[331,-315,-244,332,-322]],"type":"Polygon","properties":{"state":"ND","name":"MICHIGAN","zip":"58259"}},{"arcs":[[333,-308,-229,334,-251]],"type":"Polygon","properties":{"state":"ND","name":"MILTON","zip":"58260"}},{"arcs":[[-330,-272,-283,335,-211]],"type":"Polygon","properties":{"state":"ND","name":"MINTO","zip":"58261"}},{"arcs":[[-335,-235,-296,-239,-252]],"type":"Polygon","properties":{"state":"ND","name":"MOUNTAIN","zip":"58262"}},{"arcs":[[-232,336,337,338,-220]],"type":"Polygon","properties":{"state":"ND","name":"NECHE","zip":"58265"}},{"arcs":[[339,-299,-317]],"type":"Polygon","properties":{"state":"ND","name":"NIAGARA","zip":"58266"}},{"arcs":[[-265,340,-204,-319,-216,-259,341,342,-293]],"type":"Polygon","properties":{"state":"ND","name":"NORTHWOOD","zip":"58267"}},{"arcs":[[-201,-262,343,344,-309,-334]],"type":"Polygon","properties":{"state":"ND","name":"OSNABROCK","zip":"58269"}},{"arcs":[[345,-313,-254,-297,-279]],"type":"Polygon","properties":{"state":"ND","name":"PARK RIVER","zip":"58270"}},{"arcs":[[346,-250,-286,-217,-339,347]],"type":"Polygon","properties":{"state":"ND","name":"PEMBINA","zip":"58271"}},{"arcs":[[-333,-243,-300,-340,-316,-208,-323]],"type":"Polygon","properties":{"state":"ND","name":"PETERSBURG","zip":"58272"}},{"arcs":[[-269,-314,-346,-278,-301]],"type":"Polygon","properties":{"state":"ND","name":"PISEK","zip":"58273"}},{"arcs":[[-48,-267,-292,-331]],"type":"Polygon","properties":{"state":"ND","name":"PORTLAND","zip":"58274"}},{"arcs":[[348,-224,-294,-343]],"type":"Polygon","properties":{"state":"ND","name":"REYNOLDS","zip":"58275"}},{"arcs":[[-281,-236,-295,-285,-248]],"type":"Polygon","properties":{"state":"ND","name":"SAINT THOMAS","zip":"58276"}},{"arcs":[[349,-205,-341,-264]],"type":"Polygon","properties":{"state":"ND","name":"SHARON","zip":"58277"}},{"arcs":[[350,-225,-349,-342,-258,-187]],"type":"Polygon","properties":{"state":"ND","name":"THOMPSON","zip":"58278"}},{"arcs":[[-304,-287,351,-326]],"type":"Polygon","properties":{"state":"ND","name":"WALES","zip":"58281"}},{"arcs":[[-337,-231,-307,352]],"type":"Polygon","properties":{"state":"ND","name":"WALHALLA","zip":"58282"}},{"arcs":[[353,354,355,356,357,358,359,360,361,362,363]],"type":"Polygon","properties":{"state":"ND","name":"DEVILS LAKE","zip":"58301"}},{"arcs":[[364,365,366,-310,-345]],"type":"Polygon","properties":{"state":"ND","name":"ALSEN","zip":"58311"}},{"arcs":[[367,368,369,370,371]],"type":"Polygon","properties":{"state":"ND","name":"BELCOURT","zip":"58316"}},{"arcs":[[372,373,374,375,376,377,378,379,380]],"type":"Polygon","properties":{"state":"ND","name":"BISBEE","zip":"58317"}},{"arcs":[[381,382,383,384,385]],"type":"Polygon","properties":{"state":"ND","name":"BOTTINEAU","zip":"58318"}},{"arcs":[[386,387,388]],"type":"Polygon","properties":{"state":"ND","name":"BREMEN","zip":"58319"}},{"arcs":[[389,-311,390]],"type":"Polygon","properties":{"state":"ND","name":"BROCKET","zip":"58321"}},{"arcs":[[391,392,393,-303,394]],"type":"Polygon","properties":{"state":"ND","name":"CALVIN","zip":"58323"}},{"arcs":[[395,396,-380,397,398]],"type":"Polygon","properties":{"state":"ND","name":"CANDO","zip":"58324"}},{"arcs":[[399,400,-396,401,402]],"type":"Polygon","properties":{"state":"ND","name":"CHURCHS FERRY","zip":"58325"}},{"arcs":[[403,-361,404,405,406,407]],"type":"Polygon","properties":{"state":"ND","name":"CRARY","zip":"58327"}},{"arcs":[[408,-386,409,410,-369,411]],"type":"Polygon","properties":{"state":"ND","name":"DUNSEITH","zip":"58329"}},{"arcs":[[412,413,-365,-344,-261,414,-359]],"type":"Polygon","properties":{"state":"ND","name":"EDMORE","zip":"58330"}},{"arcs":[[415,-392,416,417,-398,-379]],"type":"Polygon","properties":{"state":"ND","name":"EGELAND","zip":"58331"}},{"arcs":[[418,419,420,421,422]],"type":"Polygon","properties":{"state":"ND","name":"ESMOND","zip":"58332"}},{"arcs":[[423,-366,-414]],"type":"Polygon","properties":{"state":"ND","name":"HAMPDEN","zip":"58338"}},{"arcs":[[424,425,426,427,428,-377]],"type":"Polygon","properties":{"state":"ND","name":"HANSBORO","zip":"58339"}},{"arcs":[[429,430,431,432,-420,433,434,-388,435]],"type":"Polygon","properties":{"state":"ND","name":"HARVEY","zip":"58341"}},{"arcs":[[436,437,438,439]],"type":"Polygon","properties":{"state":"ND","name":"KNOX","zip":"58343"}},{"arcs":[[440,-406,-391,-332,-321,441]],"type":"Polygon","properties":{"state":"ND","name":"LAKOTA","zip":"58344"}},{"arcs":[[-390,-405,-360,-415,-260,-199,-312]],"type":"Polygon","properties":{"state":"ND","name":"LAWTON","zip":"58345"}},{"arcs":[[442,443,-422,444,-437,445,-381,-397,-401]],"type":"Polygon","properties":{"state":"ND","name":"LEEDS","zip":"58346"}},{"arcs":[[446,-434,-419,447]],"type":"Polygon","properties":{"state":"ND","name":"MADDOCK","zip":"58348"}},{"arcs":[[448,-448,-423,-444,-355]],"type":"Polygon","properties":{"state":"ND","name":"MINNEWAUKAN","zip":"58351"}},{"arcs":[[449,-417,-395,-302,-367]],"type":"Polygon","properties":{"state":"ND","name":"MUNICH","zip":"58352"}},{"arcs":[[450,451,-372,452,-426,453,-375]],"type":"Polygon","properties":{"state":"ND","name":"MYLO","zip":"58353"}},{"arcs":[[454,455,456,457,458,459,-389,460,461]],"type":"Polygon","properties":{"state":"ND","name":"NEW ROCKFORD","zip":"58356"}},{"arcs":[[-449,-354,462,463,464,-447]],"type":"Polygon","properties":{"state":"ND","name":"OBERON","zip":"58357"}},{"arcs":[[465,466,-442,-320]],"type":"Polygon","properties":{"state":"ND","name":"PEKIN","zip":"58361"}},{"arcs":[[-443,-400,-356]],"type":"Polygon","properties":{"state":"ND","name":"PENN","zip":"58362"}},{"arcs":[[-454,-425,-376]],"type":"Polygon","properties":{"state":"ND","name":"PERTH","zip":"58363"}},{"arcs":[[-378,-429,467,468,-393,-416]],"type":"Polygon","properties":{"state":"ND","name":"ROCKLAKE","zip":"58365"}},{"arcs":[[469,470,471,-412,-368,-452]],"type":"Polygon","properties":{"state":"ND","name":"ROLETTE","zip":"58366"}},{"arcs":[[-453,-371,472,473,-427]],"type":"Polygon","properties":{"state":"ND","name":"ROLLA","zip":"58367"}},{"arcs":[[-433,474,475,476,477,478,-471,479,-438,-445,-421]],"type":"Polygon","properties":{"state":"ND","name":"RUGBY","zip":"58368"}},{"arcs":[[-370,-411,480,-473]],"type":"Polygon","properties":{"state":"ND","name":"SAINT JOHN","zip":"58369"}},{"arcs":[[481,482,-464,483,-363,484]],"type":"Polygon","properties":{"state":"ND","name":"SAINT MICHAEL","zip":"58370"}},{"arcs":[[-469,485,-289,-394]],"type":"Polygon","properties":{"state":"ND","name":"SARLES","zip":"58372"}},{"arcs":[[-465,-483,486,487,-461,-435]],"type":"Polygon","properties":{"state":"ND","name":"SHEYENNE","zip":"58374"}},{"arcs":[[488,-402,-399,-418,-450,-424,-413,-358]],"type":"Polygon","properties":{"state":"ND","name":"STARKWEATHER","zip":"58377"}},{"arcs":[[-488,489,-407,-441,-467,490,-462]],"type":"Polygon","properties":{"state":"ND","name":"TOLNA","zip":"58380"}},{"arcs":[[-408,-490,-487,-482,491]],"type":"Polygon","properties":{"state":"ND","name":"WARWICK","zip":"58381"}},{"arcs":[[-403,-489,-357]],"type":"Polygon","properties":{"state":"ND","name":"WEBSTER","zip":"58382"}},{"arcs":[[-479,492,493,494,-382,-409,-472]],"type":"Polygon","properties":{"state":"ND","name":"WILLOW CITY","zip":"58384"}},{"arcs":[[495,-439,-480,-470,-451,-374]],"type":"Polygon","properties":{"state":"ND","name":"WOLFORD","zip":"58385"}},{"arcs":[[-496,-373,-446,-440]],"type":"Polygon","properties":{"state":"ND","name":"YORK","zip":"58386"}},{"arcs":[[496,497,498,499,500,501,502,503]],"type":"Polygon","properties":{"state":"ND","name":"JAMESTOWN","zip":"58401"}},{"arcs":[[504,505,506,507,508,509,510,511]],"type":"Polygon","properties":{"state":"ND","name":"ASHLEY","zip":"58413"}},{"arcs":[[512,513,514,515,516]],"type":"Polygon","properties":{"state":"ND","name":"BERLIN","zip":"58415"}},{"arcs":[[-491,-466,-325,517,518,-455]],"type":"Polygon","properties":{"state":"ND","name":"BINFORD","zip":"58416"}},{"arcs":[[519,520,521,522,523,524,525]],"type":"Polygon","properties":{"state":"ND","name":"BOWDON","zip":"58418"}},{"arcs":[[526,527,528,529,-501]],"type":"Polygon","properties":{"state":"ND","name":"BUCHANAN","zip":"58420"}},{"arcs":[[530,531,532,533,534,-459,535,536]],"type":"Polygon","properties":{"state":"ND","name":"CARRINGTON","zip":"58421"}},{"arcs":[[537,-526,538,-436,-387,-460,-535]],"type":"Polygon","properties":{"state":"ND","name":"CATHAY","zip":"58422"}},{"arcs":[[539,540,-524]],"type":"Polygon","properties":{"state":"ND","name":"CHASELEY","zip":"58423"}},{"arcs":[[541,542,543,544,-527,-500,545]],"type":"Polygon","properties":{"state":"ND","name":"CLEVELAND","zip":"58424"}},{"arcs":[[546,547,548,549,550,551,-518,-324,-206,-350,-263,-153]],"type":"Polygon","properties":{"state":"ND","name":"COOPERSTOWN","zip":"58425"}},{"arcs":[[552,553,554,-550,555,-502,-530]],"type":"Polygon","properties":{"state":"ND","name":"COURTENAY","zip":"58426"}},{"arcs":[[556,557,558,559]],"type":"Polygon","properties":{"state":"ND","name":"DAWSON","zip":"58428"}},{"arcs":[[-175,560,561,-548,562,-151]],"type":"Polygon","properties":{"state":"ND","name":"DAZEY","zip":"58429"}},{"arcs":[[563,564,565,566,567]],"type":"Polygon","properties":{"state":"ND","name":"DENHOFF","zip":"58430"}},{"arcs":[[568,569,570,571,572,-515]],"type":"Polygon","properties":{"state":"ND","name":"DICKEY","zip":"58431"}},{"arcs":[[573,574,-569,-514,575,576,-510]],"type":"Polygon","properties":{"state":"ND","name":"EDGELEY","zip":"58433"}},{"arcs":[[577,-576,-513,578,579,580]],"type":"Polygon","properties":{"state":"ND","name":"ELLENDALE","zip":"58436"}},{"arcs":[[581,-430,-539,-525,-541]],"type":"Polygon","properties":{"state":"ND","name":"FESSENDEN","zip":"58438"}},{"arcs":[[582,-511,-577,-578]],"type":"Polygon","properties":{"state":"ND","name":"FORBES","zip":"58439"}},{"arcs":[[583,584,585,-508]],"type":"Polygon","properties":{"state":"ND","name":"FREDONIA","zip":"58440"}},{"arcs":[[586,-579,-517,587]],"type":"Polygon","properties":{"state":"ND","name":"FULLERTON","zip":"58441"}},{"arcs":[[588,589,590,591,-542,592,593,-585,594]],"type":"Polygon","properties":{"state":"ND","name":"GACKLE","zip":"58442"}},{"arcs":[[595,-537,596,-457,597,-552,598,-554]],"type":"Polygon","properties":{"state":"ND","name":"GLENFIELD","zip":"58443"}},{"arcs":[[599,-564,600,601,602,603]],"type":"Polygon","properties":{"state":"ND","name":"GOODRICH","zip":"58444"}},{"arcs":[[-458,-597,-536]],"type":"Polygon","properties":{"state":"ND","name":"GRACE CITY","zip":"58445"}},{"arcs":[[-547,-152,-563]],"type":"Polygon","properties":{"state":"ND","name":"HANNAFORD","zip":"58448"}},{"arcs":[[604,-602,605,-431,-582,-540,-523]],"type":"Polygon","properties":{"state":"ND","name":"HURDSFIELD","zip":"58451"}},{"arcs":[[-546,-499,606,-570,-575,607,-593]],"type":"Polygon","properties":{"state":"ND","name":"JUD","zip":"58454"}},{"arcs":[[-529,608,-531,-596,-553]],"type":"Polygon","properties":{"state":"ND","name":"KENSAL","zip":"58455"}},{"arcs":[[-586,-594,-608,-574,-509]],"type":"Polygon","properties":{"state":"ND","name":"KULM","zip":"58456"}},{"arcs":[[-516,-573,609,610,611,612,-588]],"type":"Polygon","properties":{"state":"ND","name":"LAMOURE","zip":"58458"}},{"arcs":[[-507,613,-595,-584]],"type":"Polygon","properties":{"state":"ND","name":"LEHR","zip":"58460"}},{"arcs":[[614,615,-172,-130,-85,616,-611]],"type":"Polygon","properties":{"state":"ND","name":"LITCHVILLE","zip":"58461"}},{"arcs":[[617,618,619,620,621,622,623,-565,-600,624]],"type":"Polygon","properties":{"state":"ND","name":"MCCLUSKY","zip":"58463"}},{"arcs":[[-456,-519,-598]],"type":"Polygon","properties":{"state":"ND","name":"MCHENRY","zip":"58464"}},{"arcs":[[-610,-572,625,626,627,628,-615]],"type":"Polygon","properties":{"state":"ND","name":"MARION","zip":"58466"}},{"arcs":[[-592,629,630,631,-543]],"type":"Polygon","properties":{"state":"ND","name":"MEDINA","zip":"58467"}},{"arcs":[[-498,632,-626,-571,-607]],"type":"Polygon","properties":{"state":"ND","name":"MONTPELIER","zip":"58472"}},{"arcs":[[-587,-613,633,-102,-171,-51,634,-580]],"type":"Polygon","properties":{"state":"ND","name":"OAKES","zip":"58474"}},{"arcs":[[635,636]],"type":"Polygon","properties":{"state":"ND","name":"PETTIBONE","zip":"58475"}},{"arcs":[[-545,637,-532,-609,-528]],"type":"Polygon","properties":{"state":"ND","name":"PINGREE","zip":"58476"}},{"arcs":[[638,639,640,641,-618]],"type":"Polygon","properties":{"state":"ND","name":"REGAN","zip":"58477"}},{"arcs":[[642,643,-521,644,645,-636,646,647,-560]],"type":"Polygon","properties":{"state":"ND","name":"ROBINSON","zip":"58478"}},{"arcs":[[648,649,-561,-174]],"type":"Polygon","properties":{"state":"ND","name":"ROGERS","zip":"58479"}},{"arcs":[[-616,-629,650,651,-649,-173]],"type":"Polygon","properties":{"state":"ND","name":"SANBORN","zip":"58480"}},{"arcs":[[652,-504,653,-651,-628]],"type":"Polygon","properties":{"state":"ND","name":"SPIRITWOOD","zip":"58481"}},{"arcs":[[654,655,656,657,658,-643,-559]],"type":"Polygon","properties":{"state":"ND","name":"STEELE","zip":"58482"}},{"arcs":[[659,660,-630,-591]],"type":"Polygon","properties":{"state":"ND","name":"STREETER","zip":"58483"}},{"arcs":[[-555,-599,-551]],"type":"Polygon","properties":{"state":"ND","name":"SUTTON","zip":"58484"}},{"arcs":[[-538,-534,661,-645,-520]],"type":"Polygon","properties":{"state":"ND","name":"SYKESTON","zip":"58486"}},{"arcs":[[-648,662,-631,-661,663,-557]],"type":"Polygon","properties":{"state":"ND","name":"TAPPEN","zip":"58487"}},{"arcs":[[-659,664,-603,-605,-522,-644]],"type":"Polygon","properties":{"state":"ND","name":"TUTTLE","zip":"58488"}},{"arcs":[[665,666,667,-505]],"type":"Polygon","properties":{"state":"ND","name":"VENTURIA","zip":"58489"}},{"arcs":[[-634,-612,-617,-84,-103]],"type":"Polygon","properties":{"state":"ND","name":"VERONA","zip":"58490"}},{"arcs":[[-556,-549,-562,-650,-652,-654,-503]],"type":"Polygon","properties":{"state":"ND","name":"WIMBLEDON","zip":"58492"}},{"arcs":[[668,669,-639,-625,-604,-665]],"type":"Polygon","properties":{"state":"ND","name":"WING","zip":"58494"}},{"arcs":[[670,671,672,673,674,-589,-614,-506,-668]],"type":"Polygon","properties":{"state":"ND","name":"WISHEK","zip":"58495"}},{"arcs":[[-647,-637,-646,-662,-533,-638,-544,-632,-663]],"type":"Polygon","properties":{"state":"ND","name":"WOODWORTH","zip":"58496"}},{"arcs":[[-633,-497,-653,-627]],"type":"Polygon","properties":{"state":"ND","name":"YPSILANTI","zip":"58497"}},{"arcs":[[675,676,677,678]],"type":"Polygon","properties":{"state":"ND","name":"BISMARCK","zip":"58501"}},{"arcs":[[679,680,-679,681]],"type":"Polygon","properties":{"state":"ND","name":"BISMARCK","zip":"58503"}},{"arcs":[[-677,682,683,684,685]],"type":"Polygon","properties":{"state":"ND","name":"BISMARCK","zip":"58504"}},{"arcs":[[686,687,688,689]],"type":"Polygon","properties":{"state":"ND","name":"ALMONT","zip":"58520"}},{"arcs":[[690,691,-680,692,693,-641]],"type":"Polygon","properties":{"state":"ND","name":"BALDWIN","zip":"58521"}},{"arcs":[[694,695,696,697,698,699,700,701,702,703,704,705,706]],"type":"Polygon","properties":{"state":"ND","name":"BEULAH","zip":"58523"}},{"arcs":[[707,708,709,710,-685,711,712,-657,713]],"type":"Polygon","properties":{"state":"ND","name":"BRADDOCK","zip":"58524"}},{"arcs":[[714,715,716]],"type":"Polygon","properties":{"state":"ND","name":"CANNON BALL","zip":"58528"}},{"arcs":[[717,718,719,720,-688,721,722,723,724]],"type":"Polygon","properties":{"state":"ND","name":"CARSON","zip":"58529"}},{"arcs":[[725,-695,726,727,728,729,730]],"type":"Polygon","properties":{"state":"ND","name":"CENTER","zip":"58530"}},{"arcs":[[731,732,733]],"type":"Polygon","properties":{"state":"ND","name":"COLEHARBOR","zip":"58531"}},{"arcs":[[734,735,-669,-658,-713]],"type":"Polygon","properties":{"state":"ND","name":"DRISCOLL","zip":"58532"}},{"arcs":[[736,737,-689,-721]],"type":"Polygon","properties":{"state":"ND","name":"ELGIN","zip":"58533"}},{"arcs":[[738,739,-724,740,741,742]],"type":"Polygon","properties":{"state":"ND","name":"FLASHER","zip":"58535"}},{"arcs":[[743,744,745]],"type":"Polygon","properties":{"state":"ND","name":"FORT YATES","zip":"58538"}},{"arcs":[[746,747,748,749,750,751]],"type":"Polygon","properties":{"state":"ND","name":"GARRISON","zip":"58540"}},{"arcs":[[752,-701,753,754,-703]],"type":"Polygon","properties":{"state":"ND","name":"GOLDEN VALLEY","zip":"58541"}},{"arcs":[[755,756,757,758,-672]],"type":"Polygon","properties":{"state":"ND","name":"HAGUE","zip":"58542"}},{"arcs":[[759,-709]],"type":"Polygon","properties":{"state":"ND","name":"HAZELTON","zip":"58544"}},{"arcs":[[760,-727,-707,761,762,763]],"type":"Polygon","properties":{"state":"ND","name":"HAZEN","zip":"58545"}},{"arcs":[[764,-714,-656,765,-674]],"type":"Polygon","properties":{"state":"ND","name":"KINTYRE","zip":"58549"}},{"arcs":[[766,767,-710,-760,-708,-765,-673,-759]],"type":"Polygon","properties":{"state":"ND","name":"LINTON","zip":"58552"}},{"arcs":[[-716,768,769,-741,-723,770,-730,771]],"type":"Polygon","properties":{"state":"ND","name":"MANDAN","zip":"58554"}},{"arcs":[[772,-683,-676,-681,-692,773]],"type":"Polygon","properties":{"state":"ND","name":"MENOKEN","zip":"58558"}},{"arcs":[[774,775,-620]],"type":"Polygon","properties":{"state":"ND","name":"MERCER","zip":"58559"}},{"arcs":[[-773,776,-735,-712,-684]],"type":"Polygon","properties":{"state":"ND","name":"MOFFIT","zip":"58560"}},{"arcs":[[-675,-766,-655,-558,-664,-660,-590]],"type":"Polygon","properties":{"state":"ND","name":"NAPOLEON","zip":"58561"}},{"arcs":[[777,778,779,780,781,-737,-720,782]],"type":"Polygon","properties":{"state":"ND","name":"NEW LEIPZIG","zip":"58562"}},{"arcs":[[-722,-687,783,-731,-771]],"type":"Polygon","properties":{"state":"ND","name":"NEW SALEM","zip":"58563"}},{"arcs":[[-740,784,-725]],"type":"Polygon","properties":{"state":"ND","name":"RALEIGH","zip":"58564"}},{"arcs":[[785,786,-751,787,788]],"type":"Polygon","properties":{"state":"ND","name":"RIVERDALE","zip":"58565"}},{"arcs":[[789,-742,-770]],"type":"Polygon","properties":{"state":"ND","name":"SAINT ANTHONY","zip":"58566"}},{"arcs":[[790,-783,-719,791,792,-744,793]],"type":"Polygon","properties":{"state":"ND","name":"SELFRIDGE","zip":"58568"}},{"arcs":[[-785,-739,794,-792,-718]],"type":"Polygon","properties":{"state":"ND","name":"SHIELDS","zip":"58569"}},{"arcs":[[-795,-743,-790,-769,-715,795,-745,-793]],"type":"Polygon","properties":{"state":"ND","name":"SOLEN","zip":"58570"}},{"arcs":[[-761,796,-728]],"type":"Polygon","properties":{"state":"ND","name":"STANTON","zip":"58571"}},{"arcs":[[-691,-640,-670,-736,-777,-774]],"type":"Polygon","properties":{"state":"ND","name":"STERLING","zip":"58572"}},{"arcs":[[797,-767,-758]],"type":"Polygon","properties":{"state":"ND","name":"STRASBURG","zip":"58573"}},{"arcs":[[-776,798,799,-789,800,801,802,-621]],"type":"Polygon","properties":{"state":"ND","name":"TURTLE LAKE","zip":"58575"}},{"arcs":[[-786,-800,803,804,-763,805,-732,806]],"type":"Polygon","properties":{"state":"ND","name":"UNDERWOOD","zip":"58576"}},{"arcs":[[807,808,-804,-799,-775,-619]],"type":"Polygon","properties":{"state":"ND","name":"WASHBURN","zip":"58577"}},{"arcs":[[-694,809,-808,-642]],"type":"Polygon","properties":{"state":"ND","name":"WILTON","zip":"58579"}},{"arcs":[[-753,-702]],"type":"Polygon","properties":{"state":"ND","name":"ZAP","zip":"58580"}},{"arcs":[[810,-756,-671,-667]],"type":"Polygon","properties":{"state":"ND","name":"ZEELAND","zip":"58581"}},{"arcs":[[811,812,813,814,815,816,817,818]],"type":"Polygon","properties":{"state":"ND","name":"DICKINSON","zip":"58601"}},{"arcs":[[819,820,821,822,823,824,825,826,827,828,829]],"type":"Polygon","properties":{"state":"ND","name":"AMIDON","zip":"58620"}},{"arcs":[[830,831,832,833,834]],"type":"Polygon","properties":{"state":"ND","name":"BEACH","zip":"58621"}},{"arcs":[[835,836,-816,837,-824]],"type":"Polygon","properties":{"state":"ND","name":"BELFIELD","zip":"58622"}},{"arcs":[[838,839,840,-829]],"type":"Polygon","properties":{"state":"ND","name":"BOWMAN","zip":"58623"}},{"arcs":[[841,-704,-755]],"type":"Polygon","properties":{"state":"ND","name":"DODGE","zip":"58625"}},{"arcs":[[842,843,844,845]],"type":"Polygon","properties":{"state":"ND","name":"DUNN CENTER","zip":"58626"}},{"arcs":[[846,-834,847,848,849,850,-817,-837,851]],"type":"Polygon","properties":{"state":"ND","name":"FAIRFIELD","zip":"58627"}},{"arcs":[[852,-812,853]],"type":"Polygon","properties":{"state":"ND","name":"GLADSTONE","zip":"58630"}},{"arcs":[[-738,-782,854,-696,-726,-784,-690]],"type":"Polygon","properties":{"state":"ND","name":"GLEN ULLIN","zip":"58631"}},{"arcs":[[855,856,-831,857,-821]],"type":"Polygon","properties":{"state":"ND","name":"GOLVA","zip":"58632"}},{"arcs":[[858,-849,859,860]],"type":"Polygon","properties":{"state":"ND","name":"GRASSY BUTTE","zip":"58634"}},{"arcs":[[-705,-842,-754,-700,861,-843,862]],"type":"Polygon","properties":{"state":"ND","name":"HALLIDAY","zip":"58636"}},{"arcs":[[863,-697,-855,-781]],"type":"Polygon","properties":{"state":"ND","name":"HEBRON","zip":"58638"}},{"arcs":[[864,865,866,867,-778,-791,868]],"type":"Polygon","properties":{"state":"ND","name":"HETTINGER","zip":"58639"}},{"arcs":[[-859,869,870,871,-845,872,-850]],"type":"Polygon","properties":{"state":"ND","name":"KILLDEER","zip":"58640"}},{"arcs":[[-853,873,874,875,876,-813]],"type":"Polygon","properties":{"state":"ND","name":"LEFOR","zip":"58641"}},{"arcs":[[877,878,-818,-851,-873,-844,-862,-699]],"type":"Polygon","properties":{"state":"ND","name":"MANNING","zip":"58642"}},{"arcs":[[879,880,-856,-820]],"type":"Polygon","properties":{"state":"ND","name":"MARMARTH","zip":"58643"}},{"arcs":[[881,-852,-836,-823]],"type":"Polygon","properties":{"state":"ND","name":"MEDORA","zip":"58645"}},{"arcs":[[882,883,-876,884,-779,-868]],"type":"Polygon","properties":{"state":"ND","name":"MOTT","zip":"58646"}},{"arcs":[[885,-826,886,-814,-877,-884,887,-866]],"type":"Polygon","properties":{"state":"ND","name":"NEW ENGLAND","zip":"58647"}},{"arcs":[[888,889,-827,-886,-865]],"type":"Polygon","properties":{"state":"ND","name":"REEDER","zip":"58649"}},{"arcs":[[-883,-867,-888]],"type":"Polygon","properties":{"state":"ND","name":"REGENT","zip":"58650"}},{"arcs":[[890,-880,-830,-841]],"type":"Polygon","properties":{"state":"ND","name":"RHAME","zip":"58651"}},{"arcs":[[-885,-875,891,-878,-698,-864,-780]],"type":"Polygon","properties":{"state":"ND","name":"RICHARDTON","zip":"58652"}},{"arcs":[[892,-839,-828,-890]],"type":"Polygon","properties":{"state":"ND","name":"SCRANTON","zip":"58653"}},{"arcs":[[-858,-835,-847,-882,-822]],"type":"Polygon","properties":{"state":"ND","name":"SENTINEL BUTTE","zip":"58654"}},{"arcs":[[-825,-838,-815,-887]],"type":"Polygon","properties":{"state":"ND","name":"SOUTH HEART","zip":"58655"}},{"arcs":[[-874,-854,-819,-879,-892]],"type":"Polygon","properties":{"state":"ND","name":"TAYLOR","zip":"58656"}},{"arcs":[[893,894,895,896,897,898,899,900,901]],"type":"Polygon","properties":{"state":"ND","name":"MINOT","zip":"58701"}},{"arcs":[[902,-900,903,904,905]],"type":"Polygon","properties":{"state":"ND","name":"MINOT","zip":"58703"}},{"type":null,"properties":{"state":"ND","name":"MINOT AFB","zip":"58704"}},{"arcs":[[906,907,908]],"type":"Polygon","properties":{"state":"ND","name":"MINOT AFB","zip":"58705"}},{"arcs":[[909,-567,910,911,-476]],"type":"Polygon","properties":{"state":"ND","name":"ANAMOOSE","zip":"58710"}},{"arcs":[[912,913,914,915]],"type":"Polygon","properties":{"state":"ND","name":"ANTLER","zip":"58711"}},{"arcs":[[916,917,918,919]],"type":"Polygon","properties":{"state":"ND","name":"BALFOUR","zip":"58712"}},{"arcs":[[920,921,922,923,924,925,-494,926,927]],"type":"Polygon","properties":{"state":"ND","name":"BANTRY","zip":"58713"}},{"arcs":[[928,929,930,-801,-788,-750]],"type":"Polygon","properties":{"state":"ND","name":"BENEDICT","zip":"58716"}},{"arcs":[[931,932,933,934,935,-908,936,-905,937,938,939,940,941]],"type":"Polygon","properties":{"state":"ND","name":"BERTHOLD","zip":"58718"}},{"arcs":[[942,943,944,945,946,947,948]],"type":"Polygon","properties":{"state":"ND","name":"BOWBELLS","zip":"58721"}},{"arcs":[[949,-938,-904,-899]],"type":"Polygon","properties":{"state":"ND","name":"BURLINGTON","zip":"58722"}},{"arcs":[[950,-622,-803,951,952]],"type":"Polygon","properties":{"state":"ND","name":"BUTTE","zip":"58723"}},{"arcs":[[953,954,-935]],"type":"Polygon","properties":{"state":"ND","name":"CARPIO","zip":"58725"}},{"arcs":[[955,956,957,958,959,960]],"type":"Polygon","properties":{"state":"ND","name":"COLUMBUS","zip":"58727"}},{"arcs":[[961,962,963,964,965,-956,966,967,968]],"type":"Polygon","properties":{"state":"ND","name":"CROSBY","zip":"58730"}},{"arcs":[[969,970,-921,971]],"type":"Polygon","properties":{"state":"ND","name":"DEERING","zip":"58731"}},{"arcs":[[972,973,-939,-950,-898]],"type":"Polygon","properties":{"state":"ND","name":"DES LACS","zip":"58733"}},{"arcs":[[-934,974,975,976,977,-954]],"type":"Polygon","properties":{"state":"ND","name":"DONNYBROOK","zip":"58734"}},{"arcs":[[978,979,-896,980]],"type":"Polygon","properties":{"state":"ND","name":"DOUGLAS","zip":"58735"}},{"arcs":[[-566,-624,981,-917,982,-911]],"type":"Polygon","properties":{"state":"ND","name":"DRAKE","zip":"58736"}},{"arcs":[[983,984,985,-944]],"type":"Polygon","properties":{"state":"ND","name":"FLAXTON","zip":"58737"}},{"arcs":[[-907,986,-936,-955,-978,987,988,989,-922,-971,990,-906,-937]],"type":"Polygon","properties":{"state":"ND","name":"GLENBURN","zip":"58740"}},{"arcs":[[991,-972,-928,992,993,994]],"type":"Polygon","properties":{"state":"ND","name":"GRANVILLE","zip":"58741"}},{"arcs":[[995,996,-994,997,-477,-912,-983,-920]],"type":"Polygon","properties":{"state":"ND","name":"KARLSRUHE","zip":"58744"}},{"arcs":[[998,999,-948,1000,1001,-976]],"type":"Polygon","properties":{"state":"ND","name":"KENMARE","zip":"58746"}},{"arcs":[[1002,-918,-982,-623,-951]],"type":"Polygon","properties":{"state":"ND","name":"KIEF","zip":"58747"}},{"arcs":[[1003,1004,1005,-383,-495,-926]],"type":"Polygon","properties":{"state":"ND","name":"KRAMER","zip":"58748"}},{"arcs":[[1006,1007,-989]],"type":"Polygon","properties":{"state":"ND","name":"LANSFORD","zip":"58750"}},{"arcs":[[1008,-960,1009,-984,-943]],"type":"Polygon","properties":{"state":"ND","name":"LIGNITE","zip":"58752"}},{"arcs":[[1010,-968,1011]],"type":"Polygon","properties":{"state":"ND","name":"MCGREGOR","zip":"58755"}},{"arcs":[[1012,1013,-940,-974,1014]],"type":"Polygon","properties":{"state":"ND","name":"MAKOTI","zip":"58756"}},{"arcs":[[1015,1016,1017,-871]],"type":"Polygon","properties":{"state":"ND","name":"MANDAREE","zip":"58757"}},{"arcs":[[-606,-601,-568,-910,-475,-432]],"type":"Polygon","properties":{"state":"ND","name":"MARTIN","zip":"58758"}},{"arcs":[[-749,1018,-981,-895,1019,-929]],"type":"Polygon","properties":{"state":"ND","name":"MAX","zip":"58759"}},{"arcs":[[-990,-1008,1020,-914,1021,1022,-923]],"type":"Polygon","properties":{"state":"ND","name":"MAXBASS","zip":"58760"}},{"arcs":[[-1002,1023,1024,1025,-915,-1021,-1007,-988,-977]],"type":"Polygon","properties":{"state":"ND","name":"MOHALL","zip":"58761"}},{"arcs":[[1026,-924,-1023,1027,1028,-1005]],"type":"Polygon","properties":{"state":"ND","name":"NEWBURG","zip":"58762"}},{"arcs":[[1029,1030,1031]],"type":"Polygon","properties":{"state":"ND","name":"NEW TOWN","zip":"58763"}},{"arcs":[[-957,-966,1032]],"type":"Polygon","properties":{"state":"ND","name":"NOONAN","zip":"58765"}},{"arcs":[[1033,1034,-902,1035,-970,-992]],"type":"Polygon","properties":{"state":"ND","name":"NORWICH","zip":"58768"}},{"arcs":[[1036,-932]],"type":"Polygon","properties":{"state":"ND","name":"PALERMO","zip":"58769"}},{"arcs":[[1037,1038,1039,-1031,1040,1041,-1013]],"type":"Polygon","properties":{"state":"ND","name":"PARSHALL","zip":"58770"}},{"arcs":[[-1042,1042,-941,-1014]],"type":"Polygon","properties":{"state":"ND","name":"PLAZA","zip":"58771"}},{"arcs":[[-959,1043,-985,-1010]],"type":"Polygon","properties":{"state":"ND","name":"PORTAL","zip":"58772"}},{"arcs":[[-967,-961,-1009,-949,-1000,1044,1045,-1012]],"type":"Polygon","properties":{"state":"ND","name":"POWERS LAKE","zip":"58773"}},{"arcs":[[1046,-979,-1019,-748,1047,-1039]],"type":"Polygon","properties":{"state":"ND","name":"ROSEGLEN","zip":"58775"}},{"arcs":[[1048]],"type":"Polygon","properties":{"state":"ND","name":"ROSS","zip":"58776"}},{"arcs":[[-802,-931,1049,-952]],"type":"Polygon","properties":{"state":"ND","name":"RUSO","zip":"58778"}},{"arcs":[[-1015,-973,-897,-980,-1047,-1038]],"type":"Polygon","properties":{"state":"ND","name":"RYDER","zip":"58779"}},{"arcs":[[1050,-930,-1020,-894,-1035,1051]],"type":"Polygon","properties":{"state":"ND","name":"SAWYER","zip":"58781"}},{"arcs":[[1052,-946,1053,-1025]],"type":"Polygon","properties":{"state":"ND","name":"SHERWOOD","zip":"58782"}},{"arcs":[[-1029,1054,1055,-384,-1006]],"type":"Polygon","properties":{"state":"ND","name":"SOURIS","zip":"58783"}},{"arcs":[[1056,1057,1058,-1045,-999,-975,-933,-1037,-942,-1043,-1041,-1030,1059],[-1049]],"type":"Polygon","properties":{"state":"ND","name":"STANLEY","zip":"58784"}},{"arcs":[[-903,-991,-1036,-901]],"type":"Polygon","properties":{"state":"ND","name":"SURREY","zip":"58785"}},{"arcs":[[-1001,-947,-1053,-1024]],"type":"Polygon","properties":{"state":"ND","name":"TOLLEY","zip":"58787"}},{"arcs":[[-993,-927,-493,-478,-998]],"type":"Polygon","properties":{"state":"ND","name":"TOWNER","zip":"58788"}},{"arcs":[[-1027,-1004,-925]],"type":"Polygon","properties":{"state":"ND","name":"UPHAM","zip":"58789"}},{"arcs":[[1060,-1052,-1034,-995,-997]],"type":"Polygon","properties":{"state":"ND","name":"VELVA","zip":"58790"}},{"arcs":[[-1051,-1061,-996,-919,-1003,-953,-1050]],"type":"Polygon","properties":{"state":"ND","name":"VOLTAIRE","zip":"58792"}},{"arcs":[[-1022,-913,1061,-1055,-1028]],"type":"Polygon","properties":{"state":"ND","name":"WESTHOPE","zip":"58793"}},{"arcs":[[1062,-1058]],"type":"Polygon","properties":{"state":"ND","name":"WHITE EARTH","zip":"58794"}},{"arcs":[[1063,-962,1064]],"type":"Polygon","properties":{"state":"ND","name":"WILDROSE","zip":"58795"}},{"arcs":[[1065,1066,1067,1068,1069,1070,1071,1072]],"type":"Polygon","properties":{"state":"ND","name":"WILLISTON","zip":"58801"}},{"arcs":[[1073,1074,-963,-1064,1075,-1070]],"type":"Polygon","properties":{"state":"ND","name":"ALAMO","zip":"58830"}},{"arcs":[[1076,1077,1078,1079,1080]],"type":"Polygon","properties":{"state":"ND","name":"ALEXANDER","zip":"58831"}},{"arcs":[[1081,1082,1083,1084,-964,-1075,1085]],"type":"Polygon","properties":{"state":"ND","name":"AMBROSE","zip":"58833"}},{"arcs":[[1086,-1081]],"type":"Polygon","properties":{"state":"ND","name":"ARNEGARD","zip":"58835"}},{"arcs":[[[1087]],[[1088,-1078,1089,-860,-848,-833]]],"type":"MultiPolygon","properties":{"state":"ND","name":"CARTWRIGHT","zip":"58838"}},{"arcs":[[1090,-1073]],"type":"Polygon","properties":{"state":"ND","name":"EPPING","zip":"58843"}},{"arcs":[[1091,-1084]],"type":"Polygon","properties":{"state":"ND","name":"FORTUNA","zip":"58844"}},{"arcs":[[1092,-1082,1093,-1068]],"type":"Polygon","properties":{"state":"ND","name":"GRENORA","zip":"58845"}},{"arcs":[[1094,1095,-1017]],"type":"Polygon","properties":{"state":"ND","name":"KEENE","zip":"58847"}},{"arcs":[[-1066,-1091,-1072,1096,1097]],"type":"Polygon","properties":{"state":"ND","name":"RAY","zip":"58849"}},{"arcs":[[-1076,-1065,-969,-1011,-1046,-1059,-1063,-1057,1098,-1097,-1071]],"type":"Polygon","properties":{"state":"ND","name":"TIOGA","zip":"58852"}},{"arcs":[[-861,-1090,-1077,-1087,-1080,1099,-1095,-1016,-870]],"type":"Polygon","properties":{"state":"ND","name":"WATFORD CITY","zip":"58854"}},{"arcs":[[-1086,-1074,-1069,-1094]],"type":"Polygon","properties":{"state":"ND","name":"ZAHL","zip":"58856"}}]}},"arcs":[[[21328,22960],[0,74]],[[21328,23034],[49,15]],[[21377,23049],[131,-15]],[[21508,23034],[0,-30]],[[21508,23004],[-68,-46]],[[21440,22958],[-112,2]],[[21742,22958],[-184,30]],[[21558,22988],[-50,16]],[[21508,23034],[50,31]],[[21558,23065],[189,63]],[[21747,23128],[4,-81],[0,-89]],[[21751,22958],[-9,0]],[[21377,23049],[0,74]],[[21377,23123],[167,0]],[[21544,23123],[14,-58]],[[21278,22943],[-99,91]],[[21179,23034],[68,31]],[[21247,23065],[81,-31]],[[21328,22960],[-50,-17]],[[21652,22172],[-49,-15]],[[21603,22157],[-27,208]],[[21576,22365],[45,0]],[[21621,22365],[49,-76]],[[21670,22289],[-18,-117]],[[21445,23403],[0,-89]],[[21445,23314],[-104,0]],[[21341,23314],[0,89]],[[21341,23403],[104,0]],[[21148,22780],[-36,254]],[[21112,23034],[67,0]],[[21278,22943],[-31,-133]],[[21247,22810],[-99,-30]],[[21409,22856],[31,102]],[[21558,22988],[0,-58]],[[21558,22930],[-149,-74]],[[21409,22157],[-86,-178],[45,-89]],[[21368,21890],[-63,0]],[[21305,21890],[-18,89]],[[21287,21979],[-4,89]],[[21283,22068],[126,89]],[[21769,22602],[14,0],[54,-178]],[[21837,22424],[-23,15]],[[21814,22439],[-13,28]],[[21801,22467],[-86,135]],[[21715,22602],[54,0]],[[21341,23314],[-81,0]],[[21260,23314],[-18,91]],[[21242,23405],[99,-2]],[[21089,22129],[-36,-239]],[[21053,21890],[-202,0],[-23,0]],[[20828,21890],[99,267]],[[20927,22157],[81,0]],[[21008,22157],[81,-28]],[[21720,22292],[-50,-3]],[[21621,22365],[180,102]],[[21814,22439],[-94,-30],[0,-117]],[[21670,22678],[-194,-30]],[[21476,22648],[-4,73]],[[21472,22721],[149,46]],[[21621,22767],[49,-89]],[[21296,22602],[-99,0],[-13,-117]],[[21184,22485],[-180,28]],[[21004,22513],[36,178]],[[21040,22691],[238,0]],[[21278,22691],[18,-89]],[[21247,23065],[13,104]],[[21260,23169],[86,-3]],[[21346,23166],[31,-43]],[[21949,22083],[-4,-104],[9,-89],[-158,0]],[[21796,21890],[0,178]],[[21796,22068],[153,15]],[[21040,22691],[-122,2]],[[20918,22693],[-67,13]],[[20851,22706],[135,89]],[[20986,22795],[63,15]],[[21049,22810],[99,-30]],[[21247,22810],[63,-104]],[[21310,22706],[-32,-15]],[[21089,22129],[81,28]],[[21170,22157],[32,-43]],[[21202,22114],[-36,-135]],[[21166,21979],[-45,-89]],[[21121,21890],[-68,0]],[[20873,22246],[-68,208]],[[20805,22454],[0,105]],[[20805,22559],[113,-11]],[[20918,22548],[27,-35]],[[20945,22513],[41,-237]],[[20986,22276],[-90,-30]],[[20896,22246],[-23,0]],[[21260,23169],[-49,58]],[[21211,23227],[49,87]],[[21445,23314],[13,-87]],[[21458,23227],[-112,-61]],[[21544,23123],[0,15]],[[21544,23138],[194,82]],[[21738,23220],[0,-84],[9,-8]],[[21544,23138],[0,89]],[[21544,23227],[198,-2]],[[21742,23225],[-4,-5]],[[20896,22246],[13,-89]],[[20909,22157],[-81,89]],[[20828,22246],[45,0]],[[21008,22157],[45,61]],[[21053,22218],[117,-61]],[[21796,21890],[-67,0],[-99,0],[-63,0]],[[21567,21890],[40,224]],[[21607,22114],[95,43]],[[21702,22157],[31,30]],[[21733,22187],[50,-45],[-18,-44],[31,-30]],[[21688,22915],[-49,-31]],[[21639,22884],[-81,46]],[[21742,22958],[-54,-43]],[[21305,21890],[-67,0],[-117,0]],[[21166,21979],[121,0]],[[21544,23227],[-86,0]],[[21445,23403],[-5,89]],[[21440,23492],[100,0]],[[21540,23492],[103,0]],[[21643,23492],[81,-89]],[[21724,23403],[14,2],[4,-91],[0,-89]],[[20963,23184],[-67,46],[85,28],[-9,147]],[[20972,23405],[270,0]],[[21211,23227],[-248,-43]],[[21688,22602],[-18,76]],[[21621,22767],[157,-36]],[[21778,22731],[-9,-129]],[[21715,22602],[-27,0]],[[20918,22693],[0,-145]],[[20805,22559],[-85,73],[49,107]],[[20769,22739],[82,-33]],[[21490,22602],[-14,46]],[[21688,22602],[-117,-74],[-81,74]],[[21395,22424],[-99,178]],[[21310,22706],[81,31]],[[21391,22737],[81,-16]],[[21490,22602],[18,-178]],[[21508,22424],[-14,0]],[[21494,22424],[-99,0]],[[21567,21890],[-131,0],[-68,0]],[[21409,22157],[180,0]],[[21589,22157],[18,-43]],[[20945,22513],[59,0]],[[21184,22485],[112,-61]],[[21296,22424],[0,-43]],[[21296,22381],[-243,-135]],[[21053,22246],[-67,30]],[[20963,23184],[0,-74]],[[20963,23110],[-13,-15]],[[20950,23095],[-136,43]],[[20814,23138],[50,92]],[[20864,23230],[-18,86]],[[20846,23316],[0,89]],[[20846,23405],[126,0]],[[21395,22335],[-99,46]],[[21296,22424],[99,0]],[[21494,22424],[-99,-89]],[[21589,22157],[14,0]],[[21652,22172],[50,-15]],[[21391,22737],[18,119]],[[21639,22884],[0,-74]],[[21639,22810],[-18,-43]],[[21053,22218],[0,28]],[[21395,22335],[14,-178]],[[21283,22068],[-81,46]],[[21720,22292],[67,-16],[-54,-89]],[[20986,22795],[-86,89],[50,211]],[[20963,23110],[68,-30]],[[21031,23080],[18,-270]],[[21112,23034],[-81,46]],[[20927,22157],[-18,0]],[[20769,22739],[-81,43]],[[20688,22782],[14,224]],[[20702,23006],[108,125]],[[20810,23131],[4,7]],[[21837,22424],[45,-89],[49,-178],[18,-74]],[[21576,22365],[-68,59]],[[21688,22915],[32,-61]],[[21720,22854],[-9,-28]],[[21711,22826],[-72,-16]],[[21787,22854],[-67,0]],[[21751,22958],[36,-104]],[[21787,22854],[-13,-44]],[[21774,22810],[-63,16]],[[21774,22810],[4,-79]],[[21589,23932],[9,-36],[18,-46]],[[21616,23850],[-140,0]],[[21476,23850],[41,74]],[[21517,23924],[72,8]],[[21517,23924],[9,104]],[[21526,24028],[32,0]],[[21558,24028],[13,-71],[18,-25]],[[21310,23939],[9,39]],[[21319,23978],[9,2]],[[21328,23980],[-18,-41]],[[21310,23939],[-14,0]],[[21296,23939],[-13,16]],[[21283,23955],[36,23]],[[20706,24298],[-31,89]],[[20675,24387],[85,178]],[[20760,24565],[27,0]],[[20787,24565],[73,-178]],[[20860,24387],[-154,-89]],[[20927,23761],[0,-89]],[[20927,23672],[-81,0]],[[20846,23672],[-36,0]],[[20810,23672],[13,178]],[[20823,23850],[104,-7]],[[20927,23843],[0,-82]],[[21503,24206],[-40,0]],[[21463,24206],[59,89]],[[21522,24295],[-19,-89]],[[21125,23850],[86,107]],[[21211,23957],[72,-2]],[[21296,23939],[0,-89]],[[21296,23850],[-171,0]],[[21229,24982],[139,-61],[-36,-59]],[[21332,24862],[-153,0]],[[21179,24862],[0,46]],[[21179,24908],[50,74]],[[21729,23581],[-189,2],[0,-91]],[[21440,23492],[5,89]],[[21445,23581],[0,91]],[[21445,23672],[99,0]],[[21544,23672],[158,0]],[[21702,23672],[27,-89],[0,-2]],[[21643,23492],[90,0]],[[21733,23492],[-9,-89]],[[20891,24745],[-18,0]],[[20873,24745],[0,44]],[[20873,24789],[203,150]],[[21076,24939],[103,-31]],[[21179,24862],[0,-117]],[[21179,24745],[-220,-30]],[[20959,24715],[-68,30]],[[21179,24669],[18,-104]],[[21197,24565],[-207,46]],[[20990,24611],[-13,58]],[[20977,24669],[31,31]],[[21008,24700],[171,-31]],[[21729,23581],[4,-87],[0,-2]],[[20909,24209],[0,-61]],[[20909,24148],[-99,46]],[[20810,24194],[0,15]],[[20810,24209],[99,0]],[[21517,24743],[-32,-178],[18,-120]],[[21503,24445],[-175,120]],[[21328,24565],[67,66],[-94,114]],[[21301,24745],[67,0]],[[21368,24745],[149,-2]],[[20787,24565],[104,0],[0,125]],[[20891,24690],[86,-21]],[[20990,24611],[0,-105]],[[20990,24506],[-117,-119]],[[20873,24387],[-13,0]],[[21328,23980],[0,48]],[[21328,24028],[198,0]],[[21476,23850],[-148,-73]],[[21328,23777],[-32,73]],[[20675,24387],[-90,0]],[[20585,24387],[0,178]],[[20585,24565],[175,0]],[[20846,23405],[0,178]],[[20846,23583],[99,0],[0,89]],[[20945,23672],[302,0]],[[21247,23672],[0,-89]],[[21247,23583],[-5,-178]],[[20810,24209],[167,89]],[[20977,24298],[99,-89]],[[21076,24209],[-167,0]],[[21211,24209],[0,89]],[[21211,24298],[103,0],[0,-89]],[[21314,24209],[-103,0]],[[21314,24209],[0,-181]],[[21314,24028],[-103,0]],[[21211,24028],[0,31]],[[21211,24059],[0,150]],[[21112,24209],[18,147]],[[21130,24356],[-18,120]],[[21112,24476],[85,89]],[[21197,24565],[131,0]],[[21503,24445],[0,-58],[-13,0]],[[21490,24387],[-279,-89]],[[21211,24209],[-99,0]],[[21301,24745],[-122,0]],[[21332,24862],[68,-30],[-32,-87]],[[20360,25035],[0,-112]],[[20360,24923],[-203,0]],[[20157,24923],[0,112]],[[20157,25035],[203,0]],[[21445,23581],[-104,0]],[[21341,23581],[-94,2]],[[21247,23672],[81,0]],[[21328,23672],[117,0]],[[21179,24745],[0,-76]],[[21008,24700],[-49,15]],[[21112,24476],[-122,30]],[[21211,24059],[-234,-31]],[[20977,24028],[-50,0]],[[20927,24028],[-18,120]],[[21076,24209],[36,0]],[[20283,24745],[-126,0]],[[20157,24745],[0,178]],[[20360,24923],[103,0]],[[20463,24923],[104,0],[0,112]],[[20567,25035],[306,0]],[[20873,25035],[0,-246]],[[20873,24745],[-86,0]],[[20787,24745],[-301,0]],[[20486,24745],[-203,0]],[[20706,24209],[0,43]],[[20706,24252],[0,46]],[[20873,24387],[135,0]],[[21008,24387],[-31,-89]],[[20810,24209],[-104,0]],[[20927,23843],[0,96]],[[20927,23939],[81,0],[-31,89]],[[21211,24028],[0,-71]],[[21125,23850],[5,-89],[-203,0]],[[20625,23672],[0,178]],[[20625,23850],[32,89]],[[20657,23939],[135,0]],[[20792,23939],[31,-89]],[[20810,23672],[-167,0]],[[20643,23672],[-18,0]],[[20463,24923],[0,112]],[[20463,25035],[104,0]],[[21503,24206],[-4,-20],[59,-158]],[[21328,24028],[-14,0]],[[21314,24209],[149,-3]],[[21341,23403],[0,178]],[[20657,23939],[49,270]],[[20810,24194],[-18,-255]],[[20787,24565],[0,180]],[[20891,24745],[0,-55]],[[21490,24387],[32,-89],[0,-3]],[[21076,24939],[-99,96]],[[20977,25035],[333,0]],[[21310,25035],[-81,-53]],[[20927,23939],[0,89]],[[20945,23672],[-18,0]],[[21328,23777],[0,-16]],[[21328,23761],[0,-89]],[[20585,24565],[-99,0]],[[20486,24565],[0,180]],[[21130,24356],[-122,31]],[[21436,25035],[-9,-23],[31,-91],[59,-178]],[[21310,25035],[126,0]],[[21328,23761],[198,0],[18,-89]],[[20846,23583],[0,89]],[[21616,23850],[45,-89],[41,-89]],[[20360,25035],[103,0]],[[20873,25035],[104,0]],[[19999,24039],[-99,76]],[[19900,24115],[0,94]],[[19900,24209],[203,0],[0,89]],[[20103,24298],[99,0],[0,89]],[[20202,24387],[180,0]],[[20382,24387],[23,0]],[[20405,24387],[0,-120]],[[20405,24267],[-135,-30],[67,-209],[-76,0]],[[20261,24028],[-113,8]],[[20148,24036],[-14,0]],[[20134,24036],[-94,94],[-41,-91]],[[20486,24565],[-104,0]],[[20382,24565],[-99,0]],[[20283,24565],[0,180]],[[19468,24745],[-131,0]],[[19337,24745],[5,178]],[[19342,24923],[203,0]],[[19545,24923],[-5,-162]],[[19540,24761],[-72,-16]],[[19698,24389],[-27,120]],[[19671,24509],[0,58]],[[19671,24567],[0,133]],[[19671,24700],[85,45]],[[19756,24745],[68,0]],[[19824,24745],[49,0]],[[19873,24745],[0,-178]],[[19873,24567],[-117,0],[-18,-178]],[[19738,24389],[-40,0]],[[19099,24819],[-140,-74]],[[18959,24745],[-320,23]],[[18639,24768],[185,82],[0,124],[104,59]],[[18928,25033],[207,0]],[[19135,25033],[-36,-214]],[[19824,23672],[-99,46]],[[19725,23718],[99,43]],[[19824,23761],[0,-89]],[[20504,24209],[0,89],[202,-46]],[[20706,24209],[-202,0]],[[20076,24745],[-23,0]],[[20053,24745],[0,178]],[[20053,24923],[104,0]],[[20157,24745],[-81,0]],[[19977,24389],[-77,0]],[[19900,24389],[-162,0]],[[19873,24567],[104,0]],[[19977,24567],[0,-178]],[[20103,24298],[-203,-46]],[[19900,24252],[0,137]],[[19977,24389],[126,0]],[[20103,24389],[0,-91]],[[20292,24011],[-31,17]],[[20405,24267],[99,-58]],[[20504,24209],[-81,-270]],[[20423,23939],[-32,-17]],[[20391,23922],[-40,0],[-59,91],[0,-2]],[[19211,24745],[-112,74]],[[19135,25033],[225,0]],[[19360,25033],[-18,-110]],[[19337,24745],[-126,0]],[[20382,24387],[0,89]],[[20382,24476],[0,89]],[[20585,24387],[-180,0]],[[19873,24745],[180,0]],[[20076,24745],[0,-134]],[[20076,24611],[-99,-44]],[[19698,24028],[-275,-58]],[[19423,23970],[-86,30]],[[19337,24000],[59,178],[99,31]],[[19495,24209],[203,-92]],[[19698,24117],[0,-89]],[[20382,24476],[-99,0],[0,89]],[[19756,24745],[-85,0]],[[19671,24745],[-27,16]],[[19644,24761],[0,272]],[[19644,25033],[207,0]],[[19851,25033],[-81,-82],[54,-206]],[[19680,23672],[-140,89],[-4,-89],[-221,-71]],[[19315,23601],[-63,0]],[[19252,23601],[4,265]],[[19256,23866],[-22,119],[103,15]],[[19423,23970],[0,-117],[401,-3]],[[19824,23850],[0,-89]],[[19725,23718],[-45,-46]],[[19545,24298],[-50,0]],[[19495,24298],[0,91]],[[19495,24389],[50,0]],[[19545,24389],[0,-91]],[[20526,23850],[0,89],[-103,0]],[[20625,23850],[-99,0]],[[19900,24252],[0,-43]],[[19900,24209],[-202,0],[0,-92]],[[19495,24209],[0,89]],[[19545,24298],[153,0],[0,91]],[[19824,24028],[0,-178]],[[19698,24028],[126,0]],[[19900,24115],[-76,-87]],[[20283,24565],[-207,46]],[[19671,24567],[-203,0]],[[19468,24567],[0,178]],[[19540,24761],[104,0]],[[19671,24745],[0,-45]],[[20445,23672],[0,-89]],[[20445,23583],[-99,0]],[[20346,23583],[-103,3]],[[20243,23586],[-100,0]],[[20143,23586],[-297,0]],[[19846,23586],[-22,86]],[[19824,23761],[500,0]],[[20324,23761],[121,-89]],[[19999,24039],[-67,35],[81,-43]],[[20013,24031],[9,-181]],[[20022,23850],[-198,0]],[[20625,23672],[-148,0]],[[20477,23672],[49,178]],[[19851,25033],[99,0]],[[19950,25033],[0,-110],[103,0]],[[19468,24567],[-18,0]],[[19450,24567],[-149,0]],[[19301,24567],[-90,0],[0,178]],[[19545,24923],[-5,110]],[[19540,25033],[104,0]],[[19256,23866],[-67,15]],[[19189,23881],[-99,180]],[[19090,24061],[-117,117],[117,23]],[[19090,24201],[36,188],[-68,74]],[[19058,24463],[243,104]],[[19450,24567],[45,-178]],[[19360,25033],[180,0]],[[20225,23965],[-45,-115]],[[20180,23850],[-158,0]],[[20013,24031],[121,5]],[[20148,24036],[77,-71]],[[19950,25033],[207,2]],[[20180,23850],[144,-73]],[[20324,23777],[0,-16]],[[20202,24387],[-99,2]],[[20324,23777],[67,145]],[[20477,23672],[-32,0]],[[20225,23965],[67,46]],[[19058,24463],[0,104],[-202,89]],[[18856,24656],[-18,0]],[[18838,24656],[121,89]],[[19671,24509],[-126,-120]],[[20490,22813],[-193,-15],[0,-105]],[[20297,22693],[-149,-15]],[[20148,22678],[-86,31]],[[20062,22709],[-58,73],[108,178]],[[20112,22960],[194,33],[0,100]],[[20306,23093],[85,-13]],[[20391,23080],[27,-59]],[[20418,23021],[-63,-61],[135,-45],[0,-102]],[[19662,21895],[-32,163]],[[19630,22058],[81,58]],[[19711,22116],[180,-15]],[[19891,22101],[90,-89],[23,91]],[[20004,22103],[49,-2]],[[20053,22101],[0,-28]],[[20053,22073],[-4,-178]],[[20049,21895],[-41,0],[-301,0],[-45,0]],[[20441,22246],[-23,0]],[[20418,22246],[-18,178]],[[20400,22424],[113,-13]],[[20513,22411],[0,-165]],[[20513,22246],[-72,0]],[[20643,23672],[0,-173],[-198,-5]],[[20445,23494],[0,89]],[[19666,23497],[0,-181]],[[19666,23316],[-284,0]],[[19382,23316],[-31,3]],[[19351,23319],[0,89]],[[19351,23408],[99,0],[0,89]],[[19450,23497],[0,74],[198,-61]],[[19648,23510],[18,-13]],[[20112,22960],[-135,79]],[[19977,23039],[212,99]],[[20189,23138],[117,0]],[[20306,23138],[0,-45]],[[20180,23393],[-5,-77]],[[20175,23316],[-297,0]],[[19878,23316],[-32,3]],[[19846,23319],[0,178]],[[19846,23497],[0,89]],[[20143,23586],[18,-89]],[[20161,23497],[19,-104]],[[19846,23497],[-180,0]],[[19648,23510],[32,162]],[[19351,23408],[0,89]],[[19351,23497],[99,0]],[[19918,22706],[-18,0]],[[19900,22706],[-9,300]],[[19891,23006],[18,46]],[[19909,23052],[68,-13]],[[20062,22709],[-144,-3]],[[20846,23316],[-180,0],[0,-86]],[[20666,23230],[-81,0]],[[20585,23230],[-117,0]],[[20468,23230],[0,86]],[[20468,23316],[76,89],[-99,0]],[[20445,23405],[0,89]],[[20306,23138],[67,178]],[[20373,23316],[72,0]],[[20445,23316],[23,0]],[[20468,23230],[-77,-150]],[[19509,22963],[0,-359]],[[19509,22604],[-100,0]],[[19409,22604],[0,359]],[[19409,22963],[100,0]],[[20810,23131],[-243,23]],[[20567,23154],[18,76]],[[20666,23230],[198,0]],[[19148,23616],[-63,-61],[63,-147]],[[19148,23408],[-99,0],[0,178],[-99,0],[0,86]],[[18950,23672],[72,0]],[[19022,23672],[99,0]],[[19121,23672],[27,-56]],[[20400,22424],[-18,74]],[[20382,22498],[0,15]],[[20382,22513],[50,61]],[[20432,22574],[112,-135]],[[20544,22439],[-31,-28]],[[20053,22101],[167,145],[-81,178]],[[20139,22424],[243,74]],[[20418,22246],[-76,0],[-14,-176]],[[20328,22070],[-275,3]],[[20279,21892],[49,178]],[[20441,22246],[0,-176],[193,-30]],[[20634,22040],[-99,-150]],[[20535,21890],[-256,2]],[[19351,23497],[-36,104]],[[20279,21892],[-9,0],[-221,3]],[[19891,22101],[-45,310]],[[19846,22411],[180,-46]],[[20026,22365],[-22,-262]],[[20639,22246],[-5,-206]],[[20513,22246],[126,0]],[[19698,22411],[0,28]],[[19698,22439],[0,59]],[[19698,22498],[189,104],[-68,107]],[[19819,22709],[81,-3]],[[19918,22706],[108,-104],[0,-178]],[[20026,22424],[0,-59]],[[19846,22411],[-148,0]],[[20373,23316],[-193,77]],[[20161,23497],[82,89]],[[20346,23583],[0,-86],[99,-3]],[[20445,23405],[0,-89]],[[19103,23316],[45,92]],[[19148,23616],[99,-30]],[[19247,23586],[0,-267]],[[19247,23319],[-58,-3]],[[19189,23316],[-86,0]],[[19351,23319],[-104,0]],[[19247,23586],[5,15]],[[20148,22678],[234,-165]],[[20139,22424],[-113,0]],[[20189,23138],[-14,178]],[[20544,22439],[117,15]],[[20661,22454],[50,0]],[[20711,22454],[13,-208]],[[20724,22246],[-85,0]],[[19711,22116],[9,104],[-103,26],[81,165]],[[20661,22454],[-72,298]],[[20589,22752],[99,30]],[[20805,22454],[-94,0]],[[18941,23319],[-189,0]],[[18752,23319],[0,89]],[[18752,23408],[0,89]],[[18752,23497],[0,175]],[[18752,23672],[68,0]],[[18820,23672],[99,8]],[[18919,23680],[31,-8]],[[19103,23316],[-162,3]],[[20432,22574],[58,89]],[[20490,22663],[36,119]],[[20526,22782],[50,0]],[[20576,22782],[13,-30]],[[19819,22709],[-112,58]],[[19707,22767],[0,196]],[[19707,22963],[184,43]],[[20297,22693],[193,-30]],[[20724,22246],[104,0]],[[20828,21890],[-270,0],[-23,0]],[[19680,23006],[-149,46],[50,178],[99,28]],[[19680,23258],[0,-252]],[[19909,23052],[-31,264]],[[18941,23319],[14,-326]],[[18955,22993],[-50,-30]],[[18905,22963],[18,86],[-135,21]],[[18788,23070],[68,73],[-104,176]],[[19409,22963],[-27,89]],[[19382,23052],[0,264]],[[19666,23316],[14,3]],[[19680,23319],[0,-61]],[[19680,23006],[0,-43]],[[19680,22963],[-171,0]],[[20702,23006],[-135,43]],[[20567,23049],[0,105]],[[20576,22782],[31,178],[-90,31]],[[20517,22991],[50,58]],[[20526,22782],[-36,31]],[[20418,23021],[99,-30]],[[19409,22604],[-18,0]],[[19391,22604],[-148,3]],[[19243,22607],[-32,89]],[[19211,22696],[-27,282]],[[19184,22978],[198,74]],[[19698,22498],[-32,106]],[[19666,22604],[41,163]],[[19846,23319],[-166,0]],[[19680,22963],[27,0]],[[19666,22604],[-157,0]],[[19184,22978],[5,338]],[[19662,21895],[-131,0]],[[19531,21895],[-63,163]],[[19468,22058],[162,0]],[[19184,22978],[-99,-15]],[[19085,22963],[-130,30]],[[19468,22058],[-99,61]],[[19369,22119],[0,30]],[[19369,22149],[0,97]],[[19369,22246],[18,15]],[[19387,22261],[117,-15],[32,178],[162,15]],[[18788,22815],[0,-45]],[[18788,22770],[-149,15]],[[18639,22785],[-9,15]],[[18630,22800],[158,15]],[[18576,22981],[230,-18]],[[18806,22963],[-18,-148]],[[18630,22800],[-54,181]],[[18788,22770],[81,15],[-49,-117],[99,-46]],[[18919,22622],[0,-15]],[[18919,22607],[-109,0]],[[18810,22607],[-4,0],[-18,0],[-5,0],[-13,0],[-131,178]],[[17982,22792],[248,-190]],[[18230,22602],[-230,0]],[[18000,22602],[-63,30]],[[17937,22632],[45,160]],[[18905,22963],[-4,0]],[[18901,22963],[-95,0]],[[18576,22981],[-31,104]],[[18545,23085],[243,-15]],[[17955,23230],[-54,-267]],[[17901,22963],[-113,0]],[[17788,22963],[-184,0]],[[17604,22963],[0,30]],[[17604,22993],[0,122]],[[17604,23115],[0,148]],[[17604,23263],[130,-3]],[[17734,23260],[81,-2],[-9,180],[-99,-15],[0,-104]],[[17707,23319],[-103,0]],[[17604,23319],[-50,0]],[[17554,23319],[0,241]],[[17554,23560],[333,-86]],[[17887,23474],[68,-244]],[[19243,22426],[-99,0]],[[19144,22426],[0,89],[-99,0],[0,-89]],[[19045,22426],[-221,-10]],[[18824,22416],[-14,191]],[[18919,22607],[243,0],[-5,89]],[[19157,22696],[54,0]],[[19243,22607],[99,-137],[-99,-44]],[[18820,22261],[-104,84]],[[18716,22345],[99,51]],[[18815,22396],[5,-135]],[[18261,22248],[-27,-198]],[[18234,22050],[-225,-56]],[[18009,21994],[-63,148]],[[17946,22142],[54,460]],[[18230,22602],[31,-5]],[[18261,22597],[0,-8]],[[18261,22589],[-126,-43],[32,-209]],[[18167,22337],[4,-127],[90,38]],[[17937,22963],[-36,0]],[[17955,23230],[148,0]],[[18103,23230],[194,20]],[[18297,23250],[207,-5],[41,-282]],[[18545,22963],[-234,0]],[[18311,22963],[-374,0]],[[18351,23576],[0,-168],[-99,0],[0,135]],[[18252,23543],[41,43]],[[18293,23586],[58,-10]],[[19157,22696],[-45,0]],[[19112,22696],[-27,267]],[[17946,22142],[-131,-64],[-54,463],[104,33]],[[17865,22574],[72,58]],[[18392,22337],[-131,0]],[[18261,22337],[-94,0]],[[18261,22589],[140,15]],[[18401,22604],[90,0],[-68,-89]],[[18423,22515],[131,-89],[-162,-89]],[[18644,21897],[-41,255]],[[18603,22152],[162,-31]],[[18765,22121],[100,-224],[-140,0],[-81,0]],[[18293,23586],[-221,30]],[[18072,23616],[45,148]],[[18117,23764],[302,0]],[[18419,23764],[0,-89]],[[18419,23675],[-9,0]],[[18410,23675],[-117,-89]],[[17707,23319],[27,-59]],[[17604,23263],[0,8]],[[17604,23271],[0,48]],[[19369,22119],[0,-224]],[[19369,21895],[-99,0]],[[19270,21895],[4,254]],[[19274,22149],[95,0]],[[19144,22426],[-99,0]],[[18212,23347],[-131,-18],[22,-99]],[[17887,23474],[289,20]],[[18176,23494],[-14,-10]],[[18162,23484],[50,-137]],[[19369,22246],[-126,180]],[[19391,22604],[-4,-343]],[[19274,22149],[-274,15],[-185,-132]],[[18815,22032],[9,384]],[[18716,22345],[-81,170]],[[18635,22515],[-14,127],[-220,-38]],[[18261,22597],[81,89],[-31,277]],[[18545,22963],[94,-280],[131,-33],[45,-254]],[[18919,22696],[0,-74]],[[18901,22963],[18,-178],[0,-74],[0,-15]],[[18752,23408],[-99,0],[0,89]],[[18653,23497],[99,0]],[[18919,22696],[193,0]],[[17716,22012],[0,155]],[[17716,22167],[-117,130],[81,40],[-40,267]],[[17640,22604],[0,59]],[[17640,22663],[49,15]],[[17689,22678],[176,-104]],[[18009,21994],[-293,18]],[[17982,22792],[-45,171]],[[18261,22337],[0,-89]],[[18450,23586],[-36,0]],[[18414,23586],[-63,33],[59,56]],[[18419,23675],[31,0]],[[18450,23675],[0,-89]],[[18635,22515],[-212,0]],[[17716,21900],[0,112]],[[18234,22050],[171,130]],[[18405,22180],[198,-28]],[[18644,21897],[-306,0],[-194,0],[-99,3],[-189,0],[-140,0]],[[18392,22337],[85,-89],[-72,-68]],[[18820,22261],[-55,-140]],[[18212,23347],[85,-97]],[[19270,21895],[-162,2],[-194,0],[-99,135]],[[18653,23497],[-185,0]],[[18468,23497],[-18,89]],[[18450,23675],[68,0]],[[18518,23675],[202,0]],[[18720,23675],[32,-3]],[[18468,23497],[-18,-178],[-238,43]],[[18212,23362],[-50,122]],[[18176,23494],[76,49]],[[18351,23576],[63,10]],[[18752,23319],[-248,-69]],[[18504,23250],[-175,-10],[-117,122]],[[18545,23085],[-41,165]],[[19531,21895],[-117,0],[-45,0]],[[17279,22963],[-81,-79],[81,-221]],[[17279,22663],[-81,-61]],[[17198,22602],[-225,89]],[[16973,22691],[14,135],[-113,43]],[[16874,22869],[36,94]],[[16910,22963],[0,58]],[[16910,23021],[428,-28]],[[17338,22993],[-59,-30]],[[16410,22243],[0,262],[-99,5]],[[16311,22510],[0,92]],[[16311,22602],[153,0]],[[16464,22602],[293,0]],[[16757,22602],[113,0]],[[16870,22602],[49,0]],[[16919,22602],[72,0],[5,-356]],[[16996,22246],[-54,-3]],[[16942,22243],[-194,0]],[[16748,22243],[-293,0]],[[16455,22243],[-45,0]],[[16266,22780],[-144,-59]],[[16122,22721],[0,600]],[[16122,23321],[297,-2]],[[16419,23319],[0,-359]],[[16419,22960],[-153,0],[0,-180]],[[16757,22602],[0,274]],[[16757,22876],[0,87],[153,0]],[[16874,22869],[-4,-267]],[[16748,22243],[0,-343]],[[16748,21900],[-261,0],[-32,0]],[[16455,21900],[0,343]],[[17604,23271],[-50,48]],[[17324,23502],[-27,-338]],[[17297,23164],[-72,15]],[[17225,23179],[-9,348]],[[17216,23527],[108,-25]],[[16464,22922],[-45,38]],[[16419,23319],[5,0]],[[16424,23319],[437,0]],[[16861,23319],[49,-81]],[[16910,23238],[0,-217]],[[16757,22876],[-293,46]],[[17347,22706],[-68,-43]],[[17279,22963],[68,-257]],[[17689,22678],[108,125],[-9,160]],[[16311,22510],[-189,0]],[[16122,22510],[0,104],[0,107]],[[16266,22780],[45,-178]],[[16861,23581],[0,-262]],[[16424,23319],[31,191],[135,48]],[[16590,23558],[271,23]],[[17604,23115],[-307,49]],[[17324,23502],[230,58]],[[17640,22663],[-36,300]],[[17036,21900],[0,346]],[[17036,22246],[153,0]],[[17189,22246],[99,0]],[[17288,22246],[428,-79]],[[17716,21900],[-441,0],[-239,0]],[[16861,23581],[9,94],[234,0]],[[17104,23675],[112,-3],[0,130]],[[17216,23802],[289,-117],[-176,-94],[40,-79],[-153,15]],[[17225,23179],[-315,59]],[[17347,22706],[31,-30]],[[17378,22676],[100,27],[-5,-101]],[[17473,22602],[-185,0]],[[17288,22602],[-90,0]],[[17604,22993],[-199,0]],[[17405,22993],[-67,0]],[[16410,22243],[-288,0]],[[16122,22243],[0,267]],[[16464,22602],[0,320]],[[17288,22246],[0,267]],[[17288,22513],[0,89]],[[17473,22602],[167,2]],[[17036,22246],[-40,0]],[[16919,22602],[54,89]],[[17288,22513],[-99,-3],[0,-264]],[[17036,21900],[-54,0],[-40,0]],[[16942,21900],[0,343]],[[16455,21900],[-283,0],[-50,0],[0,343]],[[17378,22676],[27,317]],[[16942,21900],[-104,0],[-90,0]],[[18432,24120],[-94,-13],[45,-76],[-99,-89]],[[18284,23942],[-81,0]],[[18203,23942],[-118,89]],[[18085,24031],[-22,30]],[[18063,24061],[18,59]],[[18081,24120],[99,119]],[[18180,24239],[203,13]],[[18383,24252],[36,-28]],[[18419,24224],[13,-104]],[[18401,24389],[-18,-137]],[[18180,24239],[-72,150]],[[18108,24389],[122,16]],[[18230,24405],[171,-16]],[[18261,24438],[-31,-18]],[[18230,24420],[0,28]],[[18230,24448],[31,-10]],[[19189,23881],[-68,-209]],[[19022,23672],[0,359]],[[19022,24031],[68,30]],[[18383,25033],[-68,-168]],[[18315,24865],[-54,0]],[[18261,24865],[-153,61],[0,107]],[[18108,25033],[275,0]],[[18923,24031],[-4,-89]],[[18919,23942],[-99,0]],[[18820,23942],[0,89]],[[18820,24031],[103,0]],[[18549,24389],[0,89],[-99,0]],[[18450,24478],[0,105]],[[18450,24583],[18,73]],[[18468,24656],[99,0]],[[18567,24656],[189,-89],[0,89]],[[18756,24656],[82,0]],[[18856,24656],[-68,-267]],[[18788,24389],[-239,0]],[[18419,23764],[13,89]],[[18432,23853],[86,0]],[[18518,23853],[0,-178]],[[17577,24298],[0,91]],[[17577,24389],[162,0]],[[17739,24389],[99,0]],[[17838,24389],[202,0],[0,89]],[[18040,24478],[190,-30]],[[18230,24420],[0,-15]],[[18108,24389],[-77,-91]],[[18031,24298],[-49,-178]],[[17982,24120],[-104,2]],[[17878,24122],[-99,44]],[[17779,24166],[0,132],[-202,0]],[[17293,24748],[99,89]],[[17392,24837],[104,18],[54,178]],[[17550,25033],[148,0]],[[17698,25033],[0,-107]],[[17698,24926],[0,-30]],[[17698,24896],[-99,-148],[-167,0]],[[17432,24748],[-139,0]],[[18081,24120],[-50,178]],[[18820,23853],[0,-181]],[[18720,23675],[0,178]],[[18720,23853],[100,0]],[[17838,24389],[81,89]],[[17919,24478],[121,0]],[[17027,24748],[-45,89]],[[16982,24837],[5,196]],[[16987,25033],[202,0]],[[17189,25033],[-67,-48],[67,-59]],[[17189,24926],[0,-178]],[[17189,24748],[-162,0]],[[16825,24659],[-104,0]],[[16721,24659],[-99,0]],[[16622,24659],[-45,374]],[[16577,25033],[306,0]],[[16883,25033],[0,-193],[99,-3]],[[17027,24748],[0,-89]],[[17027,24659],[-103,0]],[[16924,24659],[-99,0]],[[18500,24389],[-50,0]],[[18450,24389],[0,89]],[[18549,24389],[-49,0]],[[18063,24061],[-86,0]],[[17977,24061],[5,59]],[[17739,24389],[0,181]],[[17739,24570],[99,74]],[[17838,24644],[54,-74]],[[17892,24570],[27,-92]],[[18117,23853],[-50,0]],[[18067,23853],[18,178]],[[18203,23942],[-86,-89]],[[18919,23680],[0,262]],[[18923,24031],[99,0]],[[17392,24837],[-68,89]],[[17324,24926],[68,107]],[[17392,25033],[158,0]],[[18261,24438],[-31,10]],[[17892,24570],[49,0]],[[17941,24570],[406,13]],[[18347,24583],[103,0]],[[18450,24389],[-49,0]],[[18585,24209],[-85,180]],[[18788,24389],[0,-91]],[[18788,24298],[0,-178],[-203,0]],[[18585,24120],[0,89]],[[18820,24031],[-235,0]],[[18585,24031],[0,89]],[[18788,24298],[284,0],[18,-97]],[[17739,24570],[-203,-3]],[[17536,24567],[-104,181]],[[17698,24896],[140,-151]],[[17838,24745],[0,-101]],[[18820,23853],[0,89]],[[18756,24656],[-94,46]],[[18662,24702],[-27,43]],[[18635,24745],[4,23]],[[17941,24570],[0,89],[203,-3],[0,89]],[[18144,24745],[203,0],[0,-162]],[[17293,24748],[-104,0]],[[17189,24926],[135,0]],[[17041,24567],[-117,-27],[0,119]],[[17027,24659],[14,-92]],[[17815,23853],[-31,89]],[[17784,23942],[94,180]],[[17977,24061],[-162,-208]],[[17104,23675],[0,89]],[[17104,23764],[0,239],[112,28]],[[17216,24031],[54,-46],[-90,-56],[36,-127]],[[18117,23764],[0,89]],[[18284,23942],[148,-89]],[[18144,24745],[117,120]],[[18315,24865],[153,-89]],[[18468,24776],[0,-120]],[[17838,24745],[67,3],[0,178]],[[17905,24926],[99,0],[5,107]],[[18009,25033],[99,0]],[[18662,24702],[-95,-46]],[[18468,24776],[99,58]],[[18567,24834],[68,-89]],[[17176,24117],[315,3]],[[17491,24120],[-77,-142]],[[17414,23978],[-18,-212],[-148,46],[63,224],[-135,81]],[[16883,25033],[104,0]],[[18585,24209],[-135,-89]],[[18450,24120],[-18,0]],[[18419,24224],[31,165]],[[17577,24298],[-104,0],[5,91],[99,0]],[[17815,23853],[-31,0]],[[17784,23853],[-288,0]],[[17496,23853],[-82,125]],[[17491,24120],[167,0]],[[17658,24120],[126,-178]],[[17658,24120],[4,135],[117,-89]],[[17189,25033],[203,0]],[[17536,24567],[-410,3]],[[17126,24570],[-85,-3]],[[17784,23853],[-68,-181],[99,0],[68,181],[184,0]],[[18072,23616],[-297,-81],[-243,87],[81,109],[-90,2],[-27,120]],[[17171,24298],[0,91],[203,0],[0,-86],[-203,-5]],[[18518,23853],[202,0]],[[18518,24031],[0,-178]],[[18450,24120],[68,-89]],[[17905,24926],[-207,0]],[[17698,25033],[311,0]],[[18567,24834],[-40,199]],[[18527,25033],[401,0]],[[17072,24163],[0,226]],[[17072,24389],[54,89]],[[17126,24478],[0,92]],[[17176,24117],[-104,46]],[[18585,24031],[-67,0]],[[18383,25033],[144,0]],[[17072,24389],[-45,89],[99,0]],[[16721,24570],[0,89]],[[16825,24659],[0,-89],[-104,0]],[[16770,24211],[0,-66]],[[16770,24145],[-207,-119],[-90,135],[-157,-87],[-41,-15],[23,-71],[-176,17],[0,402],[0,13]],[[16122,24420],[194,58]],[[16316,24478],[135,3]],[[16451,24481],[171,-3]],[[16622,24478],[0,-89]],[[16622,24389],[-54,-89]],[[16568,24300],[0,-86],[202,-3]],[[16451,24481],[-36,89],[103,0],[0,89]],[[16518,24659],[104,0]],[[16721,24570],[-99,-92]],[[16514,23764],[36,-178]],[[16550,23586],[-234,183],[0,234]],[[16316,24003],[162,142],[36,-142]],[[16514,24003],[18,-150]],[[16532,23853],[-18,-89]],[[16316,24659],[-194,0]],[[16122,24659],[0,76],[0,191]],[[16122,24926],[248,0],[0,107]],[[16370,25033],[207,0]],[[16518,24659],[-202,0]],[[16532,23853],[85,-89],[-103,0]],[[16126,23812],[-4,191],[68,-112],[-64,-79]],[[16122,23321],[0,69],[0,287],[0,84],[4,31],[0,15],[46,186],[144,10]],[[16550,23586],[40,-28]],[[16568,24300],[202,0],[0,-89]],[[16122,24926],[0,107],[248,0]],[[16122,24420],[0,239]],[[16316,24659],[0,-181]],[[17104,23764],[-185,89],[50,275]],[[16969,24128],[247,-97]],[[16622,24389],[248,0],[0,-223]],[[16870,24166],[-100,-21]],[[17072,24163],[-202,3]],[[16514,24003],[455,125]]]}