{"type":"Topology","transform":{"scale":[0.0012831345112129487,0.0009745357309423489],"translate":[-124.73273099999999,24.60334863324381]},"objects":{"area":{"type":"GeometryCollection","geometries":[{"arcs":[[0,1,2,3]],"type":"Polygon","properties":{"state":"NE","name":"ABIE","zip":"68001"}},{"arcs":[[4,5,6,7,8,9,10,11]],"type":"Polygon","properties":{"state":"NE","name":"ARLINGTON","zip":"68002"}},{"arcs":[[12,13,14,15,16,17,18,19,20,21,22]],"type":"Polygon","properties":{"state":"NE","name":"ASHLAND","zip":"68003"}},{"arcs":[[23,24,25,26,27,28,29]],"type":"Polygon","properties":{"state":"NE","name":"BANCROFT","zip":"68004"}},{"arcs":[[30,31,32,33]],"type":"Polygon","properties":{"state":"NE","name":"BELLEVUE","zip":"68005"}},{"arcs":[[34,35,36,37,-12,38,39]],"type":"Polygon","properties":{"state":"NE","name":"BENNINGTON","zip":"68007"}},{"arcs":[[40,41,-40,42,-10,43,44,45]],"type":"Polygon","properties":{"state":"NE","name":"BLAIR","zip":"68008"}},{"arcs":[[46,47,-1,48,49]],"type":"Polygon","properties":{"state":"NE","name":"BRUNO","zip":"68014"}},{"arcs":[[50,51,52,53,54,55]],"type":"Polygon","properties":{"state":"NE","name":"CEDAR BLUFFS","zip":"68015"}},{"arcs":[[56,57,58,59,60,-18,61,62,63]],"type":"Polygon","properties":{"state":"NE","name":"CERESCO","zip":"68017"}},{"arcs":[[64,65,-55,66,67]],"type":"Polygon","properties":{"state":"NE","name":"COLON","zip":"68018"}},{"arcs":[[68,69,70,71]],"type":"Polygon","properties":{"state":"NE","name":"CRAIG","zip":"68019"}},{"arcs":[[[72,73,74,75,76]],[[77]]],"type":"MultiPolygon","properties":{"state":"NE","name":"DECATUR","zip":"68020"}},{"arcs":[[78,79,80,81,-37,82,83,84]],"type":"Polygon","properties":{"state":"NE","name":"ELKHORN","zip":"68022"}},{"arcs":[[85,-41,86,87,88,89]],"type":"Polygon","properties":{"state":"NE","name":"FORT CALHOUN","zip":"68023"}},{"arcs":[[90,91,92,-67,-54,93,94,95,96,-6]],"type":"Polygon","properties":{"state":"NE","name":"FREMONT","zip":"68025"}},{"arcs":[[97,-80,98,99,100,101,-23]],"type":"Polygon","properties":{"state":"NE","name":"GRETNA","zip":"68028"}},{"arcs":[[102,-70,103,-44,-9]],"type":"Polygon","properties":{"state":"NE","name":"HERMAN","zip":"68029"}},{"arcs":[[104,105,106,107]],"type":"Polygon","properties":{"state":"NE","name":"HOMER","zip":"68030"}},{"arcs":[[108,109,110,111,-71,-103,-8]],"type":"Polygon","properties":{"state":"NE","name":"HOOPER","zip":"68031"}},{"arcs":[[112,113,114,-20]],"type":"Polygon","properties":{"state":"NE","name":"ITHACA","zip":"68033"}},{"arcs":[[-11,-43,-39]],"type":"Polygon","properties":{"state":"NE","name":"KENNARD","zip":"68034"}},{"arcs":[[115,-3,116,117,118,119]],"type":"Polygon","properties":{"state":"NE","name":"LINWOOD","zip":"68036"}},{"arcs":[[120,121,-14,122,123]],"type":"Polygon","properties":{"state":"NE","name":"LOUISVILLE","zip":"68037"}},{"arcs":[[124,-30,125,-74]],"type":"Polygon","properties":{"state":"NE","name":"LYONS","zip":"68038"}},{"arcs":[[126,127,128,129,-76]],"type":"Polygon","properties":{"state":"NE","name":"MACY","zip":"68039"}},{"arcs":[[130,131,-56,-66,132,133]],"type":"Polygon","properties":{"state":"NE","name":"MALMO","zip":"68040"}},{"arcs":[[134,-114,135,-68,-93]],"type":"Polygon","properties":{"state":"NE","name":"MEAD","zip":"68041"}},{"arcs":[[-109,-7,-97]],"type":"Polygon","properties":{"state":"NE","name":"NICKERSON","zip":"68044"}},{"arcs":[[136,-24,-125,137,-72,-112]],"type":"Polygon","properties":{"state":"NE","name":"OAKLAND","zip":"68045"}},{"arcs":[[138,139,140,141,142]],"type":"Polygon","properties":{"state":"NE","name":"PAPILLION","zip":"68046"}},{"arcs":[[143,-28,144,145,146,147,148]],"type":"Polygon","properties":{"state":"NE","name":"PENDER","zip":"68047"}},{"arcs":[[149,150,-124,151,152,153,154,155]],"type":"Polygon","properties":{"state":"NE","name":"PLATTSMOUTH","zip":"68048"}},{"arcs":[[156,-49,-4,-116,157,-131]],"type":"Polygon","properties":{"state":"NE","name":"PRAGUE","zip":"68050"}},{"arcs":[[-126,-29,-144,158,-127,-75]],"type":"Polygon","properties":{"state":"NE","name":"ROSALIE","zip":"68055"}},{"arcs":[[-96,159,160,161,-110]],"type":"Polygon","properties":{"state":"NE","name":"SCRIBNER","zip":"68057"}},{"arcs":[[162,-140,163,-152,-123,-13,-102]],"type":"Polygon","properties":{"state":"NE","name":"SPRINGFIELD","zip":"68059"}},{"arcs":[[[-138,-73,164,-45,-104,-69]],[[165]]],"type":"MultiPolygon","properties":{"state":"NE","name":"TEKAMAH","zip":"68061"}},{"arcs":[[166,-148,167,168,169]],"type":"Polygon","properties":{"state":"NE","name":"THURSTON","zip":"68062"}},{"arcs":[[170,171,-91,-5,-38,-82]],"type":"Polygon","properties":{"state":"NE","name":"VALLEY","zip":"68064"}},{"arcs":[[172,173,174,175,176,-59]],"type":"Polygon","properties":{"state":"NE","name":"VALPARAISO","zip":"68065"}},{"arcs":[[177,-133,-65,-136,-113,-19,-61]],"type":"Polygon","properties":{"state":"NE","name":"WAHOO","zip":"68066"}},{"arcs":[[-159,-149,-167,178,-128]],"type":"Polygon","properties":{"state":"NE","name":"WALTHILL","zip":"68067"}},{"arcs":[[-22,179,-171,-81,-98]],"type":"Polygon","properties":{"state":"NE","name":"WATERLOO","zip":"68069"}},{"arcs":[[-60,-177,180,-50,-157,-134,-178]],"type":"Polygon","properties":{"state":"NE","name":"WESTON","zip":"68070"}},{"arcs":[[-129,-179,-170,181,182,-105,183]],"type":"Polygon","properties":{"state":"NE","name":"WINNEBAGO","zip":"68071"}},{"arcs":[[-21,-115,-135,-92,-172,-180]],"type":"Polygon","properties":{"state":"NE","name":"YUTAN","zip":"68073"}},{"arcs":[[184,185,186,187,188]],"type":"Polygon","properties":{"state":"NE","name":"OMAHA","zip":"68102"}},{"arcs":[[189,190,191,192,193]],"type":"Polygon","properties":{"state":"NE","name":"OMAHA","zip":"68104"}},{"arcs":[[194,195,196,197,-185]],"type":"Polygon","properties":{"state":"NE","name":"OMAHA","zip":"68105"}},{"arcs":[[198,199,200,201,202,-197]],"type":"Polygon","properties":{"state":"NE","name":"OMAHA","zip":"68106"}},{"arcs":[[203,204,-196,205,206,-32]],"type":"Polygon","properties":{"state":"NE","name":"OMAHA","zip":"68107"}},{"arcs":[[-189,207,-206,-195]],"type":"Polygon","properties":{"state":"NE","name":"OMAHA","zip":"68108"}},{"arcs":[[208,209,210,-187]],"type":"Polygon","properties":{"state":"NE","name":"OMAHA","zip":"68110"}},{"arcs":[[211,-190,212,-209]],"type":"Polygon","properties":{"state":"NE","name":"OMAHA","zip":"68111"}},{"arcs":[[213,-88,214,-210,-213]],"type":"Polygon","properties":{"state":"NE","name":"OMAHA","zip":"68112"}},{"arcs":[[215,216,217,218,-192,219,-201]],"type":"Polygon","properties":{"state":"NE","name":"OMAHA","zip":"68114"}},{"arcs":[[220,221,-83,-36,222]],"type":"Polygon","properties":{"state":"NE","name":"OMAHA","zip":"68116"}},{"arcs":[[223,-199,-205,224,225]],"type":"Polygon","properties":{"state":"NE","name":"OMAHA","zip":"68117"}},{"arcs":[[226,227,-84,-222,228]],"type":"Polygon","properties":{"state":"NE","name":"OMAHA","zip":"68118"}},{"arcs":[[229,230,-90,231,232]],"type":"Polygon","properties":{"state":"NE","name":"OMAHA","zip":"68122"}},{"arcs":[[233,234,235,-34,236,-154]],"type":"Polygon","properties":{"state":"NE","name":"BELLEVUE","zip":"68123"}},{"arcs":[[237,238,-216,-200]],"type":"Polygon","properties":{"state":"NE","name":"OMAHA","zip":"68124"}},{"arcs":[[239,240,-238,-224]],"type":"Polygon","properties":{"state":"NE","name":"OMAHA","zip":"68127"}},{"arcs":[[241,-142,242,243,-240,-226]],"type":"Polygon","properties":{"state":"NE","name":"LA VISTA","zip":"68128"}},{"arcs":[[244,245,-85,-228]],"type":"Polygon","properties":{"state":"NE","name":"OMAHA","zip":"68130"}},{"arcs":[[-203,246,-212,-186,-198]],"type":"Polygon","properties":{"state":"NE","name":"OMAHA","zip":"68131"}},{"arcs":[[-220,-191,-247,-202]],"type":"Polygon","properties":{"state":"NE","name":"OMAHA","zip":"68132"}},{"arcs":[[-153,-164,-139,247,-234]],"type":"Polygon","properties":{"state":"NE","name":"PAPILLION","zip":"68133"}},{"arcs":[[-219,248,-233,249,-193]],"type":"Polygon","properties":{"state":"NE","name":"OMAHA","zip":"68134"}},{"arcs":[[-79,-246,250,251,-99]],"type":"Polygon","properties":{"state":"NE","name":"OMAHA","zip":"68135"}},{"arcs":[[-252,252,-100]],"type":"Polygon","properties":{"state":"NE","name":"OMAHA","zip":"68136"}},{"arcs":[[253,-251,254,-241,-244]],"type":"Polygon","properties":{"state":"NE","name":"OMAHA","zip":"68137"}},{"arcs":[[-163,-101,-253,-254,-243,-141]],"type":"Polygon","properties":{"state":"NE","name":"OMAHA","zip":"68138"}},{"arcs":[[-42,-86,-231,255,-35]],"type":"Polygon","properties":{"state":"NE","name":"OMAHA","zip":"68142"}},{"arcs":[[-255,-245,-227,256,-239]],"type":"Polygon","properties":{"state":"NE","name":"OMAHA","zip":"68144"}},{"arcs":[[257,-204,-31,-236]],"type":"Polygon","properties":{"state":"NE","name":"BELLEVUE","zip":"68147"}},{"arcs":[[-194,-250,-232,-89,-214]],"type":"Polygon","properties":{"state":"NE","name":"OMAHA","zip":"68152"}},{"arcs":[[-229,-221,258,-217,-257]],"type":"Polygon","properties":{"state":"NE","name":"OMAHA","zip":"68154"}},{"arcs":[[-248,-143,-242,-225,-258,-235]],"type":"Polygon","properties":{"state":"NE","name":"OMAHA","zip":"68157"}},{"arcs":[[-259,-223,-256,-230,-249,-218]],"type":"Polygon","properties":{"state":"NE","name":"OMAHA","zip":"68164"}},{"arcs":[[259,260,261,262,263,264,265,266]],"type":"Polygon","properties":{"state":"NE","name":"ADAMS","zip":"68301"}},{"arcs":[[267,268,269,270,271,272]],"type":"Polygon","properties":{"state":"NE","name":"ALEXANDRIA","zip":"68303"}},{"arcs":[[273,274,275,276,277,278]],"type":"Polygon","properties":{"state":"NE","name":"ALVO","zip":"68304"}},{"arcs":[[279,280,281,282,283,284,285]],"type":"Polygon","properties":{"state":"NE","name":"AUBURN","zip":"68305"}},{"arcs":[[286,287,288,289]],"type":"Polygon","properties":{"state":"NE","name":"AVOCA","zip":"68307"}},{"arcs":[[290,291,292,293,294,295,296,297,298]],"type":"Polygon","properties":{"state":"NE","name":"BEATRICE","zip":"68310"}},{"arcs":[[299,300,301,302,303,304]],"type":"Polygon","properties":{"state":"NE","name":"BEAVER CROSSING","zip":"68313"}},{"arcs":[[305,306,307,308]],"type":"Polygon","properties":{"state":"NE","name":"BEE","zip":"68314"}},{"arcs":[[309,310,311,312,-270]],"type":"Polygon","properties":{"state":"NE","name":"BELVIDERE","zip":"68315"}},{"arcs":[[313,314,315,316,317,318]],"type":"Polygon","properties":{"state":"NE","name":"BENEDICT","zip":"68316"}},{"arcs":[[319,320,321,322,323,324,325,-263]],"type":"Polygon","properties":{"state":"NE","name":"BENNET","zip":"68317"}},{"arcs":[[326,-291,327,328,329]],"type":"Polygon","properties":{"state":"NE","name":"BLUE SPRINGS","zip":"68318"}},{"arcs":[[330,331,332,333,334,-314]],"type":"Polygon","properties":{"state":"NE","name":"BRADSHAW","zip":"68319"}},{"arcs":[[335,336,337,338,339,-285]],"type":"Polygon","properties":{"state":"NE","name":"BROCK","zip":"68320"}},{"arcs":[[[340,341,342,-286]],[[343]]],"type":"MultiPolygon","properties":{"state":"NE","name":"BROWNVILLE","zip":"68321"}},{"arcs":[[344,345,346,-271,-313]],"type":"Polygon","properties":{"state":"NE","name":"BRUNING","zip":"68322"}},{"arcs":[[347,348,349,350,351]],"type":"Polygon","properties":{"state":"NE","name":"BURCHARD","zip":"68323"}},{"arcs":[[352,353,354,355,356,357]],"type":"Polygon","properties":{"state":"NE","name":"BURR","zip":"68324"}},{"arcs":[[358,359,360,361]],"type":"Polygon","properties":{"state":"NE","name":"BYRON","zip":"68325"}},{"arcs":[[362,363,364,-345,-312]],"type":"Polygon","properties":{"state":"NE","name":"CARLETON","zip":"68326"}},{"arcs":[[365,366,-361,367,368]],"type":"Polygon","properties":{"state":"NE","name":"CHESTER","zip":"68327"}},{"arcs":[[369,370,371,372,373,374]],"type":"Polygon","properties":{"state":"NE","name":"CLATONIA","zip":"68328"}},{"arcs":[[375,376,-353,377,-337]],"type":"Polygon","properties":{"state":"NE","name":"COOK","zip":"68329"}},{"arcs":[[378,379,380,-305]],"type":"Polygon","properties":{"state":"NE","name":"CORDOVA","zip":"68330"}},{"arcs":[[381,382,383,-261,384,-370]],"type":"Polygon","properties":{"state":"NE","name":"CORTLAND","zip":"68331"}},{"arcs":[[385,386,-266,387]],"type":"Polygon","properties":{"state":"NE","name":"CRAB ORCHARD","zip":"68332"}},{"arcs":[[388,389,390,391,392,393,-374]],"type":"Polygon","properties":{"state":"NE","name":"CRETE","zip":"68333"}},{"arcs":[[394,395,396,-364]],"type":"Polygon","properties":{"state":"NE","name":"DAVENPORT","zip":"68335"}},{"arcs":[[397,398,-57,399]],"type":"Polygon","properties":{"state":"NE","name":"DAVEY","zip":"68336"}},{"arcs":[[400,401]],"type":"Polygon","properties":{"state":"NE","name":"DAWSON","zip":"68337"}},{"arcs":[[402,403,-273]],"type":"Polygon","properties":{"state":"NE","name":"DAYKIN","zip":"68338"}},{"arcs":[[404,405,406,407,408,409,410,-393]],"type":"Polygon","properties":{"state":"NE","name":"DENTON","zip":"68339"}},{"arcs":[[-360,411,412,-368]],"type":"Polygon","properties":{"state":"NE","name":"DESHLER","zip":"68340"}},{"arcs":[[413,414,-372,415,-296,416]],"type":"Polygon","properties":{"state":"NE","name":"DE WITT","zip":"68341"}},{"arcs":[[417,418,419,420,421,422,-293]],"type":"Polygon","properties":{"state":"NE","name":"DILLER","zip":"68342"}},{"arcs":[[423,424,-391]],"type":"Polygon","properties":{"state":"NE","name":"DORCHESTER","zip":"68343"}},{"arcs":[[425,-326,426,-355]],"type":"Polygon","properties":{"state":"NE","name":"DOUGLAS","zip":"68344"}},{"arcs":[[427,428,429]],"type":"Polygon","properties":{"state":"NE","name":"DU BOIS","zip":"68345"}},{"arcs":[[430,431,432,433]],"type":"Polygon","properties":{"state":"NE","name":"DUNBAR","zip":"68346"}},{"arcs":[[434,435,436,437,438,-274,439]],"type":"Polygon","properties":{"state":"NE","name":"EAGLE","zip":"68347"}},{"arcs":[[440,441,442,-283]],"type":"Polygon","properties":{"state":"NE","name":"ELK CREEK","zip":"68348"}},{"arcs":[[-279,443,444,-288,445,-440]],"type":"Polygon","properties":{"state":"NE","name":"ELMWOOD","zip":"68349"}},{"arcs":[[446,447,448,-421]],"type":"Polygon","properties":{"state":"NE","name":"ENDICOTT","zip":"68350"}},{"arcs":[[449,450,451,452,453]],"type":"Polygon","properties":{"state":"NE","name":"EXETER","zip":"68351"}},{"arcs":[[-449,454,455,456,457,-268,-404,458,459,460,-422]],"type":"Polygon","properties":{"state":"NE","name":"FAIRBURY","zip":"68352"}},{"arcs":[[461,462,463,-453]],"type":"Polygon","properties":{"state":"NE","name":"FAIRMONT","zip":"68354"}},{"arcs":[[464,465,466,467,468,469,470]],"type":"Polygon","properties":{"state":"NE","name":"FALLS CITY","zip":"68355"}},{"arcs":[[471,-298,472,-267,-387]],"type":"Polygon","properties":{"state":"NE","name":"FILLEY","zip":"68357"}},{"arcs":[[473,474,-320,-262,-384]],"type":"Polygon","properties":{"state":"NE","name":"FIRTH","zip":"68358"}},{"arcs":[[475,476,-450,-380,477,-424,-390]],"type":"Polygon","properties":{"state":"NE","name":"FRIEND","zip":"68359"}},{"arcs":[[478,-306,479,-174,480,481,482]],"type":"Polygon","properties":{"state":"NE","name":"GARLAND","zip":"68360"}},{"arcs":[[483,484,485,-462,-452,486,487,488]],"type":"Polygon","properties":{"state":"NE","name":"GENEVA","zip":"68361"}},{"arcs":[[489,490,-310,-269,-458]],"type":"Polygon","properties":{"state":"NE","name":"GILEAD","zip":"68362"}},{"arcs":[[491,492,-303,493]],"type":"Polygon","properties":{"state":"NE","name":"GOEHNER","zip":"68364"}},{"arcs":[[-486,494,495,496,-463]],"type":"Polygon","properties":{"state":"NE","name":"GRAFTON","zip":"68365"}},{"arcs":[[497,-16,498,-277]],"type":"Polygon","properties":{"state":"NE","name":"GREENWOOD","zip":"68366"}},{"arcs":[[499,500,501,502,503,-317]],"type":"Polygon","properties":{"state":"NE","name":"GRESHAM","zip":"68367"}},{"arcs":[[-375,-394,-411,504,-382]],"type":"Polygon","properties":{"state":"NE","name":"HALLAM","zip":"68368"}},{"arcs":[[505,-369,-413,506,-395,-363,-311,-491]],"type":"Polygon","properties":{"state":"NE","name":"HEBRON","zip":"68370"}},{"arcs":[[507,508,509,-332,510,511,-496]],"type":"Polygon","properties":{"state":"NE","name":"HENDERSON","zip":"68371"}},{"arcs":[[-475,512,513,-321]],"type":"Polygon","properties":{"state":"NE","name":"HICKMAN","zip":"68372"}},{"arcs":[[514,515,-366,-506,-490,-457]],"type":"Polygon","properties":{"state":"NE","name":"HUBBELL","zip":"68375"}},{"arcs":[[516,517,-281,518,-401,519,520,-429]],"type":"Polygon","properties":{"state":"NE","name":"HUMBOLDT","zip":"68376"}},{"arcs":[[-461,521,-294,-423]],"type":"Polygon","properties":{"state":"NE","name":"JANSEN","zip":"68377"}},{"arcs":[[522,-336,-284]],"type":"Polygon","properties":{"state":"NE","name":"JOHNSON","zip":"68378"}},{"arcs":[[523,524,-386,525,-351]],"type":"Polygon","properties":{"state":"NE","name":"LEWISTON","zip":"68380"}},{"arcs":[[526,-329,527,-524,-350,528]],"type":"Polygon","properties":{"state":"NE","name":"LIBERTY","zip":"68381"}},{"arcs":[[-512,529,-464,-497]],"type":"Polygon","properties":{"state":"NE","name":"MC COOL JUNCTION","zip":"68401"}},{"arcs":[[530,-482,531]],"type":"Polygon","properties":{"state":"NE","name":"MALCOLM","zip":"68402"}},{"arcs":[[-383,-505,-410,532,533,-513,-474]],"type":"Polygon","properties":{"state":"NE","name":"MARTELL","zip":"68404"}},{"arcs":[[-478,-379,-304,-493,534,535,-405,-392,-425]],"type":"Polygon","properties":{"state":"NE","name":"MILFORD","zip":"68405"}},{"arcs":[[536,537,-487,-451]],"type":"Polygon","properties":{"state":"NE","name":"MILLIGAN","zip":"68406"}},{"arcs":[[-499,-15,-122,538,-444,-278]],"type":"Polygon","properties":{"state":"NE","name":"MURDOCK","zip":"68407"}},{"arcs":[[539,540,-150,541]],"type":"Polygon","properties":{"state":"NE","name":"MURRAY","zip":"68409"}},{"arcs":[[542,-339,543,-431,544,545,546,547]],"type":"Polygon","properties":{"state":"NE","name":"NEBRASKA CITY","zip":"68410"}},{"arcs":[[-290,548,-540,549,-546]],"type":"Polygon","properties":{"state":"NE","name":"NEHAWKA","zip":"68413"}},{"arcs":[[550,551,-280,-343,552,-468]],"type":"Polygon","properties":{"state":"NE","name":"NEMAHA","zip":"68414"}},{"arcs":[[-292,-327,553,554,-418]],"type":"Polygon","properties":{"state":"NE","name":"ODELL","zip":"68415"}},{"arcs":[[555,-272,556,-538]],"type":"Polygon","properties":{"state":"NE","name":"OHIOWA","zip":"68416"}},{"arcs":[[557,558,-287,-545,-434]],"type":"Polygon","properties":{"state":"NE","name":"OTOE","zip":"68417"}},{"arcs":[[559,-427,-325,560,-436]],"type":"Polygon","properties":{"state":"NE","name":"PALMYRA","zip":"68418"}},{"arcs":[[561,562,-517,-428,563,-348]],"type":"Polygon","properties":{"state":"NE","name":"PAWNEE CITY","zip":"68420"}},{"arcs":[[[564]],[[-341,-340,-543,565]]],"type":"MultiPolygon","properties":{"state":"NE","name":"PERU","zip":"68421"}},{"arcs":[[-473,-297,-416,-371,-385,-260]],"type":"Polygon","properties":{"state":"NE","name":"PICKRELL","zip":"68422"}},{"arcs":[[566,-406,-536,567,-483,568,569]],"type":"Polygon","properties":{"state":"NE","name":"PLEASANT DALE","zip":"68423"}},{"arcs":[[-522,-460,570,-417,-295]],"type":"Polygon","properties":{"state":"NE","name":"PLYMOUTH","zip":"68424"}},{"arcs":[[571,-532,-481,-173,-58,-399,572]],"type":"Polygon","properties":{"state":"NE","name":"RAYMOND","zip":"68428"}},{"arcs":[[573,-515,-456]],"type":"Polygon","properties":{"state":"NE","name":"REYNOLDS","zip":"68429"}},{"arcs":[[-514,-534,574,575,576,577,-322]],"type":"Polygon","properties":{"state":"NE","name":"ROCA","zip":"68430"}},{"arcs":[[578,-470,579]],"type":"Polygon","properties":{"state":"NE","name":"RULO","zip":"68431"}},{"arcs":[[580,-520,581,-465]],"type":"Polygon","properties":{"state":"NE","name":"SALEM","zip":"68433"}},{"arcs":[[-535,-492,582,583,-307,-479,-568]],"type":"Polygon","properties":{"state":"NE","name":"SEWARD","zip":"68434"}},{"arcs":[[584,-489,585,-346,-365,-397]],"type":"Polygon","properties":{"state":"NE","name":"SHICKLEY","zip":"68436"}},{"arcs":[[586,587,-551,-467]],"type":"Polygon","properties":{"state":"NE","name":"SHUBERT","zip":"68437"}},{"arcs":[[588,-502,589,590,-308,-584]],"type":"Polygon","properties":{"state":"NE","name":"STAPLEHURST","zip":"68439"}},{"arcs":[[-420,591,-447]],"type":"Polygon","properties":{"state":"NE","name":"STEELE CITY","zip":"68440"}},{"arcs":[[-526,592,-442,593,-562,-352]],"type":"Polygon","properties":{"state":"NE","name":"STEINAUER","zip":"68441"}},{"arcs":[[594,-519,-552,-588]],"type":"Polygon","properties":{"state":"NE","name":"STELLA","zip":"68442"}},{"arcs":[[-426,-354,-377,595,-264]],"type":"Polygon","properties":{"state":"NE","name":"STERLING","zip":"68443"}},{"arcs":[[-347,-586,-488,-557]],"type":"Polygon","properties":{"state":"NE","name":"STRANG","zip":"68444"}},{"arcs":[[-571,596,597,-414]],"type":"Polygon","properties":{"state":"NE","name":"SWANTON","zip":"68445"}},{"arcs":[[598,-558,-433,-357]],"type":"Polygon","properties":{"state":"NE","name":"SYRACUSE","zip":"68446"}},{"arcs":[[-563,-594,-441,-282,-518]],"type":"Polygon","properties":{"state":"NE","name":"TABLE ROCK","zip":"68447"}},{"arcs":[[-338,-378,-358,-432,-544]],"type":"Polygon","properties":{"state":"NE","name":"TALMAGE","zip":"68448"}},{"arcs":[[-265,-596,-376,-523,-443,-593,-388]],"type":"Polygon","properties":{"state":"NE","name":"TECUMSEH","zip":"68450"}},{"arcs":[[599,600,601,-585]],"type":"Polygon","properties":{"state":"NE","name":"ONG","zip":"68452"}},{"arcs":[[602,-403,-556,-537,-477]],"type":"Polygon","properties":{"state":"NE","name":"TOBIAS","zip":"68453"}},{"arcs":[[-435,-446,-559,-599,-356,-560]],"type":"Polygon","properties":{"state":"NE","name":"UNADILLA","zip":"68454"}},{"arcs":[[-547,-550,-542,-156,603]],"type":"Polygon","properties":{"state":"NE","name":"UNION","zip":"68455"}},{"arcs":[[604,-503,-589,-583,-494,-302]],"type":"Polygon","properties":{"state":"NE","name":"UTICA","zip":"68456"}},{"arcs":[[-402,-595,-587,-466,-582]],"type":"Polygon","properties":{"state":"NE","name":"VERDON","zip":"68457"}},{"arcs":[[-328,-299,-472,-525,-528]],"type":"Polygon","properties":{"state":"NE","name":"VIRGINIA","zip":"68458"}},{"arcs":[[605,-318,-504,-605,-301]],"type":"Polygon","properties":{"state":"NE","name":"WACO","zip":"68460"}},{"arcs":[[606,607,-437,-561,-324]],"type":"Polygon","properties":{"state":"NE","name":"WALTON","zip":"68461"}},{"arcs":[[608,609,-62,-17,-498,-276]],"type":"Polygon","properties":{"state":"NE","name":"WAVERLY","zip":"68462"}},{"arcs":[[-289,-445,-539,-121,-151,-541,-549]],"type":"Polygon","properties":{"state":"NE","name":"WEEPING WATER","zip":"68463"}},{"arcs":[[-459,-603,-476,610,-597]],"type":"Polygon","properties":{"state":"NE","name":"WESTERN","zip":"68464"}},{"arcs":[[-415,-598,-611,-389,-373]],"type":"Polygon","properties":{"state":"NE","name":"WILBER","zip":"68465"}},{"arcs":[[611,-554,-330,-527]],"type":"Polygon","properties":{"state":"NE","name":"WYMORE","zip":"68466"}},{"arcs":[[-511,-331,-319,-606,-300,-381,-454,-530]],"type":"Polygon","properties":{"state":"NE","name":"YORK","zip":"68467"}},{"arcs":[[612,613,614,615,616,617]],"type":"Polygon","properties":{"state":"NE","name":"LINCOLN","zip":"68502"}},{"arcs":[[618,619,620,621]],"type":"Polygon","properties":{"state":"NE","name":"LINCOLN","zip":"68503"}},{"arcs":[[622,623,624,625,626,627,-621]],"type":"Polygon","properties":{"state":"NE","name":"LINCOLN","zip":"68504"}},{"arcs":[[628,629,630,-627,631]],"type":"Polygon","properties":{"state":"NE","name":"LINCOLN","zip":"68505"}},{"arcs":[[632,633,-613,634]],"type":"Polygon","properties":{"state":"NE","name":"LINCOLN","zip":"68506"}},{"arcs":[[635,-632,-626,636]],"type":"Polygon","properties":{"state":"NE","name":"LINCOLN","zip":"68507"}},{"arcs":[[637,-617,638,639,640,-619]],"type":"Polygon","properties":{"state":"NE","name":"LINCOLN","zip":"68508"}},{"arcs":[[-638,-622,-628,-631,641,-635,-618]],"type":"Polygon","properties":{"state":"NE","name":"LINCOLN","zip":"68510"}},{"arcs":[[642,-576,643,-615]],"type":"Polygon","properties":{"state":"NE","name":"LINCOLN","zip":"68512"}},{"arcs":[[644,-625,645,-400,-64]],"type":"Polygon","properties":{"state":"NE","name":"LINCOLN","zip":"68514"}},{"arcs":[[646,-577,-643,-614,-634]],"type":"Polygon","properties":{"state":"NE","name":"LINCOLN","zip":"68516"}},{"arcs":[[647,-637,-645,-63,-610]],"type":"Polygon","properties":{"state":"NE","name":"LINCOLN","zip":"68517"}},{"arcs":[[-642,-630,648,-438,-608,649,-633]],"type":"Polygon","properties":{"state":"NE","name":"LINCOLN","zip":"68520"}},{"arcs":[[650,651,652,-623,-620,-641]],"type":"Polygon","properties":{"state":"NE","name":"LINCOLN","zip":"68521"}},{"arcs":[[653,654,-639,-616,655,-408]],"type":"Polygon","properties":{"state":"NE","name":"LINCOLN","zip":"68522"}},{"arcs":[[-575,-533,-409,-656,-644]],"type":"Polygon","properties":{"state":"NE","name":"LINCOLN","zip":"68523"}},{"arcs":[[-531,-572,656,-652,657,-569]],"type":"Polygon","properties":{"state":"NE","name":"LINCOLN","zip":"68524"}},{"arcs":[[-647,-650,-607,-323,-578]],"type":"Polygon","properties":{"state":"NE","name":"LINCOLN","zip":"68526"}},{"arcs":[[-636,-648,-609,-275,-439,-649,-629]],"type":"Polygon","properties":{"state":"NE","name":"LINCOLN","zip":"68527"}},{"arcs":[[658,-570,-658,-651,-640,-655]],"type":"Polygon","properties":{"state":"NE","name":"LINCOLN","zip":"68528"}},{"arcs":[[-653,-657,-573,-398,-646,-624]],"type":"Polygon","properties":{"state":"NE","name":"LINCOLN","zip":"68531"}},{"arcs":[[-407,-567,-659,-654]],"type":"Polygon","properties":{"state":"NE","name":"LINCOLN","zip":"68532"}},{"arcs":[[659,660,661,662,663,664,665,666,667]],"type":"Polygon","properties":{"state":"NE","name":"COLUMBUS","zip":"68601"}},{"arcs":[[668,669,670,671,672,673,674,675,676]],"type":"Polygon","properties":{"state":"NE","name":"ALBION","zip":"68620"}},{"arcs":[[677,-94,-53]],"type":"Polygon","properties":{"state":"NE","name":"AMES","zip":"68621"}},{"arcs":[[678,679,680,681]],"type":"Polygon","properties":{"state":"NE","name":"BARTLETT","zip":"68622"}},{"arcs":[[682,683]],"type":"Polygon","properties":{"state":"NE","name":"BELGRADE","zip":"68623"}},{"arcs":[[684,685,686,-668,687]],"type":"Polygon","properties":{"state":"NE","name":"BELLWOOD","zip":"68624"}},{"arcs":[[688,689,-47,-181,-176]],"type":"Polygon","properties":{"state":"NE","name":"BRAINARD","zip":"68626"}},{"arcs":[[690,691,-677,692,-684,693]],"type":"Polygon","properties":{"state":"NE","name":"CEDAR RAPIDS","zip":"68627"}},{"arcs":[[694,695,696,697]],"type":"Polygon","properties":{"state":"NE","name":"CLARKS","zip":"68628"}},{"arcs":[[698,699,700,701]],"type":"Polygon","properties":{"state":"NE","name":"CLARKSON","zip":"68629"}},{"arcs":[[702,703,704,705,706,-665]],"type":"Polygon","properties":{"state":"NE","name":"CRESTON","zip":"68631"}},{"arcs":[[707,708,-685,709,-117,-2,-48,-690,710,-309]],"type":"Polygon","properties":{"state":"NE","name":"DAVID CITY","zip":"68632"}},{"arcs":[[711,712,713,714,715,-161]],"type":"Polygon","properties":{"state":"NE","name":"DODGE","zip":"68633"}},{"arcs":[[-711,-689,-175,-480]],"type":"Polygon","properties":{"state":"NE","name":"DWIGHT","zip":"68635"}},{"arcs":[[716,717,718,719,720,-672]],"type":"Polygon","properties":{"state":"NE","name":"ELGIN","zip":"68636"}},{"arcs":[[721,722,-679,723,724,725,726]],"type":"Polygon","properties":{"state":"NE","name":"ERICSON","zip":"68637"}},{"arcs":[[727,728,729,730,731,-694,-683,732]],"type":"Polygon","properties":{"state":"NE","name":"FULLERTON","zip":"68638"}},{"arcs":[[733,-697,-728,734,-675,735,736,737]],"type":"Polygon","properties":{"state":"NE","name":"GENOA","zip":"68640"}},{"arcs":[[738,-699,739,740,-714]],"type":"Polygon","properties":{"state":"NE","name":"HOWELLS","zip":"68641"}},{"arcs":[[741,742,743,-704]],"type":"Polygon","properties":{"state":"NE","name":"HUMPHREY","zip":"68642"}},{"arcs":[[744,-666,-707,745,-701]],"type":"Polygon","properties":{"state":"NE","name":"LEIGH","zip":"68643"}},{"arcs":[[746,-737,747,748,-743]],"type":"Polygon","properties":{"state":"NE","name":"LINDSAY","zip":"68644"}},{"arcs":[[749,-738,-747,750,-663]],"type":"Polygon","properties":{"state":"NE","name":"MONROE","zip":"68647"}},{"arcs":[[-158,-120,751,-51,-132]],"type":"Polygon","properties":{"state":"NE","name":"MORSE BLUFF","zip":"68648"}},{"arcs":[[-119,752,753,-712,-160,-95,-678,-52,-752]],"type":"Polygon","properties":{"state":"NE","name":"NORTH BEND","zip":"68649"}},{"arcs":[[754,755,-661,756,757]],"type":"Polygon","properties":{"state":"NE","name":"OSCEOLA","zip":"68651"}},{"arcs":[[758,-717,-671]],"type":"Polygon","properties":{"state":"NE","name":"PETERSBURG","zip":"68652"}},{"arcs":[[-742,-703,-664,-751]],"type":"Polygon","properties":{"state":"NE","name":"PLATTE CENTER","zip":"68653"}},{"arcs":[[-335,759,760,-695,761,-755,762,-315]],"type":"Polygon","properties":{"state":"NE","name":"POLK","zip":"68654"}},{"arcs":[[763,-669,-692]],"type":"Polygon","properties":{"state":"NE","name":"PRIMROSE","zip":"68655"}},{"arcs":[[764,765,766,-686,-709]],"type":"Polygon","properties":{"state":"NE","name":"RISING CITY","zip":"68658"}},{"arcs":[[767,-753,-118]],"type":"Polygon","properties":{"state":"NE","name":"ROGERS","zip":"68659"}},{"arcs":[[-693,-676,-735,-733]],"type":"Polygon","properties":{"state":"NE","name":"SAINT EDWARD","zip":"68660"}},{"arcs":[[-688,-667,-745,-700,-739,-713,-754,-768,-710]],"type":"Polygon","properties":{"state":"NE","name":"SCHUYLER","zip":"68661"}},{"arcs":[[768,-757,-660,-687,-767]],"type":"Polygon","properties":{"state":"NE","name":"SHELBY","zip":"68662"}},{"arcs":[[-762,-698,-734,-750,-662,-756]],"type":"Polygon","properties":{"state":"NE","name":"SILVER CREEK","zip":"68663"}},{"arcs":[[769,770,-724,-682,771,-670,-764]],"type":"Polygon","properties":{"state":"NE","name":"SPALDING","zip":"68665"}},{"arcs":[[-316,-763,-758,-769,-766,772,-500]],"type":"Polygon","properties":{"state":"NE","name":"STROMSBURG","zip":"68666"}},{"arcs":[[773,-590,-501,-773,-765]],"type":"Polygon","properties":{"state":"NE","name":"SURPRISE","zip":"68667"}},{"arcs":[[-591,-774,-708]],"type":"Polygon","properties":{"state":"NE","name":"ULYSSES","zip":"68669"}},{"arcs":[[774,775,776,777,778,779,780]],"type":"Polygon","properties":{"state":"NE","name":"NORFOLK","zip":"68701"}},{"arcs":[[781,782,783,784,785,786]],"type":"Polygon","properties":{"state":"NE","name":"ALLEN","zip":"68710"}},{"arcs":[[787,788,789,790,791]],"type":"Polygon","properties":{"state":"NE","name":"AMELIA","zip":"68711"}},{"arcs":[[792,793,794,795,796]],"type":"Polygon","properties":{"state":"NE","name":"ATKINSON","zip":"68713"}},{"arcs":[[797,798,799,800,801,802,803,-789]],"type":"Polygon","properties":{"state":"NE","name":"BASSETT","zip":"68714"}},{"arcs":[[804,805,-777]],"type":"Polygon","properties":{"state":"NE","name":"BATTLE CREEK","zip":"68715"}},{"arcs":[[806,807,-26]],"type":"Polygon","properties":{"state":"NE","name":"BEEMER","zip":"68716"}},{"arcs":[[808,809,810,811]],"type":"Polygon","properties":{"state":"NE","name":"BELDEN","zip":"68717"}},{"arcs":[[812,813,814,815,816,817]],"type":"Polygon","properties":{"state":"NE","name":"BLOOMFIELD","zip":"68718"}},{"arcs":[[818,819,820,821]],"type":"Polygon","properties":{"state":"NE","name":"BRISTOW","zip":"68719"}},{"arcs":[[822,823,824,825,826]],"type":"Polygon","properties":{"state":"NE","name":"BRUNSWICK","zip":"68720"}},{"arcs":[[827,828,829,830]],"type":"Polygon","properties":{"state":"NE","name":"BUTTE","zip":"68722"}},{"arcs":[[831,832,-810,833,834,835]],"type":"Polygon","properties":{"state":"NE","name":"CARROLL","zip":"68723"}},{"arcs":[[836,837,838,839,-813]],"type":"Polygon","properties":{"state":"NE","name":"CENTER","zip":"68724"}},{"arcs":[[840,-680,-723,841,-791,842,-793,843,844,845]],"type":"Polygon","properties":{"state":"NE","name":"CHAMBERS","zip":"68725"}},{"arcs":[[846,-719,847,848,849,850]],"type":"Polygon","properties":{"state":"NE","name":"CLEARWATER","zip":"68726"}},{"arcs":[[851,852,853,854,855,-812]],"type":"Polygon","properties":{"state":"NE","name":"COLERIDGE","zip":"68727"}},{"arcs":[[856,857,-782,858]],"type":"Polygon","properties":{"state":"NE","name":"CONCORD","zip":"68728"}},{"arcs":[[859,-826,860,-837,-818,861]],"type":"Polygon","properties":{"state":"NE","name":"CREIGHTON","zip":"68729"}},{"arcs":[[862,863,-815,864,865,866]],"type":"Polygon","properties":{"state":"NE","name":"CROFTON","zip":"68730"}},{"arcs":[[-107,867,868,869,870]],"type":"Polygon","properties":{"state":"NE","name":"DAKOTA CITY","zip":"68731"}},{"arcs":[[-858,871,-855,872,-783]],"type":"Polygon","properties":{"state":"NE","name":"DIXON","zip":"68732"}},{"arcs":[[873,-786,874,875,876,-182,-169]],"type":"Polygon","properties":{"state":"NE","name":"EMERSON","zip":"68733"}},{"arcs":[[877,-844,-797]],"type":"Polygon","properties":{"state":"NE","name":"EMMET","zip":"68734"}},{"arcs":[[-772,-681,-841,878,879,880,-848,-718,-759]],"type":"Polygon","properties":{"state":"NE","name":"EWING","zip":"68735"}},{"arcs":[[881,882,883,-863]],"type":"Polygon","properties":{"state":"NE","name":"FORDYCE","zip":"68736"}},{"arcs":[[884,885,886]],"type":"Polygon","properties":{"state":"NE","name":"FOSTER","zip":"68737"}},{"arcs":[[887,888,-816,-864,-884,889,890,-853,891]],"type":"Polygon","properties":{"state":"NE","name":"HARTINGTON","zip":"68739"}},{"arcs":[[892,893,-832,894,895,-780]],"type":"Polygon","properties":{"state":"NE","name":"HOSKINS","zip":"68740"}},{"arcs":[[-183,-877,896,-868,-106]],"type":"Polygon","properties":{"state":"NE","name":"HUBBARD","zip":"68741"}},{"arcs":[[-846,897,898,-879]],"type":"Polygon","properties":{"state":"NE","name":"INMAN","zip":"68742"}},{"arcs":[[-897,-876,899,900,901,902,-869]],"type":"Polygon","properties":{"state":"NE","name":"JACKSON","zip":"68743"}},{"arcs":[[-809,-856,-872,-857,903,904,-834]],"type":"Polygon","properties":{"state":"NE","name":"LAUREL","zip":"68745"}},{"arcs":[[905,906,-819,907]],"type":"Polygon","properties":{"state":"NE","name":"LYNCH","zip":"68746"}},{"arcs":[[908,909,910,911]],"type":"Polygon","properties":{"state":"NE","name":"MCLEAN","zip":"68747"}},{"arcs":[[-744,-749,912,913,-805,-776,914,-705]],"type":"Polygon","properties":{"state":"NE","name":"MADISON","zip":"68748"}},{"arcs":[[915,-912,916,-888]],"type":"Polygon","properties":{"state":"NE","name":"MAGNET","zip":"68749"}},{"arcs":[[917,918,919]],"type":"Polygon","properties":{"state":"NE","name":"MASKELL","zip":"68751"}},{"arcs":[[920,921,-778,-806,-914,922]],"type":"Polygon","properties":{"state":"NE","name":"MEADOW GROVE","zip":"68752"}},{"arcs":[[923,924,925,926,-802]],"type":"Polygon","properties":{"state":"NE","name":"MILLS","zip":"68753"}},{"arcs":[[927,-795,928,-926,929,-830]],"type":"Polygon","properties":{"state":"NE","name":"NAPER","zip":"68755"}},{"arcs":[[930,931,-851,932,-823,933]],"type":"Polygon","properties":{"state":"NE","name":"NELIGH","zip":"68756"}},{"arcs":[[-854,-891,934,-918,935,936,-784,-873]],"type":"Polygon","properties":{"state":"NE","name":"NEWCASTLE","zip":"68757"}},{"arcs":[[-736,-674,937,-923,-913,-748]],"type":"Polygon","properties":{"state":"NE","name":"NEWMAN GROVE","zip":"68758"}},{"arcs":[[-927,938,-803]],"type":"Polygon","properties":{"state":"NE","name":"NEWPORT","zip":"68759"}},{"arcs":[[939,-906,940,-865,-814,-840]],"type":"Polygon","properties":{"state":"NE","name":"NIOBRARA","zip":"68760"}},{"arcs":[[-847,-932,941,-720]],"type":"Polygon","properties":{"state":"NE","name":"OAKDALE","zip":"68761"}},{"arcs":[[942,-898,-845,-878,-796,-928,-829,943,-820,-907,944,945]],"type":"Polygon","properties":{"state":"NE","name":"ONEILL","zip":"68763"}},{"arcs":[[946,-849,-881,947,-946,948,949]],"type":"Polygon","properties":{"state":"NE","name":"ORCHARD","zip":"68764"}},{"arcs":[[950,951,-887,952,953,-910]],"type":"Polygon","properties":{"state":"NE","name":"OSMOND","zip":"68765"}},{"arcs":[[-880,-899,-943,-948]],"type":"Polygon","properties":{"state":"NE","name":"PAGE","zip":"68766"}},{"arcs":[[-922,954,955,-885,-952,956,-893,-779]],"type":"Polygon","properties":{"state":"NE","name":"PIERCE","zip":"68767"}},{"arcs":[[-896,957,958,959,960,-781]],"type":"Polygon","properties":{"state":"NE","name":"PILGER","zip":"68768"}},{"arcs":[[961,-934,-827,-860,962,-953,-886,-956]],"type":"Polygon","properties":{"state":"NE","name":"PLAINVIEW","zip":"68769"}},{"arcs":[[963,-937,964,-901]],"type":"Polygon","properties":{"state":"NE","name":"PONCA","zip":"68770"}},{"arcs":[[-909,-916,-892,-852,-811,-833,-894,-957,-951]],"type":"Polygon","properties":{"state":"NE","name":"RANDOLPH","zip":"68771"}},{"arcs":[[-850,-947,965,-824,-933]],"type":"Polygon","properties":{"state":"NE","name":"ROYAL","zip":"68773"}},{"arcs":[[966,-882,-867,967]],"type":"Polygon","properties":{"state":"NE","name":"SAINT HELENA","zip":"68774"}},{"arcs":[[-903,968,-870]],"type":"Polygon","properties":{"state":"NE","name":"SOUTH SIOUX CITY","zip":"68776"}},{"arcs":[[-944,-828,969,-821]],"type":"Polygon","properties":{"state":"NE","name":"SPENCER","zip":"68777"}},{"arcs":[[-801,970,971,972,973,974,-924]],"type":"Polygon","properties":{"state":"NE","name":"SPRINGVIEW","zip":"68778"}},{"arcs":[[-775,-961,975,-740,-702,-746,-706,-915]],"type":"Polygon","properties":{"state":"NE","name":"STANTON","zip":"68779"}},{"arcs":[[-790,-804,-939,-929,-794,-843]],"type":"Polygon","properties":{"state":"NE","name":"STUART","zip":"68780"}},{"arcs":[[-942,-931,-962,-955,-921,-938,-673,-721]],"type":"Polygon","properties":{"state":"NE","name":"TILDEN","zip":"68781"}},{"arcs":[[976,-949,-945,-940,-839]],"type":"Polygon","properties":{"state":"NE","name":"VERDIGRE","zip":"68783"}},{"arcs":[[-147,977,-904,-859,-787,-874,-168]],"type":"Polygon","properties":{"state":"NE","name":"WAKEFIELD","zip":"68784"}},{"arcs":[[-964,-900,-875,-785]],"type":"Polygon","properties":{"state":"NE","name":"WATERBURY","zip":"68785"}},{"arcs":[[-954,-963,-862,-817,-889,-917,-911]],"type":"Polygon","properties":{"state":"NE","name":"WAUSA","zip":"68786"}},{"arcs":[[978,-835,-905,-978,-146,979,-959]],"type":"Polygon","properties":{"state":"NE","name":"WAYNE","zip":"68787"}},{"arcs":[[980,-807,-25,-137,-111,-162,-716]],"type":"Polygon","properties":{"state":"NE","name":"WEST POINT","zip":"68788"}},{"arcs":[[-825,-966,-950,-977,-838,-861]],"type":"Polygon","properties":{"state":"NE","name":"WINNETOON","zip":"68789"}},{"arcs":[[-958,-895,-836,-979]],"type":"Polygon","properties":{"state":"NE","name":"WINSIDE","zip":"68790"}},{"arcs":[[-976,-960,-980,-145,-27,-808,-981,-715,-741]],"type":"Polygon","properties":{"state":"NE","name":"WISNER","zip":"68791"}},{"arcs":[[-935,-890,-883,-967,981,-919]],"type":"Polygon","properties":{"state":"NE","name":"WYNOT","zip":"68792"}},{"arcs":[[982,983,984,985,986]],"type":"Polygon","properties":{"state":"NE","name":"GRAND ISLAND","zip":"68801"}},{"arcs":[[987,988,989,990,991,992,-985,993,994]],"type":"Polygon","properties":{"state":"NE","name":"GRAND ISLAND","zip":"68803"}},{"arcs":[[995,-995,996]],"type":"Polygon","properties":{"state":"NE","name":"ALDA","zip":"68810"}},{"arcs":[[997,998,999,1000,1001]],"type":"Polygon","properties":{"state":"NE","name":"AMHERST","zip":"68812"}},{"arcs":[[1002,1003,1004,1005,1006,1007,1008]],"type":"Polygon","properties":{"state":"NE","name":"ANSELMO","zip":"68813"}},{"arcs":[[1009,1010,1011,1012,1013,1014,1015]],"type":"Polygon","properties":{"state":"NE","name":"ANSLEY","zip":"68814"}},{"arcs":[[1016,-1015,1017,1018]],"type":"Polygon","properties":{"state":"NE","name":"ARCADIA","zip":"68815"}},{"arcs":[[1019,1020,1021,1022,1023,1024,1025]],"type":"Polygon","properties":{"state":"NE","name":"ASHTON","zip":"68817"}},{"arcs":[[1026,1027,1028,1029,1030,1031,-509]],"type":"Polygon","properties":{"state":"NE","name":"AURORA","zip":"68818"}},{"arcs":[[1032,1033,1034,-1012]],"type":"Polygon","properties":{"state":"NE","name":"BERWYN","zip":"68819"}},{"arcs":[[1035,1036,1037,1038,-991]],"type":"Polygon","properties":{"state":"NE","name":"BOELUS","zip":"68820"}},{"arcs":[[1039,-1007,1040,1041,1042,1043]],"type":"Polygon","properties":{"state":"NE","name":"BREWSTER","zip":"68821"}},{"arcs":[[1044,-1003,1045,1046,1047,-1034,1048]],"type":"Polygon","properties":{"state":"NE","name":"BROKEN BOW","zip":"68822"}},{"arcs":[[1049,1050,1051,-792,-842,-722,1052]],"type":"Polygon","properties":{"state":"NE","name":"BURWELL","zip":"68823"}},{"arcs":[[1053,1054,1055,1056,1057,1058,1059]],"type":"Polygon","properties":{"state":"NE","name":"CALLAWAY","zip":"68825"}},{"arcs":[[1060,1061,1062,1063,-729,-696,-761]],"type":"Polygon","properties":{"state":"NE","name":"CENTRAL CITY","zip":"68826"}},{"arcs":[[1064,1065,-987,1066,1067,-1063]],"type":"Polygon","properties":{"state":"NE","name":"CHAPMAN","zip":"68827"}},{"arcs":[[1068,-1047,1069,1070,-1018,-1014]],"type":"Polygon","properties":{"state":"NE","name":"COMSTOCK","zip":"68828"}},{"arcs":[[1071,-992,-1039,1072,1073]],"type":"Polygon","properties":{"state":"NE","name":"DANNEBROG","zip":"68831"}},{"arcs":[[1074,1075,1076,1077,-997,-994,-984,1078]],"type":"Polygon","properties":{"state":"NE","name":"DONIPHAN","zip":"68832"}},{"arcs":[[1079,1080,1081,-1041,-1006,1082]],"type":"Polygon","properties":{"state":"NE","name":"DUNNING","zip":"68833"}},{"arcs":[[1083,1084,1085]],"type":"Polygon","properties":{"state":"NE","name":"EDDYVILLE","zip":"68834"}},{"arcs":[[1086,1087,-1024,1088,1089]],"type":"Polygon","properties":{"state":"NE","name":"ELBA","zip":"68835"}},{"arcs":[[1090,1091,1092,1093,1094,1095,-1000,1096]],"type":"Polygon","properties":{"state":"NE","name":"ELM CREEK","zip":"68836"}},{"arcs":[[1097,-1050,1098]],"type":"Polygon","properties":{"state":"NE","name":"ELYRIA","zip":"68837"}},{"arcs":[[-1038,-1025,-1088,1099,-1073]],"type":"Polygon","properties":{"state":"NE","name":"FARWELL","zip":"68838"}},{"arcs":[[1100,1101,1102,1103]],"type":"Polygon","properties":{"state":"NE","name":"GIBBON","zip":"68840"}},{"arcs":[[1104,-1075,1105,-1029,1106]],"type":"Polygon","properties":{"state":"NE","name":"GILTNER","zip":"68841"}},{"arcs":[[1107,1108,-725,-771]],"type":"Polygon","properties":{"state":"NE","name":"GREELEY","zip":"68842"}},{"arcs":[[-1032,1109,1110,-333,-510]],"type":"Polygon","properties":{"state":"NE","name":"HAMPTON","zip":"68843"}},{"arcs":[[1111,1112,1113,1114]],"type":"Polygon","properties":{"state":"NE","name":"HAZARD","zip":"68844"}},{"arcs":[[1115,-1097,-999,1116,1117,1118]],"type":"Polygon","properties":{"state":"NE","name":"KEARNEY","zip":"68845"}},{"arcs":[[1119,-1061,-760,-334,-1111]],"type":"Polygon","properties":{"state":"NE","name":"HORDVILLE","zip":"68846"}},{"arcs":[[1120,1121,-1118,1122,1123,1124,-1101]],"type":"Polygon","properties":{"state":"NE","name":"KEARNEY","zip":"68847"}},{"arcs":[[1125,1126,1127,1128,-1060,1129,-1085,1130,1131]],"type":"Polygon","properties":{"state":"NE","name":"LEXINGTON","zip":"68850"}},{"arcs":[[1132,1133,1134,-1115]],"type":"Polygon","properties":{"state":"NE","name":"LITCHFIELD","zip":"68852"}},{"arcs":[[1135,-1134,-1016,-1017,1136,-1020]],"type":"Polygon","properties":{"state":"NE","name":"LOUP CITY","zip":"68853"}},{"arcs":[[1137,-1065,-1062,-1120,-1110,-1031]],"type":"Polygon","properties":{"state":"NE","name":"MARQUETTE","zip":"68854"}},{"arcs":[[1138,1139,1140,-1010,-1133,-1114,1141]],"type":"Polygon","properties":{"state":"NE","name":"MASON CITY","zip":"68855"}},{"arcs":[[1142,-1058,1143,-1004,-1045]],"type":"Polygon","properties":{"state":"NE","name":"MERNA","zip":"68856"}},{"arcs":[[-1096,1144,-1139,1145,-1001]],"type":"Polygon","properties":{"state":"NE","name":"MILLER","zip":"68858"}},{"arcs":[[1146,1147,-1022]],"type":"Polygon","properties":{"state":"NE","name":"NORTH LOUP","zip":"68859"}},{"arcs":[[1148,-1086,-1130,-1059,-1143,-1049,-1033,-1011,-1141]],"type":"Polygon","properties":{"state":"NE","name":"OCONTO","zip":"68860"}},{"arcs":[[-1071,-1099,-1053,-727,1149,-1147,-1021,-1137,-1019]],"type":"Polygon","properties":{"state":"NE","name":"ORD","zip":"68862"}},{"arcs":[[1150,-1132,1151,-1094]],"type":"Polygon","properties":{"state":"NE","name":"OVERTON","zip":"68863"}},{"arcs":[[-1068,1152,1153,-730,-1064]],"type":"Polygon","properties":{"state":"NE","name":"PALMER","zip":"68864"}},{"arcs":[[-1066,-1138,-1030,-1106,-1079,-983]],"type":"Polygon","properties":{"state":"NE","name":"PHILLIPS","zip":"68865"}},{"arcs":[[1154,-1124,1155,-1002,-1146,-1142,-1113,1156]],"type":"Polygon","properties":{"state":"NE","name":"PLEASANTON","zip":"68866"}},{"arcs":[[1157,-1036,-990,1158,-1102,-1125,-1155]],"type":"Polygon","properties":{"state":"NE","name":"RAVENNA","zip":"68869"}},{"arcs":[[-1156,-1123,-1117,-998]],"type":"Polygon","properties":{"state":"NE","name":"RIVERDALE","zip":"68870"}},{"arcs":[[-1112,-1135,-1136,-1026,-1037,-1158,-1157]],"type":"Polygon","properties":{"state":"NE","name":"ROCKVILLE","zip":"68871"}},{"arcs":[[1159,-1153,-1067,-986,-993,-1072]],"type":"Polygon","properties":{"state":"NE","name":"SAINT LIBORY","zip":"68872"}},{"arcs":[[-1160,-1074,-1100,-1087,1160,-731,-1154]],"type":"Polygon","properties":{"state":"NE","name":"SAINT PAUL","zip":"68873"}},{"arcs":[[1161,-1051,-1098,-1070,-1046,-1009]],"type":"Polygon","properties":{"state":"NE","name":"SARGENT","zip":"68874"}},{"arcs":[[-1148,-1150,-726,-1109,1162,-1089,-1023]],"type":"Polygon","properties":{"state":"NE","name":"SCOTIA","zip":"68875"}},{"arcs":[[1163,1164,-1103,-1159,-989,1165]],"type":"Polygon","properties":{"state":"NE","name":"SHELTON","zip":"68876"}},{"arcs":[[-1152,-1131,-1084,-1149,-1140,-1145,-1095]],"type":"Polygon","properties":{"state":"NE","name":"SUMNER","zip":"68878"}},{"arcs":[[-1008,-1040,1166,-798,-788,-1052,-1162]],"type":"Polygon","properties":{"state":"NE","name":"TAYLOR","zip":"68879"}},{"arcs":[[-1048,-1069,-1013,-1035]],"type":"Polygon","properties":{"state":"NE","name":"WESTERVILLE","zip":"68881"}},{"arcs":[[-1161,-1090,-1163,-1108,-770,-691,-732]],"type":"Polygon","properties":{"state":"NE","name":"WOLBACH","zip":"68882"}},{"arcs":[[1167,1168,1169,-1166,-988,-996,-1078]],"type":"Polygon","properties":{"state":"NE","name":"WOOD RIVER","zip":"68883"}},{"arcs":[[1170,-1168,-1077,1171,1172,1173,1174]],"type":"Polygon","properties":{"state":"NE","name":"HASTINGS","zip":"68901"}},{"arcs":[[1175,1176,1177,1178,1179]],"type":"Polygon","properties":{"state":"NE","name":"ALMA","zip":"68920"}},{"arcs":[[1180,1181,1182,1183]],"type":"Polygon","properties":{"state":"NE","name":"ARAPAHOE","zip":"68922"}},{"arcs":[[1184,1185,1186,1187,1188]],"type":"Polygon","properties":{"state":"NE","name":"ATLANTA","zip":"68923"}},{"arcs":[[1189,1190,-1119,-1122,1191,1192]],"type":"Polygon","properties":{"state":"NE","name":"AXTELL","zip":"68924"}},{"arcs":[[1193,1194,1195,-1175]],"type":"Polygon","properties":{"state":"NE","name":"AYR","zip":"68925"}},{"arcs":[[1196,1197,1198,1199,1200]],"type":"Polygon","properties":{"state":"NE","name":"BEAVER CITY","zip":"68926"}},{"arcs":[[1201,1202,-1126,-1151,-1093,1203,1204,-1187,1205]],"type":"Polygon","properties":{"state":"NE","name":"BERTRAND","zip":"68927"}},{"arcs":[[1206,1207,1208,1209,1210,1211,1212]],"type":"Polygon","properties":{"state":"NE","name":"BLADEN","zip":"68928"}},{"arcs":[[1213,1214,1215,1216,1217]],"type":"Polygon","properties":{"state":"NE","name":"BLOOMINGTON","zip":"68929"}},{"arcs":[[1218,1219,-1207,-1195,1220,1221,1222]],"type":"Polygon","properties":{"state":"NE","name":"BLUE HILL","zip":"68930"}},{"arcs":[[1223,1224,1225,-1211]],"type":"Polygon","properties":{"state":"NE","name":"CAMPBELL","zip":"68932"}},{"arcs":[[1226,1227,1228,1229,1230,-484,-602]],"type":"Polygon","properties":{"state":"NE","name":"CLAY CENTER","zip":"68933"}},{"arcs":[[1231,1232,1233,1234,1235,-1222]],"type":"Polygon","properties":{"state":"NE","name":"DEWEESE","zip":"68934"}},{"arcs":[[1236,1237,-1234,1238,-1227,-601]],"type":"Polygon","properties":{"state":"NE","name":"EDGAR","zip":"68935"}},{"arcs":[[-1181,1239,1240,-1199]],"type":"Polygon","properties":{"state":"NE","name":"EDISON","zip":"68936"}},{"arcs":[[1241,-1240,-1184,1242,1243,1244,-1128,1245,-1202]],"type":"Polygon","properties":{"state":"NE","name":"ELWOOD","zip":"68937"}},{"arcs":[[-1228,-1239,-1233]],"type":"Polygon","properties":{"state":"NE","name":"FAIRFIELD","zip":"68938"}},{"arcs":[[1246,-1217,1247]],"type":"Polygon","properties":{"state":"NE","name":"FRANKLIN","zip":"68939"}},{"arcs":[[1248,-1091,-1116,-1191]],"type":"Polygon","properties":{"state":"NE","name":"FUNK","zip":"68940"}},{"arcs":[[-1221,-1194,-1174,1249,-1229,-1232]],"type":"Polygon","properties":{"state":"NE","name":"GLENVIL","zip":"68941"}},{"arcs":[[1250,-1219,1251,1252]],"type":"Polygon","properties":{"state":"NE","name":"GUIDE ROCK","zip":"68942"}},{"arcs":[[1253,1254,1255,1256,-359]],"type":"Polygon","properties":{"state":"NE","name":"HARDY","zip":"68943"}},{"arcs":[[1257,-1230,1258,1259,-1107,-1028,1260]],"type":"Polygon","properties":{"state":"NE","name":"HARVARD","zip":"68944"}},{"arcs":[[1261,1262,1263]],"type":"Polygon","properties":{"state":"NE","name":"HEARTWELL","zip":"68945"}},{"arcs":[[1264,1265,1266,-1182,-1198]],"type":"Polygon","properties":{"state":"NE","name":"HENDLEY","zip":"68946"}},{"arcs":[[1267,-1216,1268,1269,1270,1271]],"type":"Polygon","properties":{"state":"NE","name":"HILDRETH","zip":"68947"}},{"arcs":[[-1267,1272,1273,-1243,-1183]],"type":"Polygon","properties":{"state":"NE","name":"HOLBROOK","zip":"68948"}},{"arcs":[[1274,1275,-1179,1276,-1189,1277,-1204,-1092,-1249,-1190]],"type":"Polygon","properties":{"state":"NE","name":"HOLDREGE","zip":"68949"}},{"arcs":[[1278,-1212,1279,-1264,1280]],"type":"Polygon","properties":{"state":"NE","name":"HOLSTEIN","zip":"68950"}},{"arcs":[[1281,1282,-1209,1283]],"type":"Polygon","properties":{"state":"NE","name":"INAVALE","zip":"68952"}},{"arcs":[[-1250,-1173,1284,-1259]],"type":"Polygon","properties":{"state":"NE","name":"INLAND","zip":"68954"}},{"arcs":[[1285,1286,-1169,-1171]],"type":"Polygon","properties":{"state":"NE","name":"JUNIATA","zip":"68955"}},{"arcs":[[-1281,-1263,1287,-1164,-1170,-1287]],"type":"Polygon","properties":{"state":"NE","name":"KENESAW","zip":"68956"}},{"arcs":[[1288,-1223,-1236,1289]],"type":"Polygon","properties":{"state":"NE","name":"LAWRENCE","zip":"68957"}},{"arcs":[[-1278,-1188,-1205]],"type":"Polygon","properties":{"state":"NE","name":"LOOMIS","zip":"68958"}},{"arcs":[[-1226,1290,-1272,1291,-1192,-1121,-1104,-1165,-1288,-1262,-1280]],"type":"Polygon","properties":{"state":"NE","name":"MINDEN","zip":"68959"}},{"arcs":[[1292,1293,-1269,-1215]],"type":"Polygon","properties":{"state":"NE","name":"NAPONEE","zip":"68960"}},{"arcs":[[1294,-1290,-1235,-1238,1295,1296,-1256]],"type":"Polygon","properties":{"state":"NE","name":"NELSON","zip":"68961"}},{"arcs":[[-1237,-600,-396,-507,1297,-1296]],"type":"Polygon","properties":{"state":"NE","name":"OAK","zip":"68964"}},{"arcs":[[1298,1299,1300,-1185,-1277,-1178]],"type":"Polygon","properties":{"state":"NE","name":"ORLEANS","zip":"68966"}},{"arcs":[[1301,-1200,-1241,-1242,-1206,-1186,-1301]],"type":"Polygon","properties":{"state":"NE","name":"OXFORD","zip":"68967"}},{"arcs":[[1302,-1180,-1276,-1270]],"type":"Polygon","properties":{"state":"NE","name":"RAGAN","zip":"68969"}},{"arcs":[[1303,-1284,-1208,-1220,-1251]],"type":"Polygon","properties":{"state":"NE","name":"RED CLOUD","zip":"68970"}},{"arcs":[[1304,-1176,-1303,-1294]],"type":"Polygon","properties":{"state":"NE","name":"REPUBLICAN CITY","zip":"68971"}},{"arcs":[[-1247,-1224,-1210,-1283,1305,-1218]],"type":"Polygon","properties":{"state":"NE","name":"RIVERTON","zip":"68972"}},{"arcs":[[-1213,-1279,-1286,-1196]],"type":"Polygon","properties":{"state":"NE","name":"ROSELAND","zip":"68973"}},{"arcs":[[-1257,-1297,-1298,-412]],"type":"Polygon","properties":{"state":"NE","name":"RUSKIN","zip":"68974"}},{"arcs":[[-1231,-1258,1306,-485]],"type":"Polygon","properties":{"state":"NE","name":"SARONVILLE","zip":"68975"}},{"arcs":[[-1127,-1203,-1246]],"type":"Polygon","properties":{"state":"NE","name":"SMITHFIELD","zip":"68976"}},{"arcs":[[-1302,-1300,1307,-1201]],"type":"Polygon","properties":{"state":"NE","name":"STAMFORD","zip":"68977"}},{"arcs":[[1308,-1252,-1289,-1295,-1255]],"type":"Polygon","properties":{"state":"NE","name":"SUPERIOR","zip":"68978"}},{"arcs":[[-1027,-508,-495,-1307,-1261]],"type":"Polygon","properties":{"state":"NE","name":"SUTTON","zip":"68979"}},{"arcs":[[-1172,-1076,-1105,-1260,-1285]],"type":"Polygon","properties":{"state":"NE","name":"TRUMBULL","zip":"68980"}},{"arcs":[[-1248,-1268,-1291,-1225]],"type":"Polygon","properties":{"state":"NE","name":"UPLAND","zip":"68981"}},{"arcs":[[-1271,-1275,-1193,-1292]],"type":"Polygon","properties":{"state":"NE","name":"WILCOX","zip":"68982"}},{"arcs":[[1309,1310,1311,1312,1313,1314]],"type":"Polygon","properties":{"state":"NE","name":"MC COOK","zip":"69001"}},{"arcs":[[1315,1316,1317,1318,1319]],"type":"Polygon","properties":{"state":"NE","name":"BARTLEY","zip":"69020"}},{"arcs":[[1320,1321,1322,1323,1324,1325,1326,1327,1328,1329]],"type":"Polygon","properties":{"state":"NE","name":"BENKELMAN","zip":"69021"}},{"arcs":[[1330,-1320,1331,-1273]],"type":"Polygon","properties":{"state":"NE","name":"CAMBRIDGE","zip":"69022"}},{"arcs":[[1332,1333,1334,1335,1336,1337,-1325]],"type":"Polygon","properties":{"state":"NE","name":"CHAMPION","zip":"69023"}},{"arcs":[[1338,1339,1340,1341,1342,-1310]],"type":"Polygon","properties":{"state":"NE","name":"CULBERTSON","zip":"69024"}},{"arcs":[[1343,-1312,1344,1345,1346,1347,1348]],"type":"Polygon","properties":{"state":"NE","name":"CURTIS","zip":"69025"}},{"arcs":[[1349,1350,-1314,1351]],"type":"Polygon","properties":{"state":"NE","name":"DANBURY","zip":"69026"}},{"arcs":[[1352,1353,-1327]],"type":"Polygon","properties":{"state":"NE","name":"ENDERS","zip":"69027"}},{"arcs":[[-1319,1354,1355,1356,-1244,-1274,-1332]],"type":"Polygon","properties":{"state":"NE","name":"EUSTIS","zip":"69028"}},{"arcs":[[1357,1358,1359,-1356]],"type":"Polygon","properties":{"state":"NE","name":"FARNAM","zip":"69029"}},{"arcs":[[1360,-1334,1361]],"type":"Polygon","properties":{"state":"NE","name":"HAIGLER","zip":"69030"}},{"arcs":[[1362,1363,1364,-1329]],"type":"Polygon","properties":{"state":"NE","name":"HAMLET","zip":"69031"}},{"arcs":[[1365,-1364,1366,1367,1368,1369,1370,1371,-1342]],"type":"Polygon","properties":{"state":"NE","name":"HAYES CENTER","zip":"69032"}},{"arcs":[[-1326,-1338,1372,1373,1374,-1353]],"type":"Polygon","properties":{"state":"NE","name":"IMPERIAL","zip":"69033"}},{"arcs":[[-1344,1375,1376,-1317,1377,-1352,-1313]],"type":"Polygon","properties":{"state":"NE","name":"INDIANOLA","zip":"69034"}},{"arcs":[[1378,1379,-1350,-1378,-1316]],"type":"Polygon","properties":{"state":"NE","name":"LEBANON","zip":"69036"}},{"arcs":[[1380,-1322,1381]],"type":"Polygon","properties":{"state":"NE","name":"MAX","zip":"69037"}},{"arcs":[[-1343,-1372,1382,1383,-1345,-1311]],"type":"Polygon","properties":{"state":"NE","name":"MAYWOOD","zip":"69038"}},{"arcs":[[-1318,-1377,1384,-1348,1385,-1358,-1355]],"type":"Polygon","properties":{"state":"NE","name":"MOOREFIELD","zip":"69039"}},{"arcs":[[-1365,-1366,-1341,1386,1387,-1330]],"type":"Polygon","properties":{"state":"NE","name":"PALISADE","zip":"69040"}},{"arcs":[[1388,-1362,-1333,-1324]],"type":"Polygon","properties":{"state":"NE","name":"PARKS","zip":"69041"}},{"arcs":[[-1349,-1385,-1376]],"type":"Polygon","properties":{"state":"NE","name":"STOCKVILLE","zip":"69042"}},{"arcs":[[1389,1390,-1382,-1321,-1388]],"type":"Polygon","properties":{"state":"NE","name":"STRATTON","zip":"69043"}},{"arcs":[[1391,-1390,-1387,-1340]],"type":"Polygon","properties":{"state":"NE","name":"TRENTON","zip":"69044"}},{"arcs":[[-1328,-1354,-1375,1392,1393,-1367,-1363]],"type":"Polygon","properties":{"state":"NE","name":"WAUNETA","zip":"69045"}},{"arcs":[[1394,-1379,-1331,-1266]],"type":"Polygon","properties":{"state":"NE","name":"WILSONVILLE","zip":"69046"}},{"arcs":[[1395,1396,1397,1398,1399,1400,1401]],"type":"Polygon","properties":{"state":"NE","name":"NORTH PLATTE","zip":"69101"}},{"arcs":[[1402,1403,-1083,-1005,-1144,-1057]],"type":"Polygon","properties":{"state":"NE","name":"ARNOLD","zip":"69120"}},{"arcs":[[1404,1405,1406,1407,1408,1409,1410,1411,1412,1413]],"type":"Polygon","properties":{"state":"NE","name":"ARTHUR","zip":"69121"}},{"arcs":[[1414,1415,1416,1417,1418]],"type":"Polygon","properties":{"state":"NE","name":"BIG SPRINGS","zip":"69122"}},{"arcs":[[-1386,-1347,1419,-1400,1420,-1403,-1056,1421,1422,-1359]],"type":"Polygon","properties":{"state":"NE","name":"BRADY","zip":"69123"}},{"arcs":[[1423,1424,1425,1426]],"type":"Polygon","properties":{"state":"NE","name":"BROADWATER","zip":"69125"}},{"arcs":[[1427,1428,1429,-1419,1430,1431]],"type":"Polygon","properties":{"state":"NE","name":"BRULE","zip":"69127"}},{"arcs":[[1432,1433,1434]],"type":"Polygon","properties":{"state":"NE","name":"BUSHNELL","zip":"69128"}},{"arcs":[[1435,1436,1437,1438,-1417]],"type":"Polygon","properties":{"state":"NE","name":"CHAPPELL","zip":"69129"}},{"arcs":[[-1357,-1360,-1423,1439,-1054,-1129,-1245]],"type":"Polygon","properties":{"state":"NE","name":"COZAD","zip":"69130"}},{"arcs":[[1440,1441,1442,-1424,1443,1444]],"type":"Polygon","properties":{"state":"NE","name":"DALTON","zip":"69131"}},{"arcs":[[1445,1446,-1396,1447,-1370]],"type":"Polygon","properties":{"state":"NE","name":"DICKENS","zip":"69132"}},{"arcs":[[1448,1449,1450,1451,1452]],"type":"Polygon","properties":{"state":"NE","name":"DIX","zip":"69133"}},{"arcs":[[1453,1454,1455,1456,-1368,-1394]],"type":"Polygon","properties":{"state":"NE","name":"ELSIE","zip":"69134"}},{"arcs":[[1457,1458,1459,1460,1461]],"type":"Polygon","properties":{"state":"NE","name":"ELSMERE","zip":"69135"}},{"arcs":[[-1422,-1055,-1440]],"type":"Polygon","properties":{"state":"NE","name":"GOTHENBURG","zip":"69138"}},{"arcs":[[-1337,1462,-1429,1463,1464,-1373]],"type":"Polygon","properties":{"state":"NE","name":"GRANT","zip":"69140"}},{"arcs":[[1465,1466,1467,-1445]],"type":"Polygon","properties":{"state":"NE","name":"GURLEY","zip":"69141"}},{"arcs":[[1468,1469,1470,-1460,1471,-1081]],"type":"Polygon","properties":{"state":"NE","name":"HALSEY","zip":"69142"}},{"arcs":[[-1447,1472,1473,1474,-1397]],"type":"Polygon","properties":{"state":"NE","name":"HERSHEY","zip":"69143"}},{"arcs":[[1475,1476,-1406,1477]],"type":"Polygon","properties":{"state":"NE","name":"KEYSTONE","zip":"69144"}},{"arcs":[[1478,-1435,1479,-1450]],"type":"Polygon","properties":{"state":"NE","name":"KIMBALL","zip":"69145"}},{"arcs":[[1480,-1407,-1477,1481,-1432]],"type":"Polygon","properties":{"state":"NE","name":"LEMOYNE","zip":"69146"}},{"arcs":[[-1439,1482,-1408,-1481,-1431,-1418]],"type":"Polygon","properties":{"state":"NE","name":"LEWELLEN","zip":"69147"}},{"arcs":[[1483,1484,-1426,1485]],"type":"Polygon","properties":{"state":"NE","name":"LISCO","zip":"69148"}},{"arcs":[[1486,1487,-1466,-1444,-1427,-1485,1488,-1437]],"type":"Polygon","properties":{"state":"NE","name":"LODGEPOLE","zip":"69149"}},{"arcs":[[-1465,1489,1490,-1454,-1393,-1374]],"type":"Polygon","properties":{"state":"NE","name":"MADRID","zip":"69150"}},{"arcs":[[-1346,-1384,1491,-1401,-1420]],"type":"Polygon","properties":{"state":"NE","name":"MAXWELL","zip":"69151"}},{"arcs":[[1492,1493,1494,1495,1496,-1413]],"type":"Polygon","properties":{"state":"NE","name":"MULLEN","zip":"69152"}},{"arcs":[[-1464,-1428,-1482,-1476,1497,-1490]],"type":"Polygon","properties":{"state":"NE","name":"OGALLALA","zip":"69153"}},{"arcs":[[1498,1499,1500,1501,1502,1503,-1409,-1483,-1438,-1489,-1484]],"type":"Polygon","properties":{"state":"NE","name":"OSHKOSH","zip":"69154"}},{"arcs":[[-1491,-1498,-1478,-1405,1504,1505,-1455]],"type":"Polygon","properties":{"state":"NE","name":"PAXTON","zip":"69155"}},{"arcs":[[1506,-1452,1507,1508,-1441,-1468]],"type":"Polygon","properties":{"state":"NE","name":"POTTER","zip":"69156"}},{"arcs":[[-1472,-1459,1509,-1042,-1082]],"type":"Polygon","properties":{"state":"NE","name":"PURDUM","zip":"69157"}},{"arcs":[[1510,1511,1512,-1496,1513]],"type":"Polygon","properties":{"state":"NE","name":"SENECA","zip":"69161"}},{"arcs":[[-1507,-1467,-1488,1514,-1453]],"type":"Polygon","properties":{"state":"NE","name":"SIDNEY","zip":"69162"}},{"arcs":[[1515,-1512,1516,-1469,-1080,-1404,-1421,-1399]],"type":"Polygon","properties":{"state":"NE","name":"STAPLETON","zip":"69163"}},{"arcs":[[-1506,1517,-1474,1518,-1456]],"type":"Polygon","properties":{"state":"NE","name":"SUTHERLAND","zip":"69165"}},{"arcs":[[-1517,-1511,1519,-1470]],"type":"Polygon","properties":{"state":"NE","name":"THEDFORD","zip":"69166"}},{"arcs":[[-1518,-1505,-1414,-1497,-1513,-1516,-1398,-1475]],"type":"Polygon","properties":{"state":"NE","name":"TRYON","zip":"69167"}},{"arcs":[[1520,-1415,-1430,-1463,-1336]],"type":"Polygon","properties":{"state":"NE","name":"VENANGO","zip":"69168"}},{"arcs":[[-1457,-1519,-1473,-1446,-1369]],"type":"Polygon","properties":{"state":"NE","name":"WALLACE","zip":"69169"}},{"arcs":[[-1371,-1448,-1402,-1492,-1383]],"type":"Polygon","properties":{"state":"NE","name":"WELLFLEET","zip":"69170"}},{"arcs":[[-1495,1521,1522,1523,1524,1525,-974,1526,1527,-1461,-1471,-1520,-1514]],"type":"Polygon","properties":{"state":"NE","name":"VALENTINE","zip":"69201"}},{"arcs":[[-1044,1528,-972,1529,-799,-1167]],"type":"Polygon","properties":{"state":"NE","name":"AINSWORTH","zip":"69210"}},{"arcs":[[1530,1531,1532,-1523]],"type":"Polygon","properties":{"state":"NE","name":"CODY","zip":"69211"}},{"arcs":[[1533,1534,-1525]],"type":"Polygon","properties":{"state":"NE","name":"CROOKSTON","zip":"69212"}},{"arcs":[[-1458,1535,-1527,-973,-1529,-1043,-1510]],"type":"Polygon","properties":{"state":"NE","name":"JOHNSTOWN","zip":"69214"}},{"arcs":[[1536,-1534,-1524,-1533]],"type":"Polygon","properties":{"state":"NE","name":"KILGORE","zip":"69216"}},{"arcs":[[-971,-800,-1530]],"type":"Polygon","properties":{"state":"NE","name":"LONG PINE","zip":"69217"}},{"arcs":[[1537,1538,1539,1540,1541,1542,-1531,-1522,-1494]],"type":"Polygon","properties":{"state":"NE","name":"MERRIMAN","zip":"69218"}},{"arcs":[[-1528,-1536,-1462]],"type":"Polygon","properties":{"state":"NE","name":"WOOD LAKE","zip":"69221"}},{"arcs":[[1543,1544,1545,1546,1547,1548,1549,1550,1551]],"type":"Polygon","properties":{"state":"NE","name":"ALLIANCE","zip":"69301"}},{"arcs":[[1552,-1551,1553]],"type":"Polygon","properties":{"state":"NE","name":"ANGORA","zip":"69331"}},{"arcs":[[1554,-1410,-1504,1555,-1540]],"type":"Polygon","properties":{"state":"NE","name":"ASHBY","zip":"69333"}},{"arcs":[[-1509,1556,1557,1558,-1552,-1553,1559,-1442]],"type":"Polygon","properties":{"state":"NE","name":"BAYARD","zip":"69334"}},{"arcs":[[-1503,1560,1561,1562,-1541,-1556]],"type":"Polygon","properties":{"state":"NE","name":"BINGHAM","zip":"69335"}},{"arcs":[[-1443,-1560,-1554,-1550,1563,-1499,-1486,-1425]],"type":"Polygon","properties":{"state":"NE","name":"BRIDGEPORT","zip":"69336"}},{"arcs":[[1564,1565,1566,1567,1568,1569,1570]],"type":"Polygon","properties":{"state":"NE","name":"CHADRON","zip":"69337"}},{"arcs":[[1571,1572,1573,-1568,1574,-1566]],"type":"Polygon","properties":{"state":"NE","name":"CRAWFORD","zip":"69339"}},{"arcs":[[-1564,-1549,1575,1576,-1561,-1502,1577,-1500]],"type":"Polygon","properties":{"state":"NE","name":"ELLSWORTH","zip":"69340"}},{"arcs":[[1578,1579,1580,1581,1582,-1558]],"type":"Polygon","properties":{"state":"NE","name":"GERING","zip":"69341"}},{"arcs":[[1583,1584,-1542,-1563]],"type":"Polygon","properties":{"state":"NE","name":"GORDON","zip":"69343"}},{"arcs":[[1585,1586,-1579,-1557,-1508,-1451,-1480,-1434]],"type":"Polygon","properties":{"state":"NE","name":"HARRISBURG","zip":"69345"}},{"arcs":[[1587,1588,1589,1590,-1573,1591,1592,-1546]],"type":"Polygon","properties":{"state":"NE","name":"HARRISON","zip":"69346"}},{"arcs":[[1593,-1576,-1548,1594,-1570,1595]],"type":"Polygon","properties":{"state":"NE","name":"HAY SPRINGS","zip":"69347"}},{"arcs":[[-1593,1596,-1571,-1595,-1547]],"type":"Polygon","properties":{"state":"NE","name":"HEMINGFORD","zip":"69348"}},{"arcs":[[-1555,-1539,1597,-1411]],"type":"Polygon","properties":{"state":"NE","name":"HYANNIS","zip":"69350"}},{"arcs":[[-1501,-1578]],"type":"Polygon","properties":{"state":"NE","name":"LAKESIDE","zip":"69351"}},{"arcs":[[1598,1599,1600,-1580,-1587]],"type":"Polygon","properties":{"state":"NE","name":"LYMAN","zip":"69352"}},{"arcs":[[-1592,-1572,-1565,-1597]],"type":"Polygon","properties":{"state":"NE","name":"MARSLAND","zip":"69354"}},{"arcs":[[1601,-1544,-1559,-1583]],"type":"Polygon","properties":{"state":"NE","name":"MINATARE","zip":"69356"}},{"arcs":[[1602,-1589,1603,-1581,-1601]],"type":"Polygon","properties":{"state":"NE","name":"MITCHELL","zip":"69357"}},{"arcs":[[1604,-1590,-1603,-1600]],"type":"Polygon","properties":{"state":"NE","name":"MORRILL","zip":"69358"}},{"arcs":[[-1577,-1594,1605,-1584,-1562]],"type":"Polygon","properties":{"state":"NE","name":"RUSHVILLE","zip":"69360"}},{"arcs":[[-1582,-1604,-1588,-1545,-1602]],"type":"Polygon","properties":{"state":"NE","name":"SCOTTSBLUFF","zip":"69361"}},{"arcs":[[-1598,-1538,-1493,-1412]],"type":"Polygon","properties":{"state":"NE","name":"WHITMAN","zip":"69366"}},{"arcs":[[-1567,-1575]],"type":"Polygon","properties":{"state":"NE","name":"WHITNEY","zip":"69367"}}]}},"arcs":[[[21684,17140],[-90,0]],[[21594,17140],[0,30]],[[21594,17170],[90,0]],[[21684,17170],[0,-30]],[[22184,17229],[-50,7]],[[22134,17236],[-72,82]],[[22062,17318],[0,119]],[[22062,17437],[13,0]],[[22075,17437],[77,-3]],[[22152,17434],[36,-101]],[[22188,17333],[45,-104]],[[22233,17229],[-49,0]],[[22170,16847],[41,-15]],[[22211,16832],[0,-28]],[[22211,16804],[-91,0]],[[22120,16804],[-90,38]],[[22030,16842],[-58,31]],[[21972,16873],[-18,43]],[[21954,16916],[18,0]],[[21972,16916],[58,46]],[[22030,16962],[86,76]],[[22116,17038],[31,-84]],[[22147,16954],[23,-107]],[[21945,17780],[-14,0]],[[21931,17780],[-90,59]],[[21841,17839],[-63,15]],[[21778,17854],[0,31]],[[21778,17885],[180,58]],[[21958,17943],[0,-76]],[[21958,17867],[-13,-87]],[[22449,16995],[-4,25]],[[22445,17020],[4,0]],[[22449,17020],[41,-117]],[[22490,16903],[-23,28],[-18,33],[0,31]],[[22301,17244],[-18,-89]],[[22283,17155],[-45,0]],[[22238,17155],[-54,58]],[[22184,17213],[0,16]],[[22233,17229],[36,45]],[[22269,17274],[32,-30]],[[22332,17361],[-18,-110]],[[22314,17251],[-13,-7]],[[22269,17274],[-81,59]],[[22152,17434],[99,92]],[[22251,17526],[45,0]],[[22296,17526],[36,-165]],[[21684,17051],[-90,0]],[[21594,17051],[0,89]],[[21684,17140],[0,-74]],[[21684,17066],[0,-15]],[[21819,17185],[4,82]],[[21823,17267],[45,-3]],[[21868,17264],[54,8]],[[21922,17272],[36,-56]],[[21958,17216],[-94,-31]],[[21864,17185],[-45,0]],[[21877,16811],[-31,16]],[[21846,16827],[-32,46]],[[21814,16873],[-9,73]],[[21805,16946],[45,16]],[[21850,16962],[104,-46]],[[21972,16873],[-36,-46]],[[21936,16827],[-45,-16]],[[21891,16811],[-14,0]],[[21954,17096],[-90,-15]],[[21864,17081],[0,104]],[[21958,17216],[27,-76]],[[21985,17140],[-31,-44]],[[22120,17750],[18,-224]],[[22138,17526],[-94,0]],[[22044,17526],[-14,61]],[[22030,17587],[90,163]],[[22278,17765],[-158,0]],[[22120,17765],[-27,120]],[[22093,17885],[0,12]],[[22093,17897],[86,3]],[[22179,17900],[99,-135]],[[22193,17892],[18,0],[0,-25],[-5,-3],[-13,28]],[[22211,17051],[0,-31]],[[22211,17020],[-55,0]],[[22156,17020],[23,120]],[[22179,17140],[5,73]],[[22238,17155],[4,-46]],[[22242,17109],[-4,-28]],[[22238,17081],[-27,-30]],[[22337,17259],[-23,-8]],[[22332,17361],[9,-5],[18,-11],[5,3],[81,-86]],[[22445,17262],[-45,-8]],[[22400,17254],[-27,-25]],[[22373,17229],[-36,30]],[[22134,17236],[-108,-7],[40,-79]],[[22066,17150],[-49,-10]],[[22017,17140],[-32,0]],[[21922,17272],[-54,46]],[[21868,17318],[0,91]],[[21868,17409],[27,-76],[63,74]],[[21958,17407],[104,-89]],[[22147,16954],[9,66]],[[22211,17020],[13,0]],[[22224,17020],[45,-43]],[[22269,16977],[-13,-23]],[[22256,16954],[-86,-107]],[[22075,17437],[-31,89]],[[22138,17526],[113,0]],[[22116,18134],[-99,2]],[[22017,18136],[-23,89]],[[21994,18225],[72,0]],[[22066,18225],[50,-91]],[[22062,17437],[-104,-30]],[[21958,17407],[0,180]],[[21958,17587],[0,15]],[[21958,17602],[72,-15]],[[21972,16916],[-18,135]],[[21954,17051],[76,0]],[[22030,17051],[0,-89]],[[21684,17216],[0,-46]],[[21594,17170],[4,76]],[[21598,17246],[90,46]],[[21688,17292],[0,-2]],[[21688,17290],[-4,-74]],[[22328,16783],[-72,-2]],[[22256,16781],[-45,23]],[[22211,16832],[112,48]],[[22323,16880],[5,-97]],[[22120,17765],[-175,15]],[[21958,17867],[135,18]],[[22093,17897],[-18,61]],[[22075,17958],[0,89]],[[22075,18047],[45,0]],[[22120,18047],[59,-147]],[[21774,17081],[13,104]],[[21787,17185],[32,0]],[[21864,17081],[-32,-30]],[[21832,17051],[-58,30]],[[22017,17140],[13,-89]],[[21954,17051],[0,45]],[[21958,17602],[-27,178]],[[22120,17765],[0,-15]],[[22373,16992],[4,-102]],[[22377,16890],[-76,66]],[[22301,16956],[22,51]],[[22323,17007],[50,-2]],[[22373,17005],[0,-13]],[[21963,17958],[-5,-15]],[[21778,17885],[-85,58]],[[21693,17943],[0,89]],[[21693,18032],[58,0]],[[21751,18032],[212,-15]],[[21963,18017],[0,-59]],[[22490,16692],[-27,91],[-104,-30]],[[22359,16753],[-31,30]],[[22323,16880],[54,8]],[[22377,16888],[18,-5]],[[22395,16883],[90,0]],[[22485,16883],[32,-191]],[[22517,16692],[-27,0]],[[21774,17081],[-90,-15]],[[21684,17216],[103,-31]],[[21963,17958],[112,0]],[[21868,17409],[-31,0]],[[21837,17409],[-14,178]],[[21823,17587],[135,0]],[[22256,16954],[45,2]],[[22377,16890],[0,-2]],[[22278,17765],[36,-173],[0,-20],[-18,-46]],[[22332,17615],[0,-8],[-13,-12],[13,20]],[[21963,18047],[0,-30]],[[21751,18032],[0,46]],[[21751,18078],[153,0]],[[21904,18078],[59,-31]],[[22179,17140],[-77,-16]],[[22102,17124],[-36,26]],[[21814,16873],[-130,-54]],[[21684,16819],[0,54]],[[21684,16873],[0,89]],[[21684,16962],[0,30]],[[21684,16992],[121,-46]],[[21850,16962],[-18,89]],[[21963,18047],[112,0]],[[22116,17038],[-14,86]],[[21684,16992],[0,59]],[[21904,18078],[45,58]],[[21949,18136],[68,0]],[[22116,18134],[4,-87]],[[22436,17084],[0,5]],[[22436,17089],[0,15]],[[22436,17104],[22,2]],[[22458,17106],[0,-2],[-4,-18]],[[22454,17086],[-18,-2]],[[22409,17150],[0,-44]],[[22409,17106],[-36,0]],[[22373,17106],[0,3]],[[22373,17109],[0,43]],[[22373,17152],[36,-2]],[[22436,17084],[0,-26]],[[22436,17058],[-36,-5]],[[22400,17053],[9,33]],[[22409,17086],[0,3],[4,0],[23,0]],[[22400,17053],[-27,0]],[[22373,17053],[0,28]],[[22373,17081],[0,8]],[[22373,17089],[13,0],[5,-3],[18,3]],[[22409,17089],[0,-3]],[[22445,17020],[-36,0]],[[22409,17020],[-9,33]],[[22436,17058],[27,5]],[[22463,17063],[-14,-43]],[[22454,17086],[9,-23]],[[22436,17104],[0,46]],[[22436,17150],[13,5]],[[22449,17155],[18,-49],[-4,13],[-14,5],[9,-18]],[[22436,17104],[-27,2]],[[22409,17150],[27,0]],[[22409,17150],[-9,104]],[[22445,17262],[4,-107]],[[22373,17081],[-45,0]],[[22328,17081],[0,28]],[[22328,17109],[4,0]],[[22332,17109],[41,0]],[[22373,17106],[0,-17]],[[22283,17109],[-14,0]],[[22269,17109],[-27,0]],[[22283,17155],[0,-46]],[[22373,17020],[0,33]],[[22409,17020],[-27,0]],[[22382,17020],[-9,0]],[[22269,17081],[-4,-3]],[[22265,17078],[-27,3]],[[22269,17109],[0,-28]],[[22328,17147],[0,8]],[[22328,17155],[9,104]],[[22373,17229],[0,-74]],[[22373,17155],[-45,-8]],[[22395,16883],[5,109]],[[22400,16992],[4,0]],[[22404,16992],[45,3]],[[22490,16903],[-5,-20]],[[22373,17053],[-45,0]],[[22328,17053],[0,28]],[[22373,17020],[-45,0]],[[22328,17020],[0,33]],[[22382,17020],[-9,-15]],[[22323,17007],[-18,13]],[[22305,17020],[23,0]],[[22265,17078],[9,-27]],[[22274,17051],[-63,0]],[[22409,17089],[0,17]],[[22373,16992],[27,0]],[[22332,17109],[-4,38]],[[22373,17155],[0,-3]],[[22274,17051],[-5,-31]],[[22269,17020],[-45,0]],[[22269,17020],[0,-43]],[[22305,17020],[-36,0]],[[22274,17051],[54,2]],[[22328,17155],[-45,0]],[[22269,17081],[9,0],[23,0],[27,0]],[[22404,16992],[5,28]],[[22283,17109],[45,0]],[[21949,16158],[-31,58]],[[21918,16216],[-32,74]],[[21886,16290],[99,46]],[[21985,16336],[45,0]],[[22030,16336],[0,-120]],[[22030,16216],[0,-30]],[[22030,16186],[0,-28]],[[22030,16158],[-81,0]],[[21328,16069],[0,-66]],[[21328,16003],[-90,0]],[[21238,16003],[0,96]],[[21238,16099],[0,59]],[[21238,16158],[90,0]],[[21328,16158],[0,-89]],[[22102,16692],[-72,0]],[[22030,16692],[0,15]],[[22030,16707],[14,43]],[[22044,16750],[76,16]],[[22120,16766],[0,-74]],[[22120,16692],[-18,0]],[[22562,16158],[0,-92]],[[22562,16066],[-176,0]],[[22386,16066],[-45,3]],[[22341,16069],[0,89]],[[22341,16158],[131,0],[0,89]],[[22472,16247],[90,0]],[[22562,16247],[0,-89]],[[22386,16603],[-175,0]],[[22211,16603],[-5,30]],[[22206,16633],[135,16]],[[22341,16649],[45,-46]],[[21972,16008],[-207,-51]],[[21765,15957],[-72,-8]],[[21693,15949],[-14,31]],[[21679,15980],[0,89]],[[21679,16069],[0,58]],[[21679,16127],[104,31]],[[21783,16158],[130,0]],[[21913,16158],[59,-89]],[[21972,16069],[0,-61]],[[21328,16575],[0,46]],[[21328,16621],[0,73]],[[21328,16694],[90,-15]],[[21418,16679],[27,-74]],[[21445,16605],[-32,-61]],[[21413,16544],[-85,31]],[[21594,16873],[0,-90]],[[21594,16783],[-91,0]],[[21503,16783],[0,90]],[[21503,16873],[91,0]],[[21238,16003],[-32,0]],[[21206,16003],[-54,38]],[[21152,16041],[0,58]],[[21152,16099],[86,0]],[[21058,16783],[0,90]],[[21058,16873],[45,0]],[[21103,16873],[135,0]],[[21238,16873],[0,-59]],[[21238,16814],[-32,-31]],[[21206,16783],[-148,0]],[[21985,16336],[-13,61]],[[21972,16397],[-27,58]],[[21945,16455],[4,59]],[[21949,16514],[5,30]],[[21954,16544],[76,8]],[[22030,16552],[0,-127]],[[22030,16425],[0,-89]],[[21783,15919],[-18,38]],[[21972,16008],[13,-28]],[[21985,15980],[-13,-46]],[[21972,15934],[-189,-15]],[[21058,16783],[0,-89]],[[21058,16694],[-90,0]],[[20968,16694],[0,163]],[[20968,16857],[0,16]],[[20968,16873],[90,0]],[[22472,16247],[-131,0]],[[22341,16247],[0,89]],[[22341,16336],[131,0]],[[22472,16336],[90,0]],[[22562,16336],[0,-89]],[[22562,16247],[76,28]],[[22638,16275],[36,-102]],[[22674,16173],[-112,-15]],[[22652,16267],[13,-15],[-4,-15],[-9,30]],[[21152,16099],[-22,59]],[[21130,16158],[18,0]],[[21148,16158],[90,0]],[[22206,15977],[0,-178]],[[22206,15799],[-90,0],[-86,0]],[[22030,15799],[0,181]],[[22030,15980],[90,0]],[[22120,15980],[86,-3]],[[22296,16379],[-85,-43]],[[22211,16336],[-91,0]],[[22120,16336],[0,89]],[[22120,16425],[91,0]],[[22211,16425],[85,0]],[[22296,16425],[0,-46]],[[20972,15802],[0,89]],[[20972,15891],[90,0]],[[21062,15891],[27,-89]],[[21089,15802],[-99,0],[-18,0]],[[21152,16041],[-112,28]],[[21040,16069],[0,89]],[[21040,16158],[90,0]],[[21202,15921],[-23,-119]],[[21179,15802],[-27,0],[-63,0]],[[21062,15891],[36,30]],[[21098,15921],[104,0]],[[21787,16321],[0,-74]],[[21787,16247],[-18,-15]],[[21769,16232],[-72,15]],[[21697,16247],[0,89]],[[21697,16336],[14,0]],[[21711,16336],[76,-15]],[[22341,16247],[-130,0]],[[22211,16247],[0,89]],[[22296,16379],[45,-43]],[[21413,16544],[0,-28]],[[21413,16516],[-85,0]],[[21328,16516],[0,59]],[[21787,16321],[14,15]],[[21801,16336],[40,0]],[[21841,16336],[45,-46]],[[21918,16216],[-131,31]],[[22120,16069],[-90,0]],[[22030,16069],[0,89]],[[22030,16186],[90,-117]],[[21697,16336],[-194,0]],[[21503,16336],[0,89]],[[21503,16425],[91,91]],[[21594,16516],[85,-2]],[[21679,16514],[32,-89]],[[21711,16425],[0,-89]],[[21040,16069],[-68,0]],[[20972,16069],[0,89]],[[20972,16158],[68,0]],[[21859,16738],[0,15]],[[21859,16753],[-13,74]],[[21877,16811],[-18,-73]],[[22562,15888],[-90,89],[90,0]],[[22562,15977],[0,-89]],[[21328,16158],[85,0]],[[21413,16158],[-85,-89]],[[21679,16514],[5,76]],[[21684,16590],[0,15]],[[21684,16605],[90,-15]],[[21774,16590],[0,-2]],[[21774,16588],[0,-74]],[[21774,16514],[-36,-89]],[[21738,16425],[-27,0]],[[20972,15891],[0,89]],[[20972,15980],[126,-59]],[[21594,16158],[0,89]],[[21594,16247],[103,0]],[[21769,16232],[14,-74]],[[21679,16127],[-85,31]],[[21693,15949],[-14,-150]],[[21679,15799],[-58,0]],[[21621,15799],[45,92],[-77,-10]],[[21589,15881],[0,10]],[[21589,15891],[14,89]],[[21603,15980],[76,0]],[[21503,16425],[0,91]],[[21503,16516],[91,0]],[[22120,16336],[-90,0]],[[22030,16425],[90,0]],[[22296,15799],[90,89]],[[22386,15888],[0,-89]],[[22386,15799],[-4,0],[-86,0]],[[22386,16514],[86,-89]],[[22472,16425],[-176,0]],[[22296,16425],[0,89]],[[22296,16514],[90,0]],[[22120,16603],[0,-15]],[[22120,16588],[-90,-16]],[[22030,16572],[0,46]],[[22030,16618],[0,15]],[[22030,16633],[0,59]],[[22102,16692],[18,-89]],[[22341,16069],[-45,0]],[[22296,16069],[-85,0]],[[22211,16069],[130,89]],[[22120,16692],[86,0]],[[22206,16692],[0,-59]],[[22211,16603],[-91,0]],[[21589,15881],[0,-82]],[[21589,15799],[-86,0]],[[21503,15799],[86,92]],[[21328,16516],[0,-180]],[[21328,16336],[-90,0]],[[21238,16336],[0,91]],[[21238,16427],[0,89]],[[21238,16516],[90,0]],[[21503,15799],[-90,0]],[[21413,15799],[-85,92]],[[21328,15891],[0,23]],[[21328,15914],[0,89]],[[21413,16158],[90,0]],[[21503,16158],[14,-89]],[[21517,16069],[86,-89]],[[21238,16427],[-176,0]],[[21062,16427],[0,89]],[[21062,16516],[176,0]],[[22647,15799],[0,89]],[[22647,15888],[0,89]],[[22647,15977],[0,92]],[[22647,16069],[95,0]],[[22742,16069],[122,-153]],[[22864,15916],[-55,-117]],[[22809,15799],[-162,0]],[[22030,16069],[-58,0]],[[21913,16158],[36,0]],[[21841,16336],[32,58]],[[21873,16394],[99,3]],[[21503,16336],[-90,0]],[[21413,16336],[-85,0]],[[21413,16516],[90,0]],[[21594,16694],[0,89]],[[21594,16873],[90,0]],[[21684,16819],[0,-51]],[[21684,16768],[0,-74]],[[21684,16694],[-90,0]],[[20972,16247],[0,89]],[[20972,16336],[0,91]],[[20972,16427],[90,0]],[[21238,16336],[0,-89]],[[21238,16247],[-90,0]],[[21148,16247],[-176,0]],[[21328,15914],[-122,7]],[[21206,15921],[0,82]],[[21431,16694],[72,-89]],[[21503,16605],[-58,0]],[[21418,16679],[13,15]],[[20972,16427],[0,89]],[[20972,16516],[86,0]],[[21058,16516],[4,0]],[[22044,16750],[-14,92]],[[22120,16804],[0,-38]],[[21238,16873],[90,0]],[[21328,16873],[81,0]],[[21409,16873],[-23,-59]],[[21386,16814],[-58,-31]],[[21328,16783],[-90,31]],[[21738,16425],[63,-89]],[[21206,15921],[-4,0]],[[20972,15980],[0,89]],[[20972,16516],[-31,0]],[[20941,16516],[-14,89]],[[20927,16605],[41,89]],[[21058,16694],[0,-89]],[[21058,16605],[0,-89]],[[21873,16394],[-14,46]],[[21859,16440],[86,15]],[[21328,15891],[0,-89]],[[21328,15802],[-90,-3],[-59,3]],[[22386,15888],[0,66]],[[22386,15954],[0,112]],[[22562,16066],[0,-89]],[[22562,15888],[0,-89]],[[22562,15799],[-5,0],[-85,0],[-86,0]],[[21517,16069],[162,0]],[[22341,16158],[0,89]],[[22030,15980],[0,13]],[[22030,15993],[0,76]],[[22120,16069],[0,-89]],[[21958,15799],[14,135]],[[21985,15980],[45,13]],[[22030,15799],[-72,0]],[[21058,16605],[180,0],[0,-89]],[[21774,16738],[-90,-44]],[[21684,16768],[90,-30]],[[21774,16514],[54,0]],[[21828,16514],[31,-74]],[[21503,16605],[91,44]],[[21594,16649],[90,-59]],[[21328,16336],[0,-89]],[[21328,16247],[-90,0]],[[22256,16781],[-50,-89]],[[22431,16692],[-72,0]],[[22359,16692],[0,61]],[[22490,16692],[-59,0]],[[22589,16336],[-27,0]],[[22472,16336],[0,89]],[[22386,16514],[0,89]],[[22386,16603],[45,0]],[[22431,16603],[90,0]],[[22521,16603],[68,-267]],[[22341,16649],[18,43]],[[22431,16692],[0,-89]],[[22647,16069],[-45,0]],[[22602,16069],[-40,-3]],[[22674,16173],[68,-104]],[[21783,15919],[58,-120]],[[21841,15799],[-76,0],[-86,0]],[[21328,16247],[0,-89]],[[21238,16158],[0,89]],[[22296,16514],[-85,0]],[[22211,16514],[0,89]],[[22120,16588],[0,-163]],[[22030,16552],[0,20]],[[22206,15977],[90,0]],[[22296,15977],[90,-23]],[[22296,15799],[-90,0]],[[22620,16336],[41,5],[-32,-23],[-9,18]],[[22589,16336],[49,-61]],[[21684,16633],[0,-28]],[[21594,16649],[0,45]],[[21684,16694],[0,-38]],[[21684,16656],[0,-23]],[[21503,16158],[91,0]],[[21801,16753],[-27,-15]],[[21859,16753],[-58,0]],[[21413,15799],[-85,3]],[[21828,16514],[4,0]],[[21832,16514],[27,0]],[[21859,16514],[63,0]],[[21922,16514],[27,0]],[[22931,15799],[-22,0],[-100,0]],[[22864,15916],[67,-117]],[[22647,15799],[-85,0]],[[22562,15888],[85,0]],[[21431,16694],[-13,89]],[[21418,16783],[85,0]],[[20972,16158],[0,89]],[[21148,16247],[0,-89]],[[22647,15977],[-45,0]],[[22602,15977],[0,92]],[[21418,16783],[-32,31]],[[21409,16873],[9,0]],[[21418,16873],[85,0]],[[21621,15799],[-32,0]],[[22120,16069],[91,0]],[[22296,16069],[0,-92]],[[22602,15977],[-40,0]],[[22211,16247],[-181,-31]],[[21503,16158],[0,89]],[[21503,16247],[91,0]],[[22211,16425],[0,89]],[[20972,16158],[-85,0]],[[20887,16158],[-5,89]],[[20882,16247],[90,0]],[[21413,16336],[0,-178]],[[22517,16692],[4,-89]],[[21328,16694],[0,89]],[[21328,16621],[-122,162]],[[21954,16544],[-5,44]],[[21949,16588],[81,30]],[[22030,16707],[-81,-15]],[[21949,16692],[-13,135]],[[21503,16336],[0,-89]],[[21958,15799],[-18,0],[-90,0],[-9,0]],[[21864,16618],[4,-30]],[[21868,16588],[-9,0]],[[21859,16588],[-27,2]],[[21832,16590],[0,28]],[[21832,16618],[18,5]],[[21850,16623],[14,-5]],[[21850,16633],[0,26]],[[21850,16659],[9,-3]],[[21859,16656],[9,0],[14,-7],[0,-16]],[[21882,16633],[-32,0]],[[21859,16656],[0,51]],[[21859,16707],[5,8]],[[21864,16715],[27,-10]],[[21891,16705],[0,-49]],[[21891,16656],[0,-23]],[[21891,16633],[-9,0]],[[21936,16656],[0,-23]],[[21936,16633],[-14,0]],[[21922,16633],[-31,0]],[[21891,16656],[45,0]],[[21922,16618],[0,-30]],[[21922,16588],[-54,0]],[[21864,16618],[58,0]],[[21936,16692],[0,-36]],[[21891,16705],[45,-13]],[[21850,16633],[0,-10]],[[21832,16618],[-4,15]],[[21828,16633],[4,21]],[[21832,16654],[18,5]],[[21922,16633],[0,-15]],[[21859,16588],[0,-74]],[[21832,16514],[0,76]],[[21891,16811],[0,-106]],[[21864,16715],[-5,23]],[[21922,16588],[0,-74]],[[21949,16692],[-13,0]],[[21936,16633],[94,0]],[[21949,16588],[-27,0]],[[21832,16654],[-22,-3]],[[21810,16651],[-9,51]],[[21801,16702],[58,5]],[[21774,16590],[0,43]],[[21774,16633],[54,0]],[[21832,16590],[-58,-2]],[[21801,16753],[0,-51]],[[21810,16651],[-126,5]],[[21774,16633],[-90,0]],[[21328,17201],[-104,0]],[[21224,17201],[-76,-34]],[[21148,17167],[0,64]],[[21148,17231],[90,89]],[[21238,17320],[90,89]],[[21328,17409],[45,0]],[[21373,17409],[45,0]],[[21418,17409],[85,-193]],[[21503,17216],[-175,-15]],[[20697,17452],[0,105],[-90,0]],[[20607,17557],[-4,119]],[[20603,17676],[211,-41],[0,130]],[[20814,17765],[68,0]],[[20882,17765],[81,-28]],[[20963,17737],[5,-285]],[[20968,17452],[0,-7]],[[20968,17445],[-181,7]],[[20787,17452],[-90,0]],[[21868,17264],[0,54]],[[20423,17646],[-135,28],[0,89]],[[20288,17763],[117,0]],[[20405,17763],[103,0],[5,-89]],[[20513,17674],[-90,-28]],[[20787,17333],[0,-104],[-90,89]],[[20697,17318],[90,15]],[[21513,17221],[18,-81],[-113,-28]],[[21418,17112],[-90,30]],[[21328,17142],[0,59]],[[21503,17216],[10,5]],[[21684,16962],[-90,0]],[[21594,16962],[0,89]],[[20607,17318],[0,89]],[[20607,17407],[90,45]],[[20787,17452],[0,-119]],[[20697,17318],[-90,0]],[[21031,17081],[-41,-48]],[[20990,17033],[-108,2],[-4,92]],[[20878,17127],[148,15]],[[21026,17142],[5,-61]],[[21598,17587],[0,-178]],[[21598,17409],[-90,0]],[[21508,17409],[0,178]],[[21508,17587],[90,0]],[[21328,17409],[-45,0]],[[21283,17409],[0,178]],[[21283,17587],[45,0]],[[21328,17587],[45,0]],[[21373,17587],[0,-178]],[[21503,16873],[-85,91]],[[21418,16964],[0,148]],[[21513,17221],[85,25]],[[21594,16962],[0,-89]],[[21837,17409],[-149,-30]],[[21688,17379],[0,30]],[[21688,17409],[-58,282]],[[21630,17691],[58,-30]],[[21688,17661],[135,-74]],[[20814,17765],[-211,-15]],[[20603,17750],[0,104]],[[20603,17854],[180,0]],[[20783,17854],[104,0]],[[20887,17854],[-5,-89]],[[20243,17585],[0,178]],[[20243,17763],[45,0]],[[20423,17646],[0,-61]],[[20423,17585],[-86,0]],[[20337,17585],[-90,0]],[[20247,17585],[-4,0]],[[20878,17351],[0,-224]],[[20878,17127],[-104,-15]],[[20774,17112],[-162,43]],[[20612,17155],[-5,74]],[[20607,17229],[0,89]],[[20787,17333],[91,18]],[[21067,17231],[-41,-89]],[[20878,17351],[90,94]],[[20968,17452],[85,3]],[[21053,17455],[5,-46]],[[21058,17409],[9,-178]],[[21688,17409],[-90,0]],[[21598,17587],[0,120]],[[21598,17707],[32,-16]],[[21283,17409],[-135,0]],[[21148,17409],[0,178]],[[21148,17587],[135,0]],[[21508,17409],[-90,0]],[[21373,17587],[135,0]],[[21148,17409],[-90,0]],[[21053,17455],[0,175]],[[21053,17630],[95,-43]],[[21148,17231],[-81,0]],[[21148,17409],[90,-89]],[[21688,17290],[135,-23]],[[21688,17292],[0,41]],[[21688,17333],[0,46]],[[21103,16977],[0,165]],[[21103,17142],[45,25]],[[21224,17201],[-4,-209]],[[21220,16992],[-117,-15]],[[20603,17676],[0,74]],[[20968,16873],[0,132]],[[20968,17005],[22,28]],[[21031,17081],[72,61]],[[21103,16977],[0,-104]],[[20607,17407],[0,150]],[[21418,16964],[-90,-2]],[[21328,16962],[0,30]],[[21328,16992],[0,150]],[[21598,17246],[90,87]],[[21328,16992],[-108,0]],[[20607,17407],[-90,0]],[[20517,17407],[-94,178]],[[20513,17674],[90,2]],[[21328,16962],[0,-89]],[[21418,16964],[0,-91]],[[21386,17857],[-58,-89]],[[21328,17768],[-140,-3]],[[21188,17765],[-45,120]],[[21143,17885],[0,58]],[[21143,17943],[185,46]],[[21328,17989],[58,-46]],[[21386,17943],[0,-86]],[[21693,18213],[0,50]],[[21693,18263],[-32,128]],[[21661,18391],[122,0]],[[21783,18391],[0,-135]],[[21783,18256],[0,-43]],[[21783,18213],[-90,0]],[[19882,17941],[-9,0]],[[19873,17941],[0,178]],[[19873,18119],[180,2]],[[20053,18121],[90,0],[0,-178]],[[20143,17943],[-261,-2]],[[20143,18210],[-90,0]],[[20053,18210],[-63,524]],[[19990,18734],[140,-5]],[[20130,18729],[9,-341]],[[20139,18388],[4,-178]],[[19873,17941],[-333,0]],[[19540,17941],[0,89]],[[19540,18030],[-13,572]],[[19527,18602],[153,2]],[[19680,18604],[63,38]],[[19743,18642],[-18,-345],[139,0]],[[19864,18297],[9,-178]],[[21188,17765],[-90,0]],[[21098,17765],[45,120]],[[21841,17839],[-166,-117]],[[21675,17722],[103,132]],[[21508,18302],[0,-89]],[[21508,18213],[-90,0]],[[21418,18213],[0,89]],[[21418,18302],[90,0]],[[20959,18426],[0,82]],[[20959,18508],[94,150]],[[21053,18658],[198,-163]],[[21251,18495],[-18,-31]],[[21233,18464],[-180,-73]],[[21053,18391],[-94,35]],[[20409,18876],[0,-223]],[[20409,18653],[-94,28]],[[20315,18681],[0,195]],[[20315,18876],[94,0]],[[20963,18121],[-180,0]],[[20783,18121],[0,178]],[[20783,18299],[27,0]],[[20810,18299],[153,3]],[[20963,18302],[0,-181]],[[20238,18876],[-13,-178]],[[20225,18698],[-91,28]],[[20134,18726],[27,150]],[[20161,18876],[77,0]],[[21418,18078],[0,46]],[[21418,18124],[0,89]],[[21508,18213],[0,-31]],[[21508,18182],[0,-104]],[[21508,18078],[-90,0]],[[20959,18426],[-36,8]],[[20923,18434],[-54,46]],[[20869,18480],[0,73]],[[20869,18553],[90,-45]],[[20328,18121],[0,-178],[126,0],[-49,-180]],[[20243,17763],[0,180],[-100,0]],[[20053,18121],[0,89]],[[20143,18210],[91,0]],[[20234,18210],[94,0]],[[20328,18210],[0,-89]],[[20783,17943],[0,-89]],[[20603,17854],[-5,178]],[[20598,18032],[90,0]],[[20688,18032],[95,0]],[[20783,18032],[0,-89]],[[21418,18302],[0,89]],[[21418,18391],[0,89],[122,0]],[[21540,18480],[63,-61]],[[21603,18419],[0,-28]],[[21603,18391],[-95,-89]],[[21598,18213],[0,58]],[[21598,18271],[95,-8]],[[21693,18213],[-95,0]],[[21053,18317],[-90,-15]],[[20810,18299],[-32,61],[145,74]],[[21053,18391],[0,-74]],[[21310,18658],[0,-89]],[[21310,18569],[-59,-74]],[[21053,18658],[0,40]],[[21053,18698],[180,23]],[[21233,18721],[77,-63]],[[21994,18225],[-36,82]],[[21958,18307],[14,25]],[[21972,18332],[121,-33]],[[22093,18299],[-27,-74]],[[21598,18271],[5,120]],[[21603,18419],[58,-28]],[[21751,18078],[32,135]],[[21783,18256],[49,51]],[[21832,18307],[27,-5]],[[21859,18302],[90,-166]],[[20139,18388],[90,0],[5,-178]],[[20328,18121],[135,0],[0,89]],[[20463,18210],[135,0]],[[20598,18210],[0,-178]],[[21310,18658],[108,-31]],[[21418,18627],[0,-28]],[[21418,18599],[-108,-30]],[[21143,18124],[-90,-46]],[[21053,18078],[32,89]],[[21085,18167],[58,-43]],[[21328,18391],[-45,0]],[[21283,18391],[-50,73]],[[21418,18599],[95,-53]],[[21513,18546],[27,-66]],[[21418,18391],[-90,0]],[[21328,17989],[0,135]],[[21328,18124],[90,0]],[[21418,18078],[0,-135]],[[21418,17943],[-32,0]],[[21859,18302],[99,5]],[[20328,18210],[135,89]],[[20463,18299],[0,-89]],[[21832,18307],[0,53]],[[21832,18360],[68,28]],[[21900,18388],[72,-8]],[[21972,18380],[0,-48]],[[21598,18213],[0,-31]],[[21598,18182],[-90,0]],[[20594,18754],[4,-122]],[[20598,18632],[-189,21]],[[20409,18876],[32,0],[153,-122]],[[21283,18302],[0,-89]],[[21283,18213],[-77,89]],[[21206,18302],[27,15]],[[21233,18317],[50,-15]],[[21053,17630],[0,135]],[[21053,17765],[45,0]],[[21328,17768],[0,-181]],[[21328,18391],[-45,-89]],[[21233,18317],[50,74]],[[21693,18599],[0,-107],[-90,77]],[[21603,18569],[0,58]],[[21603,18627],[90,-28]],[[20995,17765],[-32,178],[90,0]],[[21053,17943],[90,0]],[[21053,17765],[-58,0]],[[19680,18604],[-99,49],[-50,223]],[[19531,18876],[108,0],[185,0],[31,0]],[[19855,18876],[0,-201]],[[19855,18675],[-112,-33]],[[20134,18726],[-4,3]],[[19990,18734],[-135,-59]],[[19855,18876],[59,0],[184,0],[63,0]],[[20963,18032],[-76,-89]],[[20887,17943],[-104,0]],[[20783,18032],[0,89]],[[20963,18121],[0,-89]],[[21513,18546],[90,23]],[[21693,18599],[90,-68]],[[21783,18531],[0,-140]],[[20963,17737],[32,28]],[[19855,18675],[9,-378]],[[20869,18553],[-271,79]],[[20594,18754],[229,-124],[230,68]],[[20887,17943],[0,-89]],[[20594,18388],[-131,-89]],[[20225,18698],[90,-17]],[[20598,18632],[-4,-213]],[[20594,18419],[0,-31]],[[20729,18312],[-41,-280]],[[20598,18210],[-4,178]],[[20594,18419],[121,-46]],[[20715,18373],[14,-61]],[[21283,18213],[0,-89]],[[21283,18124],[-140,0]],[[21085,18167],[0,135]],[[21085,18302],[121,0]],[[21053,17943],[0,89]],[[21053,18032],[0,46]],[[21283,18124],[45,0]],[[21418,17943],[90,0]],[[21508,17943],[90,0]],[[21598,17943],[0,-175]],[[21598,17768],[-212,89]],[[21053,18032],[-90,0]],[[21053,18317],[32,-15]],[[21832,18360],[-49,31]],[[21783,18531],[117,-143]],[[20729,18312],[54,-13]],[[21499,18658],[-81,-31]],[[21233,18721],[266,-63]],[[21972,18380],[121,-81]],[[20238,18876],[77,0]],[[19527,18602],[-109,12]],[[19418,18614],[-108,31]],[[19310,18645],[-189,74]],[[19121,18719],[0,157]],[[19121,18876],[239,0],[171,0]],[[21598,17768],[0,-61]],[[20869,18480],[-154,-107]],[[21693,18032],[-95,150]],[[21508,17943],[0,135]],[[21693,17943],[-95,0]],[[21688,17661],[-13,61]],[[21499,18658],[104,-31]],[[20702,16783],[-90,-134]],[[20612,16649],[-45,23]],[[20567,16672],[45,201]],[[20612,16873],[27,15]],[[20639,16888],[63,-105]],[[20450,16694],[-14,89],[-166,-73]],[[20270,16710],[0,46]],[[20270,16756],[0,117]],[[20270,16873],[72,0]],[[20342,16873],[148,0]],[[20490,16873],[122,0]],[[20567,16672],[-27,-21]],[[20540,16651],[-90,43]],[[20450,16590],[0,104]],[[20540,16651],[-90,-61]],[[19900,16710],[-31,-105]],[[19869,16605],[-59,0]],[[19810,16605],[-58,89]],[[19752,16694],[58,148]],[[19810,16842],[77,3],[13,-135]],[[19621,17488],[-85,23],[-5,-102]],[[19531,17409],[-167,0]],[[19364,17409],[-58,-2],[0,178]],[[19306,17585],[126,0]],[[19432,17585],[86,0]],[[19518,17585],[103,0]],[[19621,17585],[0,-97]],[[19896,17140],[-180,-89]],[[19716,17051],[-27,0]],[[19689,17051],[27,119]],[[19716,17170],[90,0],[-9,104]],[[19797,17274],[94,0]],[[19891,17274],[5,-45]],[[19896,17229],[0,-89]],[[20067,17229],[-171,0]],[[19891,17274],[0,46]],[[19891,17320],[176,0],[0,-91]],[[20161,17023],[-27,206]],[[20134,17229],[23,0]],[[20157,17229],[90,0]],[[20247,17229],[9,0]],[[20256,17229],[23,-133]],[[20279,17096],[-27,-73]],[[20252,17023],[-91,0]],[[20941,16516],[-59,0]],[[20882,16516],[-104,28]],[[20778,16544],[-4,105],[-99,0]],[[20675,16649],[85,134]],[[20760,16783],[122,-15]],[[20882,16768],[45,-163]],[[19689,17051],[-63,0]],[[19626,17051],[-5,223],[59,0]],[[19680,17274],[36,-104]],[[20270,16873],[-18,0]],[[20252,16873],[0,150]],[[20252,17023],[72,-46]],[[20324,16977],[18,-104]],[[19518,17941],[0,-356]],[[19432,17585],[-95,104]],[[19337,17689],[-81,249]],[[19256,17938],[41,0]],[[19297,17938],[221,3]],[[19495,17051],[36,358]],[[19621,17488],[117,-51]],[[19738,17437],[-27,-117]],[[19711,17320],[-31,-46]],[[19626,17051],[-131,0]],[[20112,17585],[-221,0]],[[19891,17585],[-9,0]],[[19882,17585],[0,356]],[[20243,17585],[-131,0]],[[19351,16873],[-104,0]],[[19247,16873],[-148,0]],[[19099,16873],[-9,297]],[[19090,17170],[121,0]],[[19211,17170],[149,-18],[0,-101]],[[19360,17051],[-5,-178]],[[19355,16873],[-4,0]],[[20968,17005],[-104,-92]],[[20864,16913],[-90,-68]],[[20774,16845],[-32,89]],[[20742,16934],[0,12],[0,105],[32,61]],[[20774,16845],[-41,-34]],[[20733,16811],[-31,-28]],[[20639,16888],[31,43]],[[20670,16931],[72,3]],[[19797,17274],[-86,46]],[[19738,17437],[153,59]],[[19891,17496],[0,-176]],[[20490,16964],[0,-91]],[[20324,16977],[31,43]],[[20355,17020],[135,-56]],[[20657,16649],[0,-133]],[[20657,16516],[-41,0]],[[20616,16516],[-166,0]],[[20450,16516],[-59,31],[59,43]],[[20612,16649],[45,0]],[[19081,17585],[-14,0]],[[19067,17585],[0,101]],[[19067,17686],[270,3]],[[19306,17585],[-225,0]],[[19603,16873],[-58,-90]],[[19545,16783],[-136,90]],[[19409,16873],[194,0]],[[20432,17185],[-77,-104]],[[20355,17081],[-76,15]],[[20256,17229],[149,0]],[[20405,17229],[27,-44]],[[19855,16481],[-36,-69]],[[19819,16412],[-90,0]],[[19729,16412],[0,74]],[[19729,16486],[-4,203]],[[19725,16689],[0,5]],[[19725,16694],[27,0]],[[19810,16605],[32,-73],[13,-16],[0,-35]],[[19891,17496],[0,89]],[[20112,17585],[0,-89],[-221,0]],[[20355,17081],[0,-61]],[[20094,16471],[-14,223]],[[20080,16694],[104,16]],[[20184,16710],[27,-216]],[[20211,16494],[-117,-23]],[[20702,16516],[-45,0]],[[20657,16649],[18,0]],[[20778,16544],[-76,-28]],[[20517,17407],[-90,-89]],[[20427,17318],[-90,0],[0,267]],[[20882,16768],[27,77]],[[20909,16845],[59,12]],[[20071,16977],[0,-104]],[[20071,16873],[-180,0]],[[19891,16873],[0,45]],[[19891,16918],[180,59]],[[19914,16476],[-59,5]],[[19869,16605],[103,67]],[[19972,16672],[9,-201]],[[19981,16471],[-67,5]],[[20909,16845],[-45,68]],[[20094,16471],[-90,-16]],[[20004,16455],[-23,16]],[[19972,16672],[63,22]],[[20035,16694],[27,0]],[[20062,16694],[18,0]],[[19599,16494],[-45,-8]],[[19554,16486],[-73,-5]],[[19481,16481],[-112,89]],[[19369,16570],[58,81],[-76,222]],[[19355,16873],[54,0]],[[19545,16783],[45,-104]],[[19590,16679],[9,-185]],[[19891,16918],[5,222]],[[19896,17140],[175,-148]],[[20071,16992],[0,-15]],[[20161,17023],[-90,-31]],[[20067,17229],[67,0]],[[20760,16783],[-27,28]],[[19810,16873],[-85,0]],[[19725,16873],[-9,0]],[[19716,16873],[0,178]],[[19891,16873],[-81,0]],[[19495,17051],[-135,0]],[[19211,17170],[-9,89],[162,5],[0,145]],[[19725,16694],[0,179]],[[19810,16873],[0,-31]],[[20157,17229],[4,195],[86,-17]],[[20247,17407],[0,-178]],[[19716,16873],[-113,0]],[[20247,17585],[0,-178]],[[19729,16486],[-130,8]],[[19590,16679],[135,10]],[[20670,16931],[-103,46]],[[20567,16977],[45,178]],[[20094,16873],[-32,-179]],[[20035,16694],[-135,16]],[[20071,16873],[23,0]],[[20094,16873],[158,0]],[[20270,16756],[-86,-46]],[[20490,16964],[77,13]],[[20432,17185],[175,44]],[[19621,17585],[261,0]],[[20427,17318],[-22,-89]],[[20270,16519],[0,-13]],[[20270,16506],[-59,-12]],[[20270,16710],[0,-191]],[[19518,17941],[22,0]],[[20450,16516],[-5,-89]],[[20445,16427],[-85,0]],[[20360,16427],[-90,92]],[[20445,16336],[0,91]],[[20616,16516],[0,-89]],[[20616,16427],[0,-89]],[[20616,16338],[-81,-45]],[[20535,16293],[-90,43]],[[19828,16069],[0,-267]],[[19828,15802],[-90,0]],[[19738,15802],[0,356]],[[19738,16158],[90,0]],[[19828,16158],[0,-89]],[[19436,16160],[-49,-180]],[[19387,15980],[-86,0]],[[19301,15980],[-9,239]],[[19292,16219],[144,-59]],[[19729,16160],[-76,-2]],[[19653,16158],[-99,30]],[[19554,16188],[85,61]],[[19639,16249],[90,0]],[[19729,16249],[0,-89]],[[19914,16219],[0,30]],[[19914,16249],[0,227]],[[20004,16455],[0,-251]],[[20004,16204],[-90,15]],[[20535,16293],[0,-135]],[[20535,16158],[-90,0]],[[20445,16158],[0,178]],[[19567,15802],[-86,-3],[-94,0]],[[19387,15799],[0,181]],[[19387,15980],[90,0]],[[19477,15980],[86,0]],[[19563,15980],[4,-178]],[[19468,16188],[0,105]],[[19468,16293],[86,193]],[[19729,16412],[0,-74]],[[19729,16338],[-90,-89]],[[19554,16188],[-86,0]],[[20445,16158],[0,-178]],[[20445,15980],[-90,0]],[[20355,15980],[-85,0]],[[20270,15980],[0,89]],[[20270,16069],[0,89]],[[20270,16158],[90,0]],[[20360,16158],[85,0]],[[20089,15802],[-85,0]],[[20004,15802],[0,267]],[[20004,16069],[85,0]],[[20089,16069],[0,-178]],[[20089,15891],[0,-89]],[[20621,15980],[-90,0]],[[20531,15980],[-86,0]],[[20535,16158],[81,0]],[[20616,16158],[5,0]],[[20621,16158],[0,-178]],[[20270,16069],[-90,0]],[[20180,16069],[0,89]],[[20180,16158],[90,0]],[[20882,16247],[-90,0]],[[20792,16247],[-86,0]],[[20706,16247],[0,89]],[[20706,16336],[86,8]],[[20792,16344],[180,-8]],[[20616,16158],[90,89]],[[20706,16247],[86,-59]],[[20792,16188],[0,-30]],[[20792,16158],[-86,0]],[[20706,16158],[-85,0]],[[20887,16158],[0,-89]],[[20887,16069],[-95,89]],[[20792,16188],[0,59]],[[19436,16160],[32,0]],[[19468,16160],[9,-180]],[[19468,16188],[0,-28]],[[19292,16219],[-4,30]],[[19288,16249],[31,290]],[[19319,16539],[50,31]],[[19481,16481],[-85,-59],[72,-129]],[[20180,16069],[0,-178],[-91,0]],[[20089,16069],[91,0]],[[19914,16249],[-95,0],[0,163]],[[20616,16338],[90,-2]],[[20432,15802],[112,66],[-13,112]],[[20621,15980],[0,-178]],[[20621,15802],[-180,0],[-9,0]],[[20972,15802],[-85,0],[-86,0],[-5,0]],[[20796,15802],[0,89]],[[20796,15891],[91,0]],[[20887,15891],[85,0]],[[20882,16427],[-90,-83]],[[20706,16336],[0,91]],[[20706,16427],[-4,89]],[[20882,16516],[0,-89]],[[20270,16321],[-90,15],[90,91]],[[20270,16427],[0,-91]],[[20270,16336],[0,-15]],[[19387,15799],[-176,0]],[[19211,15799],[0,181]],[[19211,15980],[90,0]],[[20094,16158],[-5,-89]],[[20004,16069],[-90,0]],[[19914,16069],[0,89]],[[19914,16158],[90,0]],[[20004,16158],[90,0]],[[19211,15980],[18,269]],[[19229,16249],[59,0]],[[19914,16219],[0,-61]],[[19914,16158],[-86,0]],[[19738,16158],[-9,2]],[[19729,16249],[0,89]],[[20360,16336],[0,-178]],[[20270,16158],[0,163]],[[20270,16336],[90,0]],[[20355,15802],[-85,0]],[[20270,15802],[0,178]],[[20355,15980],[0,-178]],[[20616,16427],[90,0]],[[20445,16336],[-85,0]],[[20360,16336],[0,91]],[[20270,16427],[0,79]],[[20706,15980],[-85,0]],[[20706,16158],[0,-178]],[[20180,16158],[-86,0]],[[20004,16158],[0,46]],[[20004,15802],[-90,0]],[[19914,15802],[0,267]],[[20796,15891],[-90,89]],[[20887,16069],[0,-89]],[[20887,15980],[0,-89]],[[20972,15980],[-85,0]],[[19738,15802],[-76,0],[-9,0]],[[19653,15802],[0,178]],[[19653,15980],[0,178]],[[19653,15980],[-90,0]],[[19914,16069],[-86,0]],[[20432,15802],[-77,0]],[[19914,15802],[-86,0]],[[20270,15802],[-181,0]],[[20882,16427],[90,0]],[[19653,15802],[-86,0]],[[20796,15802],[-171,0],[-4,0]],[[18684,15802],[0,356]],[[18684,16158],[163,0]],[[18847,16158],[13,0]],[[18860,16158],[0,-267]],[[18860,15891],[0,-89]],[[18860,15802],[-162,0],[-14,0]],[[19121,15980],[-85,0]],[[19036,15980],[0,178]],[[19036,16158],[72,0]],[[19108,16158],[13,0]],[[19121,16158],[0,-178]],[[18243,16069],[0,-43]],[[18243,16026],[-85,-3],[0,-221]],[[18158,15802],[-113,0],[-68,0]],[[17977,15802],[0,267],[-85,89]],[[17892,16158],[72,0]],[[17964,16158],[90,0]],[[18054,16158],[85,0]],[[18139,16158],[91,0]],[[18230,16158],[13,0]],[[18243,16158],[0,-89]],[[19211,15980],[-90,0]],[[19121,16158],[108,91]],[[17892,16158],[-90,0]],[[17802,16158],[-126,0]],[[17676,16158],[0,91],[0,181],[0,84]],[[17676,16514],[180,2]],[[17856,16516],[18,0]],[[17874,16516],[90,-358]],[[18684,15802],[-157,0],[-18,0]],[[18509,15802],[0,269]],[[18509,16071],[0,87]],[[18509,16158],[162,0]],[[18671,16158],[13,0]],[[18932,16158],[-72,0]],[[18847,16158],[0,358]],[[18847,16516],[76,0]],[[18923,16516],[14,0]],[[18937,16516],[-5,-89]],[[18932,16427],[0,-269]],[[19036,15888],[0,-89]],[[19036,15799],[-176,3]],[[18860,15891],[176,-3]],[[18054,16158],[27,267]],[[18081,16425],[58,0],[0,-267]],[[19108,16158],[4,358]],[[19112,16516],[77,0]],[[19189,16516],[130,23]],[[19112,16516],[-9,0]],[[19103,16516],[-4,89]],[[19099,16605],[90,-89]],[[17860,15802],[-184,0],[0,356]],[[17802,16158],[58,-356]],[[18230,16158],[0,135]],[[18230,16293],[175,-46],[0,-89]],[[18405,16158],[-162,0]],[[18509,16158],[-104,0]],[[18230,16293],[-5,223]],[[18225,16516],[77,-2]],[[18302,16514],[121,2]],[[18423,16516],[144,0]],[[18567,16516],[104,0]],[[18671,16516],[0,-358]],[[17874,16516],[162,0]],[[18036,16516],[45,0]],[[18081,16516],[0,-91]],[[18932,16158],[90,0]],[[19022,16158],[14,0]],[[19036,15980],[0,-92]],[[19121,15980],[5,-181]],[[19126,15799],[-77,0],[-13,0]],[[18243,15802],[-67,0],[-18,0]],[[18243,16026],[0,-224]],[[18671,16516],[167,0]],[[18838,16516],[9,0]],[[19022,16158],[0,269],[-90,0]],[[18937,16516],[166,0]],[[18509,16071],[-90,-2]],[[18419,16069],[-176,0]],[[17977,15802],[-117,0]],[[18419,16069],[0,-267]],[[18419,15802],[-68,0],[-108,0]],[[18509,15802],[-90,0]],[[18081,16516],[45,0]],[[18126,16516],[99,0]],[[19211,15799],[-76,0],[-9,0]],[[18572,16667],[-5,116]],[[18567,16783],[-90,448]],[[18477,17231],[243,-2]],[[18720,17229],[14,0]],[[18734,17229],[90,-89]],[[18824,17140],[-4,-242],[-68,41],[99,-61],[-18,-229]],[[18833,16649],[-45,104],[-216,-86]],[[19090,17170],[-9,59]],[[19081,17229],[0,356]],[[18180,17231],[-77,0]],[[18103,17231],[-175,0]],[[17928,17231],[-113,0]],[[17815,17231],[-85,0],[0,247]],[[17730,17478],[0,109]],[[17730,17587],[99,0]],[[17829,17587],[166,0]],[[17995,17587],[167,0]],[[18162,17587],[18,0]],[[18180,17587],[0,-356]],[[17707,16829],[-31,-2]],[[17676,16827],[-162,0]],[[17514,16827],[27,226]],[[17541,17053],[130,0]],[[17671,17053],[59,-15],[-23,-209]],[[18923,16516],[-31,329],[112,295],[-180,0]],[[18734,17229],[347,0]],[[19099,16873],[0,-173]],[[19099,16700],[0,-95]],[[17131,17277],[-149,-3]],[[16982,17274],[32,313],[184,0]],[[17198,17587],[23,-313]],[[17221,17274],[-90,3]],[[17838,17086],[31,-257]],[[17869,16829],[-13,0]],[[17856,16829],[-149,0]],[[17671,17053],[5,84],[121,-13]],[[17797,17124],[41,-38]],[[16343,16827],[-90,0],[-136,0],[0,402]],[[16117,17229],[199,0]],[[16316,17229],[27,-402]],[[17514,16827],[-27,0],[-131,0],[-122,2]],[[17234,16829],[5,224]],[[17239,17053],[284,0]],[[17523,17053],[18,0]],[[19099,16700],[103,-33],[45,206]],[[16761,17201],[-36,73]],[[16725,17274],[104,0]],[[16829,17274],[153,0]],[[17131,17277],[-9,-107]],[[17122,17170],[-361,31]],[[18423,16516],[59,267]],[[18482,16783],[85,0]],[[18572,16667],[-5,-151]],[[16640,16827],[-90,0],[-32,0]],[[16518,16827],[-22,402]],[[16496,17229],[148,2]],[[16644,17231],[0,-343]],[[16644,16888],[-4,-61]],[[18126,16516],[-5,313]],[[18121,16829],[181,0]],[[18302,16829],[0,-30]],[[18302,16799],[0,-125],[-72,-10],[72,-150]],[[19130,18297],[14,-356]],[[19144,17941],[-77,0]],[[19067,17941],[-13,0]],[[19054,17941],[0,132],[-135,48],[31,176]],[[18950,18297],[180,0]],[[17856,16516],[0,313]],[[17869,16829],[162,0]],[[18031,16829],[5,-313]],[[17122,17170],[13,-86]],[[17135,17084],[-310,28]],[[16825,17112],[-64,89]],[[19067,17585],[-148,0]],[[18919,17585],[72,356]],[[18991,17941],[63,0]],[[19067,17941],[0,-255]],[[18482,16783],[-45,41]],[[18437,16824],[-63,407]],[[18374,17231],[103,0]],[[18063,17033],[-135,56]],[[17928,17089],[0,142]],[[18103,17231],[-40,-198]],[[16518,16827],[-27,0],[-90,0],[-58,0]],[[16316,17229],[180,0]],[[17797,17124],[18,107]],[[17928,17089],[-90,-3]],[[17523,17053],[36,435],[171,-10]],[[17194,17607],[175,-22],[0,-354],[-126,-86]],[[17243,17145],[-22,129]],[[17198,17587],[-4,20]],[[17234,16829],[-27,-2],[-139,0]],[[17068,16827],[67,257]],[[17243,17145],[-4,-92]],[[18031,16829],[63,0]],[[18094,16829],[27,0]],[[18838,16516],[-5,133]],[[18162,17587],[0,359]],[[18162,17946],[162,0]],[[18324,17946],[293,-3]],[[18617,17943],[0,-358]],[[18617,17585],[-437,2]],[[18063,17033],[90,-94],[-59,-110]],[[17194,17607],[-5,250]],[[17189,17857],[167,2]],[[17356,17859],[81,0]],[[17437,17859],[117,0]],[[17554,17859],[113,3]],[[17667,17862],[-5,-270],[68,-5]],[[18180,17231],[104,0]],[[18284,17231],[18,-402]],[[16825,17112],[-181,-224]],[[16644,17231],[5,43]],[[16649,17274],[76,0]],[[19144,17941],[112,-3]],[[18779,17941],[-72,-59],[45,-297]],[[18752,17585],[-32,0]],[[18720,17585],[-103,0]],[[18617,17943],[162,-2]],[[17068,16827],[-41,0],[-387,0]],[[18720,17229],[0,356]],[[18752,17585],[167,0]],[[18284,17231],[90,0]],[[18437,16824],[-135,-25]],[[18779,17941],[212,0]],[[17676,16514],[0,53],[0,260]],[[18324,17946],[-90,358]],[[18234,18304],[153,87],[9,81],[-117,15],[117,168]],[[18396,18655],[216,0]],[[18612,18655],[113,31],[27,190]],[[18752,18876],[369,0]],[[19121,18719],[0,-23]],[[19121,18696],[-175,2],[4,-401]],[[19297,17938],[13,707]],[[19418,18614],[-18,-582],[140,-2]],[[18234,18304],[-239,10],[59,257],[135,94],[-31,209]],[[18158,18874],[162,2],[67,0]],[[18387,18876],[9,-221]],[[18612,18655],[-45,221]],[[18567,18876],[126,0],[59,0]],[[19130,18297],[-9,399]],[[18387,18876],[180,0]],[[18162,17946],[-167,2]],[[17995,17948],[-166,0]],[[17829,17948],[-117,3]],[[17712,17951],[-45,445]],[[17667,18396],[-14,480]],[[17653,18876],[468,-2],[37,0]],[[16653,17854],[-135,0]],[[16518,17854],[-49,0]],[[16469,17854],[-32,178]],[[16437,18032],[455,15],[63,163],[176,66]],[[17131,18276],[67,-157]],[[17198,18119],[-63,-51],[36,-211]],[[17171,17857],[-184,-5]],[[16987,17852],[-153,2]],[[16834,17854],[-181,0]],[[16838,17633],[-90,135],[86,86]],[[16987,17852],[0,-176],[-149,-43]],[[17829,17948],[0,-361]],[[17667,17862],[45,89]],[[16649,17274],[0,267],[-86,3]],[[16563,17544],[-31,91]],[[16532,17635],[121,-2],[0,221]],[[16838,17633],[-99,-135],[86,0],[4,-224]],[[17554,17859],[-54,364]],[[17500,18223],[-18,170]],[[17482,18393],[185,3]],[[17171,17857],[18,0]],[[16883,18391],[-45,0]],[[16838,18391],[0,89]],[[16838,18480],[-18,236],[-135,76]],[[16685,18792],[0,87]],[[16685,18879],[252,0],[162,-3]],[[17099,18876],[14,-485]],[[17113,18391],[-230,0]],[[16838,18391],[-275,-38]],[[16563,18353],[-18,526]],[[16545,18879],[122,0],[18,0]],[[16685,18792],[-81,6],[49,-196],[185,-122]],[[17198,18119],[122,117]],[[17320,18236],[180,-13]],[[17437,17859],[-27,127],[-90,-10],[36,-117]],[[16563,17544],[-288,-3]],[[16275,17541],[-13,135]],[[16262,17676],[117,31]],[[16379,17707],[112,-44]],[[16491,17663],[41,-28]],[[17482,18393],[-45,483]],[[17437,18876],[216,0]],[[16117,17229],[0,114],[0,61],[0,137]],[[16117,17541],[158,0]],[[16469,17854],[-77,0]],[[16392,17854],[-135,26]],[[16257,17880],[-140,91]],[[16117,17971],[0,509],[0,399],[428,0]],[[16563,18353],[27,-54]],[[16590,18299],[-153,-267]],[[17176,18876],[121,-226],[23,-414]],[[17131,18276],[-18,115]],[[17099,18876],[77,0]],[[16590,18299],[293,3],[0,89]],[[17995,17948],[0,-361]],[[16117,17541],[0,10],[0,77],[0,28],[0,109]],[[16117,17765],[104,-46]],[[16221,17719],[41,-43]],[[16491,17663],[27,191]],[[16221,17719],[36,161]],[[16392,17854],[-13,-147]],[[16117,17765],[0,59],[0,30],[0,94],[0,23]],[[17176,18876],[261,0]]]}