{"type":"Topology","transform":{"scale":[0.0012831345112129487,0.0009745357309423489],"translate":[-124.73273099999999,24.60334863324381]},"objects":{"area":{"type":"GeometryCollection","geometries":[{"arcs":[[0,1,2,3,4,5,6]],"type":"Polygon","properties":{"state":"NH","name":"BEANS PURCHASE","zip":"00168"}},{"arcs":[[7,8,9,10]],"type":"Polygon","properties":{"state":"NH","name":"SUCCESS","zip":"00169"}},{"arcs":[[11,12,13,14]],"type":"Polygon","properties":{"state":"NH","name":"SECOND COLLEGE GRANT","zip":"00170"}},{"arcs":[[15,16,17]],"type":"Polygon","properties":{"state":"NH","name":"HADLEYS PURCHASE","zip":"00172"}},{"arcs":[[18,19,20,21,-17]],"type":"Polygon","properties":{"state":"NH","name":"CUTTS GRANT","zip":"00173"}},{"arcs":[[22,23,24,25,-20]],"type":"Polygon","properties":{"state":"NH","name":"BEANS GRANT","zip":"00174"}},{"arcs":[[26,27,-18,-22,28,29,30]],"type":"Polygon","properties":{"state":"NH","name":"SARGENTS PURCHASE","zip":"00176"}},{"arcs":[[31,-31,32,33,-1]],"type":"Polygon","properties":{"state":"NH","name":"PINKHAM GRANT","zip":"00177"}},{"arcs":[[-21,-26,34,35,36,-29]],"type":"Polygon","properties":{"state":"NH","name":"CHANDLERS PURCHASE","zip":"00179"}},{"arcs":[[-37,37,38,39,40,-33,-30]],"type":"Polygon","properties":{"state":"NH","name":"THOMPSON/MESERVES PURCH","zip":"00180"}},{"arcs":[[41,42,43,44,-38,-36]],"type":"Polygon","properties":{"state":"NH","name":"LOW AND BURBANKS GRANT","zip":"00181"}},{"arcs":[[45,-42,-35,-25]],"type":"Polygon","properties":{"state":"NH","name":"CRAWFORDS PURCHASE","zip":"00182"}},{"arcs":[[-34,-41,46,-2]],"type":"Polygon","properties":{"state":"NH","name":"GREENS GRANT","zip":"00183"}},{"arcs":[[-40,47,-3,-47]],"type":"Polygon","properties":{"state":"NH","name":"MARTINS LOCATION","zip":"00184"}},{"arcs":[[48,49,50,51,52]],"type":"Polygon","properties":{"state":"NH","name":"KILKENNY","zip":"00185"}},{"arcs":[[53,54,55]],"type":"Polygon","properties":{"state":"NH","name":"ERVINGS LOCATION","zip":"00186"}},{"arcs":[[56,57,58,-13]],"type":"Polygon","properties":{"state":"NH","name":"DIX GRANT","zip":"00187"}},{"arcs":[[59,60,61,62,63,64]],"type":"Polygon","properties":{"state":"NH","name":"AMHERST","zip":"03031"}},{"arcs":[[65,66,67,68,69,70,71]],"type":"Polygon","properties":{"state":"NH","name":"AUBURN","zip":"03032"}},{"arcs":[[72,73,74,75]],"type":"Polygon","properties":{"state":"NH","name":"BROOKLINE","zip":"03033"}},{"arcs":[[76,77,78,79,80,-70]],"type":"Polygon","properties":{"state":"NH","name":"CANDIA","zip":"03034"}},{"arcs":[[-81,81,82,83,84,-71]],"type":"Polygon","properties":{"state":"NH","name":"CHESTER","zip":"03036"}},{"arcs":[[85,86,87,88,89,-79]],"type":"Polygon","properties":{"state":"NH","name":"DEERFIELD","zip":"03037"}},{"arcs":[[90,91,92,-72,-85,93,94,95]],"type":"Polygon","properties":{"state":"NH","name":"DERRY","zip":"03038"}},{"arcs":[[96,97,98,99,100,101,102]],"type":"Polygon","properties":{"state":"NH","name":"EPPING","zip":"03042"}},{"arcs":[[103,104,105,106,107,108]],"type":"Polygon","properties":{"state":"NH","name":"FRANCESTOWN","zip":"03043"}},{"arcs":[[109,110,111,112,-83,113,-103]],"type":"Polygon","properties":{"state":"NH","name":"FREMONT","zip":"03044"}},{"arcs":[[114,115,116,117,118,119]],"type":"Polygon","properties":{"state":"NH","name":"GOFFSTOWN","zip":"03045"}},{"arcs":[[120,121,122,123,-119]],"type":"Polygon","properties":{"state":"NH","name":"DUNBARTON","zip":"03046"}},{"arcs":[[124,125,126,127,128,-106]],"type":"Polygon","properties":{"state":"NH","name":"GREENFIELD","zip":"03047"}},{"arcs":[[129,130,131,132,-75]],"type":"Polygon","properties":{"state":"NH","name":"GREENVILLE","zip":"03048"}},{"arcs":[[133,-61,134,135,136,137,-73]],"type":"Polygon","properties":{"state":"NH","name":"HOLLIS","zip":"03049"}},{"arcs":[[138,139,140,141,142,143,144]],"type":"Polygon","properties":{"state":"NH","name":"HUDSON","zip":"03051"}},{"arcs":[[145,146,147,148,-141]],"type":"Polygon","properties":{"state":"NH","name":"LITCHFIELD","zip":"03052"}},{"arcs":[[149,150,-66,-93,151,-142,-149]],"type":"Polygon","properties":{"state":"NH","name":"LONDONDERRY","zip":"03053"}},{"arcs":[[152,-135,-60,153,154,-147,155]],"type":"Polygon","properties":{"state":"NH","name":"MERRIMACK","zip":"03054"}},{"arcs":[[-76,-133,156,157,158,-62,-134]],"type":"Polygon","properties":{"state":"NH","name":"MILFORD","zip":"03055"}},{"arcs":[[159,160,-63,-159]],"type":"Polygon","properties":{"state":"NH","name":"MONT VERNON","zip":"03057"}},{"arcs":[[161,162,163,164,-139]],"type":"Polygon","properties":{"state":"NH","name":"NASHUA","zip":"03060"}},{"arcs":[[165,-137,166,-163]],"type":"Polygon","properties":{"state":"NH","name":"NASHUA","zip":"03062"}},{"arcs":[[-136,-153,167,-164,-167]],"type":"Polygon","properties":{"state":"NH","name":"NASHUA","zip":"03063"}},{"arcs":[[-156,-146,-140,-165,-168]],"type":"Polygon","properties":{"state":"NH","name":"NASHUA","zip":"03064"}},{"arcs":[[-161,168,-104,169,-117,170,-64]],"type":"Polygon","properties":{"state":"NH","name":"NEW BOSTON","zip":"03070"}},{"arcs":[[171,172,173,174,-131,175]],"type":"Polygon","properties":{"state":"NH","name":"NEW IPSWICH","zip":"03071"}},{"arcs":[[176,177,178,-144]],"type":"Polygon","properties":{"state":"NH","name":"PELHAM","zip":"03076"}},{"arcs":[[-90,179,-97,-114,-82,-80]],"type":"Polygon","properties":{"state":"NH","name":"RAYMOND","zip":"03077"}},{"arcs":[[180,-91,181,182,-178]],"type":"Polygon","properties":{"state":"NH","name":"SALEM","zip":"03079"}},{"arcs":[[-158,183,184,-125,-105,-169,-160]],"type":"Polygon","properties":{"state":"NH","name":"LYNDEBOROUGH","zip":"03082"}},{"arcs":[[185,-174,186,-126,-185]],"type":"Polygon","properties":{"state":"NH","name":"TEMPLE","zip":"03084"}},{"arcs":[[-175,-186,-184,-157,-132]],"type":"Polygon","properties":{"state":"NH","name":"WILTON","zip":"03086"}},{"arcs":[[-177,-143,-152,-92,-181]],"type":"Polygon","properties":{"state":"NH","name":"WINDHAM","zip":"03087"}},{"arcs":[[187,188,189]],"type":"Polygon","properties":{"state":"NH","name":"MANCHESTER","zip":"03101"}},{"arcs":[[190,191,-115,192,193,-189]],"type":"Polygon","properties":{"state":"NH","name":"MANCHESTER","zip":"03102"}},{"arcs":[[194,-191,-188,195,196,-150,-148,-155]],"type":"Polygon","properties":{"state":"NH","name":"MANCHESTER","zip":"03103"}},{"arcs":[[-194,197,-68,198,-196,-190]],"type":"Polygon","properties":{"state":"NH","name":"MANCHESTER","zip":"03104"}},{"arcs":[[-120,-124,199,200,-77,-69,-198,-193]],"type":"Polygon","properties":{"state":"NH","name":"HOOKSETT","zip":"03106"}},{"arcs":[[-197,-199,-67,-151]],"type":"Polygon","properties":{"state":"NH","name":"MANCHESTER","zip":"03109"}},{"arcs":[[-154,-65,-171,-116,-192,-195]],"type":"Polygon","properties":{"state":"NH","name":"BEDFORD","zip":"03110"}},{"arcs":[[201,202,203,204,205,206]],"type":"Polygon","properties":{"state":"NH","name":"ANDOVER","zip":"03216"}},{"arcs":[[207,208,209,210]],"type":"Polygon","properties":{"state":"NH","name":"ASHLAND","zip":"03217"}},{"arcs":[[211,212,213,214,215]],"type":"Polygon","properties":{"state":"NH","name":"BARNSTEAD","zip":"03218"}},{"arcs":[[216,217,218,219,220,221,222]],"type":"Polygon","properties":{"state":"NH","name":"BELMONT","zip":"03220"}},{"arcs":[[223,224,225,226,227,228]],"type":"Polygon","properties":{"state":"NH","name":"BRADFORD","zip":"03221"}},{"arcs":[[229,230,231,232,233,234,235,236]],"type":"Polygon","properties":{"state":"NH","name":"BRISTOL","zip":"03222"}},{"arcs":[[237,238,239,240,241,242,243,244,245,246]],"type":"Polygon","properties":{"state":"NH","name":"CAMPTON","zip":"03223"}},{"arcs":[[247,248,249,-223,250]],"type":"Polygon","properties":{"state":"NH","name":"CANTERBURY","zip":"03224"}},{"arcs":[[251,252,-215,253,254,255]],"type":"Polygon","properties":{"state":"NH","name":"CENTER BARNSTEAD","zip":"03225"}},{"arcs":[[256,-210,257,258,259]],"type":"Polygon","properties":{"state":"NH","name":"CENTER HARBOR","zip":"03226"}},{"arcs":[[260,261,-239,262,263]],"type":"Polygon","properties":{"state":"NH","name":"CENTER SANDWICH","zip":"03227"}},{"arcs":[[264,-122,265,266,267,268,269]],"type":"Polygon","properties":{"state":"NH","name":"CONTOOCOOK","zip":"03229"}},{"arcs":[[270,271,-232,272,-205]],"type":"Polygon","properties":{"state":"NH","name":"DANBURY","zip":"03230"}},{"arcs":[[273,274,-236]],"type":"Polygon","properties":{"state":"NH","name":"EAST HEBRON","zip":"03232"}},{"arcs":[[275,276,277,278,-87]],"type":"Polygon","properties":{"state":"NH","name":"EPSOM","zip":"03234"}},{"arcs":[[279,280,281,-207,282,283]],"type":"Polygon","properties":{"state":"NH","name":"FRANKLIN","zip":"03235"}},{"arcs":[[284,285,-221,286]],"type":"Polygon","properties":{"state":"NH","name":"GILMANTON","zip":"03237"}},{"arcs":[[287,288,289,-233,-272,290]],"type":"Polygon","properties":{"state":"NH","name":"GRAFTON","zip":"03240"}},{"arcs":[[-235,291,292,293,-274]],"type":"Polygon","properties":{"state":"NH","name":"HEBRON","zip":"03241"}},{"arcs":[[294,295,-224,296,-267]],"type":"Polygon","properties":{"state":"NH","name":"HENNIKER","zip":"03242"}},{"arcs":[[-206,-273,-231,297,298,-283]],"type":"Polygon","properties":{"state":"NH","name":"HILL","zip":"03243"}},{"arcs":[[299,-108,300,301,302,303,-225,-296]],"type":"Polygon","properties":{"state":"NH","name":"HILLSBORO","zip":"03244"}},{"arcs":[[304,-219,305,306,307]],"type":"Polygon","properties":{"state":"NH","name":"LACONIA","zip":"03246"}},{"arcs":[[308,-220,-305,309,310]],"type":"Polygon","properties":{"state":"NH","name":"GILFORD","zip":"03249"}},{"arcs":[[311,312,313,314,-244]],"type":"Polygon","properties":{"state":"NH","name":"LINCOLN","zip":"03251"}},{"arcs":[[315,316,-211,-257,317,-307]],"type":"Polygon","properties":{"state":"NH","name":"MEREDITH","zip":"03253"}},{"arcs":[[-261,318,319,320,321,322,-259]],"type":"Polygon","properties":{"state":"NH","name":"MOULTONBOROUGH","zip":"03254"}},{"arcs":[[323,324,325,326,-228]],"type":"Polygon","properties":{"state":"NH","name":"NEWBURY","zip":"03255"}},{"arcs":[[327,-208,-317,328,-298,-230]],"type":"Polygon","properties":{"state":"NH","name":"NEW HAMPTON","zip":"03256"}},{"arcs":[[329,330,331,332,-326]],"type":"Polygon","properties":{"state":"NH","name":"NEW LONDON","zip":"03257"}},{"arcs":[[333,334,335,336,-277]],"type":"Polygon","properties":{"state":"NH","name":"CHICHESTER","zip":"03258"}},{"arcs":[[337,-263,-238,338,339]],"type":"Polygon","properties":{"state":"NH","name":"NORTH SANDWICH","zip":"03259"}},{"arcs":[[340,341,-88,-279,342,-212,343]],"type":"Polygon","properties":{"state":"NH","name":"NORTHWOOD","zip":"03261"}},{"arcs":[[344,345,-312,-243]],"type":"Polygon","properties":{"state":"NH","name":"NORTH WOODSTOCK","zip":"03262"}},{"arcs":[[346,-285,347,-213,-343,-278,-337]],"type":"Polygon","properties":{"state":"NH","name":"PITTSFIELD","zip":"03263"}},{"arcs":[[-328,-237,-275,-294,348,-240,-262,-258,-209]],"type":"Polygon","properties":{"state":"NH","name":"PLYMOUTH","zip":"03264"}},{"arcs":[[349,350,351,-241,-349,-293,352]],"type":"Polygon","properties":{"state":"NH","name":"RUMNEY","zip":"03266"}},{"arcs":[[353,-202,-282,354]],"type":"Polygon","properties":{"state":"NH","name":"SALISBURY","zip":"03268"}},{"arcs":[[355,-284,-299,-329,-316,-306,-218]],"type":"Polygon","properties":{"state":"NH","name":"SANBORNTON","zip":"03269"}},{"arcs":[[356,357,-334,-276,-86,-78,-201]],"type":"Polygon","properties":{"state":"NH","name":"SUNCOOK","zip":"03275"}},{"arcs":[[358,-280,-356,-217,-250]],"type":"Polygon","properties":{"state":"NH","name":"TILTON","zip":"03276"}},{"arcs":[[-297,-229,-327,-333,359,-203,-354,360,-268]],"type":"Polygon","properties":{"state":"NH","name":"WARNER","zip":"03278"}},{"arcs":[[361,362,363,-345,-242,-352,364]],"type":"Polygon","properties":{"state":"NH","name":"WARREN","zip":"03279"}},{"arcs":[[365,366,367,-226,-304,368]],"type":"Polygon","properties":{"state":"NH","name":"WASHINGTON","zip":"03280"}},{"arcs":[[-170,-109,-300,-295,-266,-121,-118]],"type":"Polygon","properties":{"state":"NH","name":"WEARE","zip":"03281"}},{"arcs":[[369,370,-365,-351]],"type":"Polygon","properties":{"state":"NH","name":"WENTWORTH","zip":"03282"}},{"arcs":[[371,372,-288,373,-331,374]],"type":"Polygon","properties":{"state":"NH","name":"SPRINGFIELD","zip":"03284"}},{"arcs":[[-374,-291,-271,-204,-360,-332]],"type":"Polygon","properties":{"state":"NH","name":"WILMOT","zip":"03287"}},{"arcs":[[-342,375,376,-98,-180,-89]],"type":"Polygon","properties":{"state":"NH","name":"NOTTINGHAM","zip":"03290"}},{"arcs":[[377,-248,378,-335,-358,379,-270]],"type":"Polygon","properties":{"state":"NH","name":"CONCORD","zip":"03301"}},{"arcs":[[-355,-281,-359,-249,-378,-269,-361]],"type":"Polygon","properties":{"state":"NH","name":"CONCORD","zip":"03303"}},{"arcs":[[-123,-265,-380,-357,-200]],"type":"Polygon","properties":{"state":"NH","name":"BOW","zip":"03304"}},{"arcs":[[-222,-286,-347,-336,-379,-251]],"type":"Polygon","properties":{"state":"NH","name":"LOUDON","zip":"03307"}},{"arcs":[[380,381,382,383,384,385,386,387,388]],"type":"Polygon","properties":{"state":"NH","name":"KEENE","zip":"03431"}},{"arcs":[[389,390,391,-302,392]],"type":"Polygon","properties":{"state":"NH","name":"ANTRIM","zip":"03440"}},{"arcs":[[393,394,395]],"type":"Polygon","properties":{"state":"NH","name":"ASHUELOT","zip":"03441"}},{"arcs":[[396,-393,-301,-107,-129]],"type":"Polygon","properties":{"state":"NH","name":"BENNINGTON","zip":"03442"}},{"arcs":[[397,398,399,400,401,402,-396]],"type":"Polygon","properties":{"state":"NH","name":"CHESTERFIELD","zip":"03443"}},{"arcs":[[403,404,405,406]],"type":"Polygon","properties":{"state":"NH","name":"DUBLIN","zip":"03444"}},{"arcs":[[407,-385,408,409]],"type":"Polygon","properties":{"state":"NH","name":"SULLIVAN","zip":"03445"}},{"arcs":[[410,-388,411,412,413,-402]],"type":"Polygon","properties":{"state":"NH","name":"SWANZEY","zip":"03446"}},{"arcs":[[414,415,416,417,418]],"type":"Polygon","properties":{"state":"NH","name":"FITZWILLIAM","zip":"03447"}},{"arcs":[[-384,419,420,421,-409]],"type":"Polygon","properties":{"state":"NH","name":"GILSUM","zip":"03448"}},{"arcs":[[422,423,424,-390,-397,-128]],"type":"Polygon","properties":{"state":"NH","name":"HANCOCK","zip":"03449"}},{"arcs":[[425,-407,426,427,-424]],"type":"Polygon","properties":{"state":"NH","name":"HARRISVILLE","zip":"03450"}},{"arcs":[[428,429,430,-398,-395]],"type":"Polygon","properties":{"state":"NH","name":"HINSDALE","zip":"03451"}},{"arcs":[[431,432,-405,433,434,-419]],"type":"Polygon","properties":{"state":"NH","name":"JAFFREY","zip":"03452"}},{"arcs":[[-433,435,-412,-387,436,-427,-406]],"type":"Polygon","properties":{"state":"NH","name":"MARLBOROUGH","zip":"03455"}},{"arcs":[[437,-421,438,439,440,-366]],"type":"Polygon","properties":{"state":"NH","name":"MARLOW","zip":"03456"}},{"arcs":[[-437,-386,-408,441,-391,-425,-428]],"type":"Polygon","properties":{"state":"NH","name":"NELSON","zip":"03457"}},{"arcs":[[442,-434,-404,-426,-423,-127,-187,-173]],"type":"Polygon","properties":{"state":"NH","name":"PETERBOROUGH","zip":"03458"}},{"arcs":[[443,-415,-435,-443,-172]],"type":"Polygon","properties":{"state":"NH","name":"RINDGE","zip":"03461"}},{"arcs":[[-401,444,-389,-411]],"type":"Polygon","properties":{"state":"NH","name":"SPOFFORD","zip":"03462"}},{"arcs":[[-422,-438,-369,-303,-392,-442,-410]],"type":"Polygon","properties":{"state":"NH","name":"STODDARD","zip":"03464"}},{"arcs":[[445,-413,-436,-432,-418]],"type":"Polygon","properties":{"state":"NH","name":"TROY","zip":"03465"}},{"arcs":[[-431,446,447,-399]],"type":"Polygon","properties":{"state":"NH","name":"WEST CHESTERFIELD","zip":"03466"}},{"arcs":[[-448,448,449,-381,-445,-400]],"type":"Polygon","properties":{"state":"NH","name":"WESTMORELAND","zip":"03467"}},{"arcs":[[-394,-403,-414,-446,-417,450,-429]],"type":"Polygon","properties":{"state":"NH","name":"WINCHESTER","zip":"03470"}},{"arcs":[[451,452,453,454,455]],"type":"Polygon","properties":{"state":"NH","name":"LITTLETON","zip":"03561"}},{"arcs":[[456,-49,457,-10,458,-45]],"type":"Polygon","properties":{"state":"NH","name":"BERLIN","zip":"03570"}},{"arcs":[[459,460,-452,461,462,-245,-315]],"type":"Polygon","properties":{"state":"NH","name":"BETHLEHEM","zip":"03574"}},{"arcs":[[463,464,465,-58,466,-55]],"type":"Polygon","properties":{"state":"NH","name":"COLEBROOK","zip":"03576"}},{"arcs":[[467,468,469,-56,-467,-57,-12]],"type":"Polygon","properties":{"state":"NH","name":"ERROL","zip":"03579"}},{"arcs":[[470,471,-460,-314]],"type":"Polygon","properties":{"state":"NH","name":"FRANCONIA","zip":"03580"}},{"arcs":[[-39,-459,-9,472,-4,-48]],"type":"Polygon","properties":{"state":"NH","name":"GORHAM","zip":"03581"}},{"arcs":[[473,474,475,476,-52]],"type":"Polygon","properties":{"state":"NH","name":"GROVETON","zip":"03582"}},{"arcs":[[477,478,-50,-457,-44]],"type":"Polygon","properties":{"state":"NH","name":"JEFFERSON","zip":"03583"}},{"arcs":[[479,-474,-51,-479,480]],"type":"Polygon","properties":{"state":"NH","name":"LANCASTER","zip":"03584"}},{"arcs":[[481,482,483,-453,-461,-472]],"type":"Polygon","properties":{"state":"NH","name":"LISBON","zip":"03585"}},{"arcs":[[-458,-53,-477,484,-469,485,-11]],"type":"Polygon","properties":{"state":"NH","name":"MILAN","zip":"03588"}},{"arcs":[[-476,486,-464,-54,-470,-485]],"type":"Polygon","properties":{"state":"NH","name":"NORTH STRATFORD","zip":"03590"}},{"arcs":[[-59,-466,487,-14]],"type":"Polygon","properties":{"state":"NH","name":"PITTSBURG","zip":"03592"}},{"arcs":[[488,-462,-456,489,-481,-478,-43,-46,-24]],"type":"Polygon","properties":{"state":"NH","name":"WHITEFIELD","zip":"03598"}},{"arcs":[[490,491,-439,-420,-383]],"type":"Polygon","properties":{"state":"NH","name":"ALSTEAD","zip":"03602"}},{"arcs":[[492,493,494,495,496,497]],"type":"Polygon","properties":{"state":"NH","name":"CHARLESTOWN","zip":"03603"}},{"arcs":[[-441,498,-496,499,500,501,-367]],"type":"Polygon","properties":{"state":"NH","name":"LEMPSTER","zip":"03605"}},{"arcs":[[502,-497,-499,-440,-492]],"type":"Polygon","properties":{"state":"NH","name":"SOUTH ACWORTH","zip":"03607"}},{"arcs":[[503,504,-498,-503,-491,-382,-450]],"type":"Polygon","properties":{"state":"NH","name":"WALPOLE","zip":"03608"}},{"arcs":[[505,-493,-505]],"type":"Polygon","properties":{"state":"NH","name":"NORTH WALPOLE","zip":"03609"}},{"arcs":[[506,507,-483,508]],"type":"Polygon","properties":{"state":"NH","name":"BATH","zip":"03740"}},{"arcs":[[-290,509,510,-353,-292,-234]],"type":"Polygon","properties":{"state":"NH","name":"CANAAN","zip":"03741"}},{"arcs":[[-495,511,512,513,-500]],"type":"Polygon","properties":{"state":"NH","name":"CLAREMONT","zip":"03743"}},{"arcs":[[514,515,516,517,518,-513]],"type":"Polygon","properties":{"state":"NH","name":"CORNISH","zip":"03745"}},{"arcs":[[519,520,521,522,523,524,-510,-289,-373,525]],"type":"Polygon","properties":{"state":"NH","name":"ENFIELD","zip":"03748"}},{"arcs":[[526,-523]],"type":"Polygon","properties":{"state":"NH","name":"ETNA","zip":"03750"}},{"arcs":[[-368,-502,527,528,-324,-227]],"type":"Polygon","properties":{"state":"NH","name":"GOSHEN","zip":"03752"}},{"arcs":[[529,530,531,-526,-372]],"type":"Polygon","properties":{"state":"NH","name":"GRANTHAM","zip":"03753"}},{"arcs":[[-522,532,533,534,535,-524,-527]],"type":"Polygon","properties":{"state":"NH","name":"HANOVER","zip":"03755"}},{"arcs":[[536,537,538,539]],"type":"Polygon","properties":{"state":"NH","name":"HAVERHILL","zip":"03765"}},{"arcs":[[540,541,-533,-521]],"type":"Polygon","properties":{"state":"NH","name":"LEBANON","zip":"03766"}},{"arcs":[[-536,542,543,-350,-511,-525]],"type":"Polygon","properties":{"state":"NH","name":"LYME","zip":"03768"}},{"arcs":[[544,-517]],"type":"Polygon","properties":{"state":"NH","name":"MERIDEN","zip":"03770"}},{"arcs":[[545,-454,-484,-508]],"type":"Polygon","properties":{"state":"NH","name":"MONROE","zip":"03771"}},{"arcs":[[-519,546,-531,547,-528,-501,-514]],"type":"Polygon","properties":{"state":"NH","name":"NEWPORT","zip":"03773"}},{"arcs":[[548,-540,549,550]],"type":"Polygon","properties":{"state":"NH","name":"NORTH HAVERHILL","zip":"03774"}},{"arcs":[[-544,551,552,-370]],"type":"Polygon","properties":{"state":"NH","name":"ORFORD","zip":"03777"}},{"arcs":[[-371,-553,553,-538,554,-362]],"type":"Polygon","properties":{"state":"NH","name":"PIERMONT","zip":"03779"}},{"arcs":[[-537,-549,555,-363,-555]],"type":"Polygon","properties":{"state":"NH","name":"PIKE","zip":"03780"}},{"arcs":[[-547,-518,-545,-516,556,557,-541,-520,-532]],"type":"Polygon","properties":{"state":"NH","name":"PLAINFIELD","zip":"03781"}},{"arcs":[[-529,-548,-530,-375,-330,-325]],"type":"Polygon","properties":{"state":"NH","name":"SUNAPEE","zip":"03782"}},{"arcs":[[-558,558,-534,-542]],"type":"Polygon","properties":{"state":"NH","name":"WEST LEBANON","zip":"03784"}},{"arcs":[[-551,559,-509,-482,-471,-313,-346,-364,-556]],"type":"Polygon","properties":{"state":"NH","name":"WOODSVILLE","zip":"03785"}},{"arcs":[[560,561,562]],"type":"Polygon","properties":{"state":"NH","name":"PORTSMOUTH","zip":"03801"}},{"arcs":[[563,-311,564,565,566,-255]],"type":"Polygon","properties":{"state":"NH","name":"ALTON","zip":"03809"}},{"arcs":[[567,-182,-96,568,569]],"type":"Polygon","properties":{"state":"NH","name":"ATKINSON","zip":"03811"}},{"arcs":[[570,571,-246,-463,-489,-23,-19,-16,-28,572,573]],"type":"Polygon","properties":{"state":"NH","name":"BARTLETT","zip":"03812"}},{"arcs":[[574,575,576,577,578]],"type":"Polygon","properties":{"state":"NH","name":"CENTER CONWAY","zip":"03813"}},{"arcs":[[579,-321,580,581,582,583,584,585]],"type":"Polygon","properties":{"state":"NH","name":"CENTER OSSIPEE","zip":"03814"}},{"arcs":[[586,587,588]],"type":"Polygon","properties":{"state":"NH","name":"CENTER STRAFFORD","zip":"03815"}},{"arcs":[[589,590,591,-322,-580]],"type":"Polygon","properties":{"state":"NH","name":"CENTER TUFTONBORO","zip":"03816"}},{"arcs":[[592,593,594]],"type":"Polygon","properties":{"state":"NH","name":"CHOCORUA","zip":"03817"}},{"arcs":[[595,-339,-247,-572,596,-577,597,598,-594]],"type":"Polygon","properties":{"state":"NH","name":"CONWAY","zip":"03818"}},{"arcs":[[599,-112,600,601]],"type":"Polygon","properties":{"state":"NH","name":"DANVILLE","zip":"03819"}},{"arcs":[[602,603,604,605,606,607,608]],"type":"Polygon","properties":{"state":"NH","name":"DOVER","zip":"03820"}},{"arcs":[[609,-99,-377,610,-609,611]],"type":"Polygon","properties":{"state":"NH","name":"DURHAM","zip":"03824"}},{"arcs":[[-611,-376,-341,612,-587,613,614,-603]],"type":"Polygon","properties":{"state":"NH","name":"BARRINGTON","zip":"03825"}},{"arcs":[[615,616,617,-602,618]],"type":"Polygon","properties":{"state":"NH","name":"EAST HAMPSTEAD","zip":"03826"}},{"arcs":[[619,620,621,622,623]],"type":"Polygon","properties":{"state":"NH","name":"EAST KINGSTON","zip":"03827"}},{"arcs":[[624,625,626,627]],"type":"Polygon","properties":{"state":"NH","name":"EAST WAKEFIELD","zip":"03830"}},{"arcs":[[628,-110,-102,629,630,631,632,633,-623]],"type":"Polygon","properties":{"state":"NH","name":"EXETER","zip":"03833"}},{"arcs":[[634,635,636,637]],"type":"Polygon","properties":{"state":"NH","name":"FARMINGTON","zip":"03835"}},{"arcs":[[638,-583,639,640]],"type":"Polygon","properties":{"state":"NH","name":"FREEDOM","zip":"03836"}},{"arcs":[[-309,-564,-254,-214,-348,-287]],"type":"Polygon","properties":{"state":"NH","name":"GILMANTON IRON WORKS","zip":"03837"}},{"arcs":[[641,-604,-615]],"type":"Polygon","properties":{"state":"NH","name":"ROCHESTER","zip":"03839"}},{"arcs":[[642,643,644,645,-561]],"type":"Polygon","properties":{"state":"NH","name":"GREENLAND","zip":"03840"}},{"arcs":[[646,-569,-95,647,-617]],"type":"Polygon","properties":{"state":"NH","name":"HAMPSTEAD","zip":"03841"}},{"arcs":[[648,-632,649,650]],"type":"Polygon","properties":{"state":"NH","name":"HAMPTON","zip":"03842"}},{"arcs":[[651,-633,-649,652]],"type":"Polygon","properties":{"state":"NH","name":"HAMPTON FALLS","zip":"03844"}},{"arcs":[[653,-574,654,-6,655,-579]],"type":"Polygon","properties":{"state":"NH","name":"INTERVALE","zip":"03845"}},{"arcs":[[-27,-32,-7,-655,-573]],"type":"Polygon","properties":{"state":"NH","name":"JACKSON","zip":"03846"}},{"arcs":[[-601,-111,-629,-622,656,657,-619]],"type":"Polygon","properties":{"state":"NH","name":"KINGSTON","zip":"03848"}},{"arcs":[[658,-598,-576,659,-641]],"type":"Polygon","properties":{"state":"NH","name":"MADISON","zip":"03849"}},{"arcs":[[660,661,662,663,-636]],"type":"Polygon","properties":{"state":"NH","name":"MILTON","zip":"03851"}},{"arcs":[[664,-662,665]],"type":"Polygon","properties":{"state":"NH","name":"MILTON MILLS","zip":"03852"}},{"type":null,"properties":{"state":"NH","name":"MIRROR LAKE","zip":"03853"}},{"arcs":[[-256,-567,666,667,-635]],"type":"Polygon","properties":{"state":"NH","name":"NEW DURHAM","zip":"03855"}},{"arcs":[[668,-630,-101,669]],"type":"Polygon","properties":{"state":"NH","name":"NEWFIELDS","zip":"03856"}},{"arcs":[[-670,-100,-610,670]],"type":"Polygon","properties":{"state":"NH","name":"NEWMARKET","zip":"03857"}},{"arcs":[[671,672,-657,-621]],"type":"Polygon","properties":{"state":"NH","name":"NEWTON","zip":"03858"}},{"arcs":[[-597,-571,-654,-578]],"type":"Polygon","properties":{"state":"NH","name":"NORTH CONWAY","zip":"03860"}},{"arcs":[[673,674,-650,675,-644]],"type":"Polygon","properties":{"state":"NH","name":"NORTH HAMPTON","zip":"03862"}},{"arcs":[[676,677,-590,-586,678,-627]],"type":"Polygon","properties":{"state":"NH","name":"OSSIPEE","zip":"03864"}},{"arcs":[[679,-570,-647,-616,-658,-673]],"type":"Polygon","properties":{"state":"NH","name":"PLAISTOW","zip":"03865"}},{"arcs":[[-589,680,-252,-638,681,682,-605,-642,-614]],"type":"Polygon","properties":{"state":"NH","name":"ROCHESTER","zip":"03867"}},{"arcs":[[683,-682,-637,-664,684]],"type":"Polygon","properties":{"state":"NH","name":"ROCHESTER","zip":"03868"}},{"arcs":[[685,686,-607]],"type":"Polygon","properties":{"state":"NH","name":"ROLLINSFORD","zip":"03869"}},{"arcs":[[-674,-643,-563,687]],"type":"Polygon","properties":{"state":"NH","name":"RYE","zip":"03870"}},{"arcs":[[688,-677,-626,689,-666,690]],"type":"Polygon","properties":{"state":"NH","name":"SANBORNVILLE","zip":"03872"}},{"arcs":[[-94,-84,-113,-600,-618,-648]],"type":"Polygon","properties":{"state":"NH","name":"SANDOWN","zip":"03873"}},{"arcs":[[-634,-652,691,-624]],"type":"Polygon","properties":{"state":"NH","name":"SEABROOK","zip":"03874"}},{"arcs":[[-582,692,693,-595,-599,-659,-640]],"type":"Polygon","properties":{"state":"NH","name":"SILVER LAKE","zip":"03875"}},{"arcs":[[-606,-683,-684,694,-686]],"type":"Polygon","properties":{"state":"NH","name":"SOMERSWORTH","zip":"03878"}},{"arcs":[[-679,-585,695,-628]],"type":"Polygon","properties":{"state":"NH","name":"EFFINGHAM","zip":"03882"}},{"arcs":[[696,-319,-264,-338]],"type":"Polygon","properties":{"state":"NH","name":"SOUTH TAMWORTH","zip":"03883"}},{"arcs":[[-613,-344,-216,-253,-681,-588]],"type":"Polygon","properties":{"state":"NH","name":"STRAFFORD","zip":"03884"}},{"arcs":[[-631,-669,697,-645,-676]],"type":"Polygon","properties":{"state":"NH","name":"STRATHAM","zip":"03885"}},{"arcs":[[-340,-596,-593,-694,698,-320,-697]],"type":"Polygon","properties":{"state":"NH","name":"TAMWORTH","zip":"03886"}},{"arcs":[[-668,699,-691,-661]],"type":"Polygon","properties":{"state":"NH","name":"UNION","zip":"03887"}},{"arcs":[[-693,-581,-699]],"type":"Polygon","properties":{"state":"NH","name":"WEST OSSIPEE","zip":"03890"}},{"arcs":[[-700,-667,-566,700,-591,-678,-689]],"type":"Polygon","properties":{"state":"NH","name":"WOLFEBORO","zip":"03894"}}]}},"arcs":[[[41688,20153],[18,43]],[[41706,20196],[13,28]],[[41719,20224],[0,28]],[[41719,20252],[5,0],[4,0],[140,5]],[[41868,20257],[0,-61]],[[41868,20196],[-68,-51]],[[41800,20145],[-112,8]],[[41854,20529],[9,-173]],[[41863,20356],[-112,11]],[[41751,20367],[27,78]],[[41778,20445],[27,84],[49,0]],[[41841,20789],[-99,-5]],[[41742,20784],[13,99]],[[41755,20883],[77,20]],[[41832,20903],[9,-114]],[[41633,20018],[-36,54]],[[41597,20072],[18,10]],[[41615,20082],[18,-64]],[[41597,20072],[-13,10]],[[41584,20082],[18,51]],[[41602,20133],[4,7]],[[41606,20140],[45,10],[-36,-68]],[[41584,20082],[-18,43]],[[41566,20125],[-9,13]],[[41557,20138],[31,51]],[[41588,20189],[14,-56]],[[41674,20138],[-36,-94]],[[41638,20044],[-5,-26]],[[41606,20140],[-9,38]],[[41597,20178],[41,3],[9,5],[41,10]],[[41688,20196],[-14,-58]],[[41688,20153],[-14,-15]],[[41688,20196],[0,3]],[[41688,20199],[18,-3]],[[41588,20189],[-4,15]],[[41584,20204],[9,5]],[[41593,20209],[4,-31]],[[41593,20209],[90,43]],[[41683,20252],[14,0]],[[41697,20252],[-5,-28]],[[41692,20224],[-4,-25]],[[41584,20204],[-36,-21]],[[41548,20183],[-14,79]],[[41534,20262],[72,0]],[[41606,20262],[77,-10]],[[41557,20138],[-9,45]],[[41692,20224],[27,0]],[[41697,20252],[22,0]],[[41588,20412],[-13,-91]],[[41575,20321],[-32,56]],[[41543,20377],[-9,58]],[[41534,20435],[41,104],[54,-12]],[[41629,20527],[-41,-115]],[[41620,20707],[-23,13]],[[41597,20720],[23,23]],[[41620,20743],[0,-36]],[[41742,20784],[-36,-3]],[[41706,20781],[-5,112]],[[41701,20893],[54,-10]],[[41431,18772],[9,-97]],[[41440,18675],[-36,-5]],[[41404,18670],[-45,72]],[[41359,18742],[18,68]],[[41377,18810],[22,5]],[[41399,18815],[32,-43]],[[41606,18818],[-22,5]],[[41584,18823],[-14,58]],[[41570,18881],[0,6]],[[41570,18887],[0,33]],[[41570,18920],[81,-21]],[[41651,18899],[-18,-86]],[[41633,18813],[-27,5]],[[41377,18650],[9,-76]],[[41386,18574],[-18,0],[-36,2]],[[41332,18576],[-14,71]],[[41318,18647],[59,3]],[[41570,18920],[27,63]],[[41597,18983],[14,23]],[[41611,19006],[86,-46]],[[41697,18960],[-23,-66]],[[41674,18894],[-23,5]],[[41674,18894],[72,-33]],[[41746,18861],[-9,-25]],[[41737,18836],[-31,-41]],[[41706,18795],[-73,18]],[[41611,19006],[18,38]],[[41629,19044],[27,59]],[[41656,19103],[99,-54]],[[41755,19049],[-45,-91]],[[41710,18958],[-13,2]],[[41715,18726],[-27,-5]],[[41688,18721],[-73,-7]],[[41615,18714],[-9,104]],[[41706,18795],[0,-8]],[[41706,18787],[4,-40]],[[41710,18747],[5,-21]],[[41760,18899],[4,46]],[[41764,18945],[59,15]],[[41823,18960],[45,0]],[[41868,18960],[0,-28]],[[41868,18932],[0,-30]],[[41868,18902],[-54,-3]],[[41814,18899],[-54,0]],[[41282,18892],[9,-59]],[[41291,18833],[-45,-8]],[[41246,18825],[-58,64]],[[41188,18889],[0,20]],[[41188,18909],[76,11]],[[41264,18920],[18,-28]],[[41814,18899],[-5,-63]],[[41809,18836],[-4,0]],[[41805,18836],[-45,0]],[[41760,18836],[-23,0]],[[41746,18861],[14,38]],[[41476,18927],[9,-68]],[[41485,18859],[-77,-11]],[[41408,18848],[-27,59]],[[41381,18907],[-4,25]],[[41377,18932],[94,16]],[[41471,18948],[5,-21]],[[41377,18932],[-14,92]],[[41363,19024],[32,10]],[[41395,19034],[81,-74]],[[41476,18960],[-5,-12]],[[41246,18825],[23,-38],[-59,-30]],[[41210,18757],[-22,-5]],[[41188,18752],[-41,81]],[[41147,18833],[0,26]],[[41147,18859],[41,30]],[[41332,18576],[-41,0],[-18,3],[-27,0]],[[41246,18579],[-9,79]],[[41237,18658],[77,10]],[[41314,18668],[4,-21]],[[41377,18650],[27,20]],[[41440,18675],[4,-10]],[[41444,18665],[18,-56]],[[41462,18609],[-9,-38]],[[41453,18571],[-67,3]],[[41539,18569],[-9,68]],[[41530,18637],[-14,33]],[[41516,18670],[27,28]],[[41543,18698],[54,-28]],[[41597,18670],[-4,-15]],[[41593,18655],[-18,-86]],[[41575,18569],[-36,0]],[[41516,18670],[-4,0]],[[41512,18670],[9,107]],[[41521,18777],[13,-13]],[[41534,18764],[9,-66]],[[41534,18764],[18,46]],[[41552,18810],[32,13]],[[41615,18714],[-18,-44]],[[41485,18678],[-41,-13]],[[41431,18772],[94,13]],[[41525,18785],[-4,-8]],[[41512,18670],[-27,8]],[[41314,18668],[-5,56]],[[41309,18724],[23,5]],[[41332,18729],[27,13]],[[41332,18729],[-23,41]],[[41309,18770],[68,40]],[[41539,18569],[-14,0]],[[41525,18569],[-36,63]],[[41489,18632],[0,3]],[[41489,18635],[41,2]],[[41525,18569],[-4,0],[-68,2]],[[41462,18609],[27,23]],[[41485,18678],[4,-43]],[[41309,18770],[-18,63]],[[41282,18892],[99,15]],[[41408,18848],[-9,-33]],[[41152,18581],[-14,79]],[[41138,18660],[32,0]],[[41170,18660],[58,-2]],[[41228,18658],[9,0]],[[41246,18579],[-72,2],[-22,0]],[[41593,18655],[63,-23]],[[41656,18632],[27,-20]],[[41683,18612],[-4,-5],[-91,-38],[-13,0]],[[41710,18958],[54,-13]],[[41656,18632],[32,89]],[[41715,18726],[31,-45]],[[41746,18681],[-13,-16],[0,-56],[-50,3]],[[41309,18724],[-76,15]],[[41233,18739],[-23,18]],[[41233,18739],[-5,-81]],[[41170,18660],[18,92]],[[41516,18869],[-9,-18]],[[41507,18851],[5,30]],[[41512,18881],[4,-12]],[[41507,18851],[0,-8]],[[41507,18843],[-22,16]],[[41476,18927],[31,-13]],[[41507,18914],[5,-33]],[[41525,18785],[-18,58]],[[41516,18869],[23,-3]],[[41539,18866],[13,-56]],[[41507,18914],[63,-27]],[[41570,18881],[-31,-15]],[[41476,18960],[36,43]],[[41512,19003],[85,-20]],[[41305,19321],[-45,-33]],[[41260,19288],[-50,-12]],[[41210,19276],[-27,56]],[[41183,19332],[90,48]],[[41273,19380],[32,15]],[[41305,19395],[0,-74]],[[41467,19604],[-95,-23]],[[41372,19581],[-22,63],[117,-12]],[[41467,19632],[0,-26]],[[41467,19606],[0,-2]],[[41728,19123],[-45,36]],[[41683,19159],[-68,86]],[[41615,19245],[18,31]],[[41633,19276],[73,-87]],[[41706,19189],[22,-66]],[[41498,19296],[-49,46],[27,51]],[[41476,19393],[9,12]],[[41485,19405],[49,-12]],[[41534,19393],[36,-21]],[[41570,19372],[-54,-76]],[[41516,19296],[-9,-5]],[[41507,19291],[-9,5]],[[41215,19103],[-50,-13]],[[41165,19090],[-76,-20]],[[41089,19070],[-41,68]],[[41048,19138],[-4,18]],[[41044,19156],[112,13]],[[41156,19169],[59,-66]],[[41368,19548],[-59,-92]],[[41309,19456],[-72,-15]],[[41237,19441],[-22,53]],[[41215,19494],[-45,38]],[[41170,19532],[18,59]],[[41188,19591],[94,-20]],[[41282,19571],[23,12]],[[41305,19583],[63,-35]],[[41593,19817],[-72,-12]],[[41521,19805],[-86,-11],[18,-99]],[[41453,19695],[-157,15]],[[41296,19710],[9,123],[-54,20]],[[41251,19853],[9,25]],[[41260,19878],[72,56],[22,-63],[23,58]],[[41377,19929],[135,-33],[-54,104],[108,26],[-18,51]],[[41548,20077],[4,-3]],[[41552,20074],[54,-99],[-27,-48]],[[41579,19927],[14,-110]],[[41467,19189],[-50,-15]],[[41417,19174],[-40,74]],[[41377,19248],[121,48]],[[41507,19291],[-40,-102]],[[41751,19243],[-32,-41]],[[41719,19202],[-13,-13]],[[41633,19276],[23,30]],[[41656,19306],[59,-38]],[[41715,19268],[36,-25]],[[41521,19583],[-54,23]],[[41467,19632],[-5,30]],[[41462,19662],[54,-56]],[[41516,19606],[5,-23]],[[41615,19723],[5,-43],[-158,-18]],[[41462,19662],[-9,33]],[[41521,19805],[72,-84]],[[41593,19721],[22,2]],[[41408,19042],[-13,-8]],[[41363,19024],[-63,13]],[[41300,19037],[-40,78]],[[41260,19115],[36,16]],[[41296,19131],[81,-31]],[[41377,19100],[31,-58]],[[41183,19332],[-45,25],[18,53]],[[41156,19410],[59,84]],[[41237,19441],[36,-61]],[[41282,19571],[9,35]],[[41291,19606],[14,-23]],[[41629,19044],[-68,41]],[[41561,19085],[50,63]],[[41611,19148],[59,-20]],[[41670,19128],[-14,-25]],[[41390,19360],[-18,-87]],[[41372,19273],[-18,-10]],[[41354,19263],[-49,58]],[[41305,19395],[31,13]],[[41336,19408],[54,-48]],[[41602,19255],[-18,-7]],[[41584,19248],[-68,48]],[[41570,19372],[59,-25],[-27,-92]],[[41143,19415],[-90,18]],[[41053,19433],[27,69]],[[41080,19502],[90,30]],[[41156,19410],[-13,5]],[[41188,19591],[-41,10]],[[41147,19601],[63,87],[63,-18]],[[41273,19670],[18,-64]],[[41300,19037],[-54,-46]],[[41246,18991],[-81,99]],[[41215,19103],[45,12]],[[41309,19456],[18,-25]],[[41327,19431],[9,-23]],[[41246,18991],[18,-71]],[[41188,18909],[-18,23]],[[41170,18932],[-32,64],[-76,-33]],[[41062,18963],[-23,46]],[[41039,19009],[50,61]],[[41543,19489],[-9,-96]],[[41485,19405],[0,16]],[[41485,19421],[-23,76],[45,25]],[[41507,19522],[5,-101],[31,68]],[[41624,19398],[-54,-26]],[[41543,19489],[104,-51]],[[41647,19438],[-23,-40]],[[41377,19929],[-104,48]],[[41273,19977],[14,28]],[[41287,20005],[22,61],[113,-48],[36,89]],[[41458,20107],[90,-30]],[[41485,19421],[-86,76]],[[41399,19497],[68,107]],[[41521,19583],[31,-58],[-45,-3]],[[41615,19723],[55,8]],[[41670,19731],[36,-10]],[[41706,19721],[-23,-54]],[[41683,19667],[-45,-56],[32,-25],[-50,0]],[[41620,19586],[-104,20]],[[41044,19156],[-9,69]],[[41035,19225],[22,43]],[[41057,19268],[27,3]],[[41084,19271],[72,-102]],[[41368,19548],[4,33]],[[41399,19497],[-72,-66]],[[41057,19268],[-9,64]],[[41048,19332],[54,22]],[[41102,19354],[68,-63]],[[41170,19291],[-86,-20]],[[41561,19085],[-45,33]],[[41516,19118],[5,10]],[[41521,19128],[58,71]],[[41579,19199],[32,-51]],[[41606,19743],[-13,-22]],[[41593,19817],[4,-7]],[[41597,19810],[9,-67]],[[41742,19113],[31,-33]],[[41773,19080],[-18,-31]],[[41670,19128],[13,31]],[[41728,19123],[14,-10]],[[41260,19878],[-23,13]],[[41237,19891],[36,86]],[[41579,19199],[5,49]],[[41602,19255],[13,-10]],[[41273,19670],[23,40]],[[41053,19634],[22,104]],[[41075,19738],[104,-20],[0,81]],[[41179,19799],[54,-12],[18,66]],[[41147,19601],[-94,33]],[[41269,19245],[-9,43]],[[41354,19263],[-85,-18]],[[41476,19393],[-86,-33]],[[41512,19003],[-23,36]],[[41489,19039],[27,79]],[[41377,19248],[-5,25]],[[41170,19291],[40,-15]],[[41269,19245],[27,-114]],[[41129,19817],[-4,84]],[[41125,19901],[9,31]],[[41134,19932],[103,-41]],[[41179,19799],[-50,18]],[[40958,19014],[18,51]],[[40976,19065],[23,68]],[[40999,19133],[49,5]],[[41039,19009],[-81,5]],[[41075,19738],[45,77]],[[41120,19815],[9,2]],[[41039,19332],[-13,89]],[[41026,19421],[27,12]],[[41143,19415],[-41,-61]],[[41048,19332],[-9,0]],[[41773,19080],[77,-56]],[[41850,19024],[-27,-64]],[[41377,19100],[40,74]],[[41467,19189],[54,-61]],[[41489,19039],[-81,3]],[[40809,18803],[-13,94]],[[40796,18897],[22,38]],[[40818,18935],[50,10]],[[40868,18945],[0,-76],[36,58]],[[40904,18927],[4,-79],[50,3]],[[40958,18851],[4,-13]],[[40962,18838],[-49,-56]],[[40913,18782],[-86,0]],[[40827,18782],[-18,21]],[[41143,18897],[-90,-16]],[[41053,18881],[0,16]],[[41053,18897],[9,66]],[[41170,18932],[-27,-35]],[[40760,18721],[31,-71],[-49,-18]],[[40742,18632],[-18,94]],[[40724,18726],[36,-5]],[[41147,18859],[-4,38]],[[40724,18726],[-14,3]],[[40710,18729],[18,79]],[[40728,18808],[14,-3]],[[40742,18805],[58,-69]],[[40800,18736],[-4,-15]],[[40796,18721],[-36,0]],[[41098,18795],[9,-56]],[[41107,18739],[-118,3]],[[40989,18742],[-13,56]],[[40976,18798],[122,-3]],[[40962,18922],[-4,-71]],[[40904,18927],[36,5]],[[40940,18932],[22,-10]],[[40800,18736],[27,46]],[[40913,18782],[9,-35]],[[40922,18747],[-9,-59]],[[40913,18688],[-117,33]],[[41026,18665],[9,-79]],[[41035,18586],[-23,0],[-50,3]],[[40962,18589],[-36,74]],[[40926,18663],[73,2]],[[40999,18665],[27,0]],[[40868,18945],[40,5]],[[40908,18950],[36,5]],[[40944,18955],[-4,-23]],[[41147,18833],[-54,-25]],[[41093,18808],[-45,35]],[[41048,18843],[5,38]],[[41093,18808],[5,-13]],[[40976,18798],[68,45]],[[41044,18843],[4,0]],[[40742,18632],[9,-35]],[[40751,18597],[-14,0],[-67,99],[-5,35]],[[40665,18731],[45,-2]],[[40999,18665],[-10,38]],[[40989,18703],[0,39]],[[41107,18739],[9,-79]],[[41116,18660],[-90,5]],[[40989,18703],[-67,44]],[[40962,18838],[82,5]],[[40958,19014],[-14,-59]],[[40908,18950],[-9,102]],[[40899,19052],[27,5]],[[40926,19057],[50,8]],[[40962,18922],[91,-25]],[[41138,18660],[-22,0]],[[41152,18581],[-41,3],[-76,2]],[[40742,18805],[67,-2]],[[40926,18663],[-13,25]],[[40665,18731],[23,61],[0,18]],[[40688,18810],[40,-2]],[[40688,18810],[49,89]],[[40737,18899],[59,-2]],[[40962,18589],[-85,3],[-99,5],[-27,0]],[[41372,20237],[-117,-56]],[[41255,20181],[-103,48]],[[41152,20229],[-45,21]],[[41107,20250],[117,10],[72,56],[18,10]],[[41314,20326],[58,-89]],[[41606,20262],[-31,59]],[[41588,20412],[190,33]],[[41751,20367],[-68,-3],[0,-112]],[[41458,20107],[-167,56]],[[41291,20163],[-36,18]],[[41372,20237],[180,-115]],[[41552,20122],[0,-48]],[[41597,20720],[-189,-25]],[[41408,20695],[81,142],[-31,89],[58,18]],[[41516,20944],[185,-51]],[[41706,20781],[-86,-38]],[[41841,20789],[9,-158]],[[41850,20631],[-226,-5]],[[41624,20626],[-4,81]],[[41287,20005],[-36,82]],[[41251,20087],[40,76]],[[41863,20356],[0,-28],[5,-71]],[[41534,20435],[-76,71]],[[41458,20506],[-18,56]],[[41440,20562],[184,21]],[[41624,20583],[5,-56]],[[41534,20262],[-63,-10],[36,28],[-45,84]],[[41462,20364],[81,13]],[[41363,20356],[41,46],[54,104]],[[41462,20364],[-99,-8]],[[41251,20087],[-95,-21]],[[41156,20066],[-72,84]],[[41084,20150],[68,79]],[[41624,20583],[0,43]],[[41850,20631],[4,-102]],[[41440,20562],[-32,133]],[[41516,20944],[-31,0],[85,196],[-40,35],[117,64],[122,-64],[40,69],[23,-323],[0,-18]],[[41566,20125],[-14,-3]],[[41314,20326],[49,30]],[[40818,18935],[-27,79]],[[40791,19014],[108,38]],[[40751,19042],[-5,2]],[[40746,19044],[14,74],[18,107]],[[40778,19225],[45,-5],[9,-77]],[[40832,19143],[27,-35]],[[40859,19108],[-99,-66]],[[40760,19042],[-9,0]],[[40926,19057],[-67,51]],[[40832,19143],[76,23]],[[40908,19166],[63,0]],[[40971,19166],[28,-33]],[[40791,19014],[-31,28]],[[40737,18899],[9,49],[9,58],[0,5]],[[40755,19011],[-4,31]],[[40755,19011],[-9,33]],[[41066,20064],[-4,0],[-5,63]],[[41057,20127],[27,23]],[[41156,20066],[9,-45],[-99,43]],[[41080,19502],[-41,135]],[[41039,19637],[14,-3]],[[40778,19225],[4,66],[5,25]],[[40787,19316],[99,-5]],[[40886,19311],[22,-145]],[[40787,19316],[0,94]],[[40787,19410],[76,13]],[[40863,19423],[9,-20]],[[40872,19403],[18,-36]],[[40890,19367],[-4,-56]],[[40962,19466],[-40,13]],[[40922,19479],[40,76]],[[40962,19555],[-4,23]],[[40958,19578],[13,33]],[[40971,19611],[41,-30],[-9,68]],[[41003,19649],[36,-12]],[[41026,19421],[-64,45]],[[40958,19578],[-63,28],[54,48],[22,-43]],[[40971,19166],[28,49]],[[40999,19215],[36,10]],[[41039,19332],[-31,2]],[[41008,19334],[-77,46]],[[40931,19380],[31,86]],[[40962,19555],[-76,26]],[[40886,19581],[-27,7]],[[40859,19588],[76,79]],[[40935,19667],[68,-18]],[[41075,19962],[0,-40]],[[41075,19922],[-40,12]],[[41035,19934],[22,38]],[[41057,19972],[18,-10]],[[40922,19479],[-59,13]],[[40863,19492],[23,89]],[[40935,19667],[18,74],[0,23],[14,7]],[[40967,19771],[108,-33]],[[40863,19423],[41,10],[-32,-30]],[[41057,20127],[-4,39],[54,84]],[[40890,19367],[41,13]],[[41008,19334],[-9,-119]],[[41143,19955],[-68,7]],[[41057,19972],[0,39],[14,27]],[[41071,20038],[90,-33],[-18,-50]],[[40967,19771],[41,79],[13,10]],[[41021,19860],[99,-45]],[[41021,19860],[5,69],[9,5]],[[41075,19922],[50,-21]],[[41143,19955],[-9,-23]],[[40787,19410],[4,8],[36,66],[14,10]],[[40841,19494],[22,-2]],[[40841,19494],[0,5],[18,79],[0,10]],[[41071,20038],[-5,26]],[[42025,18897],[-18,40]],[[42007,18937],[-18,66],[86,-71]],[[42075,18932],[-50,-35]],[[41656,19306],[27,20],[-59,72]],[[41647,19438],[27,-51],[18,-27],[-13,58],[40,33]],[[41719,19451],[27,-20]],[[41746,19431],[0,-163],[-31,0]],[[41787,18691],[-41,-10]],[[41710,18747],[59,-13]],[[41769,18734],[18,-43]],[[41769,19983],[-14,-54]],[[41755,19929],[-176,-2]],[[41638,20044],[90,0]],[[41728,20044],[9,-26],[14,-15],[18,-20]],[[41872,20072],[9,-209],[0,-46]],[[41881,19817],[-90,16]],[[41791,19833],[5,55]],[[41796,19888],[54,95]],[[41850,19983],[22,89]],[[41715,19606],[-32,61]],[[41706,19721],[22,10]],[[41728,19731],[5,0]],[[41733,19731],[153,-41]],[[41886,19690],[0,-38]],[[41886,19652],[-23,-74]],[[41863,19578],[-90,69],[-58,-41]],[[41823,19118],[-27,2]],[[41796,19120],[-32,44]],[[41764,19164],[59,-46]],[[41715,19606],[18,-30]],[[41733,19576],[-73,-33]],[[41660,19543],[-13,35],[-27,8]],[[41706,19777],[-27,38]],[[41679,19815],[31,10]],[[41710,19825],[-4,-48]],[[41679,19815],[-82,-5]],[[41755,19929],[41,-41]],[[41791,19833],[-81,-6]],[[41710,19827],[0,-2]],[[41760,18772],[0,64]],[[41805,18836],[-5,-54]],[[41800,18782],[-40,-10]],[[41877,19052],[36,56]],[[41913,19108],[4,5]],[[41917,19113],[14,25]],[[41931,19138],[45,-25]],[[41976,19113],[40,-33]],[[42016,19080],[-4,-18],[0,-8],[-27,-40]],[[41985,19014],[-108,38]],[[41962,18963],[-94,-3]],[[41850,19024],[27,28]],[[41985,19014],[-45,-3],[22,-48]],[[41742,19113],[54,7]],[[41823,19118],[36,36]],[[41859,19154],[54,-46]],[[41778,18752],[-5,-13]],[[41773,18739],[-22,33]],[[41751,18772],[9,0]],[[41800,18782],[-22,-30]],[[41944,18762],[-67,-23]],[[41877,18739],[-18,31]],[[41859,18770],[18,58]],[[41877,18828],[63,-56]],[[41940,18772],[4,-10]],[[41890,19578],[0,-10],[5,-61],[0,-20]],[[41895,19487],[-36,81]],[[41859,19568],[9,5]],[[41868,19573],[22,5]],[[41877,18828],[-68,8]],[[41868,18902],[58,-3]],[[41926,18899],[36,-51]],[[41962,18848],[-9,-5]],[[41953,18843],[-13,-61]],[[41940,18782],[0,-10]],[[41751,19243],[58,71]],[[41809,19314],[77,-51]],[[41886,19263],[0,-3]],[[41886,19260],[-50,-76],[-85,59]],[[41881,19779],[5,-89]],[[41733,19731],[31,12]],[[41764,19743],[117,36]],[[41859,19154],[58,-41]],[[42025,18897],[-4,-18]],[[42021,18879],[-36,2]],[[41985,18881],[-18,54]],[[41967,18935],[40,2]],[[41773,18739],[-4,-5]],[[41706,18787],[45,-15]],[[42003,18787],[-50,56]],[[41962,18848],[81,-20]],[[42043,18828],[-40,-41]],[[42003,18777],[-63,5]],[[42003,18787],[0,-10]],[[41850,19983],[-81,0]],[[41728,20044],[72,-13],[0,114]],[[41868,20196],[0,-13],[4,-111]],[[41859,18770],[-45,-39]],[[41814,18731],[-36,21]],[[41764,19743],[-54,84]],[[41881,19817],[0,-30],[0,-8]],[[41809,19314],[68,84]],[[41877,19398],[18,-28]],[[41895,19370],[9,-46],[-18,-26]],[[41886,19298],[0,-35]],[[41904,19433],[-9,-63]],[[41877,19398],[27,35]],[[41746,19431],[32,33],[13,-66]],[[41791,19398],[18,-84]],[[41944,18930],[-18,-31]],[[41868,18932],[76,-2]],[[41962,18963],[-18,-33]],[[41877,18739],[-5,-3],[-36,-30]],[[41836,18706],[-22,25]],[[42021,18879],[36,-33]],[[42057,18846],[-14,-18]],[[41962,18848],[23,33]],[[41859,19568],[-27,-38]],[[41832,19530],[-99,46]],[[41863,19578],[5,-5]],[[41836,18706],[-49,-15]],[[41764,19164],[-45,38]],[[41886,19260],[63,-96]],[[41949,19164],[-18,-26]],[[41953,19171],[-4,-7]],[[41886,19298],[36,-76],[31,-51]],[[41976,19113],[27,15]],[[42003,19128],[13,-8],[0,-40]],[[42075,18932],[-18,-86]],[[41845,19421],[-67,48],[58,7],[-4,54]],[[41895,19487],[9,-54]],[[41877,19398],[-32,23]],[[42003,18777],[9,-33],[-68,18]],[[41728,19731],[9,56],[-22,-31]],[[41715,19756],[-9,21]],[[41953,19171],[50,-43]],[[41886,19652],[4,-74]],[[41606,19743],[64,-12]],[[41944,18930],[23,5]],[[41715,19756],[0,-5],[0,-15],[-9,-15]],[[41791,19398],[54,23]],[[41719,19451],[-45,56],[-14,36]]]}