{"type":"Topology","transform":{"scale":[0.0012831345112129487,0.0009745357309423489],"translate":[-124.73273099999999,24.60334863324381]},"objects":{"area":{"type":"GeometryCollection","geometries":[{"arcs":[[0,1,2,3,4,5,6]],"type":"Polygon","properties":{"state":"NJ","name":"AVENEL","zip":"07001"}},{"arcs":[[7,8]],"type":"Polygon","properties":{"state":"NJ","name":"BAYONNE","zip":"07002"}},{"arcs":[[9,10,11,12,13,14,15]],"type":"Polygon","properties":{"state":"NJ","name":"BLOOMFIELD","zip":"07003"}},{"arcs":[[16,17,18,19,20,21,22]],"type":"Polygon","properties":{"state":"NJ","name":"FAIRFIELD","zip":"07004"}},{"arcs":[[23,24,25,26,27,28,29]],"type":"Polygon","properties":{"state":"NJ","name":"BOONTON","zip":"07005"}},{"arcs":[[30,31,32,33,-22,34,35]],"type":"Polygon","properties":{"state":"NJ","name":"CALDWELL","zip":"07006"}},{"arcs":[[36,-5,37,38]],"type":"Polygon","properties":{"state":"NJ","name":"CARTERET","zip":"07008"}},{"arcs":[[39,40,-36,41]],"type":"Polygon","properties":{"state":"NJ","name":"CEDAR GROVE","zip":"07009"}},{"arcs":[[42,43,44,45,46]],"type":"Polygon","properties":{"state":"NJ","name":"CLIFFSIDE PARK","zip":"07010"}},{"arcs":[[47,48,49,50,51]],"type":"Polygon","properties":{"state":"NJ","name":"CLIFTON","zip":"07011"}},{"arcs":[[52,-15,53,54,55]],"type":"Polygon","properties":{"state":"NJ","name":"CLIFTON","zip":"07012"}},{"arcs":[[56,57,58,59,-48,60,-54]],"type":"Polygon","properties":{"state":"NJ","name":"CLIFTON","zip":"07013"}},{"arcs":[[61,62,-56,63,64]],"type":"Polygon","properties":{"state":"NJ","name":"CLIFTON","zip":"07014"}},{"arcs":[[65,66,67,68,69,70,71]],"type":"Polygon","properties":{"state":"NJ","name":"CRANFORD","zip":"07016"}},{"arcs":[[72,73,74,75,-12]],"type":"Polygon","properties":{"state":"NJ","name":"EAST ORANGE","zip":"07017"}},{"arcs":[[76,77,-74,78,79,80]],"type":"Polygon","properties":{"state":"NJ","name":"EAST ORANGE","zip":"07018"}},{"arcs":[[81,-43,82,83]],"type":"Polygon","properties":{"state":"NJ","name":"EDGEWATER","zip":"07020"}},{"arcs":[[84,-32,85,86]],"type":"Polygon","properties":{"state":"NJ","name":"ESSEX FELLS","zip":"07021"}},{"arcs":[[87,88,-45]],"type":"Polygon","properties":{"state":"NJ","name":"FAIRVIEW","zip":"07022"}},{"arcs":[[89,90,91,92]],"type":"Polygon","properties":{"state":"NJ","name":"FANWOOD","zip":"07023"}},{"arcs":[[93,94,95,96,97,98,-83,-47]],"type":"Polygon","properties":{"state":"NJ","name":"FORT LEE","zip":"07024"}},{"arcs":[[99,-51,100,101,102,103,104]],"type":"Polygon","properties":{"state":"NJ","name":"GARFIELD","zip":"07026"}},{"arcs":[[-76,105,-13]],"type":"Polygon","properties":{"state":"NJ","name":"GLEN RIDGE","zip":"07028"}},{"arcs":[[106,107,108,109]],"type":"Polygon","properties":{"state":"NJ","name":"HARRISON","zip":"07029"}},{"arcs":[[110,111,112,113,114]],"type":"Polygon","properties":{"state":"NJ","name":"HOBOKEN","zip":"07030"}},{"arcs":[[115,116,117]],"type":"Polygon","properties":{"state":"NJ","name":"NORTH ARLINGTON","zip":"07031"}},{"arcs":[[118,119,120,-109,121,122,-116,123,124]],"type":"Polygon","properties":{"state":"NJ","name":"KEARNY","zip":"07032"}},{"arcs":[[125,-70,126,127]],"type":"Polygon","properties":{"state":"NJ","name":"KENILWORTH","zip":"07033"}},{"arcs":[[128,-29,129]],"type":"Polygon","properties":{"state":"NJ","name":"LAKE HIAWATHA","zip":"07034"}},{"arcs":[[130,131,132,133,134,-20]],"type":"Polygon","properties":{"state":"NJ","name":"LINCOLN PARK","zip":"07035"}},{"arcs":[[135,136,-66,137,138,139,-38,-4]],"type":"Polygon","properties":{"state":"NJ","name":"LINDEN","zip":"07036"}},{"arcs":[[140,141,142,143,144,145]],"type":"Polygon","properties":{"state":"NJ","name":"LIVINGSTON","zip":"07039"}},{"arcs":[[146,147,148,149,150,151,152]],"type":"Polygon","properties":{"state":"NJ","name":"MAPLEWOOD","zip":"07040"}},{"arcs":[[153,154,155,156,157,-148]],"type":"Polygon","properties":{"state":"NJ","name":"MILLBURN","zip":"07041"}},{"arcs":[[158,159,160,161,-106]],"type":"Polygon","properties":{"state":"NJ","name":"MONTCLAIR","zip":"07042"}},{"arcs":[[-162,162,-40,163,-57,-14]],"type":"Polygon","properties":{"state":"NJ","name":"MONTCLAIR","zip":"07043"}},{"arcs":[[-31,-41,-163,-161,164,-86]],"type":"Polygon","properties":{"state":"NJ","name":"VERONA","zip":"07044"}},{"arcs":[[165,-130,-28,166,167,-18]],"type":"Polygon","properties":{"state":"NJ","name":"MONTVILLE","zip":"07045"}},{"arcs":[[168,169,-24]],"type":"Polygon","properties":{"state":"NJ","name":"MOUNTAIN LAKES","zip":"07046"}},{"arcs":[[170,171,172,173,174,175,-88,-44,-82,176]],"type":"Polygon","properties":{"state":"NJ","name":"NORTH BERGEN","zip":"07047"}},{"arcs":[[177,-159,-75,-78,178]],"type":"Polygon","properties":{"state":"NJ","name":"ORANGE","zip":"07050"}},{"arcs":[[179,-87,-165,-160,-178,180,-149,-158,181,-145]],"type":"Polygon","properties":{"state":"NJ","name":"WEST ORANGE","zip":"07052"}},{"arcs":[[182,183,184,-169,-30,-129,185,186,187]],"type":"Polygon","properties":{"state":"NJ","name":"PARSIPPANY","zip":"07054"}},{"arcs":[[-61,-52,-100,188,189,190,-64,-55]],"type":"Polygon","properties":{"state":"NJ","name":"PASSAIC","zip":"07055"}},{"arcs":[[191,192,-189,-105,193]],"type":"Polygon","properties":{"state":"NJ","name":"WALLINGTON","zip":"07057"}},{"arcs":[[-166,-17,194,-186]],"type":"Polygon","properties":{"state":"NJ","name":"PINE BROOK","zip":"07058"}},{"arcs":[[195,196,197,198,199,200,201,202]],"type":"Polygon","properties":{"state":"NJ","name":"WARREN","zip":"07059"}},{"arcs":[[203,204,205,206,207,208]],"type":"Polygon","properties":{"state":"NJ","name":"PLAINFIELD","zip":"07060"}},{"arcs":[[209,-209,210,211,-91]],"type":"Polygon","properties":{"state":"NJ","name":"PLAINFIELD","zip":"07062"}},{"arcs":[[212,213,-206,214]],"type":"Polygon","properties":{"state":"NJ","name":"PLAINFIELD","zip":"07063"}},{"arcs":[[215,216,-6,-37,217]],"type":"Polygon","properties":{"state":"NJ","name":"PORT READING","zip":"07064"}},{"arcs":[[218,219,-136,-3]],"type":"Polygon","properties":{"state":"NJ","name":"RAHWAY","zip":"07065"}},{"arcs":[[220,221,222,223,-67,-137,-220]],"type":"Polygon","properties":{"state":"NJ","name":"CLARK","zip":"07066"}},{"arcs":[[224,225,-221,-219,-2]],"type":"Polygon","properties":{"state":"NJ","name":"COLONIA","zip":"07067"}},{"arcs":[[-144,226,-33,-85,-180]],"type":"Polygon","properties":{"state":"NJ","name":"ROSELAND","zip":"07068"}},{"arcs":[[227,228,-211,-208,229,-202]],"type":"Polygon","properties":{"state":"NJ","name":"WATCHUNG","zip":"07069"}},{"arcs":[[230,231,-65,-191]],"type":"Polygon","properties":{"state":"NJ","name":"RUTHERFORD","zip":"07070"}},{"arcs":[[232,-62,-232,233,234,-124,-118]],"type":"Polygon","properties":{"state":"NJ","name":"LYNDHURST","zip":"07071"}},{"arcs":[[235,236,-192,237,238,239,240,-175]],"type":"Polygon","properties":{"state":"NJ","name":"CARLSTADT","zip":"07072"}},{"arcs":[[-190,-193,-237,241,-234,-231]],"type":"Polygon","properties":{"state":"NJ","name":"EAST RUTHERFORD","zip":"07073"}},{"arcs":[[242,-239,243,244,245]],"type":"Polygon","properties":{"state":"NJ","name":"MOONACHIE","zip":"07074"}},{"arcs":[[246,-244,-238,-194,-104,247]],"type":"Polygon","properties":{"state":"NJ","name":"WOOD RIDGE","zip":"07075"}},{"arcs":[[[248,249,250,-92,-212,-229]],[[251,-204,-210,-90,252,-223]]],"type":"MultiPolygon","properties":{"state":"NJ","name":"SCOTCH PLAINS","zip":"07076"}},{"arcs":[[253,254,-216,255]],"type":"Polygon","properties":{"state":"NJ","name":"SEWAREN","zip":"07077"}},{"arcs":[[256,257,-146,-182,-157,258]],"type":"Polygon","properties":{"state":"NJ","name":"SHORT HILLS","zip":"07078"}},{"arcs":[[259,-150,-181,-179,-77]],"type":"Polygon","properties":{"state":"NJ","name":"SOUTH ORANGE","zip":"07079"}},{"arcs":[[260,261,-215,-205,262]],"type":"Polygon","properties":{"state":"NJ","name":"SOUTH PLAINFIELD","zip":"07080"}},{"arcs":[[263,264,265,-259,-156,266,-127,-69]],"type":"Polygon","properties":{"state":"NJ","name":"SPRINGFIELD","zip":"07081"}},{"arcs":[[-168,267,-131,-19]],"type":"Polygon","properties":{"state":"NJ","name":"TOWACO","zip":"07082"}},{"arcs":[[-267,-155,268,-153,269,270,271,272,-128]],"type":"Polygon","properties":{"state":"NJ","name":"UNION","zip":"07083"}},{"arcs":[[-114,273,274,275]],"type":"Polygon","properties":{"state":"NJ","name":"WEEHAWKEN","zip":"07086"}},{"arcs":[[276,-172,277,-274,-113]],"type":"Polygon","properties":{"state":"NJ","name":"UNION CITY","zip":"07087"}},{"arcs":[[-154,-147,-269]],"type":"Polygon","properties":{"state":"NJ","name":"VAUXHALL","zip":"07088"}},{"arcs":[[-224,-253,-93,-251,278,-264,-68]],"type":"Polygon","properties":{"state":"NJ","name":"WESTFIELD","zip":"07090"}},{"arcs":[[279,280,-265,-279,-250]],"type":"Polygon","properties":{"state":"NJ","name":"MOUNTAINSIDE","zip":"07092"}},{"arcs":[[-275,-278,-171,281]],"type":"Polygon","properties":{"state":"NJ","name":"WEST NEW YORK","zip":"07093"}},{"arcs":[[282,283,-125,-235,-242,-236,-174]],"type":"Polygon","properties":{"state":"NJ","name":"SECAUCUS","zip":"07094"}},{"arcs":[[284,285,286,-7,-217,-255]],"type":"Polygon","properties":{"state":"NJ","name":"WOODBRIDGE","zip":"07095"}},{"arcs":[[287,288,289,-107,290,291]],"type":"Polygon","properties":{"state":"NJ","name":"NEWARK","zip":"07102"}},{"arcs":[[292,293,-80,294,295,-289,296]],"type":"Polygon","properties":{"state":"NJ","name":"NEWARK","zip":"07103"}},{"arcs":[[297,298,-122,-108,-290,-296]],"type":"Polygon","properties":{"state":"NJ","name":"NEWARK","zip":"07104"}},{"arcs":[[299,-291,-110,-121,300]],"type":"Polygon","properties":{"state":"NJ","name":"NEWARK","zip":"07105"}},{"arcs":[[-260,-81,-294,301,-151]],"type":"Polygon","properties":{"state":"NJ","name":"NEWARK","zip":"07106"}},{"arcs":[[-295,-79,-73,-11,302,-298]],"type":"Polygon","properties":{"state":"NJ","name":"NEWARK","zip":"07107"}},{"arcs":[[303,304,305,-297,-288]],"type":"Polygon","properties":{"state":"NJ","name":"NEWARK","zip":"07108"}},{"arcs":[[-303,-10,306,-117,-123,-299]],"type":"Polygon","properties":{"state":"NJ","name":"BELLEVILLE","zip":"07109"}},{"arcs":[[-307,-16,-53,-63,-233]],"type":"Polygon","properties":{"state":"NJ","name":"NUTLEY","zip":"07110"}},{"arcs":[[-152,-302,-293,-306,307,308,-270]],"type":"Polygon","properties":{"state":"NJ","name":"IRVINGTON","zip":"07111"}},{"arcs":[[309,310,-308,-305]],"type":"Polygon","properties":{"state":"NJ","name":"NEWARK","zip":"07112"}},{"arcs":[[311,-310,-304,-292,-300,312,313]],"type":"Polygon","properties":{"state":"NJ","name":"NEWARK","zip":"07114"}},{"arcs":[[314,315,316,-314,317]],"type":"Polygon","properties":{"state":"NJ","name":"ELIZABETH","zip":"07201"}},{"arcs":[[318,319,-139,320,321,-316]],"type":"Polygon","properties":{"state":"NJ","name":"ELIZABETH","zip":"07202"}},{"arcs":[[322,323,-321,-138,-72]],"type":"Polygon","properties":{"state":"NJ","name":"ROSELLE","zip":"07203"}},{"arcs":[[-71,-126,-273,324,-323]],"type":"Polygon","properties":{"state":"NJ","name":"ROSELLE PARK","zip":"07204"}},{"arcs":[[-309,-311,325,-271]],"type":"Polygon","properties":{"state":"NJ","name":"HILLSIDE","zip":"07205"}},{"arcs":[[-315,326,-319]],"type":"Polygon","properties":{"state":"NJ","name":"ELIZABETH","zip":"07206"}},{"arcs":[[-324,-325,-272,-326,-312,-317,-322]],"type":"Polygon","properties":{"state":"NJ","name":"ELIZABETH","zip":"07208"}},{"arcs":[[327,328,329,330]],"type":"Polygon","properties":{"state":"NJ","name":"JERSEY CITY","zip":"07302"}},{"arcs":[[331,332,333,-328,334]],"type":"Polygon","properties":{"state":"NJ","name":"JERSEY CITY","zip":"07304"}},{"arcs":[[-8,335,-332,336]],"type":"Polygon","properties":{"state":"NJ","name":"JERSEY CITY","zip":"07305"}},{"arcs":[[337,-329,-334,338,-119,-284,339]],"type":"Polygon","properties":{"state":"NJ","name":"JERSEY CITY","zip":"07306"}},{"arcs":[[-340,-283,-173,-277,-112]],"type":"Polygon","properties":{"state":"NJ","name":"JERSEY CITY","zip":"07307"}},{"arcs":[[-330,-338,-111,340]],"type":"Polygon","properties":{"state":"NJ","name":"JERSEY CITY","zip":"07310"}},{"arcs":[[341,342,343,344,345]],"type":"Polygon","properties":{"state":"NJ","name":"ALLENDALE","zip":"07401"}},{"arcs":[[346,347,348,349,350,351,352]],"type":"Polygon","properties":{"state":"NJ","name":"BLOOMINGDALE","zip":"07403"}},{"arcs":[[353,354,355,-349,356,357,-132,-268,-167,-27]],"type":"Polygon","properties":{"state":"NJ","name":"BUTLER","zip":"07405"}},{"arcs":[[358,359,360,361,362,-101,-50]],"type":"Polygon","properties":{"state":"NJ","name":"ELMWOOD PARK","zip":"07407"}},{"arcs":[[363,364,-362,365,366,367]],"type":"Polygon","properties":{"state":"NJ","name":"FAIR LAWN","zip":"07410"}},{"arcs":[[368,369,370,371]],"type":"Polygon","properties":{"state":"NJ","name":"FRANKLIN","zip":"07416"}},{"arcs":[[372,373,374,375,376]],"type":"Polygon","properties":{"state":"NJ","name":"FRANKLIN LAKES","zip":"07417"}},{"arcs":[[377,378,379]],"type":"Polygon","properties":{"state":"NJ","name":"GLENWOOD","zip":"07418"}},{"arcs":[[380,381,382,383,384,385,-372]],"type":"Polygon","properties":{"state":"NJ","name":"HAMBURG","zip":"07419"}},{"arcs":[[386,-353,387]],"type":"Polygon","properties":{"state":"NJ","name":"HASKELL","zip":"07420"}},{"arcs":[[388,389,390,391,392,393]],"type":"Polygon","properties":{"state":"NJ","name":"HEWITT","zip":"07421"}},{"arcs":[[394,395,-390,396]],"type":"Polygon","properties":{"state":"NJ","name":"HIGHLAND LAKES","zip":"07422"}},{"arcs":[[397,398,399,400]],"type":"Polygon","properties":{"state":"NJ","name":"HO HO KUS","zip":"07423"}},{"arcs":[[-35,401,402,403,-58,-164,-42]],"type":"Polygon","properties":{"state":"NJ","name":"LITTLE FALLS","zip":"07424"}},{"arcs":[[404,-377,405,406,407,408,409,-345]],"type":"Polygon","properties":{"state":"NJ","name":"MAHWAH","zip":"07430"}},{"arcs":[[410,411,412]],"type":"Polygon","properties":{"state":"NJ","name":"MIDLAND PARK","zip":"07432"}},{"arcs":[[413,-355,414,415,416,-394]],"type":"Polygon","properties":{"state":"NJ","name":"NEWFOUNDLAND","zip":"07435"}},{"arcs":[[417,418,419,-406,-376,420]],"type":"Polygon","properties":{"state":"NJ","name":"OAKLAND","zip":"07436"}},{"arcs":[[421,422,423,-416,424,425]],"type":"Polygon","properties":{"state":"NJ","name":"OAK RIDGE","zip":"07438"}},{"arcs":[[426,369,427]],"type":"Polygon","properties":{"state":"NJ","name":"OGDENSBURG","zip":"07439"}},{"arcs":[[428,429,-134]],"type":"Polygon","properties":{"state":"NJ","name":"PEQUANNOCK","zip":"07440"}},{"arcs":[[430,-347,-387,431,-418,432,433]],"type":"Polygon","properties":{"state":"NJ","name":"POMPTON LAKES","zip":"07442"}},{"arcs":[[434,-434,435,-429,-133,-358]],"type":"Polygon","properties":{"state":"NJ","name":"POMPTON PLAINS","zip":"07444"}},{"arcs":[[436,-346,-410]],"type":"Polygon","properties":{"state":"NJ","name":"RAMSEY","zip":"07446"}},{"arcs":[[437,438,-411,439,-399,440,441,442]],"type":"Polygon","properties":{"state":"NJ","name":"RIDGEWOOD","zip":"07450"}},{"arcs":[[443,-443,-368]],"type":"Polygon","properties":{"state":"NJ","name":"GLEN ROCK","zip":"07452"}},{"arcs":[[444,-392,445,-407,-420,446,-351]],"type":"Polygon","properties":{"state":"NJ","name":"RINGWOOD","zip":"07456"}},{"arcs":[[-435,-357,-348,-431]],"type":"Polygon","properties":{"state":"NJ","name":"RIVERDALE","zip":"07457"}},{"arcs":[[447,-342,-437,-409,448,449,450,451,-401]],"type":"Polygon","properties":{"state":"NJ","name":"SADDLE RIVER","zip":"07458"}},{"arcs":[[-369,-386,452,-397,-389,-417,-424,453,426]],"type":"Polygon","properties":{"state":"NJ","name":"STOCKHOLM","zip":"07460"}},{"arcs":[[454,455,456,-379,457,-384,458]],"type":"Polygon","properties":{"state":"NJ","name":"SUSSEX","zip":"07461"}},{"arcs":[[-453,-385,-458,-378,459,-395]],"type":"Polygon","properties":{"state":"NJ","name":"VERNON","zip":"07462"}},{"arcs":[[-413,460,-343,-448,-400,-440]],"type":"Polygon","properties":{"state":"NJ","name":"WALDWICK","zip":"07463"}},{"arcs":[[-388,-352,-447,-419,-432]],"type":"Polygon","properties":{"state":"NJ","name":"WANAQUE","zip":"07465"}},{"arcs":[[-430,-436,-433,-421,-375,461,462,463,-402,-21,-135]],"type":"Polygon","properties":{"state":"NJ","name":"WAYNE","zip":"07470"}},{"arcs":[[-356,-414,-393,-445,-350]],"type":"Polygon","properties":{"state":"NJ","name":"WEST MILFORD","zip":"07480"}},{"arcs":[[464,-373,-405,-344,-461,-412,-439,465]],"type":"Polygon","properties":{"state":"NJ","name":"WYCKOFF","zip":"07481"}},{"arcs":[[466,467,-59,-404,468,469,470,471,472]],"type":"Polygon","properties":{"state":"NJ","name":"PATERSON","zip":"07501"}},{"arcs":[[473,-463,474,475,-469]],"type":"Polygon","properties":{"state":"NJ","name":"PATERSON","zip":"07502"}},{"arcs":[[-468,476,477,-359,-49,-60]],"type":"Polygon","properties":{"state":"NJ","name":"PATERSON","zip":"07503"}},{"arcs":[[-478,478,-473,479,-360]],"type":"Polygon","properties":{"state":"NJ","name":"PATERSON","zip":"07504"}},{"arcs":[[480,481,-466,-438,-444,-367]],"type":"Polygon","properties":{"state":"NJ","name":"HAWTHORNE","zip":"07506"}},{"arcs":[[482,-475,-462,-374,-465,-482,483]],"type":"Polygon","properties":{"state":"NJ","name":"HALEDON","zip":"07508"}},{"arcs":[[-464,-474,-403]],"type":"Polygon","properties":{"state":"NJ","name":"TOTOWA","zip":"07512"}},{"arcs":[[-467,-479,-477]],"type":"Polygon","properties":{"state":"NJ","name":"PATERSON","zip":"07513"}},{"arcs":[[-480,-472,484,-366,-361]],"type":"Polygon","properties":{"state":"NJ","name":"PATERSON","zip":"07514"}},{"arcs":[[-476,-483,485,-470]],"type":"Polygon","properties":{"state":"NJ","name":"PATERSON","zip":"07522"}},{"arcs":[[-486,-484,-481,-485,-471]],"type":"Polygon","properties":{"state":"NJ","name":"PATERSON","zip":"07524"}},{"arcs":[[486,487,488,489,490,491,492,493,494,495,496]],"type":"Polygon","properties":{"state":"NJ","name":"HACKENSACK","zip":"07601"}},{"arcs":[[497,-487,498]],"type":"Polygon","properties":{"state":"NJ","name":"BOGOTA","zip":"07603"}},{"arcs":[[499,-492,500,-245,-247]],"type":"Polygon","properties":{"state":"NJ","name":"HASBROUCK HEIGHTS","zip":"07604"}},{"arcs":[[501,502,503,504,-96]],"type":"Polygon","properties":{"state":"NJ","name":"LEONIA","zip":"07605"}},{"arcs":[[505,506,-490]],"type":"Polygon","properties":{"state":"NJ","name":"SOUTH HACKENSACK","zip":"07606"}},{"arcs":[[507,508,509,-494]],"type":"Polygon","properties":{"state":"NJ","name":"MAYWOOD","zip":"07607"}},{"arcs":[[-491,-507,510,-246,-501]],"type":"Polygon","properties":{"state":"NJ","name":"TETERBORO","zip":"07608"}},{"arcs":[[511,512,513,514,515,516,517]],"type":"Polygon","properties":{"state":"NJ","name":"ALPINE","zip":"07620"}},{"arcs":[[518,519,520,521,522]],"type":"Polygon","properties":{"state":"NJ","name":"BERGENFIELD","zip":"07621"}},{"arcs":[[523,524,525,526,-514,527]],"type":"Polygon","properties":{"state":"NJ","name":"CLOSTER","zip":"07624"}},{"arcs":[[528,-523,529,530,-512]],"type":"Polygon","properties":{"state":"NJ","name":"CRESSKILL","zip":"07626"}},{"arcs":[[-531,531,532,-528,-513]],"type":"Polygon","properties":{"state":"NJ","name":"DEMAREST","zip":"07627"}},{"arcs":[[-522,533,534,535,-532,-530]],"type":"Polygon","properties":{"state":"NJ","name":"DUMONT","zip":"07628"}},{"arcs":[[536,537,538,539,540,541,-525]],"type":"Polygon","properties":{"state":"NJ","name":"EMERSON","zip":"07630"}},{"arcs":[[542,-97,-505,543,544]],"type":"Polygon","properties":{"state":"NJ","name":"ENGLEWOOD","zip":"07631"}},{"arcs":[[-98,-543,545,546]],"type":"Polygon","properties":{"state":"NJ","name":"ENGLEWOOD CLIFFS","zip":"07632"}},{"arcs":[[547,548,-526,-542]],"type":"Polygon","properties":{"state":"NJ","name":"HARRINGTON PARK","zip":"07640"}},{"arcs":[[-536,549,-537,-524,-533]],"type":"Polygon","properties":{"state":"NJ","name":"HAWORTH","zip":"07641"}},{"arcs":[[550,-452,551,552]],"type":"Polygon","properties":{"state":"NJ","name":"HILLSDALE","zip":"07642"}},{"arcs":[[-511,-506,-489,553,554,-240,-243]],"type":"Polygon","properties":{"state":"NJ","name":"LITTLE FERRY","zip":"07643"}},{"arcs":[[555,556,-508,-493,-500,-248,-103]],"type":"Polygon","properties":{"state":"NJ","name":"LODI","zip":"07644"}},{"arcs":[[557,558,559,-450,560]],"type":"Polygon","properties":{"state":"NJ","name":"MONTVALE","zip":"07645"}},{"arcs":[[561,562,563,-534,-521]],"type":"Polygon","properties":{"state":"NJ","name":"NEW MILFORD","zip":"07646"}},{"arcs":[[564,565,566,-516]],"type":"Polygon","properties":{"state":"NJ","name":"NORTHVALE","zip":"07647"}},{"arcs":[[-527,-549,-565,-515]],"type":"Polygon","properties":{"state":"NJ","name":"NORWOOD","zip":"07648"}},{"arcs":[[567,-538,-550,-535,-564,568]],"type":"Polygon","properties":{"state":"NJ","name":"ORADELL","zip":"07649"}},{"arcs":[[569,570,-502,-95]],"type":"Polygon","properties":{"state":"NJ","name":"PALISADES PARK","zip":"07650"}},{"arcs":[[571,-495,-510,572,573,-364,-442,574,-539,-568]],"type":"Polygon","properties":{"state":"NJ","name":"PARAMUS","zip":"07652"}},{"arcs":[[575,-559,576]],"type":"Polygon","properties":{"state":"NJ","name":"PARK RIDGE","zip":"07656"}},{"arcs":[[-176,-241,-555,577,-570,-94,-46,-89]],"type":"Polygon","properties":{"state":"NJ","name":"RIDGEFIELD","zip":"07657"}},{"arcs":[[-488,-498,578,-503,-571,-578,-554]],"type":"Polygon","properties":{"state":"NJ","name":"RIDGEFIELD PARK","zip":"07660"}},{"arcs":[[-569,-563,579,-496,-572]],"type":"Polygon","properties":{"state":"NJ","name":"RIVER EDGE","zip":"07661"}},{"arcs":[[-557,580,-573,-509]],"type":"Polygon","properties":{"state":"NJ","name":"ROCHELLE PARK","zip":"07662"}},{"arcs":[[-365,-574,-581,-556,-102,-363]],"type":"Polygon","properties":{"state":"NJ","name":"SADDLE BROOK","zip":"07663"}},{"arcs":[[-497,-580,-562,-520,581,-544,-504,-579,-499]],"type":"Polygon","properties":{"state":"NJ","name":"TEANECK","zip":"07666"}},{"arcs":[[-582,-519,-529,-518,582,-546,-545]],"type":"Polygon","properties":{"state":"NJ","name":"TENAFLY","zip":"07670"}},{"arcs":[[-541,583,-553,584,-577,-558,585,-566,-548]],"type":"Polygon","properties":{"state":"NJ","name":"WESTWOOD","zip":"07675"}},{"arcs":[[-540,-575,-441,-398,-551,-584]],"type":"Polygon","properties":{"state":"NJ","name":"TOWNSHIP OF WASHINGTON","zip":"07676"}},{"arcs":[[-560,-576,-585,-552,-451]],"type":"Polygon","properties":{"state":"NJ","name":"WOODCLIFF LAKE","zip":"07677"}},{"arcs":[[586,587,588,589,590,591,592,593,594]],"type":"Polygon","properties":{"state":"NJ","name":"RED BANK","zip":"07701"}},{"arcs":[[595,596,-594,597,598]],"type":"Polygon","properties":{"state":"NJ","name":"SHREWSBURY","zip":"07702"}},{"arcs":[[599,600,-596,601]],"type":"Polygon","properties":{"state":"NJ","name":"FORT MONMOUTH","zip":"07703"}},{"arcs":[[602,-592,603,604]],"type":"Polygon","properties":{"state":"NJ","name":"FAIR HAVEN","zip":"07704"}},{"arcs":[[605,606,607]],"type":"Polygon","properties":{"state":"NJ","name":"ALLENHURST","zip":"07711"}},{"arcs":[[608,609,610,611,612,-606,613]],"type":"Polygon","properties":{"state":"NJ","name":"ASBURY PARK","zip":"07712"}},{"arcs":[[614,-589,615,616,617,618]],"type":"Polygon","properties":{"state":"NJ","name":"ATLANTIC HIGHLANDS","zip":"07716"}},{"arcs":[[619,620,621,622]],"type":"Polygon","properties":{"state":"NJ","name":"AVON BY THE SEA","zip":"07717"}},{"arcs":[[623,624,625,626]],"type":"Polygon","properties":{"state":"NJ","name":"BELFORD","zip":"07718"}},{"arcs":[[627,628,629,-620,630,631,632,633]],"type":"Polygon","properties":{"state":"NJ","name":"BELMAR","zip":"07719"}},{"arcs":[[-622,634,635,636]],"type":"Polygon","properties":{"state":"NJ","name":"BRADLEY BEACH","zip":"07720"}},{"arcs":[[637,638,639]],"type":"Polygon","properties":{"state":"NJ","name":"CLIFFWOOD","zip":"07721"}},{"arcs":[[640,641,642,643,644,645,646,647]],"type":"Polygon","properties":{"state":"NJ","name":"COLTS NECK","zip":"07722"}},{"arcs":[[-607,-613,648,649,650]],"type":"Polygon","properties":{"state":"NJ","name":"DEAL","zip":"07723"}},{"arcs":[[651,-611,652,-646,653,-595,-597,-601,654,655]],"type":"Polygon","properties":{"state":"NJ","name":"EATONTOWN","zip":"07724"}},{"arcs":[[656,657,658,659,660,661,662,663,664]],"type":"Polygon","properties":{"state":"NJ","name":"ENGLISHTOWN","zip":"07726"}},{"arcs":[[665,666,-648,667,-629]],"type":"Polygon","properties":{"state":"NJ","name":"FARMINGDALE","zip":"07727"}},{"arcs":[[668,-664,669,-641,-667,670,671]],"type":"Polygon","properties":{"state":"NJ","name":"FREEHOLD","zip":"07728"}},{"arcs":[[672,673,674,675]],"type":"Polygon","properties":{"state":"NJ","name":"HAZLET","zip":"07730"}},{"arcs":[[676,-671,-666,-628,677,678,679]],"type":"Polygon","properties":{"state":"NJ","name":"HOWELL","zip":"07731"}},{"arcs":[[680,-619,681]],"type":"Polygon","properties":{"state":"NJ","name":"HIGHLANDS","zip":"07732"}},{"arcs":[[682,683,-673,684,685,686,-644]],"type":"Polygon","properties":{"state":"NJ","name":"HOLMDEL","zip":"07733"}},{"arcs":[[687,-685,-676,688,689]],"type":"Polygon","properties":{"state":"NJ","name":"KEANSBURG","zip":"07734"}},{"arcs":[[690,691,-689,-675,692,-640]],"type":"Polygon","properties":{"state":"NJ","name":"KEYPORT","zip":"07735"}},{"arcs":[[693,-624,694,-617]],"type":"Polygon","properties":{"state":"NJ","name":"LEONARDO","zip":"07737"}},{"arcs":[[-645,-687,695,-587,-654]],"type":"Polygon","properties":{"state":"NJ","name":"LINCROFT","zip":"07738"}},{"arcs":[[-598,-593,-603,696,697]],"type":"Polygon","properties":{"state":"NJ","name":"LITTLE SILVER","zip":"07739"}},{"arcs":[[698,699,700,701,702,703,-650]],"type":"Polygon","properties":{"state":"NJ","name":"LONG BRANCH","zip":"07740"}},{"arcs":[[-670,-663,704,-642]],"type":"Polygon","properties":{"state":"NJ","name":"MARLBORO","zip":"07746"}},{"arcs":[[705,706,-638,-693,-674,-684,707]],"type":"Polygon","properties":{"state":"NJ","name":"MATAWAN","zip":"07747"}},{"arcs":[[-688,708,709,-625,-694,-616,-588,-696,-686]],"type":"Polygon","properties":{"state":"NJ","name":"MIDDLETOWN","zip":"07748"}},{"arcs":[[-703,710]],"type":"Polygon","properties":{"state":"NJ","name":"MONMOUTH BEACH","zip":"07750"}},{"arcs":[[-705,-662,711,-708,-683,-643]],"type":"Polygon","properties":{"state":"NJ","name":"MORGANVILLE","zip":"07751"}},{"arcs":[[-630,-668,-647,-653,-610,712,-635,-621]],"type":"Polygon","properties":{"state":"NJ","name":"NEPTUNE","zip":"07753"}},{"arcs":[[-652,713,-699,-649,-612]],"type":"Polygon","properties":{"state":"NJ","name":"OAKHURST","zip":"07755"}},{"arcs":[[-609,714,-636,-713]],"type":"Polygon","properties":{"state":"NJ","name":"OCEAN GROVE","zip":"07756"}},{"arcs":[[715,-655,-600,716,-701]],"type":"Polygon","properties":{"state":"NJ","name":"OCEANPORT","zip":"07757"}},{"arcs":[[-626,-710,717]],"type":"Polygon","properties":{"state":"NJ","name":"PORT MONMOUTH","zip":"07758"}},{"arcs":[[[-590,-615,-681,718]],[[-697,-605,719]]],"type":"MultiPolygon","properties":{"state":"NJ","name":"RUMSON","zip":"07760"}},{"arcs":[[720,-632,721]],"type":"Polygon","properties":{"state":"NJ","name":"SPRING LAKE","zip":"07762"}},{"arcs":[[-716,-700,-714,-656]],"type":"Polygon","properties":{"state":"NJ","name":"WEST LONG BRANCH","zip":"07764"}},{"arcs":[[722,723,724,725]],"type":"Polygon","properties":{"state":"NJ","name":"DOVER","zip":"07801"}},{"arcs":[[726,727,728,-723,729]],"type":"Polygon","properties":{"state":"NJ","name":"MINE HILL","zip":"07803"}},{"arcs":[[730,731,732,733,734,735,736,737,738]],"type":"Polygon","properties":{"state":"NJ","name":"ANDOVER","zip":"07821"}},{"arcs":[[739,740,741,-459,-383]],"type":"Polygon","properties":{"state":"NJ","name":"AUGUSTA","zip":"07822"}},{"arcs":[[742,743,744,745,746,747,748]],"type":"Polygon","properties":{"state":"NJ","name":"BELVIDERE","zip":"07823"}},{"arcs":[[749,-745,750,751,-734]],"type":"Polygon","properties":{"state":"NJ","name":"BLAIRSTOWN","zip":"07825"}},{"arcs":[[752,753,754,-455,-742]],"type":"Polygon","properties":{"state":"NJ","name":"BRANCHVILLE","zip":"07826"}},{"arcs":[[755,756,-456,-755]],"type":"Polygon","properties":{"state":"NJ","name":"MONTAGUE","zip":"07827"}},{"arcs":[[757,758,-731,759,760]],"type":"Polygon","properties":{"state":"NJ","name":"BUDD LAKE","zip":"07828"}},{"arcs":[[761,762,763,764,765,766,767]],"type":"Polygon","properties":{"state":"NJ","name":"CALIFON","zip":"07830"}},{"arcs":[[768,769,770,-751,-744]],"type":"Polygon","properties":{"state":"NJ","name":"COLUMBIA","zip":"07832"}},{"arcs":[[771,772,773,-25,-170,-185]],"type":"Polygon","properties":{"state":"NJ","name":"DENVILLE","zip":"07834"}},{"arcs":[[774,775,776,777,-758,778,779]],"type":"Polygon","properties":{"state":"NJ","name":"FLANDERS","zip":"07836"}},{"arcs":[[780,-746,-750,-733,781]],"type":"Polygon","properties":{"state":"NJ","name":"GREAT MEADOWS","zip":"07838"}},{"arcs":[[782,-782,-732,-759,-778,783,784]],"type":"Polygon","properties":{"state":"NJ","name":"HACKETTSTOWN","zip":"07840"}},{"arcs":[[785,786,-738,787,788]],"type":"Polygon","properties":{"state":"NJ","name":"HOPATCONG","zip":"07843"}},{"arcs":[[789,790,791,-728]],"type":"Polygon","properties":{"state":"NJ","name":"KENVIL","zip":"07847"}},{"arcs":[[792,793,-740,-382]],"type":"Polygon","properties":{"state":"NJ","name":"LAFAYETTE","zip":"07848"}},{"arcs":[[-737,794,-422,795,796,-788]],"type":"Polygon","properties":{"state":"NJ","name":"LAKE HOPATCONG","zip":"07849"}},{"arcs":[[797,798,-786,799,800]],"type":"Polygon","properties":{"state":"NJ","name":"LANDING","zip":"07850"}},{"arcs":[[801,-770,802,-756,-754]],"type":"Polygon","properties":{"state":"NJ","name":"LAYTON","zip":"07851"}},{"arcs":[[803,-780,-801,804,805,-791]],"type":"Polygon","properties":{"state":"NJ","name":"LEDGEWOOD","zip":"07852"}},{"arcs":[[806,-766,807,-784,-777]],"type":"Polygon","properties":{"state":"NJ","name":"LONG VALLEY","zip":"07853"}},{"arcs":[[-800,-789,-797,808,-805]],"type":"Polygon","properties":{"state":"NJ","name":"MOUNT ARLINGTON","zip":"07856"}},{"arcs":[[-779,-761,809,-798]],"type":"Polygon","properties":{"state":"NJ","name":"NETCONG","zip":"07857"}},{"arcs":[[810,-735,-752,-771,-802,-753,-741,-794]],"type":"Polygon","properties":{"state":"NJ","name":"NEWTON","zip":"07860"}},{"arcs":[[811,812,-747,-781,-783]],"type":"Polygon","properties":{"state":"NJ","name":"OXFORD","zip":"07863"}},{"arcs":[[813,-812,-785,-808,-765,814]],"type":"Polygon","properties":{"state":"NJ","name":"PORT MURRAY","zip":"07865"}},{"arcs":[[-774,-725,815,-425,-415,-354,-26]],"type":"Polygon","properties":{"state":"NJ","name":"ROCKAWAY","zip":"07866"}},{"arcs":[[816,817,-730,-726,-773,818,819,820]],"type":"Polygon","properties":{"state":"NJ","name":"RANDOLPH","zip":"07869"}},{"arcs":[[-795,-736,-811,-793,-381,-371,427,-454,-423]],"type":"Polygon","properties":{"state":"NJ","name":"SPARTA","zip":"07871"}},{"arcs":[[-739,-787,-799,-810,-760]],"type":"Polygon","properties":{"state":"NJ","name":"STANHOPE","zip":"07874"}},{"arcs":[[821,-775,-804,-790,-727,-818]],"type":"Polygon","properties":{"state":"NJ","name":"SUCCASUNNA","zip":"07876"}},{"arcs":[[822,823,-748,-813,-814,824,825,826]],"type":"Polygon","properties":{"state":"NJ","name":"WASHINGTON","zip":"07882"}},{"arcs":[[-806,-809,-796,-426,-816,-724,-729,-792]],"type":"Polygon","properties":{"state":"NJ","name":"WHARTON","zip":"07885"}},{"arcs":[[827,828,-257,-266,-281,829]],"type":"Polygon","properties":{"state":"NJ","name":"SUMMIT","zip":"07901"}},{"arcs":[[830,831,832,833,834,-197,835]],"type":"Polygon","properties":{"state":"NJ","name":"BASKING RIDGE","zip":"07920"}},{"arcs":[[836,837,838,839,-831]],"type":"Polygon","properties":{"state":"NJ","name":"BEDMINSTER","zip":"07921"}},{"arcs":[[-228,-201,840,841,842,-830,-280,-249]],"type":"Polygon","properties":{"state":"NJ","name":"BERKELEY HEIGHTS","zip":"07922"}},{"arcs":[[843,844,845,-833]],"type":"Polygon","properties":{"state":"NJ","name":"BERNARDSVILLE","zip":"07924"}},{"arcs":[[846,847,848,-183]],"type":"Polygon","properties":{"state":"NJ","name":"CEDAR KNOLLS","zip":"07927"}},{"arcs":[[849,-842,850,851,852,853,-141,-258,-829]],"type":"Polygon","properties":{"state":"NJ","name":"CHATHAM","zip":"07928"}},{"arcs":[[-807,-776,-822,-817,854,855]],"type":"Polygon","properties":{"state":"NJ","name":"CHESTER","zip":"07930"}},{"arcs":[[856,-767,-856,857,-844,-832,-840]],"type":"Polygon","properties":{"state":"NJ","name":"FAR HILLS","zip":"07931"}},{"arcs":[[858,859,860,-142,-854]],"type":"Polygon","properties":{"state":"NJ","name":"FLORHAM PARK","zip":"07932"}},{"arcs":[[-200,861,862,863,864,-851,-841]],"type":"Polygon","properties":{"state":"NJ","name":"GILLETTE","zip":"07933"}},{"arcs":[[865,866,-852,-865]],"type":"Polygon","properties":{"state":"NJ","name":"GREEN VILLAGE","zip":"07935"}},{"arcs":[[-861,867,868,-187,-195,-23,-34,-227,-143]],"type":"Polygon","properties":{"state":"NJ","name":"EAST HANOVER","zip":"07936"}},{"arcs":[[869,-859,-853,-867]],"type":"Polygon","properties":{"state":"NJ","name":"MADISON","zip":"07940"}},{"arcs":[[-858,-855,-821,870,-845]],"type":"Polygon","properties":{"state":"NJ","name":"MENDHAM","zip":"07945"}},{"arcs":[[-863,871,-198,-835]],"type":"Polygon","properties":{"state":"NJ","name":"MILLINGTON","zip":"07946"}},{"arcs":[[872,-819,-772,-184,-849]],"type":"Polygon","properties":{"state":"NJ","name":"MORRIS PLAINS","zip":"07950"}},{"arcs":[[-834,-846,-871,-820,-873,-848,873,-868,-860,-870,-866,-864]],"type":"Polygon","properties":{"state":"NJ","name":"MORRISTOWN","zip":"07960"}},{"arcs":[[-850,-828,-843]],"type":"Polygon","properties":{"state":"NJ","name":"NEW PROVIDENCE","zip":"07974"}},{"arcs":[[-862,-199,-872]],"type":"Polygon","properties":{"state":"NJ","name":"STIRLING","zip":"07980"}},{"arcs":[[-874,-847,-188,-869]],"type":"Polygon","properties":{"state":"NJ","name":"WHIPPANY","zip":"07981"}},{"arcs":[[874,875,876,877,878]],"type":"Polygon","properties":{"state":"NJ","name":"CHERRY HILL","zip":"08002"}},{"arcs":[[879,880,881,882,883,884]],"type":"Polygon","properties":{"state":"NJ","name":"CHERRY HILL","zip":"08003"}},{"arcs":[[885,886,887,888,889]],"type":"Polygon","properties":{"state":"NJ","name":"ATCO","zip":"08004"}},{"arcs":[[890,891,892,893,894,895,896,897]],"type":"Polygon","properties":{"state":"NJ","name":"BARNEGAT","zip":"08005"}},{"arcs":[[898,899,900,901,902,903]],"type":"Polygon","properties":{"state":"NJ","name":"BARRINGTON","zip":"08007"}},{"arcs":[[904,905,906,907,908,909,-886]],"type":"Polygon","properties":{"state":"NJ","name":"BERLIN","zip":"08009"}},{"arcs":[[910,911,912,913]],"type":"Polygon","properties":{"state":"NJ","name":"BEVERLY","zip":"08010"}},{"arcs":[[914,915,916,917,918,919,920]],"type":"Polygon","properties":{"state":"NJ","name":"BLACKWOOD","zip":"08012"}},{"arcs":[[921,922,923]],"type":"Polygon","properties":{"state":"NJ","name":"BRIDGEPORT","zip":"08014"}},{"arcs":[[924,925,926,927,928,929]],"type":"Polygon","properties":{"state":"NJ","name":"BROWNS MILLS","zip":"08015"}},{"arcs":[[930,931,932,-914,933,934,935]],"type":"Polygon","properties":{"state":"NJ","name":"BURLINGTON","zip":"08016"}},{"arcs":[[936,937,-893]],"type":"Polygon","properties":{"state":"NJ","name":"CHATSWORTH","zip":"08019"}},{"arcs":[[938,939,940,941,942,943]],"type":"Polygon","properties":{"state":"NJ","name":"CLARKSBORO","zip":"08020"}},{"arcs":[[944,-908,945,-919,946,947]],"type":"Polygon","properties":{"state":"NJ","name":"CLEMENTON","zip":"08021"}},{"arcs":[[948,949,950,951,952]],"type":"Polygon","properties":{"state":"NJ","name":"COLUMBUS","zip":"08022"}},{"arcs":[[953,-942,954,955,-924,956]],"type":"Polygon","properties":{"state":"NJ","name":"GIBBSTOWN","zip":"08027"}},{"arcs":[[957,958,959,960,961]],"type":"Polygon","properties":{"state":"NJ","name":"GLASSBORO","zip":"08028"}},{"arcs":[[962,963,964,-916]],"type":"Polygon","properties":{"state":"NJ","name":"GLENDORA","zip":"08029"}},{"arcs":[[965,966,967,968,969]],"type":"Polygon","properties":{"state":"NJ","name":"GLOUCESTER CITY","zip":"08030"}},{"arcs":[[970,971,-966,972,973,-899]],"type":"Polygon","properties":{"state":"NJ","name":"BELLMAWR","zip":"08031"}},{"arcs":[[974,975,976,-876,977,-880,978,-901]],"type":"Polygon","properties":{"state":"NJ","name":"HADDONFIELD","zip":"08033"}},{"arcs":[[-875,979,980,-881,-978]],"type":"Polygon","properties":{"state":"NJ","name":"CHERRY HILL","zip":"08034"}},{"arcs":[[-974,981,982,-975,-900]],"type":"Polygon","properties":{"state":"NJ","name":"HADDON HEIGHTS","zip":"08035"}},{"arcs":[[983,984,-906,985,986,987,988]],"type":"Polygon","properties":{"state":"NJ","name":"HAMMONTON","zip":"08037"}},{"arcs":[[989,990,991,-952]],"type":"Polygon","properties":{"state":"NJ","name":"JOBSTOWN","zip":"08041"}},{"arcs":[[992,993,-884,994,995,-948]],"type":"Polygon","properties":{"state":"NJ","name":"VOORHEES","zip":"08043"}},{"arcs":[[996,-902,-979,-885]],"type":"Polygon","properties":{"state":"NJ","name":"LAWNSIDE","zip":"08045"}},{"arcs":[[997,998,999,-911,-933]],"type":"Polygon","properties":{"state":"NJ","name":"WILLINGBORO","zip":"08046"}},{"arcs":[[1000,-917,-965,1001,-903,-997,-994]],"type":"Polygon","properties":{"state":"NJ","name":"MAGNOLIA","zip":"08049"}},{"arcs":[[1002,1003,-891,1004]],"type":"Polygon","properties":{"state":"NJ","name":"MANAHAWKIN","zip":"08050"}},{"arcs":[[1005,1006,-939,1007,1008,1009]],"type":"Polygon","properties":{"state":"NJ","name":"MANTUA","zip":"08051"}},{"arcs":[[1010,1011,1012,1013,-980,-879]],"type":"Polygon","properties":{"state":"NJ","name":"MAPLE SHADE","zip":"08052"}},{"arcs":[[1014,-995,-883,1015,1016,-887,-910]],"type":"Polygon","properties":{"state":"NJ","name":"MARLTON","zip":"08053"}},{"arcs":[[1017,-1016,-882,-981,-1014,1018,1019]],"type":"Polygon","properties":{"state":"NJ","name":"MOUNT LAUREL","zip":"08054"}},{"arcs":[[-1018,1020,1021,-888,-1017]],"type":"Polygon","properties":{"state":"NJ","name":"MEDFORD","zip":"08055"}},{"arcs":[[1022,1023,1024,-955,-941]],"type":"Polygon","properties":{"state":"NJ","name":"MICKLETON","zip":"08056"}},{"arcs":[[-1013,1025,1026,-999,-1019]],"type":"Polygon","properties":{"state":"NJ","name":"MOORESTOWN","zip":"08057"}},{"arcs":[[1027,1028,-982,-973,-970]],"type":"Polygon","properties":{"state":"NJ","name":"MOUNT EPHRAIM","zip":"08059"}},{"arcs":[[-1020,-998,-932,1029,-949,1030,1031,-1021]],"type":"Polygon","properties":{"state":"NJ","name":"MOUNT HOLLY","zip":"08060"}},{"arcs":[[-944,1032,1033,-1008]],"type":"Polygon","properties":{"state":"NJ","name":"MOUNT ROYAL","zip":"08061"}},{"arcs":[[1034,1035,1036,-1024,1037,-958]],"type":"Polygon","properties":{"state":"NJ","name":"MULLICA HILL","zip":"08062"}},{"arcs":[[1038,1039,1040]],"type":"Polygon","properties":{"state":"NJ","name":"PALMYRA","zip":"08065"}},{"arcs":[[-954,1041,1042,1043,1044,-1033,-943]],"type":"Polygon","properties":{"state":"NJ","name":"PAULSBORO","zip":"08066"}},{"arcs":[[1045,1046,1047,1048]],"type":"Polygon","properties":{"state":"NJ","name":"PEDRICKTOWN","zip":"08067"}},{"arcs":[[-953,-992,1049,-927,1050,-1031]],"type":"Polygon","properties":{"state":"NJ","name":"PEMBERTON","zip":"08068"}},{"arcs":[[1051,1052,1053,1054,-1047]],"type":"Polygon","properties":{"state":"NJ","name":"PENNS GROVE","zip":"08069"}},{"arcs":[[1055,1056,-1054]],"type":"Polygon","properties":{"state":"NJ","name":"PENNSVILLE","zip":"08070"}},{"arcs":[[1057,1058,-912,-1000,-1027]],"type":"Polygon","properties":{"state":"NJ","name":"RIVERSIDE","zip":"08075"}},{"arcs":[[-1012,1059,-1041,1060,-1058,-1026]],"type":"Polygon","properties":{"state":"NJ","name":"RIVERTON","zip":"08077"}},{"arcs":[[1061,-971,-904,-1002,-964]],"type":"Polygon","properties":{"state":"NJ","name":"RUNNEMEDE","zip":"08078"}},{"arcs":[[1062,1063,1064,-1056,-1053,1065,1066]],"type":"Polygon","properties":{"state":"NJ","name":"SALEM","zip":"08079"}},{"arcs":[[-1023,-940,-1007,1067,1068,-921,1069,1070,-959,-1038]],"type":"Polygon","properties":{"state":"NJ","name":"SEWELL","zip":"08080"}},{"arcs":[[-985,1071,-1070,-920,-946,-907]],"type":"Polygon","properties":{"state":"NJ","name":"SICKLERVILLE","zip":"08081"}},{"arcs":[[-918,-1001,-993,-947]],"type":"Polygon","properties":{"state":"NJ","name":"SOMERDALE","zip":"08083"}},{"arcs":[[-922,-956,-1025,-1037,1072,-1049,1073]],"type":"Polygon","properties":{"state":"NJ","name":"SWEDESBORO","zip":"08085"}},{"arcs":[[[1074,1075,-1043,1076]],[[-1034,-1045,1077,-1009]]],"type":"MultiPolygon","properties":{"state":"NJ","name":"THOROFARE","zip":"08086"}},{"arcs":[[1078,1079,-937,-892,-1004,1080,1081,1082]],"type":"Polygon","properties":{"state":"NJ","name":"TUCKERTON","zip":"08087"}},{"arcs":[[-1080,1083,-987,1084,-889,-1022,-1032,-1051,-926,1085,-894,-938]],"type":"Polygon","properties":{"state":"NJ","name":"VINCENTOWN","zip":"08088"}},{"arcs":[[-890,-1085,-986,-905]],"type":"Polygon","properties":{"state":"NJ","name":"WATERFORD WORKS","zip":"08089"}},{"arcs":[[1086,-1068,-1006]],"type":"Polygon","properties":{"state":"NJ","name":"WENONAH","zip":"08090"}},{"arcs":[[-909,-945,-996,-1015]],"type":"Polygon","properties":{"state":"NJ","name":"WEST BERLIN","zip":"08091"}},{"arcs":[[-1081,-1003,1087]],"type":"Polygon","properties":{"state":"NJ","name":"WEST CREEK","zip":"08092"}},{"arcs":[[1088,-1075,1089,-967,-972]],"type":"Polygon","properties":{"state":"NJ","name":"WESTVILLE","zip":"08093"}},{"arcs":[[1090,1091,1092,1093,1094,1095,-960,-1071,-1072,-984]],"type":"Polygon","properties":{"state":"NJ","name":"WILLIAMSTOWN","zip":"08094"}},{"arcs":[[-1078,-1044,-1076,-1089,-1062,-963,-915,-1069,-1087,-1010]],"type":"Polygon","properties":{"state":"NJ","name":"WOODBURY","zip":"08096"}},{"arcs":[[1096,1097,-1066,-1052,-1046,-1073,-1036,1098]],"type":"Polygon","properties":{"state":"NJ","name":"WOODSTOWN","zip":"08098"}},{"arcs":[[1099,1100,1101,1102]],"type":"Polygon","properties":{"state":"NJ","name":"CAMDEN","zip":"08102"}},{"arcs":[[1103,1104,1105,-1101,1106]],"type":"Polygon","properties":{"state":"NJ","name":"CAMDEN","zip":"08103"}},{"arcs":[[-969,1107,-1105,1108,-1028]],"type":"Polygon","properties":{"state":"NJ","name":"CAMDEN","zip":"08104"}},{"arcs":[[1109,1110,-1103,1111]],"type":"Polygon","properties":{"state":"NJ","name":"CAMDEN","zip":"08105"}},{"arcs":[[1112,-976,-983,-1029]],"type":"Polygon","properties":{"state":"NJ","name":"AUDUBON","zip":"08106"}},{"arcs":[[-1109,1113,-1113]],"type":"Polygon","properties":{"state":"NJ","name":"OAKLYN","zip":"08107"}},{"arcs":[[-1104,1114,-877,-977,-1114]],"type":"Polygon","properties":{"state":"NJ","name":"COLLINGSWOOD","zip":"08108"}},{"arcs":[[-1115,-1107,-1100,-1111,1115,-1011,-878]],"type":"Polygon","properties":{"state":"NJ","name":"MERCHANTVILLE","zip":"08109"}},{"arcs":[[-1039,-1060,-1116,-1110,1116]],"type":"Polygon","properties":{"state":"NJ","name":"PENNSAUKEN","zip":"08110"}},{"arcs":[[1117,1118,1119,1120,1121]],"type":"Polygon","properties":{"state":"NJ","name":"ABSECON","zip":"08201"}},{"arcs":[[1122,1123]],"type":"Polygon","properties":{"state":"NJ","name":"AVALON","zip":"08202"}},{"arcs":[[1124,1125,1126,1127]],"type":"Polygon","properties":{"state":"NJ","name":"CAPE MAY","zip":"08204"}},{"arcs":[[1128,1129,1130,1131,-1121]],"type":"Polygon","properties":{"state":"NJ","name":"ABSECON","zip":"08205"}},{"arcs":[[1132,1133,1134,1135,1136,1137,-1126]],"type":"Polygon","properties":{"state":"NJ","name":"CAPE MAY COURT HOUSE","zip":"08210"}},{"arcs":[[1138,-988,-1084,-1079,1139,-1130,1140]],"type":"Polygon","properties":{"state":"NJ","name":"EGG HARBOR CITY","zip":"08215"}},{"arcs":[[1141,1142,1143,1144]],"type":"Polygon","properties":{"state":"NJ","name":"LINWOOD","zip":"08221"}},{"arcs":[[1145,1146,1147]],"type":"Polygon","properties":{"state":"NJ","name":"MARMORA","zip":"08223"}},{"arcs":[[1148,1149,1150,-1144]],"type":"Polygon","properties":{"state":"NJ","name":"NORTHFIELD","zip":"08225"}},{"arcs":[[1151,-1146,1152,-1136]],"type":"Polygon","properties":{"state":"NJ","name":"OCEAN VIEW","zip":"08230"}},{"arcs":[[-1150,1153,-1119,1154,1155]],"type":"Polygon","properties":{"state":"NJ","name":"PLEASANTVILLE","zip":"08232"}},{"arcs":[[1156,1157,1158,1159,-1141,-1129,-1120,-1154,-1149,-1143]],"type":"Polygon","properties":{"state":"NJ","name":"EGG HARBOR TOWNSHIP","zip":"08234"}},{"arcs":[[-1083,1160,-1131,-1140]],"type":"Polygon","properties":{"state":"NJ","name":"PORT REPUBLIC","zip":"08241"}},{"arcs":[[-1138,1161,-1127]],"type":"Polygon","properties":{"state":"NJ","name":"RIO GRANDE","zip":"08242"}},{"arcs":[[1162]],"type":"Polygon","properties":{"state":"NJ","name":"SEA ISLE CITY","zip":"08243"}},{"arcs":[[-1157,-1142,1163]],"type":"Polygon","properties":{"state":"NJ","name":"SOMERS POINT","zip":"08244"}},{"arcs":[[-1123,1164]],"type":"Polygon","properties":{"state":"NJ","name":"STONE HARBOR","zip":"08247"}},{"arcs":[[-1133,-1125,1165]],"type":"Polygon","properties":{"state":"NJ","name":"VILLAS","zip":"08251"}},{"arcs":[[1166,1167,1168,-1159,1169,-1147,-1152,-1135,1170]],"type":"Polygon","properties":{"state":"NJ","name":"WOODBINE","zip":"08270"}},{"arcs":[[1171,1172,1173,-1064,1174,-1067,-1098,1175]],"type":"Polygon","properties":{"state":"NJ","name":"BRIDGETON","zip":"08302"}},{"arcs":[[1176,1177,1178,1179,1180,1181,-1093,1182]],"type":"Polygon","properties":{"state":"NJ","name":"BUENA","zip":"08310"}},{"arcs":[[-1173,1183,1184,1185]],"type":"Polygon","properties":{"state":"NJ","name":"CEDARVILLE","zip":"08311"}},{"arcs":[[1186,1187,-961,-1096]],"type":"Polygon","properties":{"state":"NJ","name":"CLAYTON","zip":"08312"}},{"arcs":[[1188,1189,1190,1191]],"type":"Polygon","properties":{"state":"NJ","name":"DOROTHY","zip":"08317"}},{"arcs":[[-1097,1192,1193,1194,1195,-1176]],"type":"Polygon","properties":{"state":"NJ","name":"ELMER","zip":"08318"}},{"arcs":[[1196,-1189,1197,-1168]],"type":"Polygon","properties":{"state":"NJ","name":"ESTELL MANOR","zip":"08319"}},{"arcs":[[1198,-1187,-1095,1199]],"type":"Polygon","properties":{"state":"NJ","name":"FRANKLINVILLE","zip":"08322"}},{"arcs":[[-1063,-1175]],"type":"Polygon","properties":{"state":"NJ","name":"GREENWICH","zip":"08323"}},{"arcs":[[1200,1201,1202,-1181]],"type":"Polygon","properties":{"state":"NJ","name":"LANDISVILLE","zip":"08326"}},{"arcs":[[1203,1204]],"type":"Polygon","properties":{"state":"NJ","name":"LEESBURG","zip":"08327"}},{"arcs":[[-1169,-1198,-1192,1205,1206,-1177,1207,-1091,-989,-1139,-1160]],"type":"Polygon","properties":{"state":"NJ","name":"MAYS LANDING","zip":"08330"}},{"arcs":[[1208,1209,-1184,-1172,-1196,1210,1211,1212,-1190,-1197,-1167,1213,1214,-1205]],"type":"Polygon","properties":{"state":"NJ","name":"MILLVILLE","zip":"08332"}},{"arcs":[[1215,1216,1217,-1206,-1191,-1213]],"type":"Polygon","properties":{"state":"NJ","name":"MILMAY","zip":"08340"}},{"arcs":[[1218,-1201,-1180]],"type":"Polygon","properties":{"state":"NJ","name":"MINOTOLA","zip":"08341"}},{"arcs":[[1219,-1193,-1099,-1035,-962,-1188,-1199]],"type":"Polygon","properties":{"state":"NJ","name":"MONROEVILLE","zip":"08343"}},{"arcs":[[1220,-1194,-1220,-1200,-1094,-1182,-1203]],"type":"Polygon","properties":{"state":"NJ","name":"NEWFIELD","zip":"08344"}},{"arcs":[[1221,1222,-1185,-1210]],"type":"Polygon","properties":{"state":"NJ","name":"NEWPORT","zip":"08345"}},{"arcs":[[-1183,-1092,-1208]],"type":"Polygon","properties":{"state":"NJ","name":"NEWTONVILLE","zip":"08346"}},{"arcs":[[-1222,-1209,-1204,-1215,1223]],"type":"Polygon","properties":{"state":"NJ","name":"PORT NORRIS","zip":"08349"}},{"arcs":[[-1218,1224,-1178,-1207]],"type":"Polygon","properties":{"state":"NJ","name":"RICHLAND","zip":"08350"}},{"arcs":[[-1221,-1202,-1219,-1179,-1225,-1217,1225,-1211,-1195]],"type":"Polygon","properties":{"state":"NJ","name":"VINELAND","zip":"08360"}},{"arcs":[[-1226,-1216,-1212]],"type":"Polygon","properties":{"state":"NJ","name":"VINELAND","zip":"08361"}},{"arcs":[[[-1155,-1118,1226]],[[1227,1228]]],"type":"MultiPolygon","properties":{"state":"NJ","name":"ATLANTIC CITY","zip":"08401"}},{"arcs":[[1229,1230]],"type":"Polygon","properties":{"state":"NJ","name":"MARGATE CITY","zip":"08402"}},{"arcs":[[-1230,1231,-1228,1232]],"type":"Polygon","properties":{"state":"NJ","name":"VENTNOR CITY","zip":"08406"}},{"arcs":[[1233,1234,1235,1236]],"type":"Polygon","properties":{"state":"NJ","name":"ALLENTOWN","zip":"08501"}},{"arcs":[[1237,1238,1239,1240]],"type":"Polygon","properties":{"state":"NJ","name":"BELLE MEAD","zip":"08502"}},{"arcs":[[1241,1242,1243,1244,-950,-1030,-931]],"type":"Polygon","properties":{"state":"NJ","name":"BORDENTOWN","zip":"08505"}},{"arcs":[[1245,1246,1247,1248,1249,-665,-669]],"type":"Polygon","properties":{"state":"NJ","name":"CLARKSBURG","zip":"08510"}},{"arcs":[[1250,-929,1251,1252,1253,1254]],"type":"Polygon","properties":{"state":"NJ","name":"COOKSTOWN","zip":"08511"}},{"arcs":[[1255,1256,1257,1258,1259,-659,1260]],"type":"Polygon","properties":{"state":"NJ","name":"CRANBURY","zip":"08512"}},{"arcs":[[1261,-1247,1262,1263,1264,-1236]],"type":"Polygon","properties":{"state":"NJ","name":"CREAM RIDGE","zip":"08514"}},{"arcs":[[1265,-935,1266]],"type":"Polygon","properties":{"state":"NJ","name":"FLORENCE","zip":"08518"}},{"arcs":[[1267,-1249,1268,1269,-1261,-658]],"type":"Polygon","properties":{"state":"NJ","name":"HIGHTSTOWN","zip":"08520"}},{"arcs":[[1270,1271,1272,1273,1274]],"type":"Polygon","properties":{"state":"NJ","name":"HOPEWELL","zip":"08525"}},{"arcs":[[1275,-1263,-1246,-672,-677,1276,1277,1278,1279]],"type":"Polygon","properties":{"state":"NJ","name":"JACKSON","zip":"08527"}},{"arcs":[[1280,1281,1282,1283,1284,-1271]],"type":"Polygon","properties":{"state":"NJ","name":"LAMBERTVILLE","zip":"08530"}},{"arcs":[[1285,-1255,1286,-1264,-1276]],"type":"Polygon","properties":{"state":"NJ","name":"NEW EGYPT","zip":"08533"}},{"arcs":[[1287,1288,-1281,-1275,1289,1290,1291]],"type":"Polygon","properties":{"state":"NJ","name":"PENNINGTON","zip":"08534"}},{"arcs":[[-1268,-657,-1250]],"type":"Polygon","properties":{"state":"NJ","name":"PERRINEVILLE","zip":"08535"}},{"arcs":[[1292,1293,1294,-1257]],"type":"Polygon","properties":{"state":"NJ","name":"PLAINSBORO","zip":"08536"}},{"arcs":[[-1294,1295,1296,-1290,-1274,1297,-1238,1298,1299,1300,1301,1302]],"type":"Polygon","properties":{"state":"NJ","name":"PRINCETON","zip":"08540"}},{"arcs":[[1303,1304,1305,-1296,-1293,-1256,-1270]],"type":"Polygon","properties":{"state":"NJ","name":"PRINCETON JUNCTION","zip":"08550"}},{"arcs":[[1306,1307,1308,1309,-1272,-1285]],"type":"Polygon","properties":{"state":"NJ","name":"RINGOES","zip":"08551"}},{"arcs":[[-1242,-936,-1266,1310]],"type":"Polygon","properties":{"state":"NJ","name":"ROEBLING","zip":"08554"}},{"arcs":[[-1273,-1310,1311,-1239,-1298]],"type":"Polygon","properties":{"state":"NJ","name":"SKILLMAN","zip":"08558"}},{"arcs":[[-1284,1312,1313,1314,-1307]],"type":"Polygon","properties":{"state":"NJ","name":"STOCKTON","zip":"08559"}},{"arcs":[[1315,-1282,-1289,1316]],"type":"Polygon","properties":{"state":"NJ","name":"TITUSVILLE","zip":"08560"}},{"arcs":[[1317,1318,-990,-951,1319,-1237,-1265,-1287,-1254]],"type":"Polygon","properties":{"state":"NJ","name":"WRIGHTSTOWN","zip":"08562"}},{"arcs":[[1320,1321,1322,1323]],"type":"Polygon","properties":{"state":"NJ","name":"TRENTON","zip":"08608"}},{"arcs":[[1324,1325,1326,1327,1328,-1322]],"type":"Polygon","properties":{"state":"NJ","name":"TRENTON","zip":"08609"}},{"arcs":[[1329,1330,1331,1332,1333,1334,-1244,1335]],"type":"Polygon","properties":{"state":"NJ","name":"TRENTON","zip":"08610"}},{"arcs":[[-1323,-1329,1336,-1330,1337]],"type":"Polygon","properties":{"state":"NJ","name":"TRENTON","zip":"08611"}},{"arcs":[[1338,1339,-1325,-1321,1340]],"type":"Polygon","properties":{"state":"NJ","name":"TRENTON","zip":"08618"}},{"arcs":[[1341,-1327,1342,1343,1344,-1332]],"type":"Polygon","properties":{"state":"NJ","name":"TRENTON","zip":"08619"}},{"arcs":[[-1335,1345,-1234,-1320,-1245]],"type":"Polygon","properties":{"state":"NJ","name":"TRENTON","zip":"08620"}},{"arcs":[[1346,-1317,-1288,1347,-1339,1348]],"type":"Polygon","properties":{"state":"NJ","name":"TRENTON","zip":"08628"}},{"arcs":[[-1337,-1328,-1342,-1331]],"type":"Polygon","properties":{"state":"NJ","name":"TRENTON","zip":"08629"}},{"arcs":[[-1326,-1340,-1348,-1292,1349,-1343]],"type":"Polygon","properties":{"state":"NJ","name":"TRENTON","zip":"08638"}},{"arcs":[[-928,-1050,-991,-1319,1350,-1252]],"type":"Polygon","properties":{"state":"NJ","name":"TRENTON","zip":"08640"}},{"arcs":[[-1318,-1253,-1351]],"type":"Polygon","properties":{"state":"NJ","name":"TRENTON","zip":"08641"}},{"arcs":[[1351,-1344,-1350,-1291,-1297,-1306]],"type":"Polygon","properties":{"state":"NJ","name":"TRENTON","zip":"08648"}},{"arcs":[[1352,-1333,-1345,-1352,-1305]],"type":"Polygon","properties":{"state":"NJ","name":"TRENTON","zip":"08690"}},{"arcs":[[-1235,-1346,-1334,-1353,-1304,-1269,-1248,-1262]],"type":"Polygon","properties":{"state":"NJ","name":"TRENTON","zip":"08691"}},{"arcs":[[1353,-1277,-680,1354,1355,1356]],"type":"Polygon","properties":{"state":"NJ","name":"LAKEWOOD","zip":"08701"}},{"arcs":[[1357,1358,1359,1360,1361,1362,1363]],"type":"Polygon","properties":{"state":"NJ","name":"BAYVILLE","zip":"08721"}},{"arcs":[[1364,1365,1366,-1361]],"type":"Polygon","properties":{"state":"NJ","name":"BEACHWOOD","zip":"08722"}},{"arcs":[[1367,-1356,1368,1369]],"type":"Polygon","properties":{"state":"NJ","name":"BRICK","zip":"08723"}},{"arcs":[[-1355,-679,1370,1371,1372,-1369]],"type":"Polygon","properties":{"state":"NJ","name":"BRICK","zip":"08724"}},{"arcs":[[1373,-1358,1374,1375,1376,-896]],"type":"Polygon","properties":{"state":"NJ","name":"FORKED RIVER","zip":"08731"}},{"arcs":[[1377,-930,-1251,-1286,-1280]],"type":"Polygon","properties":{"state":"NJ","name":"LAKEHURST","zip":"08733"}},{"arcs":[[-1364,1378,-1375]],"type":"Polygon","properties":{"state":"NJ","name":"LANOKA HARBOR","zip":"08734"}},{"arcs":[[1379,1380,1381,1382]],"type":"Polygon","properties":{"state":"NJ","name":"LAVALLETTE","zip":"08735"}},{"arcs":[[1383,-1371,-678,-634,1384,1385]],"type":"Polygon","properties":{"state":"NJ","name":"MANASQUAN","zip":"08736"}},{"arcs":[[-1382,1386,1387,1388]],"type":"Polygon","properties":{"state":"NJ","name":"MANTOLOKING","zip":"08738"}},{"arcs":[[-1367,1389,-1362]],"type":"Polygon","properties":{"state":"NJ","name":"PINE BEACH","zip":"08741"}},{"arcs":[[-1372,-1384,1390,-1388,1391]],"type":"Polygon","properties":{"state":"NJ","name":"POINT PLEASANT BEACH","zip":"08742"}},{"arcs":[[-1385,-633,-721,1392]],"type":"Polygon","properties":{"state":"NJ","name":"SEA GIRT","zip":"08750"}},{"arcs":[[1393,1394,-1380,1395,1396,1397]],"type":"Polygon","properties":{"state":"NJ","name":"SEASIDE HEIGHTS","zip":"08751"}},{"arcs":[[-1397,1398]],"type":"Polygon","properties":{"state":"NJ","name":"SEASIDE PARK","zip":"08752"}},{"arcs":[[-1394,1399,1400,1401,-1357,-1368,1402]],"type":"Polygon","properties":{"state":"NJ","name":"TOMS RIVER","zip":"08753"}},{"arcs":[[1403,-1278,-1354,-1402,1404]],"type":"Polygon","properties":{"state":"NJ","name":"TOMS RIVER","zip":"08755"}},{"arcs":[[-1365,-1360,1405,-1405,-1401,1406]],"type":"Polygon","properties":{"state":"NJ","name":"TOMS RIVER","zip":"08757"}},{"arcs":[[-1377,1407,-897]],"type":"Polygon","properties":{"state":"NJ","name":"WARETOWN","zip":"08758"}},{"arcs":[[-1374,-895,-1086,-925,-1378,-1279,-1404,-1406,-1359]],"type":"Polygon","properties":{"state":"NJ","name":"MANCHESTER TOWNSHIP","zip":"08759"}},{"arcs":[[1408,1409,1410,1411,-763,1412,1413]],"type":"Polygon","properties":{"state":"NJ","name":"ANNANDALE","zip":"08801"}},{"arcs":[[1414,1415,1416,-827,1417,1418]],"type":"Polygon","properties":{"state":"NJ","name":"ASBURY","zip":"08802"}},{"arcs":[[1419,1420,-1416,1421]],"type":"Polygon","properties":{"state":"NJ","name":"BLOOMSBURY","zip":"08804"}},{"arcs":[[1422,1423,1424,1425,1426,1427,1428]],"type":"Polygon","properties":{"state":"NJ","name":"BOUND BROOK","zip":"08805"}},{"arcs":[[1429,-837,-836,1430,-1423,1431,1432,1433,1434,1435]],"type":"Polygon","properties":{"state":"NJ","name":"BRIDGEWATER","zip":"08807"}},{"arcs":[[1436,1437,1438,1439,-1410]],"type":"Polygon","properties":{"state":"NJ","name":"CLINTON","zip":"08809"}},{"arcs":[[1440,-1259,1441,1442]],"type":"Polygon","properties":{"state":"NJ","name":"DAYTON","zip":"08810"}},{"arcs":[[1443,-1425,-203,-230,-207,-214,1444]],"type":"Polygon","properties":{"state":"NJ","name":"DUNELLEN","zip":"08812"}},{"arcs":[[1445,1446,1447,1448,1449,1450,1451,1452,1453]],"type":"Polygon","properties":{"state":"NJ","name":"EAST BRUNSWICK","zip":"08816"}},{"arcs":[[1454,-1448,1455,1456,1457,-261,1458,1459]],"type":"Polygon","properties":{"state":"NJ","name":"EDISON","zip":"08817"}},{"arcs":[[1460,-1459,-263,-252,-222,-226,1461,1462]],"type":"Polygon","properties":{"state":"NJ","name":"EDISON","zip":"08820"}},{"arcs":[[1463,1464,-1414,1465,1466,1467,-1308,-1315]],"type":"Polygon","properties":{"state":"NJ","name":"FLEMINGTON","zip":"08822"}},{"arcs":[[1468,-1301,1469,1470]],"type":"Polygon","properties":{"state":"NJ","name":"FRANKLIN PARK","zip":"08823"}},{"arcs":[[-1469,1471,1472,-1302]],"type":"Polygon","properties":{"state":"NJ","name":"KENDALL PARK","zip":"08824"}},{"arcs":[[-1314,1473,1474,1475,-1464]],"type":"Polygon","properties":{"state":"NJ","name":"FRENCHTOWN","zip":"08825"}},{"arcs":[[1476,-825,-815,-764,-1412,1477,-1439]],"type":"Polygon","properties":{"state":"NJ","name":"GLEN GARDNER","zip":"08826"}},{"arcs":[[-826,-1477,-1438,1478,-1418]],"type":"Polygon","properties":{"state":"NJ","name":"HAMPTON","zip":"08827"}},{"arcs":[[1479,-1453,1480]],"type":"Polygon","properties":{"state":"NJ","name":"HELMETTA","zip":"08828"}},{"arcs":[[-1440,-1478,-1411]],"type":"Polygon","properties":{"state":"NJ","name":"HIGH BRIDGE","zip":"08829"}},{"arcs":[[1481,-1462,-225,-1,-287,1482]],"type":"Polygon","properties":{"state":"NJ","name":"ISELIN","zip":"08830"}},{"arcs":[[1483,-660,-1260,-1441,1484,-1454,-1480,1485]],"type":"Polygon","properties":{"state":"NJ","name":"MONROE TOWNSHIP","zip":"08831"}},{"arcs":[[1486,1487,1488,1489,1490]],"type":"Polygon","properties":{"state":"NJ","name":"KEASBEY","zip":"08832"}},{"arcs":[[1491,-1466,-1413,-762]],"type":"Polygon","properties":{"state":"NJ","name":"LEBANON","zip":"08833"}},{"arcs":[[1492,1493,-1432,-1429]],"type":"Polygon","properties":{"state":"NJ","name":"MANVILLE","zip":"08835"}},{"arcs":[[-1431,-196,-1424]],"type":"Polygon","properties":{"state":"NJ","name":"MARTINSVILLE","zip":"08836"}},{"arcs":[[1494,-1463,-1482,1495,1496,-1488,1497,-1449,-1455]],"type":"Polygon","properties":{"state":"NJ","name":"EDISON","zip":"08837"}},{"arcs":[[[1498,-1496,-1483]],[[-1460,-1461,-1495]]],"type":"MultiPolygon","properties":{"state":"NJ","name":"METUCHEN","zip":"08840"}},{"arcs":[[1499,-1299,-1241,1500,1501,-1436,1502,1503,-1433,-1494]],"type":"Polygon","properties":{"state":"NJ","name":"HILLSBOROUGH","zip":"08844"}},{"arcs":[[1504,1505,-1426,-1444]],"type":"Polygon","properties":{"state":"NJ","name":"MIDDLESEX","zip":"08846"}},{"arcs":[[1506,-1475,1507,1508,-1422,-1415]],"type":"Polygon","properties":{"state":"NJ","name":"MILFORD","zip":"08848"}},{"arcs":[[-1473,1509,-1442,-1258,-1295,-1303]],"type":"Polygon","properties":{"state":"NJ","name":"MONMOUTH JUNCTION","zip":"08852"}},{"arcs":[[-1312,-1309,-1468,1510,-1501,-1240]],"type":"Polygon","properties":{"state":"NJ","name":"NESHANIC STATION","zip":"08853"}},{"arcs":[[1511,1512,-1505,-1445,-213,-262,-1458,1513,1514]],"type":"Polygon","properties":{"state":"NJ","name":"PISCATAWAY","zip":"08854"}},{"arcs":[[-661,-1484,1515,-1451,1516,1517,1518,-706,-712]],"type":"Polygon","properties":{"state":"NJ","name":"OLD BRIDGE","zip":"08857"}},{"arcs":[[1519,1520,-1518]],"type":"Polygon","properties":{"state":"NJ","name":"PARLIN","zip":"08859"}},{"arcs":[[1521,-285,-254,1522,1523,-1490]],"type":"Polygon","properties":{"state":"NJ","name":"PERTH AMBOY","zip":"08861"}},{"arcs":[[-1489,-1497,-1499,-286,-1522]],"type":"Polygon","properties":{"state":"NJ","name":"FORDS","zip":"08863"}},{"arcs":[[-1509,1524,-749,-824,1525,-1420]],"type":"Polygon","properties":{"state":"NJ","name":"PHILLIPSBURG","zip":"08865"}},{"arcs":[[-1419,-1479,-1437,-1409,-1465,-1476,-1507]],"type":"Polygon","properties":{"state":"NJ","name":"PITTSTOWN","zip":"08867"}},{"arcs":[[1526,-1503,-1435]],"type":"Polygon","properties":{"state":"NJ","name":"RARITAN","zip":"08869"}},{"arcs":[[-1498,-1487,1527,-1520,-1517,-1450]],"type":"Polygon","properties":{"state":"NJ","name":"SAYREVILLE","zip":"08872"}},{"arcs":[[-1500,-1493,-1428,1528,-1512,1529,1530,-1470,-1300]],"type":"Polygon","properties":{"state":"NJ","name":"SOMERSET","zip":"08873"}},{"arcs":[[[1531,-838,-1430,-1502,-1511]],[[-1434,-1504,-1527]]],"type":"MultiPolygon","properties":{"state":"NJ","name":"SOMERVILLE","zip":"08876"}},{"arcs":[[-707,-1519,-1521,-1528,-1491,-1524,1532,-691,-639]],"type":"Polygon","properties":{"state":"NJ","name":"SOUTH AMBOY","zip":"08879"}},{"arcs":[[-1529,-1427,-1506,-1513]],"type":"Polygon","properties":{"state":"NJ","name":"SOUTH BOUND BROOK","zip":"08880"}},{"arcs":[[-1486,-1481,-1452,-1516]],"type":"Polygon","properties":{"state":"NJ","name":"SPOTSWOOD","zip":"08884"}},{"arcs":[[-1526,-823,-1417,-1421]],"type":"Polygon","properties":{"state":"NJ","name":"STEWARTSVILLE","zip":"08886"}},{"arcs":[[-768,-857,-839,-1532,-1467,-1492]],"type":"Polygon","properties":{"state":"NJ","name":"WHITEHOUSE STATION","zip":"08889"}},{"arcs":[[1533,-1530,-1515,1534,-1456,-1447]],"type":"Polygon","properties":{"state":"NJ","name":"NEW BRUNSWICK","zip":"08901"}},{"arcs":[[-1472,-1471,-1531,-1534,-1446,-1485,-1443,-1510]],"type":"Polygon","properties":{"state":"NJ","name":"NORTH BRUNSWICK","zip":"08902"}},{"arcs":[[-1514,-1457,-1535]],"type":"Polygon","properties":{"state":"NJ","name":"HIGHLAND PARK","zip":"08904"}}]}},"arcs":[[[39310,16384],[0,5]],[[39310,16389],[0,18]],[[39310,16407],[27,10]],[[39337,16417],[9,-2]],[[39346,16415],[-5,-21]],[[39341,16394],[-9,-10]],[[39332,16384],[-22,0]],[[39454,16514],[31,-28]],[[39485,16486],[-58,-25],[27,53]],[[39400,16628],[-9,-35]],[[39391,16593],[0,-5]],[[39391,16588],[-18,17]],[[39373,16605],[13,44]],[[39386,16649],[9,20]],[[39395,16669],[18,-10]],[[39413,16659],[-13,-31]],[[39283,16672],[-9,33]],[[39274,16705],[4,15]],[[39278,16720],[9,13]],[[39287,16733],[41,-13]],[[39328,16720],[13,-15]],[[39341,16705],[-58,-38]],[[39283,16667],[0,5]],[[39202,16705],[-9,30]],[[39193,16735],[-14,23]],[[39179,16758],[23,23]],[[39202,16781],[40,2]],[[39242,16783],[5,-68]],[[39247,16715],[-18,-15]],[[39229,16700],[-27,5]],[[39341,16672],[-4,-18]],[[39337,16654],[-32,-3]],[[39305,16651],[-22,8]],[[39283,16659],[0,8]],[[39341,16705],[5,-3]],[[39346,16702],[-5,-30]],[[39359,16377],[-18,17]],[[39346,16415],[31,-5]],[[39377,16410],[-18,-33]],[[39377,16682],[-9,-26]],[[39368,16656],[-27,16]],[[39346,16702],[31,-20]],[[39557,16649],[-13,-23]],[[39544,16626],[-5,2]],[[39539,16628],[0,18]],[[39539,16646],[9,10]],[[39548,16656],[9,-7]],[[39418,16689],[-9,28]],[[39409,16717],[27,0]],[[39436,16717],[0,-7]],[[39436,16710],[9,-10]],[[39445,16700],[-27,-11]],[[39413,16656],[0,3]],[[39395,16669],[27,5]],[[39422,16674],[5,-7]],[[39427,16667],[-14,-11]],[[39395,16669],[-9,10]],[[39386,16679],[14,36]],[[39400,16715],[4,2]],[[39404,16717],[5,0]],[[39418,16689],[4,-15]],[[39440,16644],[-4,-3]],[[39436,16641],[-23,15]],[[39427,16667],[18,-11]],[[39445,16656],[-5,-12]],[[39319,16466],[-9,-11]],[[39310,16455],[-14,-2]],[[39296,16453],[-9,5],[-4,15],[4,23]],[[39287,16496],[9,-2]],[[39296,16494],[18,-13]],[[39314,16481],[0,-8]],[[39314,16473],[5,-7]],[[39391,16588],[-5,-13]],[[39386,16575],[-22,13]],[[39364,16588],[4,20]],[[39368,16608],[5,-3]],[[39355,16570],[0,2]],[[39355,16572],[9,16]],[[39386,16575],[-4,-5]],[[39382,16570],[-5,-3]],[[39377,16567],[-22,3]],[[39544,16621],[0,5]],[[39557,16649],[9,20]],[[39566,16669],[-22,-48]],[[39323,16633],[-18,18]],[[39337,16654],[-5,-8]],[[39332,16646],[-9,-13]],[[39539,16628],[-13,16]],[[39526,16644],[13,2]],[[39247,16461],[-9,-16]],[[39238,16445],[-14,10]],[[39224,16455],[23,8]],[[39247,16463],[0,-2]],[[39548,16656],[-4,0]],[[39544,16656],[4,16]],[[39548,16672],[9,17]],[[39557,16689],[5,0]],[[39562,16689],[13,-5]],[[39575,16684],[-9,-15]],[[39454,16684],[-9,16]],[[39436,16710],[22,7]],[[39458,16717],[9,-7]],[[39467,16710],[-4,-23]],[[39463,16687],[0,-5]],[[39463,16682],[-9,2]],[[39368,16608],[18,41]],[[39413,16555],[-4,10]],[[39409,16565],[0,7]],[[39409,16572],[22,-12]],[[39431,16560],[-18,-5]],[[39512,16552],[-9,3]],[[39503,16555],[5,15]],[[39508,16570],[4,8]],[[39512,16578],[5,-3]],[[39517,16575],[-5,-23]],[[39449,16595],[-27,10]],[[39422,16605],[9,21]],[[39431,16626],[18,-31]],[[39476,16570],[0,-10]],[[39476,16560],[-31,-18]],[[39445,16542],[-14,18]],[[39409,16572],[13,26]],[[39422,16598],[0,7]],[[39449,16595],[18,-15]],[[39467,16580],[9,-10]],[[39328,16486],[-14,-5]],[[39296,16494],[5,5]],[[39301,16499],[27,-13]],[[39256,16692],[-27,8]],[[39247,16715],[9,-23]],[[39287,16733],[-13,38]],[[39274,16771],[9,5]],[[39283,16776],[13,0]],[[39296,16776],[23,-15]],[[39319,16761],[9,-41]],[[39337,16417],[-14,26]],[[39323,16443],[-13,12]],[[39319,16466],[36,5]],[[39355,16471],[27,-21]],[[39382,16450],[-5,-40]],[[39251,16580],[-4,-2]],[[39247,16578],[4,35]],[[39251,16613],[27,26]],[[39278,16639],[41,-13]],[[39319,16626],[-18,-48]],[[39301,16578],[-50,2]],[[39323,16537],[-9,2]],[[39314,16539],[-4,36]],[[39310,16575],[13,5]],[[39323,16580],[18,-25]],[[39341,16555],[5,-5]],[[39346,16550],[-9,-18]],[[39337,16532],[-14,5]],[[39314,16539],[-9,-5]],[[39305,16534],[0,-5]],[[39305,16529],[-13,8]],[[39292,16537],[18,41]],[[39310,16578],[0,-3]],[[39368,16608],[-4,3]],[[39364,16611],[-5,25]],[[39359,16636],[9,15]],[[39368,16651],[18,-2]],[[39368,16651],[0,5]],[[39377,16682],[9,-3]],[[39359,16636],[-27,10]],[[39274,16705],[-18,-13]],[[39242,16783],[9,-2]],[[39251,16781],[27,-61]],[[39202,16705],[-18,-3]],[[39184,16702],[9,33]],[[39539,16611],[-18,-8]],[[39521,16603],[-18,-28]],[[39503,16575],[-9,13]],[[39494,16588],[9,40]],[[39503,16628],[9,5]],[[39512,16633],[14,11]],[[39544,16621],[-5,-10]],[[39341,16578],[23,33]],[[39355,16572],[-14,6]],[[39319,16626],[4,7]],[[39341,16578],[-18,2]],[[39310,16578],[-9,0]],[[39197,16654],[-4,2]],[[39193,16656],[-18,38]],[[39175,16694],[9,8]],[[39256,16692],[18,-25]],[[39274,16667],[-36,-21]],[[39238,16646],[-41,8]],[[39454,16684],[-9,-10]],[[39445,16674],[0,-7]],[[39445,16667],[0,-11]],[[39463,16672],[-5,-11]],[[39458,16661],[-13,13]],[[39463,16682],[0,-10]],[[39283,16672],[-9,-5]],[[39134,16402],[-49,38]],[[39085,16440],[45,26]],[[39130,16466],[22,12]],[[39152,16478],[9,5]],[[39161,16483],[18,8]],[[39179,16491],[14,-18]],[[39193,16473],[-27,-40]],[[39166,16433],[-32,-31]],[[39233,16438],[-4,-23]],[[39229,16415],[-23,-3]],[[39206,16412],[-31,13]],[[39175,16425],[9,8]],[[39184,16433],[27,22]],[[39211,16455],[22,-17]],[[39238,16445],[-5,-7]],[[39211,16455],[9,6]],[[39220,16461],[4,-6]],[[39197,16412],[-13,-2]],[[39184,16410],[-9,15]],[[39206,16412],[-9,0]],[[39355,16377],[-27,0]],[[39328,16377],[4,7]],[[39359,16377],[-4,0]],[[39310,16407],[-9,15]],[[39301,16422],[22,21]],[[39301,16422],[-27,-2]],[[39274,16420],[-14,-3]],[[39260,16417],[23,21]],[[39283,16438],[13,15]],[[39310,16389],[-36,11]],[[39274,16400],[0,20]],[[39278,16639],[5,20]],[[39193,16473],[31,10]],[[39224,16483],[-4,-22]],[[39184,16433],[-18,0]],[[39445,16667],[18,-41]],[[39463,16626],[-23,18]],[[39431,16626],[5,15]],[[39463,16626],[9,-21]],[[39472,16605],[-5,-25]],[[39503,16628],[-13,-2]],[[39490,16626],[-32,35]],[[39463,16672],[18,-13]],[[39481,16659],[27,-8]],[[39508,16651],[4,-2]],[[39512,16649],[0,-16]],[[39490,16626],[-18,-21]],[[39494,16674],[14,-23]],[[39481,16659],[0,10]],[[39481,16669],[4,3]],[[39485,16672],[9,2]],[[39472,16682],[9,-13]],[[39463,16687],[9,-5]],[[39224,16483],[14,13]],[[39238,16496],[4,-13]],[[39242,16483],[5,-20]],[[39260,16417],[-31,-2]],[[39247,16461],[36,-23]],[[39337,16354],[-5,5]],[[39332,16359],[-4,18]],[[39355,16377],[-18,-23]],[[39278,16537],[-31,20]],[[39247,16557],[4,23]],[[39292,16537],[-14,0]],[[39355,16570],[-14,-15]],[[39224,16364],[-4,-8]],[[39220,16356],[-23,56]],[[39229,16415],[-5,-51]],[[39287,16496],[-9,3]],[[39278,16499],[-22,17]],[[39256,16516],[22,21]],[[39305,16529],[-4,-30]],[[39251,16781],[23,-10]],[[39305,16534],[18,3]],[[39337,16532],[9,-3]],[[39346,16529],[18,-35]],[[39364,16494],[-23,-8]],[[39341,16486],[-13,0]],[[39512,16578],[14,20]],[[39526,16598],[4,0]],[[39530,16598],[-13,-23]],[[39508,16570],[-5,5]],[[39521,16603],[5,-5]],[[39242,16483],[36,16]],[[39238,16496],[4,5]],[[39242,16501],[14,15]],[[39539,16611],[-9,-13]],[[39494,16588],[-9,-8]],[[39485,16580],[-9,-10]],[[39332,16359],[-27,-10]],[[39305,16349],[-13,17]],[[39292,16366],[18,18]],[[39395,16542],[0,2]],[[39395,16544],[9,23]],[[39404,16567],[5,-2]],[[39413,16555],[-13,-13]],[[39400,16542],[-5,0]],[[39368,16547],[5,15]],[[39373,16562],[4,5]],[[39382,16570],[13,0]],[[39395,16570],[9,-3]],[[39395,16544],[-27,3]],[[39395,16570],[9,35]],[[39404,16605],[18,-7]],[[39445,16516],[-45,26]],[[39445,16542],[0,-26]],[[39373,16562],[-27,-12]],[[39391,16593],[13,12]],[[39395,16542],[-9,-10]],[[39386,16532],[-18,7]],[[39368,16539],[0,8]],[[39400,16628],[31,-2]],[[39368,16539],[-9,-12]],[[39359,16527],[-13,2]],[[39386,16532],[-13,-16]],[[39373,16516],[-14,11]],[[39377,16504],[-4,12]],[[39445,16516],[-32,-12]],[[39413,16504],[-36,0]],[[39409,16471],[-27,2]],[[39382,16473],[-14,10]],[[39368,16483],[9,21]],[[39413,16504],[-4,-33]],[[39382,16473],[9,-12]],[[39391,16461],[-9,-11]],[[39355,16471],[-5,10]],[[39350,16481],[18,2]],[[39314,16473],[32,5]],[[39346,16478],[4,3]],[[39341,16486],[5,-8]],[[39373,16516],[-9,-22]],[[39409,16471],[-18,-10]],[[39494,16529],[-4,13]],[[39490,16542],[9,8]],[[39499,16550],[13,-6]],[[39512,16544],[-18,-15]],[[39494,16514],[-36,23]],[[39458,16537],[9,15]],[[39467,16552],[23,-10]],[[39494,16529],[0,-15]],[[39454,16514],[4,23]],[[39494,16514],[-9,-28]],[[39503,16555],[-4,-5]],[[39467,16552],[9,8]],[[39485,16580],[18,-25]],[[39512,16552],[0,-8]],[[39449,16870],[-4,-25]],[[39445,16845],[-23,2]],[[39422,16847],[-4,5]],[[39418,16852],[4,15]],[[39422,16867],[27,3]],[[39301,16837],[4,-8]],[[39305,16829],[-22,-2]],[[39283,16827],[-27,12]],[[39256,16839],[13,49]],[[39269,16888],[18,7]],[[39287,16895],[0,-28]],[[39287,16867],[14,-30]],[[39202,16781],[0,66]],[[39202,16847],[18,3]],[[39220,16850],[36,-11]],[[39283,16827],[-5,-13]],[[39278,16814],[5,-38]],[[39436,16717],[0,11]],[[39436,16728],[0,12]],[[39436,16740],[0,5]],[[39436,16745],[13,-5]],[[39449,16740],[9,-23]],[[39458,16778],[9,-35]],[[39467,16743],[-18,-3]],[[39436,16745],[-14,21]],[[39422,16766],[0,7]],[[39422,16773],[36,5]],[[39094,16967],[-14,-56]],[[39080,16911],[-9,10]],[[39071,16921],[-27,23]],[[39044,16944],[50,23]],[[39409,16850],[-18,-46]],[[39391,16804],[-18,0]],[[39373,16804],[-27,13]],[[39346,16817],[36,53]],[[39382,16870],[27,-20]],[[39170,17086],[-13,-43]],[[39157,17043],[-23,66]],[[39134,17109],[32,-20],[4,-3]],[[39044,16944],[-4,2]],[[39040,16946],[4,16]],[[39044,16962],[0,20]],[[39044,16982],[50,38]],[[39094,17020],[49,-66]],[[39143,16954],[-49,13]],[[39314,16842],[-13,-5]],[[39287,16867],[27,-25]],[[39197,16974],[18,15]],[[39215,16989],[0,69]],[[39215,17058],[59,-35],[18,-13],[27,-18]],[[39319,16992],[-32,-61]],[[39287,16931],[-45,43]],[[39242,16974],[-45,0]],[[39175,16984],[36,77]],[[39211,17061],[4,-3]],[[39215,16989],[-40,-5]],[[39476,16829],[0,-12]],[[39476,16817],[-31,15]],[[39445,16832],[22,-3]],[[39467,16829],[9,0]],[[39341,16705],[14,0]],[[39355,16705],[31,25]],[[39386,16730],[14,-15]],[[39418,16852],[-9,-2]],[[39382,16870],[-36,20]],[[39346,16890],[27,72]],[[39373,16962],[13,-8],[27,-13],[36,-23],[9,-5]],[[39458,16913],[-9,-13]],[[39449,16900],[-27,-33]],[[39436,16832],[-9,-26]],[[39427,16806],[4,26]],[[39431,16832],[5,0]],[[39242,16974],[-54,-66],[32,-58]],[[39202,16847],[-14,33]],[[39188,16880],[-40,33]],[[39148,16913],[49,61]],[[39332,16839],[-4,8]],[[39328,16847],[13,41]],[[39341,16888],[5,2]],[[39346,16817],[-14,22]],[[39080,16811],[5,31]],[[39085,16842],[36,43]],[[39121,16885],[27,28]],[[39188,16880],[-63,-76]],[[39125,16804],[-45,7]],[[39089,16906],[-9,5]],[[39071,16921],[18,-15]],[[39296,16776],[23,5]],[[39319,16781],[0,-20]],[[39305,16809],[0,20]],[[39314,16842],[14,5]],[[39332,16839],[-13,-35]],[[39319,16804],[-14,5]],[[39278,16814],[27,-5]],[[39319,16804],[0,-23]],[[39449,16900],[0,-30]],[[39427,16791],[-5,5]],[[39422,16796],[5,10]],[[39436,16832],[9,0]],[[39476,16817],[0,-13]],[[39476,16804],[-18,-26]],[[39458,16778],[-31,13]],[[39422,16773],[5,18]],[[39269,16888],[18,43]],[[39319,16992],[36,-20],[18,-10]],[[39341,16888],[-54,7]],[[39467,16829],[-22,16]],[[39458,16913],[23,-13]],[[39481,16900],[-5,-25]],[[39476,16875],[5,-36]],[[39481,16839],[-5,-10]],[[39143,16954],[32,30]],[[39121,16885],[-32,21]],[[39022,17005],[-41,51]],[[38981,17056],[50,114]],[[39031,17170],[36,-18],[54,-35],[13,-8]],[[39157,17043],[-63,-23]],[[39044,16982],[-22,23]],[[39170,17086],[41,-25]],[[39431,16832],[-9,15]],[[39373,16804],[9,-56]],[[39382,16748],[-5,-3]],[[39377,16745],[-22,-40]],[[39404,16801],[-13,3]],[[39422,16796],[-18,5]],[[39418,16738],[-5,-10]],[[39413,16728],[-9,-11]],[[39386,16730],[9,5]],[[39395,16735],[5,8],[4,2],[5,5]],[[39409,16750],[9,-2]],[[39418,16748],[0,-8]],[[39418,16740],[0,-2]],[[39386,16730],[-9,15]],[[39382,16748],[4,5]],[[39386,16753],[9,-18]],[[39413,16728],[18,0]],[[39431,16728],[5,0]],[[39431,16728],[-13,10]],[[39418,16740],[18,0]],[[39422,16766],[-13,-8]],[[39409,16758],[-5,43]],[[39409,16756],[-23,-3]],[[39409,16758],[0,-2]],[[39418,16748],[4,18]],[[39409,16756],[0,-6]],[[39512,16707],[0,-18]],[[39512,16689],[0,-10]],[[39512,16679],[-4,0]],[[39508,16679],[-14,13]],[[39494,16692],[-4,0]],[[39490,16692],[-5,8]],[[39485,16700],[5,10]],[[39490,16710],[9,23]],[[39499,16733],[4,2]],[[39503,16735],[14,3]],[[39517,16738],[-5,-31]],[[39521,16687],[-9,2]],[[39512,16707],[9,-20]],[[39472,16682],[13,18]],[[39490,16692],[-5,-20]],[[39548,16672],[-13,5]],[[39535,16677],[0,5]],[[39535,16682],[9,15]],[[39544,16697],[13,-8]],[[39508,16679],[-9,0]],[[39499,16679],[-5,13]],[[39490,16710],[-9,2]],[[39481,16712],[4,18]],[[39485,16730],[14,3]],[[39499,16679],[-5,-5]],[[39584,16748],[0,18]],[[39584,16766],[-4,15]],[[39580,16781],[9,20]],[[39589,16801],[9,18]],[[39598,16819],[0,13]],[[39598,16832],[18,-10],[-23,-82]],[[39593,16740],[-9,8]],[[39553,16758],[-9,-23]],[[39544,16735],[-18,3]],[[39526,16738],[4,20]],[[39530,16758],[23,3]],[[39553,16761],[0,-3]],[[39557,16791],[-22,3]],[[39535,16794],[9,5]],[[39544,16799],[22,10]],[[39566,16809],[23,-8]],[[39580,16781],[-23,10]],[[39584,16748],[-31,10]],[[39553,16761],[4,15]],[[39557,16776],[27,-10]],[[39557,16776],[0,2]],[[39557,16778],[0,13]],[[39530,16758],[5,18]],[[39535,16776],[0,2]],[[39535,16778],[22,0]],[[39535,16794],[-9,-3]],[[39526,16791],[-27,-2]],[[39499,16789],[-5,2]],[[39494,16791],[0,10]],[[39494,16801],[45,5]],[[39539,16806],[5,-7]],[[39575,16722],[-13,-33]],[[39544,16697],[4,38]],[[39548,16735],[27,-13]],[[39575,16722],[14,0]],[[39589,16722],[-14,-38]],[[39539,16806],[23,26]],[[39562,16832],[4,-23]],[[39535,16778],[-9,13]],[[39503,16824],[-27,5]],[[39481,16839],[36,6]],[[39517,16845],[-14,-21]],[[39512,16679],[0,-12]],[[39512,16667],[0,-18]],[[39467,16710],[9,7]],[[39476,16717],[5,-5]],[[39530,16873],[-9,-8]],[[39521,16865],[-36,5]],[[39485,16870],[-9,5]],[[39481,16900],[18,-10],[31,-17]],[[39526,16738],[-14,0]],[[39512,16738],[5,25]],[[39517,16763],[18,13]],[[39598,16819],[-36,13]],[[39562,16832],[9,15]],[[39571,16847],[13,-8],[14,-7]],[[39508,16768],[-9,21]],[[39517,16763],[-9,5]],[[39544,16656],[-14,11]],[[39530,16667],[5,10]],[[39508,16768],[-5,-33]],[[39485,16730],[-13,13]],[[39472,16743],[-5,0]],[[39476,16804],[18,-13]],[[39517,16847],[-32,23]],[[39521,16865],[-4,-18]],[[39512,16667],[18,0]],[[39521,16687],[14,-5]],[[39512,16738],[5,0]],[[39476,16717],[-4,26]],[[39544,16735],[4,0]],[[39593,16740],[-4,-18]],[[39494,16801],[9,23]],[[39517,16845],[0,2]],[[39530,16873],[9,-6],[23,-15],[9,-5]],[[39463,16133],[-14,20]],[[39449,16153],[32,41]],[[39481,16194],[22,2]],[[39503,16196],[9,-8]],[[39512,16188],[-18,-20]],[[39494,16168],[5,-13]],[[39499,16155],[-9,-10]],[[39490,16145],[-9,-18]],[[39481,16127],[-18,6]],[[39503,16125],[-13,-5]],[[39490,16120],[-9,7]],[[39490,16145],[18,-18]],[[39508,16127],[-5,-2]],[[39512,16120],[-4,-8]],[[39508,16112],[-18,8]],[[39503,16125],[9,5],[5,-3],[-5,-7]],[[39508,16160],[-9,-5]],[[39494,16168],[23,10]],[[39517,16178],[-9,-18]],[[39539,16036],[-13,18]],[[39526,16054],[18,-11]],[[39544,16043],[-5,-7]],[[39539,16021],[-13,-3]],[[39526,16018],[-68,43]],[[39458,16061],[45,18]],[[39503,16079],[18,-20]],[[39521,16059],[5,-5]],[[39539,16036],[0,-15]],[[39548,16201],[-45,-5]],[[39481,16194],[0,12]],[[39481,16206],[22,23]],[[39503,16229],[32,-7]],[[39535,16222],[13,-21]],[[39530,15990],[-13,-2]],[[39517,15988],[4,15]],[[39521,16003],[9,-3]],[[39530,16000],[0,-10]],[[39485,16239],[-13,-23]],[[39472,16216],[-9,16]],[[39463,16232],[9,15]],[[39472,16247],[13,-8]],[[39458,15944],[-31,21]],[[39427,15965],[27,17]],[[39454,15982],[63,6]],[[39530,15990],[-4,-20]],[[39526,15970],[-36,-26]],[[39490,15944],[-5,-5]],[[39485,15939],[-27,5]],[[39521,16003],[5,10]],[[39526,16013],[9,0]],[[39535,16013],[-5,-13]],[[39359,16239],[-13,3]],[[39346,16242],[4,10]],[[39350,16252],[9,-13]],[[39386,16064],[-22,18]],[[39364,16082],[0,66]],[[39364,16148],[22,5]],[[39386,16153],[36,-20]],[[39422,16133],[27,-6]],[[39449,16127],[-4,-63]],[[39445,16064],[-5,-31]],[[39440,16033],[-54,31]],[[39521,16059],[18,10]],[[39539,16069],[9,-3]],[[39548,16066],[-4,-23]],[[39517,16079],[-14,0]],[[39458,16061],[-13,3]],[[39449,16127],[14,6]],[[39508,16112],[4,-7]],[[39512,16105],[5,-26]],[[39206,16013],[-9,38]],[[39197,16051],[-13,38]],[[39184,16089],[0,21]],[[39184,16110],[94,38]],[[39278,16148],[5,5]],[[39283,16153],[22,-23]],[[39305,16130],[5,-31]],[[39310,16099],[-99,-91]],[[39211,16008],[-5,5]],[[39427,15965],[-77,45]],[[39350,16010],[36,54]],[[39440,16033],[14,-51]],[[39220,15975],[-9,33]],[[39310,16099],[54,-17]],[[39350,16010],[-18,-38]],[[39332,15972],[-112,3]],[[39431,16237],[-54,-23]],[[39377,16214],[-4,18]],[[39373,16232],[49,20]],[[39422,16252],[9,-15]],[[39350,15919],[-18,53]],[[39458,15944],[-4,-5]],[[39454,15939],[-36,-38]],[[39418,15901],[-68,18]],[[39553,16199],[-5,2]],[[39535,16222],[18,-23]],[[39386,16153],[-9,35]],[[39377,16188],[0,26]],[[39431,16237],[5,0]],[[39436,16237],[-9,-61]],[[39427,16176],[-5,-43]],[[39445,16260],[-9,-23]],[[39422,16252],[0,8]],[[39422,16260],[23,0]],[[39350,16252],[5,15]],[[39355,16267],[67,-7]],[[39373,16232],[-14,7]],[[39481,16206],[-9,10]],[[39485,16239],[18,-10]],[[39427,16176],[22,-23]],[[39508,16160],[9,-12]],[[39517,16148],[-9,-21]],[[39539,16069],[-9,13]],[[39530,16082],[0,30]],[[39530,16112],[0,3]],[[39530,16115],[23,18]],[[39553,16133],[4,-3]],[[39557,16130],[-9,-64]],[[39305,16130],[59,18]],[[39328,16201],[-18,36]],[[39310,16237],[36,5]],[[39377,16188],[-49,13]],[[39445,16260],[9,-5]],[[39454,16255],[9,-23]],[[39553,16133],[4,20],[0,-23]],[[39283,16153],[45,48]],[[39526,16018],[0,-5]],[[39517,16079],[13,3]],[[39539,16021],[-4,-8]],[[39530,16112],[-18,-7]],[[39512,16120],[18,-5]],[[39454,16255],[18,-8]],[[39553,16199],[-41,-11]],[[39517,16178],[40,-5],[-40,-25]],[[39521,15942],[-31,2]],[[39526,15970],[-5,-28]],[[39089,16700],[0,7]],[[39089,16707],[36,94]],[[39125,16801],[41,21],[-36,-120]],[[39130,16702],[-41,-2]],[[39053,16689],[5,8]],[[39058,16697],[13,23]],[[39071,16720],[18,-13]],[[39089,16700],[-36,-11]],[[38945,16735],[-5,0]],[[38940,16735],[-72,-13]],[[38868,16722],[-31,28]],[[38837,16750],[36,46]],[[38873,16796],[131,51]],[[39004,16847],[54,-33]],[[39058,16814],[-18,-28]],[[39040,16786],[-32,-10]],[[39008,16776],[-63,-41]],[[39044,16962],[-72,-31]],[[38972,16931],[-14,15]],[[38958,16946],[64,59]],[[38675,16611],[31,58],[9,13]],[[38715,16682],[36,25]],[[38751,16707],[27,-7]],[[38778,16700],[18,-46]],[[38796,16654],[-63,-43]],[[38733,16611],[-27,-23]],[[38706,16588],[-31,23]],[[38837,16750],[-59,-50]],[[38751,16707],[-18,130],[72,61]],[[38805,16898],[68,-102]],[[38958,16946],[-72,36]],[[38886,16982],[27,104]],[[38913,17086],[68,-30]],[[38913,17086],[-45,-35]],[[38868,17051],[18,58],[68,71],[41,13],[36,-23]],[[38981,16715],[-27,-51]],[[38954,16664],[-45,30],[31,41]],[[38945,16735],[36,-10]],[[38981,16725],[0,-10]],[[38954,16489],[-81,20]],[[38873,16509],[-18,-8]],[[38855,16501],[13,71]],[[38868,16572],[9,8]],[[38877,16580],[95,-43]],[[38972,16537],[-5,-56]],[[38967,16481],[-13,8]],[[38715,16682],[-49,112],[-9,20],[108,107],[85,89],[9,23]],[[38859,17033],[18,-59]],[[38877,16974],[-72,-76]],[[39175,16694],[-45,-33]],[[39130,16661],[0,41]],[[39130,16702],[49,56]],[[39022,16687],[-5,-31]],[[39017,16656],[-45,-17]],[[38972,16639],[-32,20]],[[38940,16659],[14,5]],[[38981,16715],[27,-3]],[[39008,16712],[14,-25]],[[38832,16677],[-36,-23]],[[38868,16722],[-36,-45]],[[38837,16646],[-5,31]],[[38940,16659],[-76,-36]],[[38864,16623],[-27,23]],[[39031,16745],[-9,-5]],[[39022,16740],[-14,36]],[[39040,16786],[4,-20]],[[39044,16766],[-13,-21]],[[39058,16697],[-14,3]],[[39044,16700],[5,20]],[[39049,16720],[22,0]],[[39040,16946],[-36,-84]],[[39004,16862],[-32,69]],[[39058,16814],[27,28]],[[39080,16811],[-27,-48]],[[39053,16763],[-9,3]],[[39008,16712],[-9,16]],[[38999,16728],[23,12]],[[39031,16745],[-5,-30]],[[39026,16715],[-18,-3]],[[38886,16982],[-9,-8]],[[38859,17033],[9,18]],[[39044,16700],[-22,-13]],[[39026,16715],[18,5]],[[39044,16720],[5,0]],[[38972,16639],[0,-102]],[[38877,16580],[-13,43]],[[39053,16763],[-9,-43]],[[38981,16725],[18,3]],[[39004,16862],[0,-15]],[[38837,16646],[-45,-43]],[[38792,16603],[-59,8]],[[38814,16572],[-22,31]],[[38868,16572],[-54,0]],[[39125,16801],[0,3]],[[39053,16639],[-18,17]],[[39035,16656],[18,33]],[[39130,16661],[-9,-7]],[[39121,16654],[-32,-28]],[[39089,16626],[-36,13]],[[39035,16656],[-18,0]],[[38720,16547],[-23,10]],[[38697,16557],[9,31]],[[38814,16572],[-9,-12]],[[38805,16560],[-40,-28]],[[38765,16532],[-45,15]],[[39242,16506],[-9,31]],[[39233,16537],[14,20]],[[39242,16501],[0,5]],[[39044,16458],[5,25]],[[39049,16483],[27,33]],[[39076,16516],[36,44]],[[39112,16560],[13,-21]],[[39125,16539],[5,-73]],[[39085,16440],[-41,18]],[[39044,16458],[-27,-28]],[[39017,16430],[-31,10]],[[38986,16440],[-14,36]],[[38972,16476],[77,7]],[[39179,16491],[14,13]],[[39193,16504],[9,12]],[[39202,16516],[40,-10]],[[39076,16516],[-27,44]],[[39049,16560],[58,18]],[[39107,16578],[5,-18]],[[39197,16654],[-13,-28]],[[39184,16626],[-14,15]],[[39170,16641],[23,15]],[[39233,16537],[-31,-21]],[[39193,16504],[-5,40]],[[39188,16544],[14,21]],[[39202,16565],[31,5]],[[39233,16570],[14,8]],[[39053,16639],[-9,-46]],[[39044,16593],[-27,-41],[-4,-2],[-41,-13]],[[38972,16476],[-5,5]],[[39044,16593],[5,-33]],[[39233,16570],[-40,25]],[[39193,16595],[27,18]],[[39220,16613],[31,0]],[[39161,16483],[-9,33]],[[39152,16516],[-27,23]],[[39125,16539],[23,21],[31,-8]],[[39179,16552],[9,-8]],[[39179,16552],[9,20]],[[39188,16572],[14,-7]],[[39220,16613],[4,10]],[[39224,16623],[14,23]],[[39188,16572],[5,23]],[[39089,16626],[18,-48]],[[39152,16516],[0,-38]],[[39170,16641],[-49,13]],[[39184,16626],[40,-3]],[[38774,15738],[-32,-38]],[[38742,15700],[-18,15]],[[38724,15715],[-18,8]],[[38706,15723],[41,28]],[[38747,15751],[27,-13]],[[38742,15667],[5,3]],[[38747,15670],[40,48]],[[38787,15718],[5,-8]],[[38792,15710],[22,-40]],[[38814,15670],[-67,-16]],[[38747,15654],[-5,13]],[[38837,15532],[4,46]],[[38841,15578],[23,28]],[[38864,15606],[40,-28]],[[38904,15578],[45,-43]],[[38949,15535],[-112,-3]],[[39395,15515],[-144,10]],[[39251,15525],[-18,-16]],[[39233,15509],[-13,97]],[[39220,15606],[-18,43]],[[39202,15649],[31,38]],[[39233,15687],[23,-63]],[[39256,15624],[130,-66]],[[39386,15558],[9,-43]],[[38711,15654],[-5,13]],[[38706,15667],[14,5]],[[38720,15672],[9,-2]],[[38729,15670],[0,-13]],[[38729,15657],[-9,-8]],[[38720,15649],[-9,5]],[[38837,15532],[18,-30]],[[38855,15502],[-18,2]],[[38837,15504],[-59,61]],[[38778,15565],[14,39]],[[38792,15604],[45,-21]],[[38837,15583],[4,-5]],[[38846,15855],[-27,-23]],[[38819,15832],[-5,36]],[[38814,15868],[23,5]],[[38837,15873],[9,-18]],[[38697,15586],[-4,46]],[[38693,15632],[22,7]],[[38715,15639],[14,0]],[[38729,15639],[-14,-10]],[[38715,15629],[36,-56]],[[38751,15573],[-18,-51]],[[38733,15522],[-22,46],[-5,8],[-9,10]],[[38517,15611],[-31,-46],[-23,39]],[[38463,15604],[36,20]],[[38499,15624],[18,-13]],[[39152,15766],[18,-45]],[[39170,15721],[-99,-26]],[[39071,15695],[-27,94]],[[39044,15789],[50,0]],[[39094,15789],[49,0]],[[39143,15789],[9,-23]],[[38927,15906],[-9,-61]],[[38918,15845],[-45,-13]],[[38873,15832],[-27,23]],[[38837,15873],[58,48]],[[38895,15921],[23,-15]],[[38918,15906],[9,0]],[[39233,15509],[0,-55],[-49,7]],[[39184,15461],[-113,155],[149,-10]],[[38607,15588],[-9,-15]],[[38598,15573],[-9,-8]],[[38589,15565],[-27,46]],[[38562,15611],[5,0]],[[38567,15611],[27,-5]],[[38594,15606],[13,-18]],[[38792,15611],[0,-7]],[[38778,15565],[-27,8]],[[38715,15629],[14,-5],[27,5],[0,3]],[[38756,15632],[13,-3],[23,-18]],[[38976,15802],[-40,28]],[[38936,15830],[22,79],[82,7]],[[39040,15916],[-27,-68]],[[39013,15848],[-41,-8],[23,-30]],[[38995,15810],[-19,-8]],[[38562,15642],[5,-31]],[[38562,15611],[-31,-10]],[[38531,15601],[-14,10]],[[38499,15624],[63,18]],[[38621,15476],[18,41]],[[38639,15517],[0,5],[31,8],[23,-31]],[[38693,15499],[9,-17]],[[38702,15482],[-36,-31]],[[38666,15451],[-45,25]],[[38693,15632],[0,2]],[[38693,15634],[27,13]],[[38720,15647],[-5,-8]],[[38679,15675],[-13,-5]],[[38666,15670],[-5,0]],[[38661,15670],[5,35]],[[38666,15705],[13,-10]],[[38679,15695],[0,-20]],[[38711,15654],[-32,-5]],[[38679,15649],[-13,21]],[[38679,15675],[14,-8]],[[38693,15667],[13,0]],[[38720,15672],[0,13]],[[38720,15685],[-14,13]],[[38706,15698],[18,17]],[[38742,15700],[5,-30]],[[38742,15667],[-13,3]],[[38774,15738],[-5,-15]],[[38769,15723],[18,-5]],[[38693,15667],[4,10]],[[38697,15677],[23,8]],[[38891,15354],[-81,133]],[[38810,15487],[27,17]],[[38855,15502],[108,20]],[[38963,15522],[95,-107]],[[39058,15415],[-68,-43],[14,-51]],[[39004,15321],[-113,33]],[[39013,15848],[18,-21]],[[39031,15827],[-5,-10]],[[39026,15817],[-31,-7]],[[38756,15632],[-9,20]],[[38747,15652],[0,2]],[[38814,15670],[18,-66]],[[38832,15604],[-40,7]],[[38747,15654],[-18,3]],[[38873,15832],[-14,-35]],[[38859,15797],[-27,15]],[[38832,15812],[-13,20]],[[38747,15652],[-18,-13]],[[38720,15647],[0,2]],[[39368,15438],[-108,71]],[[39260,15509],[-9,16]],[[39395,15515],[-27,-77]],[[38625,15596],[9,-13]],[[38634,15583],[-36,-10]],[[38607,15588],[0,8]],[[38607,15596],[14,8]],[[38621,15604],[4,-8]],[[38747,15751],[-5,15]],[[38742,15766],[14,5]],[[38756,15771],[27,-30]],[[38783,15741],[-14,-18]],[[38837,15583],[-5,21]],[[38792,15710],[72,5]],[[38864,15715],[0,-109]],[[38868,15743],[-4,-28]],[[38783,15741],[76,56]],[[38859,15797],[9,-54]],[[38868,15743],[45,3],[5,3],[4,-3]],[[38922,15746],[27,-107],[-45,-61]],[[38589,15565],[5,-15]],[[38594,15550],[-41,5]],[[38553,15555],[-22,46]],[[38756,15771],[36,21]],[[38792,15792],[40,20]],[[38679,15695],[5,3]],[[38684,15698],[13,-21]],[[38918,15845],[18,-15]],[[38976,15802],[0,-28]],[[38976,15774],[-54,-28]],[[38594,15606],[9,0]],[[38603,15606],[4,-10]],[[38621,15476],[-41,-22]],[[38580,15454],[-49,22]],[[38531,15476],[22,79]],[[38594,15550],[45,-33]],[[38733,15792],[-13,0]],[[38720,15792],[18,20]],[[38738,15812],[-5,-20]],[[38562,15642],[32,7]],[[38594,15649],[22,-20]],[[38616,15629],[5,-8]],[[38621,15621],[-18,-15]],[[38486,15504],[-32,-33]],[[38454,15471],[-58,74]],[[38396,15545],[45,33]],[[38441,15578],[45,-74]],[[39026,15817],[18,-28]],[[39071,15695],[-95,79]],[[38454,15471],[-13,-20]],[[38441,15451],[-50,10]],[[38391,15461],[-31,15]],[[38360,15476],[36,69]],[[38391,15461],[-18,-71],[-40,38]],[[38333,15428],[27,48]],[[38792,15792],[-23,43]],[[38769,15835],[45,33]],[[38742,15766],[-9,26]],[[38738,15812],[31,23]],[[38693,15634],[-14,15]],[[38445,15245],[0,-56]],[[38445,15189],[-9,-18]],[[38436,15171],[-94,74],[-9,183]],[[38441,15451],[36,-102]],[[38477,15349],[9,-94],[-41,-10]],[[38634,15583],[23,21]],[[38657,15604],[40,-18]],[[38733,15522],[0,-18]],[[38733,15504],[-40,-5]],[[38810,15487],[-77,17]],[[38531,15476],[-45,28]],[[38441,15578],[22,26]],[[38630,15675],[4,-23]],[[38634,15652],[-18,-23]],[[38594,15649],[13,11],[14,12],[9,3]],[[38621,15621],[0,-17]],[[39166,15344],[9,69]],[[39175,15413],[9,48]],[[39260,15509],[54,-109]],[[39314,15400],[-40,-48],[27,-56],[-122,48]],[[39179,15344],[-13,0]],[[39175,15413],[-81,61],[-36,-59]],[[38963,15522],[-14,13]],[[39170,15721],[32,-72]],[[38625,15596],[5,10],[18,-8],[9,6]],[[39368,15438],[-54,-38]],[[38679,15649],[-45,3]],[[38630,15675],[31,-5]],[[38891,15354],[-9,5]],[[38882,15359],[-32,-2]],[[38850,15357],[-13,-10]],[[38837,15347],[-50,35]],[[38787,15382],[-67,64]],[[38720,15446],[-18,36]],[[38580,15428],[-76,-76]],[[38504,15352],[-27,-3]],[[38580,15454],[0,-26]],[[38679,15741],[-4,0]],[[38675,15741],[-18,2]],[[38657,15743],[18,6]],[[38675,15749],[4,-8]],[[38693,15721],[-5,-3]],[[38688,15718],[-31,8]],[[38657,15726],[0,17]],[[38675,15741],[18,-20]],[[38666,15705],[-9,21]],[[38688,15718],[-4,-20]],[[38693,15766],[-5,-33]],[[38688,15733],[-9,8]],[[38675,15749],[18,17]],[[38684,15698],[22,0]],[[38688,15718],[18,-20]],[[38693,15721],[13,2]],[[38688,15733],[54,33]],[[38693,15766],[27,26]],[[39157,15179],[0,-10]],[[39157,15169],[-27,38]],[[39130,15207],[-14,25]],[[39116,15232],[63,-12]],[[39179,15220],[-22,-41]],[[38954,14838],[-5,3]],[[38949,14841],[32,53],[-27,-56]],[[38792,14769],[45,46]],[[38837,14815],[9,-12]],[[38846,14803],[27,-31]],[[38873,14772],[-63,-74],[-18,71]],[[39116,15232],[-22,13]],[[39094,15245],[40,46]],[[39134,15291],[81,12]],[[39215,15303],[18,-76],[-54,-7]],[[38837,14815],[-14,23]],[[38823,14838],[18,102]],[[38841,14940],[104,43]],[[38945,14983],[31,-53]],[[38976,14930],[-49,-82],[13,-17],[-58,-39]],[[38882,14792],[-36,11]],[[39080,15253],[-76,68]],[[39166,15344],[-32,-53]],[[39094,15245],[-14,8]],[[39089,15105],[-13,13]],[[39076,15118],[9,33]],[[39085,15151],[27,-23]],[[39112,15128],[-27,-36],[4,13]],[[39035,15011],[-40,31]],[[38995,15042],[36,28]],[[39031,15070],[4,-59]],[[39085,15151],[22,18]],[[39107,15169],[27,-18]],[[39134,15151],[-22,-23]],[[38945,14983],[50,59]],[[39035,15011],[-59,-81]],[[39107,15169],[23,38]],[[39157,15169],[0,-8]],[[39157,15161],[-23,-10]],[[39076,15118],[-27,-23]],[[39049,15095],[-18,5]],[[39031,15100],[-55,87]],[[38976,15187],[104,66]],[[39179,15344],[36,-41]],[[38882,14792],[-9,-20]],[[39013,14960],[4,0],[-36,-63],[32,63]],[[39089,15105],[-40,-10]],[[38954,14838],[-32,-46],[27,49]],[[38792,14769],[31,69]],[[38823,14955],[45,150]],[[38868,15105],[77,66]],[[38945,15171],[31,16]],[[39031,15100],[0,-30]],[[38841,14940],[-18,15]],[[38679,15255],[-72,-33],[45,-51],[-22,-38]],[[38630,15133],[-86,-53]],[[38544,15080],[-108,91]],[[38445,15189],[50,-13],[-50,69]],[[38504,15352],[175,-97]],[[38868,15342],[-4,-56]],[[38864,15286],[-32,-8]],[[38832,15278],[-18,20]],[[38814,15298],[5,3]],[[38819,15301],[-5,18]],[[38814,15319],[23,28]],[[38850,15357],[18,-15]],[[38630,15133],[45,-35]],[[38675,15098],[-104,-34]],[[38571,15064],[-27,16]],[[38720,15446],[-41,-15]],[[38679,15431],[-13,20]],[[38900,15176],[-27,-12]],[[38873,15164],[-5,15]],[[38868,15179],[18,30]],[[38886,15209],[14,-33]],[[38580,15428],[99,-43]],[[38679,15385],[23,-48]],[[38702,15337],[-9,-95]],[[38693,15242],[-14,13]],[[38868,15105],[5,59]],[[38900,15176],[45,-5]],[[38679,15390],[0,41]],[[38787,15382],[-63,-20],[-27,8],[-18,20]],[[38819,15301],[-18,13]],[[38801,15314],[0,5]],[[38801,15319],[13,0]],[[38747,15011],[18,28]],[[38765,15039],[9,-5],[-9,-23],[-18,0]],[[38886,15209],[-9,36]],[[38877,15245],[-13,41]],[[38868,15342],[14,17]],[[38765,15039],[-81,46]],[[38684,15085],[-9,13]],[[38693,15242],[45,-38]],[[38738,15204],[108,-5]],[[38846,15199],[22,-20]],[[38823,14955],[-27,10],[-40,3],[-23,23]],[[38733,14991],[14,20]],[[38846,15199],[-14,49]],[[38832,15248],[18,2]],[[38850,15250],[27,-5]],[[38814,15298],[-13,16]],[[38679,15390],[0,-5]],[[38801,15319],[-99,18]],[[38684,15085],[-45,-43],[31,-56]],[[38670,14986],[-99,78]],[[38733,14991],[-63,-5]],[[38850,15250],[-18,28]],[[38832,15248],[-67,50],[-27,-94]],[[39157,15179],[31,-36],[-31,18]],[[39175,15125],[-9,13]],[[39166,15138],[54,10],[-45,-23]],[[39148,15125],[9,-12]],[[39157,15113],[-23,-15],[-4,7],[18,20]],[[39148,15125],[18,13]],[[39175,15125],[-18,-12]],[[39053,15911],[0,64]],[[39053,15975],[113,18]],[[39166,15993],[-23,-26],[-4,3],[-36,-84]],[[39103,15886],[-50,25]],[[39071,16267],[-27,-45]],[[39044,16222],[-63,35]],[[38981,16257],[18,23]],[[38999,16280],[72,-13]],[[38927,15906],[18,18]],[[38945,15924],[36,30]],[[38981,15954],[14,21]],[[38995,15975],[31,-13],[5,-15],[9,-31]],[[39220,15975],[-14,-13]],[[39206,15962],[-36,31]],[[39170,15993],[-13,28]],[[39157,16021],[27,-3]],[[39184,16018],[22,-5]],[[39125,15838],[18,-49]],[[39094,15789],[-23,10]],[[39071,15799],[18,44]],[[39089,15843],[27,15]],[[39116,15858],[9,-20]],[[39098,16092],[-18,28]],[[39080,16120],[18,51]],[[39098,16171],[36,-3]],[[39134,16168],[32,-15]],[[39166,16153],[18,-43]],[[39184,16089],[-86,3]],[[39166,15993],[4,0]],[[39206,15962],[-27,-46]],[[39179,15916],[-72,-35]],[[39107,15881],[-4,5]],[[38927,15921],[-9,-15]],[[38895,15921],[32,0]],[[39197,16051],[-13,-33]],[[39157,16021],[-81,35]],[[39076,16056],[22,36]],[[38895,16171],[-9,30]],[[38886,16201],[63,43]],[[38949,16244],[14,-66]],[[38963,16178],[-9,-5]],[[38954,16173],[-59,-2]],[[39193,15850],[-14,66]],[[39350,15919],[-9,-61]],[[39341,15858],[-9,-3]],[[39332,15855],[-40,-17]],[[39292,15838],[-99,12]],[[38895,16171],[-22,-16]],[[38873,16155],[-32,-35]],[[38841,16120],[-4,2],[-54,87]],[[38783,16209],[58,15]],[[38841,16224],[45,-23]],[[39193,15850],[-68,-12]],[[39116,15858],[-9,23]],[[38927,16097],[-14,0]],[[38913,16097],[-40,58]],[[38954,16173],[4,-40]],[[38958,16133],[-13,-44]],[[38945,16089],[-18,8]],[[39080,16120],[-27,18]],[[39053,16138],[27,28]],[[39080,16166],[18,5]],[[39053,16138],[-45,-33]],[[39008,16105],[-50,28]],[[38963,16178],[72,33],[9,5],[0,6]],[[39071,16267],[23,18]],[[39094,16285],[9,-25]],[[39103,16260],[-9,-26]],[[39094,16234],[-5,-20]],[[39089,16214],[-31,-36],[0,-5],[22,-7]],[[39076,16056],[-23,0]],[[39053,16056],[-31,18]],[[39022,16074],[-14,31]],[[38841,16224],[5,56]],[[38846,16280],[85,8]],[[38931,16288],[18,-36]],[[38949,16252],[0,-8]],[[38927,15921],[18,3]],[[38949,16252],[32,5]],[[38783,16209],[-72,23],[0,81],[-5,18]],[[38706,16331],[0,-61],[59,23]],[[38765,16293],[81,-13]],[[38868,16084],[-27,36]],[[38913,16097],[-45,-13]],[[39089,15843],[-31,-13]],[[39058,15830],[-27,-3]],[[39040,15916],[13,-5]],[[38931,16026],[18,2]],[[38949,16028],[0,-5]],[[38949,16023],[-13,-2]],[[38936,16021],[-5,5]],[[38949,16028],[0,5]],[[38949,16033],[18,5]],[[38967,16038],[9,-2]],[[38976,16036],[-18,-13]],[[38958,16023],[-9,0]],[[38976,15965],[-13,51]],[[38963,16016],[13,12]],[[38976,16028],[23,-15]],[[38999,16013],[23,-5]],[[39022,16008],[-14,-10]],[[39008,15998],[-13,-23]],[[38981,15954],[-5,11]],[[38958,16023],[5,-7]],[[38976,15965],[-40,56]],[[38900,16046],[27,38]],[[38927,16084],[22,-51]],[[38931,16026],[-31,20]],[[38976,16028],[0,8]],[[38967,16038],[0,11]],[[38967,16049],[46,28]],[[39013,16077],[-14,-64]],[[39008,15998],[45,-23]],[[38877,16064],[-4,13],[-5,7]],[[38927,16097],[0,-13]],[[38900,16046],[-23,18]],[[38945,16089],[22,-40]],[[39058,15830],[13,-31]],[[39022,16074],[-9,3]],[[39053,16056],[-31,-48]],[[39395,15832],[-54,26]],[[39418,15901],[0,-20]],[[39418,15881],[-5,-56]],[[39413,15825],[-18,7]],[[39373,15680],[-63,33]],[[39310,15713],[-23,30]],[[39287,15743],[77,-12]],[[39364,15731],[31,2]],[[39395,15733],[23,-5]],[[39418,15728],[9,0],[13,-2],[-27,-61]],[[39413,15665],[-40,15]],[[39364,15731],[27,12]],[[39391,15743],[9,-7]],[[39400,15736],[-5,-3]],[[39427,15817],[-14,8]],[[39418,15881],[18,-13]],[[39436,15868],[58,-28],[-67,-23]],[[39454,15939],[18,-40]],[[39472,15899],[18,-39]],[[39490,15860],[-54,8]],[[39233,15687],[77,26]],[[39373,15680],[49,-38]],[[39422,15642],[-18,-36]],[[39404,15606],[-148,18]],[[39292,15838],[13,-41],[-153,-31]],[[39413,15665],[9,-23]],[[39485,15756],[-9,3]],[[39476,15759],[9,43]],[[39485,15802],[9,-3]],[[39494,15799],[-9,-43]],[[39512,15904],[-9,2],[-31,-7]],[[39485,15939],[27,-20]],[[39512,15919],[0,-15]],[[39485,15802],[14,56]],[[39499,15858],[4,0]],[[39503,15858],[-9,-59]],[[39400,15736],[18,-8]],[[39512,15904],[-9,-46]],[[39499,15858],[-9,2]],[[39521,15942],[-9,-23]],[[39454,15743],[0,3]],[[39454,15746],[22,13]],[[39485,15756],[0,-23]],[[39485,15733],[-9,3]],[[39476,15736],[-22,7]],[[39485,15733],[-22,-175],[13,178]],[[39454,15743],[-68,6]],[[39386,15749],[-9,2]],[[39377,15751],[18,81]],[[39427,15817],[27,-71]],[[39355,15807],[-14,25],[0,8],[-9,15]],[[39377,15751],[-49,33],[27,23]],[[39287,15743],[68,64]],[[39386,15749],[5,-6]],[[39404,15606],[-18,-48]],[[38828,16397],[-5,51]],[[38823,16448],[18,25]],[[38841,16473],[5,26]],[[38846,16499],[9,2]],[[38873,16509],[-18,-115]],[[38855,16394],[-27,3]],[[38756,16433],[-41,20]],[[38715,16453],[-18,25]],[[38697,16478],[23,69]],[[38765,16532],[-9,-102]],[[38756,16430],[0,3]],[[38652,16445],[14,23]],[[38666,16468],[31,10]],[[38715,16453],[-63,-8]],[[39094,16364],[9,36]],[[39103,16400],[31,2]],[[39134,16402],[5,-5]],[[39139,16397],[-9,-23]],[[39130,16374],[-14,-5]],[[39116,16369],[-18,-13]],[[39098,16356],[-4,8]],[[39004,16369],[13,61]],[[39085,16440],[18,-40]],[[39094,16364],[-23,8]],[[39071,16372],[-9,0]],[[39062,16372],[-9,15]],[[39053,16387],[-18,-15]],[[39035,16372],[-31,-3]],[[38823,16448],[-18,0]],[[38805,16448],[5,43]],[[38810,16491],[18,-5]],[[38828,16486],[13,-13]],[[39157,16204],[9,-51]],[[39134,16168],[9,51]],[[39143,16219],[14,-15]],[[39170,16400],[-31,-3]],[[39184,16410],[-14,-10]],[[39175,16214],[0,35],[27,21],[13,20]],[[39215,16290],[18,8]],[[39233,16298],[5,2]],[[39238,16300],[13,-17]],[[39251,16283],[-4,-11],[13,-33],[0,-7]],[[39260,16232],[-9,-16]],[[39251,16216],[-36,-20]],[[39215,16196],[-9,-2]],[[39206,16194],[-31,20]],[[39251,16341],[-13,-41]],[[39233,16298],[-18,7]],[[39215,16305],[-18,21]],[[39197,16326],[23,30]],[[39224,16364],[18,0]],[[39242,16364],[9,-23]],[[39269,16369],[-27,-5]],[[39274,16400],[4,-21]],[[39278,16379],[-9,-10]],[[38765,16293],[27,25]],[[38792,16318],[36,79]],[[38855,16394],[31,-5]],[[38886,16389],[72,-23]],[[38958,16366],[-13,-12],[-9,-13],[-5,-53]],[[39125,16252],[-31,-18]],[[39103,16260],[22,-5]],[[39125,16255],[0,-3]],[[39125,16252],[9,-10]],[[39134,16242],[-45,-28]],[[38706,16331],[0,18]],[[38706,16349],[32,30]],[[38738,16379],[54,-61]],[[38810,16491],[-5,69]],[[38846,16499],[-18,-13]],[[38805,16448],[-49,-18]],[[39220,16188],[-14,6]],[[39215,16196],[5,-8]],[[39283,16372],[-5,7]],[[39292,16366],[-9,6]],[[39251,16181],[27,-33]],[[39157,16204],[18,10]],[[39220,16188],[31,-7]],[[39292,16316],[-5,-13]],[[39287,16303],[5,35]],[[39292,16338],[13,-2]],[[39305,16336],[5,-15]],[[39310,16321],[-18,-5]],[[38954,16489],[-68,-100]],[[39098,16356],[-18,-15]],[[39080,16341],[-9,31]],[[39251,16341],[18,28]],[[39283,16372],[0,-13]],[[39283,16359],[9,-21]],[[39287,16303],[-36,-20]],[[39292,16366],[-9,-7]],[[39080,16341],[14,-56]],[[38999,16280],[-4,81]],[[38995,16361],[9,8]],[[39035,16372],[18,7]],[[39053,16379],[9,-7]],[[39170,16400],[-36,-31]],[[39134,16369],[-4,5]],[[38756,16433],[-18,-54]],[[38706,16349],[-13,17],[-63,11],[-18,23],[0,7]],[[38612,16407],[40,38]],[[39134,16242],[9,-23]],[[38958,16366],[37,-5]],[[39175,16321],[-36,38]],[[39139,16359],[-5,10]],[[39197,16326],[-9,-8]],[[39188,16318],[-13,3]],[[39251,16181],[0,35]],[[39260,16232],[27,17]],[[39287,16249],[18,0]],[[39305,16249],[5,-12]],[[39287,16249],[18,39]],[[39305,16288],[0,-39]],[[39305,16336],[0,13]],[[39337,16354],[-23,-43]],[[39314,16311],[-4,10]],[[38612,16407],[-5,15],[0,105],[0,43],[68,41]],[[38697,16557],[-45,-20],[14,-69]],[[39053,16387],[0,-8]],[[39292,16316],[13,-28]],[[39116,16369],[23,-10]],[[39175,16321],[-18,-36]],[[39157,16285],[-32,-30]],[[38958,16366],[28,74]],[[39314,16311],[41,-44]],[[39215,16290],[-58,-5]],[[39188,16318],[27,-13]]]}