{"type":"Topology","transform":{"scale":[0.0012831345112129487,0.0009745357309423489],"translate":[-124.73273099999999,24.60334863324381]},"objects":{"area":{"type":"GeometryCollection","geometries":[{"arcs":[[[0,1,2,3,4,5,6,7,8,9,10,11,12,13]],[[14,15,16,17,18,19,20,21]]],"type":"MultiPolygon","properties":{"state":"NM","name":"SANDOVAL COUNTY","zip":"00064"}},{"arcs":[[22,23,24,25,26,27]],"type":"Polygon","properties":{"state":"NM","name":"WHITE SANDS MISSILE RNGE","zip":"00066"}},{"arcs":[[28,29,30,31,32,33,34,35]],"type":"Polygon","properties":{"state":"NM","name":"BELEN","zip":"87002"}},{"arcs":[[36,37,38,39,40,41,-12,42,43,44,45]],"type":"Polygon","properties":{"state":"NM","name":"BERNALILLO","zip":"87004"}},{"arcs":[[46,47,48,49,50,51,52,53,54]],"type":"Polygon","properties":{"state":"NM","name":"BLUEWATER","zip":"87005"}},{"arcs":[[55,-30,56,57]],"type":"Polygon","properties":{"state":"NM","name":"BOSQUE","zip":"87006"}},{"arcs":[[58,59,60,61]],"type":"Polygon","properties":{"state":"NM","name":"CASA BLANCA","zip":"87007"}},{"arcs":[[62,63,64,65,66]],"type":"Polygon","properties":{"state":"NM","name":"CEDAR CREST","zip":"87008"}},{"arcs":[[67,68,69,70,71]],"type":"Polygon","properties":{"state":"NM","name":"CEDARVALE","zip":"87009"}},{"arcs":[[72,73,-45,74,75,76]],"type":"Polygon","properties":{"state":"NM","name":"CERRILLOS","zip":"87010"}},{"arcs":[[77,78,79,80,81,-5,82]],"type":"Polygon","properties":{"state":"NM","name":"CUBA","zip":"87013"}},{"arcs":[[[83,84,-2,85,-62]],[[86,-51]],[[87,88,89,90,-53,91,-60]]],"type":"MultiPolygon","properties":{"state":"NM","name":"CUBERO","zip":"87014"}},{"arcs":[[92,93,94,95]],"type":"Polygon","properties":{"state":"NM","name":"EDGEWOOD","zip":"87015"}},{"arcs":[[96,-34,97,98,99,100,-69,101]],"type":"Polygon","properties":{"state":"NM","name":"ESTANCIA","zip":"87016"}},{"arcs":[[102,103,104,105,106,-6,-82]],"type":"Polygon","properties":{"state":"NM","name":"GALLINA","zip":"87017"}},{"arcs":[[-81,107,108,109,-103]],"type":"Polygon","properties":{"state":"NM","name":"COUNSELOR","zip":"87018"}},{"arcs":[[-87,-50,110,111,-84,-61,-92,-52]],"type":"Polygon","properties":{"state":"NM","name":"GRANTS","zip":"87020"}},{"arcs":[[112,113,114,115,-32]],"type":"Polygon","properties":{"state":"NM","name":"JARALES","zip":"87023"}},{"arcs":[[116,117,118,-17]],"type":"Polygon","properties":{"state":"NM","name":"JEMEZ PUEBLO","zip":"87024"}},{"arcs":[[119,-19,120,-118,121,-10]],"type":"Polygon","properties":{"state":"NM","name":"JEMEZ SPRINGS","zip":"87025"}},{"arcs":[[-59,-86,-1,122,123,-114,124,125,-88]],"type":"Polygon","properties":{"state":"NM","name":"LAGUNA","zip":"87026"}},{"arcs":[[-80,126,127,-108]],"type":"Polygon","properties":{"state":"NM","name":"LA JARA","zip":"87027"}},{"arcs":[[128,129,130]],"type":"Polygon","properties":{"state":"NM","name":"LA JOYA","zip":"87028"}},{"arcs":[[131,132,-104,-110]],"type":"Polygon","properties":{"state":"NM","name":"LINDRITH","zip":"87029"}},{"arcs":[[-33,-116,133,134,-98]],"type":"Polygon","properties":{"state":"NM","name":"LOS LUNAS","zip":"87031"}},{"arcs":[[135,136,-101,137,-93,138,139,140]],"type":"Polygon","properties":{"state":"NM","name":"MORIARTY","zip":"87035"}},{"arcs":[[141,142,-35,-97]],"type":"Polygon","properties":{"state":"NM","name":"MOUNTAINAIR","zip":"87036"}},{"arcs":[[143,144,-22]],"type":"Polygon","properties":{"state":"NM","name":"PENA BLANCA","zip":"87041"}},{"arcs":[[-135,145,146,147,-99]],"type":"Polygon","properties":{"state":"NM","name":"PERALTA","zip":"87042"}},{"arcs":[[148,149,-37]],"type":"Polygon","properties":{"state":"NM","name":"PLACITAS","zip":"87043"}},{"arcs":[[-121,-18,-119]],"type":"Polygon","properties":{"state":"NM","name":"PONDEROSA","zip":"87044"}},{"arcs":[[-49,150,151,-111]],"type":"Polygon","properties":{"state":"NM","name":"PREWITT","zip":"87045"}},{"arcs":[[152,-109,-128]],"type":"Polygon","properties":{"state":"NM","name":"REGINA","zip":"87046"}},{"arcs":[[153,-149,-46,-74,154,-95,155,-66]],"type":"Polygon","properties":{"state":"NM","name":"SANDIA PARK","zip":"87047"}},{"arcs":[[156,157,-41]],"type":"Polygon","properties":{"state":"NM","name":"CORRALES","zip":"87048"}},{"arcs":[[158,-15,-145,159,-44]],"type":"Polygon","properties":{"state":"NM","name":"SANTO DOMINGO PUEBLO","zip":"87052"}},{"arcs":[[-43,-11,-122,-117,-16,-159]],"type":"Polygon","properties":{"state":"NM","name":"SAN YSIDRO","zip":"87053"}},{"arcs":[[160,-139,-96,-155,-73,161]],"type":"Polygon","properties":{"state":"NM","name":"STANLEY","zip":"87056"}},{"arcs":[[162,163,164,-67,-156,-94,-138,-100,-148]],"type":"Polygon","properties":{"state":"NM","name":"TIJERAS","zip":"87059"}},{"arcs":[[165,-57,-29,166,-130]],"type":"Polygon","properties":{"state":"NM","name":"VEGUITA","zip":"87062"}},{"arcs":[[167,168,-142,-102,-68]],"type":"Polygon","properties":{"state":"NM","name":"WILLARD","zip":"87063"}},{"arcs":[[-124,169,170,171,172,173,-146,-134,-115]],"type":"Polygon","properties":{"state":"NM","name":"BOSQUE FARMS","zip":"87068"}},{"arcs":[[174,175,176,177]],"type":"Polygon","properties":{"state":"NM","name":"ALBUQUERQUE","zip":"87102"}},{"arcs":[[178,179,180,-175]],"type":"Polygon","properties":{"state":"NM","name":"ALBUQUERQUE","zip":"87104"}},{"arcs":[[181,182,-179,-178,183,184,-172]],"type":"Polygon","properties":{"state":"NM","name":"ALBUQUERQUE","zip":"87105"}},{"arcs":[[185,186,187,188,-184,-177]],"type":"Polygon","properties":{"state":"NM","name":"ALBUQUERQUE","zip":"87106"}},{"arcs":[[-181,189,190,191,192,193,-186,-176]],"type":"Polygon","properties":{"state":"NM","name":"ALBUQUERQUE","zip":"87107"}},{"arcs":[[194,-188,195,196,197,198]],"type":"Polygon","properties":{"state":"NM","name":"ALBUQUERQUE","zip":"87108"}},{"arcs":[[199,200,-193,201,202]],"type":"Polygon","properties":{"state":"NM","name":"ALBUQUERQUE","zip":"87109"}},{"arcs":[[203,-196,-187,-194,-201,204]],"type":"Polygon","properties":{"state":"NM","name":"ALBUQUERQUE","zip":"87110"}},{"arcs":[[205,206,-205,-200,207,-64]],"type":"Polygon","properties":{"state":"NM","name":"ALBUQUERQUE","zip":"87111"}},{"arcs":[[208,-204,-207]],"type":"Polygon","properties":{"state":"NM","name":"ALBUQUERQUE","zip":"87112"}},{"arcs":[[-192,209,-39,210,-202]],"type":"Polygon","properties":{"state":"NM","name":"ALBUQUERQUE","zip":"87113"}},{"arcs":[[211,-123,-14,212,-157,-40,-210,-191]],"type":"Polygon","properties":{"state":"NM","name":"ALBUQUERQUE","zip":"87114"}},{"arcs":[[-147,-174,213,-163]],"type":"Polygon","properties":{"state":"NM","name":"ALBUQUERQUE","zip":"87115"}},{"arcs":[[214,-198,215]],"type":"Polygon","properties":{"state":"NM","name":"ALBUQUERQUE","zip":"87116"}},{"arcs":[[-189,216,-199,-215,217,-164,-214,-173,-185]],"type":"Polygon","properties":{"state":"NM","name":"KIRTLAND AFB","zip":"87117"}},{"type":null,"properties":{"state":"NM","name":"ALBUQUERQUE","zip":"87118"}},{"arcs":[[-212,-190,-180,-183,218,-170]],"type":"Polygon","properties":{"state":"NM","name":"ALBUQUERQUE","zip":"87120"}},{"arcs":[[-219,-182,-171]],"type":"Polygon","properties":{"state":"NM","name":"ALBUQUERQUE","zip":"87121"}},{"arcs":[[-211,-38,-150,-154,-65,-208,-203]],"type":"Polygon","properties":{"state":"NM","name":"ALBUQUERQUE","zip":"87122"}},{"arcs":[[-197,-209,-206,-63,-165,-218,-216]],"type":"Polygon","properties":{"state":"NM","name":"ALBUQUERQUE","zip":"87123"}},{"arcs":[[-42,-158,-213,-13]],"type":"Polygon","properties":{"state":"NM","name":"RIO RANCHO","zip":"87124"}},{"arcs":[[219,220,221,222,223,224,225,226,-151,-48]],"type":"Polygon","properties":{"state":"NM","name":"GALLUP","zip":"87301"}},{"arcs":[[227,-225]],"type":"Polygon","properties":{"state":"NM","name":"CONTINENTAL DIVIDE","zip":"87312"}},{"arcs":[[-224,228,229,-83,-4,230,-226,-228]],"type":"Polygon","properties":{"state":"NM","name":"CROWNPOINT","zip":"87313"}},{"arcs":[[231,232,233,-54,-91]],"type":"Polygon","properties":{"state":"NM","name":"FENCE LAKE","zip":"87315"}},{"arcs":[[234,235]],"type":"Polygon","properties":{"state":"NM","name":"MEXICAN SPRINGS","zip":"87320"}},{"arcs":[[236,-220,-47]],"type":"Polygon","properties":{"state":"NM","name":"RAMAH","zip":"87321"}},{"arcs":[[-85,-112,-152,-227,-231,-3]],"type":"Polygon","properties":{"state":"NM","name":"THOREAU","zip":"87323"}},{"arcs":[[237,238,-235,239,240,-229,-223]],"type":"Polygon","properties":{"state":"NM","name":"TOHATCHI","zip":"87325"}},{"arcs":[[-55,-234,241,-221,-237]],"type":"Polygon","properties":{"state":"NM","name":"ZUNI","zip":"87327"}},{"arcs":[[242,243,-240,-236,-239]],"type":"Polygon","properties":{"state":"NM","name":"NAVAJO","zip":"87328"}},{"arcs":[[244,245,-78,-230,246,247,248,249,250,251,252,253,254,255,256]],"type":"Polygon","properties":{"state":"NM","name":"FARMINGTON","zip":"87401"}},{"arcs":[[257,258,-256]],"type":"Polygon","properties":{"state":"NM","name":"FARMINGTON","zip":"87402"}},{"arcs":[[259,-254,260,261,262,-257,-259]],"type":"Polygon","properties":{"state":"NM","name":"AZTEC","zip":"87410"}},{"arcs":[[263,264,265]],"type":"Polygon","properties":{"state":"NM","name":"BLANCO","zip":"87412"}},{"arcs":[[266,-245,-263,267,268,269,-264]],"type":"Polygon","properties":{"state":"NM","name":"BLOOMFIELD","zip":"87413"}},{"arcs":[[-255,-260,-258]],"type":"Polygon","properties":{"state":"NM","name":"FLORA VISTA","zip":"87415"}},{"arcs":[[270,271,-249]],"type":"Polygon","properties":{"state":"NM","name":"FRUITLAND","zip":"87416"}},{"arcs":[[-272,272,-250]],"type":"Polygon","properties":{"state":"NM","name":"KIRTLAND","zip":"87417"}},{"arcs":[[273,274,-261,-253]],"type":"Polygon","properties":{"state":"NM","name":"LA PLATA","zip":"87418"}},{"arcs":[[-270,275,-265]],"type":"Polygon","properties":{"state":"NM","name":"NAVAJO DAM","zip":"87419"}},{"arcs":[[276,-274,-252,277,-247,-241,-244]],"type":"Polygon","properties":{"state":"NM","name":"SHIPROCK","zip":"87420"}},{"arcs":[[-248,-278,-251,-273,-271]],"type":"Polygon","properties":{"state":"NM","name":"WATERFLOW","zip":"87421"}},{"arcs":[[278,279,280,281,282,283,284]],"type":"Polygon","properties":{"state":"NM","name":"SANTA FE","zip":"87501"}},{"arcs":[[285,286,287,-280]],"type":"Polygon","properties":{"state":"NM","name":"SANTA FE","zip":"87505"}},{"arcs":[[288,289,290,291,-282,292,-21]],"type":"Polygon","properties":{"state":"NM","name":"SANTA FE","zip":"87506"}},{"arcs":[[-144,-293,-281,-288,293,-75,-160]],"type":"Polygon","properties":{"state":"NM","name":"SANTA FE","zip":"87507"}},{"arcs":[[294,-76,-294,-287,295]],"type":"Polygon","properties":{"state":"NM","name":"SANTA FE","zip":"87508"}},{"arcs":[[296,297,-106,298,299,300]],"type":"Polygon","properties":{"state":"NM","name":"ABIQUIU","zip":"87510"}},{"arcs":[[301,302,303,304]],"type":"Polygon","properties":{"state":"NM","name":"ARROYO HONDO","zip":"87513"}},{"arcs":[[305]],"type":"Polygon","properties":{"state":"NM","name":"CHAMA","zip":"87520"}},{"arcs":[[306,307,308,309,310,311,312,313,314,315]],"type":"Polygon","properties":{"state":"NM","name":"CHAMISAL","zip":"87521"}},{"arcs":[[316,317,318,-315,319,-283,-292]],"type":"Polygon","properties":{"state":"NM","name":"CHIMAYO","zip":"87522"}},{"arcs":[[320,321,322,323]],"type":"Polygon","properties":{"state":"NM","name":"COSTILLA","zip":"87524"}},{"arcs":[[324,325,-309,326,-319]],"type":"Polygon","properties":{"state":"NM","name":"DIXON","zip":"87527"}},{"arcs":[[-153,-127,-79,-246,-267,-266,-276,-269,327,328,-132]],"type":"Polygon","properties":{"state":"NM","name":"DULCE","zip":"87528"}},{"arcs":[[329,-300,330,331]],"type":"Polygon","properties":{"state":"NM","name":"EL RITO","zip":"87530"}},{"arcs":[[332,333,334,335,-297,336,337,-325,-318]],"type":"Polygon","properties":{"state":"NM","name":"EMBUDO","zip":"87531"}},{"arcs":[[338,-8,339,340,-334,341,-290]],"type":"Polygon","properties":{"state":"NM","name":"ESPANOLA","zip":"87532"}},{"arcs":[[-286,-279,342,343,344,345,-296]],"type":"Polygon","properties":{"state":"NM","name":"GLORIETA","zip":"87535"}},{"arcs":[[-7,-107,-298,-336,346,-340]],"type":"Polygon","properties":{"state":"NM","name":"HERNANDEZ","zip":"87537"}},{"arcs":[[347,348,-337,-301,-330]],"type":"Polygon","properties":{"state":"NM","name":"LA MADERA","zip":"87539"}},{"arcs":[[349,-162,-77,-295,-346]],"type":"Polygon","properties":{"state":"NM","name":"LAMY","zip":"87540"}},{"arcs":[[-20,-120,-9,-339,-289]],"type":"Polygon","properties":{"state":"NM","name":"LOS ALAMOS","zip":"87544"}},{"arcs":[[350,351,-323,352,353,-302,354,355,-310,-326,-338,-349]],"type":"Polygon","properties":{"state":"NM","name":"OJO CALIENTE","zip":"87549"}},{"arcs":[[356,-344,357,358,359]],"type":"Polygon","properties":{"state":"NM","name":"PECOS","zip":"87552"}},{"arcs":[[-327,-308,360,-316]],"type":"Polygon","properties":{"state":"NM","name":"PENASCO","zip":"87553"}},{"arcs":[[361,362,363,364,-353,-322,365]],"type":"Polygon","properties":{"state":"NM","name":"QUESTA","zip":"87556"}},{"arcs":[[366,367,-311,-356,368,369]],"type":"Polygon","properties":{"state":"NM","name":"RANCHOS DE TAOS","zip":"87557"}},{"arcs":[[370,-140,-161,-350,-345,-357,371,372]],"type":"Polygon","properties":{"state":"NM","name":"RIBERA","zip":"87560"}},{"arcs":[[373,-303,-354,-365]],"type":"Polygon","properties":{"state":"NM","name":"SAN CRISTOBAL","zip":"87564"}},{"arcs":[[374,-372,-360,375]],"type":"Polygon","properties":{"state":"NM","name":"SAN JOSE","zip":"87565"}},{"arcs":[[-347,-335,-341]],"type":"Polygon","properties":{"state":"NM","name":"SAN JUAN PUEBLO","zip":"87566"}},{"arcs":[[-342,-333,-317,-291]],"type":"Polygon","properties":{"state":"NM","name":"SANTA CRUZ","zip":"87567"}},{"arcs":[[-305,376,-363,377,378,-369,-355]],"type":"Polygon","properties":{"state":"NM","name":"TAOS","zip":"87571"}},{"arcs":[[379,-358,-343,-285,380,381,382]],"type":"Polygon","properties":{"state":"NM","name":"TERERRO","zip":"87573"}},{"arcs":[[-299,-105,-133,-329,383,384,-331],[-306]],"type":"Polygon","properties":{"state":"NM","name":"TIERRA AMARILLA","zip":"87575"}},{"arcs":[[-361,-307]],"type":"Polygon","properties":{"state":"NM","name":"VADITO","zip":"87579"}},{"arcs":[[-374,-364,-377,-304]],"type":"Polygon","properties":{"state":"NM","name":"VALDEZ","zip":"87580"}},{"arcs":[[-348,-332,-385,385,-351]],"type":"Polygon","properties":{"state":"NM","name":"VALLECITOS","zip":"87581"}},{"arcs":[[386,387,-373,-375,388,-383,389,390,391,392,393,394,395,396]],"type":"Polygon","properties":{"state":"NM","name":"LAS VEGAS","zip":"87701"}},{"arcs":[[-371,-388,397,398,399,-141]],"type":"Polygon","properties":{"state":"NM","name":"ANTON CHICO","zip":"87711"}},{"arcs":[[400,-312,-368]],"type":"Polygon","properties":{"state":"NM","name":"CHACON","zip":"87713"}},{"arcs":[[-379,401,-366,-321,402,403,404,405,406,407,-370]],"type":"Polygon","properties":{"state":"NM","name":"CIMARRON","zip":"87714"}},{"arcs":[[408,-381,-284,-320,-314]],"type":"Polygon","properties":{"state":"NM","name":"CLEVELAND","zip":"87715"}},{"arcs":[[-362,-402,-378]],"type":"Polygon","properties":{"state":"NM","name":"EAGLE NEST","zip":"87718"}},{"arcs":[[409,410]],"type":"Polygon","properties":{"state":"NM","name":"GUADALUPITA","zip":"87722"}},{"arcs":[[-387,411,-398]],"type":"Polygon","properties":{"state":"NM","name":"LA LOMA","zip":"87724"}},{"arcs":[[412,413,414,-406]],"type":"Polygon","properties":{"state":"NM","name":"MIAMI","zip":"87729"}},{"arcs":[[415,416,417]],"type":"Polygon","properties":{"state":"NM","name":"MILLS","zip":"87730"}},{"arcs":[[-376,-359,-380,-389]],"type":"Polygon","properties":{"state":"NM","name":"MONTEZUMA","zip":"87731"}},{"arcs":[[-313,-401,-367,-408,418,-411,419,420,-390,-382,-409]],"type":"Polygon","properties":{"state":"NM","name":"MORA","zip":"87732"}},{"arcs":[[421,422,423,424,425,426,427,428]],"type":"Polygon","properties":{"state":"NM","name":"MOSQUERO","zip":"87733"}},{"arcs":[[429,-420,-410,-419,-407,-415,430,431,-393]],"type":"Polygon","properties":{"state":"NM","name":"OCATE","zip":"87734"}},{"arcs":[[432,433,-404,434,435,436,437]],"type":"Polygon","properties":{"state":"NM","name":"RATON","zip":"87740"}},{"arcs":[[-421,438,-391]],"type":"Polygon","properties":{"state":"NM","name":"ROCIADA","zip":"87742"}},{"arcs":[[439,-416,440,441,442,-427,443]],"type":"Polygon","properties":{"state":"NM","name":"ROY","zip":"87743"}},{"arcs":[[-439,-430,-392]],"type":"Polygon","properties":{"state":"NM","name":"SAPELLO","zip":"87745"}},{"arcs":[[444,-444,-426,445]],"type":"Polygon","properties":{"state":"NM","name":"SOLANO","zip":"87746"}},{"arcs":[[446,-413,-405,-434,447,448,-441,-418]],"type":"Polygon","properties":{"state":"NM","name":"SPRINGER","zip":"87747"}},{"arcs":[[-432,449,450,-394]],"type":"Polygon","properties":{"state":"NM","name":"VALMORA","zip":"87750"}},{"arcs":[[451,-450,-431,-414,-447,-417,-440,-445]],"type":"Polygon","properties":{"state":"NM","name":"WAGON MOUND","zip":"87752"}},{"arcs":[[452,453,454,455,456,457,-131,-167,-36,-143,-169]],"type":"Polygon","properties":{"state":"NM","name":"SOCORRO","zip":"87801"}},{"arcs":[[458,459,460]],"type":"Polygon","properties":{"state":"NM","name":"ARAGON","zip":"87820"}},{"arcs":[[461,-461,462,463,-89,-126,464,465,466,467]],"type":"Polygon","properties":{"state":"NM","name":"DATIL","zip":"87821"}},{"arcs":[[468,469,470]],"type":"Polygon","properties":{"state":"NM","name":"LEMITAR","zip":"87823"}},{"arcs":[[471,472,-465,-125,-113,-31,-56,473,-470,474,-456]],"type":"Polygon","properties":{"state":"NM","name":"MAGDALENA","zip":"87825"}},{"arcs":[[475,-90,-464]],"type":"Polygon","properties":{"state":"NM","name":"PIE TOWN","zip":"87827"}},{"arcs":[[-469,476,-457,-475]],"type":"Polygon","properties":{"state":"NM","name":"POLVADERA","zip":"87828"}},{"arcs":[[477,-232,-476,-463,-460,478]],"type":"Polygon","properties":{"state":"NM","name":"QUEMADO","zip":"87829"}},{"arcs":[[479,480,-479,-459,-462]],"type":"Polygon","properties":{"state":"NM","name":"RESERVE","zip":"87830"}},{"arcs":[[-477,-471,-474,-58,-166,-129,-458]],"type":"Polygon","properties":{"state":"NM","name":"SAN ACACIA","zip":"87831"}},{"arcs":[[481,-27,482,483,484,485,486,-472,-455,487]],"type":"Polygon","properties":{"state":"NM","name":"TRUTH OR CONSEQUENCES","zip":"87901"}},{"arcs":[[488,489,490,491,492,493]],"type":"Polygon","properties":{"state":"NM","name":"ARREY","zip":"87930"}},{"arcs":[[494,495,-486,496,-484,497,-492]],"type":"Polygon","properties":{"state":"NM","name":"CABALLO","zip":"87931"}},{"arcs":[[498,-493,-498,-483,-26,499,500,501]],"type":"Polygon","properties":{"state":"NM","name":"DERRY","zip":"87933"}},{"arcs":[[502,-494,-499,503,504]],"type":"Polygon","properties":{"state":"NM","name":"GARFIELD","zip":"87936"}},{"arcs":[[505,506,507,-489,-503,508,-504,-502,509]],"type":"Polygon","properties":{"state":"NM","name":"HATCH","zip":"87937"}},{"arcs":[[-501,510,-510]],"type":"Polygon","properties":{"state":"NM","name":"RINCON","zip":"87940"}},{"arcs":[[-505,-509]],"type":"Polygon","properties":{"state":"NM","name":"SALEM","zip":"87941"}},{"arcs":[[-485,-497]],"type":"Polygon","properties":{"state":"NM","name":"WILLIAMSBURG","zip":"87942"}},{"arcs":[[511,-466,-473,-487,-496,512]],"type":"Polygon","properties":{"state":"NM","name":"WINSTON","zip":"87943"}},{"arcs":[[513,514,515]],"type":"Polygon","properties":{"state":"NM","name":"LAS CRUCES","zip":"88001"}},{"arcs":[[516,517,518,-24,519,520]],"type":"Polygon","properties":{"state":"NM","name":"WHITE SANDS MISSILE RANGE","zip":"88002"}},{"arcs":[[521,522,523,524,-507,525,-515]],"type":"Polygon","properties":{"state":"NM","name":"LAS CRUCES","zip":"88005"}},{"arcs":[[526,527,528,529]],"type":"Polygon","properties":{"state":"NM","name":"SANTA TERESA","zip":"88008"}},{"arcs":[[530,-516,531,-519,532]],"type":"Polygon","properties":{"state":"NM","name":"LAS CRUCES","zip":"88011"}},{"arcs":[[-532,-526,-506,-511,-500,-25]],"type":"Polygon","properties":{"state":"NM","name":"LAS CRUCES","zip":"88012"}},{"arcs":[[533,534,535,536]],"type":"Polygon","properties":{"state":"NM","name":"ANIMAS","zip":"88020"}},{"arcs":[[537,538,-521,539,540,-530]],"type":"Polygon","properties":{"state":"NM","name":"ANTHONY","zip":"88021"}},{"arcs":[[541,542,543,544,545,546]],"type":"Polygon","properties":{"state":"NM","name":"BAYARD","zip":"88023"}},{"arcs":[[547,548,549,550,551]],"type":"Polygon","properties":{"state":"NM","name":"BUCKHORN","zip":"88025"}},{"arcs":[[552,553,554,-545]],"type":"Polygon","properties":{"state":"NM","name":"SANTA CLARA","zip":"88026"}},{"arcs":[[555,556,-534,557,-543,558,-490,-508,-525]],"type":"Polygon","properties":{"state":"NM","name":"DEMING","zip":"88030"}},{"arcs":[[559,-550,560,-480,-468]],"type":"Polygon","properties":{"state":"NM","name":"GLENWOOD","zip":"88039"}},{"arcs":[[561,-546,-555,562]],"type":"Polygon","properties":{"state":"NM","name":"HANOVER","zip":"88041"}},{"arcs":[[563,564,-513,-495,-491,-559,-542]],"type":"Polygon","properties":{"state":"NM","name":"HILLSBORO","zip":"88042"}},{"arcs":[[565,-552,566,-553,-544,-558,-537]],"type":"Polygon","properties":{"state":"NM","name":"HURLEY","zip":"88043"}},{"arcs":[[567,568,-556,-524,569,-538,-529]],"type":"Polygon","properties":{"state":"NM","name":"LA MESA","zip":"88044"}},{"arcs":[[570,-548,-566,-536]],"type":"Polygon","properties":{"state":"NM","name":"LORDSBURG","zip":"88045"}},{"arcs":[[-514,-531,571,-522]],"type":"Polygon","properties":{"state":"NM","name":"MESILLA PARK","zip":"88047"}},{"arcs":[[572,-570,-523,-572,-533,-518]],"type":"Polygon","properties":{"state":"NM","name":"MESQUITE","zip":"88048"}},{"arcs":[[573,-564,-547,-562]],"type":"Polygon","properties":{"state":"NM","name":"MIMBRES","zip":"88049"}},{"arcs":[[-567,-551,-560,-467,-512,-565,-574,-563,-554]],"type":"Polygon","properties":{"state":"NM","name":"SILVER CITY","zip":"88061"}},{"arcs":[[574,-568,-528]],"type":"Polygon","properties":{"state":"NM","name":"SUNLAND PARK","zip":"88063"}},{"arcs":[[-573,-517,-539]],"type":"Polygon","properties":{"state":"NM","name":"VADO","zip":"88072"}},{"arcs":[[575,576,577,578,579,580]],"type":"Polygon","properties":{"state":"NM","name":"CLOVIS","zip":"88101"}},{"arcs":[[581,-579,582,583,584]],"type":"Polygon","properties":{"state":"NM","name":"BROADVIEW","zip":"88112"}},{"arcs":[[585,586,587,588]],"type":"Polygon","properties":{"state":"NM","name":"CAUSEY","zip":"88113"}},{"arcs":[[589,590,591]],"type":"Polygon","properties":{"state":"NM","name":"CROSSROADS","zip":"88114"}},{"arcs":[[592,593,594,595,596]],"type":"Polygon","properties":{"state":"NM","name":"ELIDA","zip":"88116"}},{"arcs":[[597,-595,598,599,600]],"type":"Polygon","properties":{"state":"NM","name":"FLOYD","zip":"88118"}},{"arcs":[[601,602,603,604,605,606]],"type":"Polygon","properties":{"state":"NM","name":"FORT SUMNER","zip":"88119"}},{"arcs":[[607,608,609,610,-583,-578]],"type":"Polygon","properties":{"state":"NM","name":"GRADY","zip":"88120"}},{"arcs":[[611,-607,612,613,614,615,-600]],"type":"Polygon","properties":{"state":"NM","name":"HOUSE","zip":"88121"}},{"arcs":[[616,617,618,619,-587]],"type":"Polygon","properties":{"state":"NM","name":"LINGO","zip":"88123"}},{"arcs":[[620,621,-601,-616,622,-608,-577]],"type":"Polygon","properties":{"state":"NM","name":"MELROSE","zip":"88124"}},{"arcs":[[623,-592,624,-619]],"type":"Polygon","properties":{"state":"NM","name":"MILNESAND","zip":"88125"}},{"arcs":[[625,626,-597,627,628,-588,-620,-625,-591]],"type":"Polygon","properties":{"state":"NM","name":"PEP","zip":"88126"}},{"arcs":[[-598,-622,629,-581,630,631,632,-628,-596]],"type":"Polygon","properties":{"state":"NM","name":"PORTALES","zip":"88130"}},{"arcs":[[-629,-633,633,-589]],"type":"Polygon","properties":{"state":"NM","name":"ROGERS","zip":"88132"}},{"arcs":[[-576,-630,-621]],"type":"Polygon","properties":{"state":"NM","name":"SAINT VRAIN","zip":"88133"}},{"arcs":[[634,-602,-612,-599,-594]],"type":"Polygon","properties":{"state":"NM","name":"TAIBAN","zip":"88134"}},{"arcs":[[635,-631,-580,-582]],"type":"Polygon","properties":{"state":"NM","name":"TEXICO","zip":"88135"}},{"arcs":[[636,637,638,639,-604]],"type":"Polygon","properties":{"state":"NM","name":"YESO","zip":"88136"}},{"arcs":[[640,641,642,643,644,645,646,647,648,649,650,651,652,653,-637,-603,-635,-593,-627,654,655,656,657,658,659,660]],"type":"Polygon","properties":{"state":"NM","name":"ROSWELL","zip":"88201"}},{"arcs":[[661,-661]],"type":"Polygon","properties":{"state":"NM","name":"ROSWELL","zip":"88203"}},{"arcs":[[662,663,664,665,666,667,668,-644]],"type":"Polygon","properties":{"state":"NM","name":"ARTESIA","zip":"88210"}},{"arcs":[[669,-656]],"type":"Polygon","properties":{"state":"NM","name":"CAPROCK","zip":"88213"}},{"arcs":[[670,-645,-669,671,672,673]],"type":"Polygon","properties":{"state":"NM","name":"CARLSBAD","zip":"88220"}},{"arcs":[[-662,-660,674,675,-641]],"type":"Polygon","properties":{"state":"NM","name":"DEXTER","zip":"88230"}},{"arcs":[[676,677,678]],"type":"Polygon","properties":{"state":"NM","name":"EUNICE","zip":"88231"}},{"arcs":[[679,-665,680,-675,-659]],"type":"Polygon","properties":{"state":"NM","name":"HAGERMAN","zip":"88232"}},{"arcs":[[681,682,683,-678,684]],"type":"Polygon","properties":{"state":"NM","name":"HOBBS","zip":"88240"}},{"arcs":[[685,686,-683]],"type":"Polygon","properties":{"state":"NM","name":"HOBBS","zip":"88242"}},{"arcs":[[-643,687,-663]],"type":"Polygon","properties":{"state":"NM","name":"HOPE","zip":"88250"}},{"arcs":[[688,689,-672,690,-685,-677]],"type":"Polygon","properties":{"state":"NM","name":"JAL","zip":"88252"}},{"arcs":[[-676,-681,-664,-688,-642]],"type":"Polygon","properties":{"state":"NM","name":"LAKE ARTHUR","zip":"88253"}},{"arcs":[[-690,691,-673]],"type":"Polygon","properties":{"state":"NM","name":"LOVING","zip":"88256"}},{"arcs":[[692,-666,-680,-658,693,694,-686,-682,-691,-668]],"type":"Polygon","properties":{"state":"NM","name":"LOVINGTON","zip":"88260"}},{"arcs":[[-667,-693]],"type":"Polygon","properties":{"state":"NM","name":"MALJAMAR","zip":"88264"}},{"arcs":[[-670,-655,-626,-590,-624,-618,695,-694,-657]],"type":"Polygon","properties":{"state":"NM","name":"TATUM","zip":"88267"}},{"arcs":[[696,697,698,-488,-454,699,700,701]],"type":"Polygon","properties":{"state":"NM","name":"CARRIZOZO","zip":"88301"}},{"arcs":[[702,703,704,-23,705,706]],"type":"Polygon","properties":{"state":"NM","name":"ALAMOGORDO","zip":"88310"}},{"arcs":[[707,708]],"type":"Polygon","properties":{"state":"NM","name":"BENT","zip":"88314"}},{"arcs":[[709,710,711,-701,712,-653,713,714]],"type":"Polygon","properties":{"state":"NM","name":"CAPITAN","zip":"88316"}},{"arcs":[[-671,715,-540,-520,-705,716,-703,717,718,719,720,721,722,723,724,-646]],"type":"Polygon","properties":{"state":"NM","name":"CLOUDCROFT","zip":"88317"}},{"arcs":[[-168,-72,725,-638,-654,-713,-700,-453]],"type":"Polygon","properties":{"state":"NM","name":"CORONA","zip":"88318"}},{"arcs":[[-137,726,-70]],"type":"Polygon","properties":{"state":"NM","name":"ENCINO","zip":"88321"}},{"arcs":[[727,728,729,730]],"type":"Polygon","properties":{"state":"NM","name":"GLENCOE","zip":"88324"}},{"arcs":[[-717,-704]],"type":"Polygon","properties":{"state":"NM","name":"HOLLOMAN AIR FORCE BASE","zip":"88330"}},{"arcs":[[731,732,-730,733,-710]],"type":"Polygon","properties":{"state":"NM","name":"HONDO","zip":"88336"}},{"arcs":[[-707,734,735,-718]],"type":"Polygon","properties":{"state":"NM","name":"LA LUZ","zip":"88337"}},{"arcs":[[[736,-649,737,-720]],[[738,-722,739]]],"type":"MultiPolygon","properties":{"state":"NM","name":"MAYHILL","zip":"88339"}},{"arcs":[[-736,740,-709,741,-698,742,743,744,-650,-737,-719]],"type":"Polygon","properties":{"state":"NM","name":"MESCALERO","zip":"88340"}},{"arcs":[[-712,745,-702]],"type":"Polygon","properties":{"state":"NM","name":"NOGAL","zip":"88341"}},{"arcs":[[746,-714,-652]],"type":"Polygon","properties":{"state":"NM","name":"PICACHO","zip":"88343"}},{"arcs":[[747,-647,-725]],"type":"Polygon","properties":{"state":"NM","name":"PINON","zip":"88344"}},{"arcs":[[748,-743,-697,-746,-711,-734,-729]],"type":"Polygon","properties":{"state":"NM","name":"RUIDOSO","zip":"88345"}},{"arcs":[[749,-744,-749,-728,750]],"type":"Polygon","properties":{"state":"NM","name":"RUIDOSO DOWNS","zip":"88346"}},{"arcs":[[-739,751,-723]],"type":"Polygon","properties":{"state":"NM","name":"SACRAMENTO","zip":"88347"}},{"arcs":[[-731,-733,752,-751]],"type":"Polygon","properties":{"state":"NM","name":"SAN PATRICIO","zip":"88348"}},{"arcs":[[-753,-732,-715,-747,-651,-745,-750]],"type":"Polygon","properties":{"state":"NM","name":"TINNIE","zip":"88351"}},{"arcs":[[-706,-28,-482,-699,-742,-708,-741,-735]],"type":"Polygon","properties":{"state":"NM","name":"TULAROSA","zip":"88352"}},{"arcs":[[-726,-71,-727,-136,-400,753,-639]],"type":"Polygon","properties":{"state":"NM","name":"VAUGHN","zip":"88353"}},{"arcs":[[-740,-721,-738,-648,-748,-724,-752]],"type":"Polygon","properties":{"state":"NM","name":"WEED","zip":"88354"}},{"arcs":[[754,-614,755,756,757,758,759,-610],[760]],"type":"Polygon","properties":{"state":"NM","name":"TUCUMCARI","zip":"88401"}},{"arcs":[[761,762,-429,763]],"type":"Polygon","properties":{"state":"NM","name":"AMISTAD","zip":"88410"}},{"arcs":[[764]],"type":"Polygon","properties":{"state":"NM","name":"BARD","zip":"88411"}},{"arcs":[[765,-438]],"type":"Polygon","properties":{"state":"NM","name":"CAPULIN","zip":"88414"}},{"arcs":[[766,-764,-428,-443,767,768,769,770,771,772,773]],"type":"Polygon","properties":{"state":"NM","name":"CLAYTON","zip":"88415"}},{"arcs":[[774,775,776,-424,777,-758,778]],"type":"Polygon","properties":{"state":"NM","name":"CONCHAS DAM","zip":"88416"}},{"arcs":[[-606,779,780,781,-756,-613]],"type":"Polygon","properties":{"state":"NM","name":"CUERVO","zip":"88417"}},{"arcs":[[782,783,-448,-433,-766,-437,784]],"type":"Polygon","properties":{"state":"NM","name":"DES MOINES","zip":"88418"}},{"arcs":[[785,-785,-436,786]],"type":"Polygon","properties":{"state":"NM","name":"FOLSOM","zip":"88419"}},{"arcs":[[787,-396,788,-775,-781]],"type":"Polygon","properties":{"state":"NM","name":"GARITA","zip":"88421"}},{"arcs":[[-442,-449,-784,789,-768]],"type":"Polygon","properties":{"state":"NM","name":"GLADSTONE","zip":"88422"}},{"arcs":[[790,-769,-790,-783,-786,791,792,-771]],"type":"Polygon","properties":{"state":"NM","name":"GRENVILLE","zip":"88424"}},{"arcs":[[793,-759,-778,-423,794,795]],"type":"Polygon","properties":{"state":"NM","name":"LOGAN","zip":"88426"}},{"arcs":[[-755,-609,-623,-615]],"type":"Polygon","properties":{"state":"NM","name":"MC ALISTER","zip":"88427"}},{"arcs":[[-791,-770]],"type":"Polygon","properties":{"state":"NM","name":"MOUNT DORA","zip":"88429"}},{"arcs":[[-763,796,-795,-422]],"type":"Polygon","properties":{"state":"NM","name":"NARA VISA","zip":"88430"}},{"arcs":[[[797,-446,-425,-777]],[[-779,-757,-782]]],"type":"MultiPolygon","properties":{"state":"NM","name":"NEWKIRK","zip":"88431"}},{"arcs":[[-761]],"type":"Polygon","properties":{"state":"NM","name":"QUAY","zip":"88433"}},{"arcs":[[-611,-760,-794,798,-584],[-765]],"type":"Polygon","properties":{"state":"NM","name":"SAN JON","zip":"88434"}},{"arcs":[[-640,-754,-399,-412,-397,-788,-780,-605]],"type":"Polygon","properties":{"state":"NM","name":"SANTA ROSA","zip":"88435"}},{"arcs":[[799,-774]],"type":"Polygon","properties":{"state":"NM","name":"SEDAN","zip":"88436"}},{"arcs":[[-793,800,-772]],"type":"Polygon","properties":{"state":"NM","name":"SENECA","zip":"88437"}},{"arcs":[[-451,-452,-798,-776,-789,-395]],"type":"Polygon","properties":{"state":"NM","name":"TREMENTINA","zip":"88439"}}]}},"arcs":[[[13861,10891],[0,135],[-202,-107]],[[13659,10919],[-81,61]],[[13578,10980],[0,568]],[[13578,11548],[0,139]],[[13578,11687],[333,13]],[[13911,11700],[392,-5]],[[14303,11695],[40,0]],[[14343,11695],[63,-36]],[[14406,11659],[-117,-43]],[[14289,11616],[-311,13],[0,-117],[-144,-5],[23,-109]],[[13857,11398],[0,-163],[139,-31],[-45,-114]],[[13951,11090],[-18,-61]],[[13933,11029],[0,-138]],[[13933,10891],[-72,0]],[[14253,11286],[-72,20]],[[14181,11306],[-68,-3]],[[14113,11303],[-9,6]],[[14104,11309],[77,175]],[[14181,11484],[90,33]],[[14271,11517],[135,-74]],[[14406,11443],[0,-81]],[[14406,11362],[-153,-76]],[[14307,8524],[0,-404]],[[14307,8120],[-162,-87]],[[14145,8033],[-131,460]],[[14014,8493],[45,26]],[[14059,8519],[275,152]],[[14334,8671],[-27,-147]],[[14195,10116],[-199,74]],[[13996,10190],[-18,10]],[[13978,10200],[-67,35]],[[13911,10235],[-68,209]],[[13843,10444],[392,-109]],[[14235,10335],[0,-31]],[[14235,10304],[41,-211]],[[14276,10093],[-81,23]],[[14321,10993],[-113,36],[-4,-138]],[[14204,10891],[-54,0]],[[14150,10891],[-14,0]],[[14136,10891],[-9,0]],[[14127,10891],[5,67]],[[14132,10958],[-199,71]],[[13951,11090],[108,-21],[23,151],[99,12]],[[14181,11232],[135,-81],[32,-8],[58,-18]],[[14406,11125],[0,-200]],[[14406,10925],[-85,68]],[[12650,10627],[27,348]],[[12677,10975],[203,8]],[[12880,10983],[171,-3]],[[13051,10980],[54,0]],[[13105,10980],[-81,-172]],[[13024,10808],[9,-36]],[[13033,10772],[-113,-170],[-284,-54]],[[12636,10548],[0,79]],[[12636,10627],[14,0]],[[13938,10060],[40,140]],[[13996,10190],[-22,-120]],[[13974,10070],[-36,-10]],[[13713,10769],[27,-117],[-325,-117]],[[13415,10535],[-27,209]],[[13388,10744],[32,41]],[[13420,10785],[171,-89],[122,73]],[[14294,10759],[-27,21]],[[14267,10780],[0,15]],[[14267,10795],[9,51]],[[14276,10846],[67,-44]],[[14343,10802],[-49,-43]],[[14685,9910],[-58,346]],[[14627,10256],[103,58]],[[14730,10314],[199,-46],[22,-134],[185,20]],[[15136,10154],[0,-155]],[[15136,9999],[-9,-92],[-442,3]],[[14537,10955],[-77,3]],[[14460,10958],[-54,-33]],[[14406,11125],[90,61]],[[14496,11186],[81,-63]],[[14577,11123],[-40,-168]],[[13330,11695],[4,224]],[[13334,11919],[167,0],[0,-137],[284,0]],[[13785,11782],[49,-13]],[[13834,11769],[77,-5]],[[13911,11764],[0,-64]],[[13578,11687],[-248,8]],[[13420,10785],[-32,195]],[[13388,10980],[190,0]],[[13659,10919],[54,-150]],[[13105,10980],[81,-124],[-162,-48]],[[13415,10535],[-216,-300]],[[13199,10235],[-166,0]],[[13033,10235],[-388,0]],[[12645,10235],[-9,313]],[[13033,10772],[355,-28]],[[14546,10711],[-90,-92]],[[14456,10619],[-45,-56],[-14,229]],[[14397,10792],[0,97],[81,-10]],[[14478,10879],[68,-168]],[[14478,10266],[-243,38]],[[14235,10335],[0,139]],[[14235,10474],[45,61]],[[14280,10535],[203,0]],[[14483,10535],[256,-33],[-9,-188]],[[14627,10256],[4,150],[-153,-140]],[[13911,11764],[-23,152]],[[13888,11916],[221,117]],[[14109,12033],[158,-94]],[[14267,11939],[94,-206]],[[14361,11733],[-58,-38]],[[13834,11769],[-9,68]],[[13825,11837],[0,79]],[[13825,11916],[63,0]],[[13051,10980],[-45,62]],[[13006,11042],[207,122],[175,-184]],[[13911,10235],[-252,0]],[[13659,10235],[4,384],[131,-66]],[[13794,10553],[4,-18]],[[13798,10535],[45,-91]],[[14113,11303],[-184,-43],[4,140]],[[13933,11400],[135,150],[0,-216]],[[14068,11334],[36,-25]],[[14289,11616],[-18,-99]],[[14181,11484],[-113,-150]],[[13933,11400],[-76,-2]],[[13861,10891],[5,-188]],[[13866,10703],[-72,-150]],[[13659,10235],[-406,0]],[[13253,10235],[-54,0]],[[13785,11782],[9,48]],[[13794,11830],[31,7]],[[13987,9956],[5,117]],[[13992,10073],[67,-77]],[[14059,9996],[-72,-40]],[[13825,11916],[-162,51],[14,176],[315,96]],[[13992,12239],[117,-206]],[[13798,10535],[243,-40]],[[14041,10495],[194,-21]],[[15154,10660],[0,-259]],[[15154,10401],[-81,101],[-261,-25],[49,-135],[-131,-28]],[[14483,10535],[-27,84]],[[14546,10711],[275,0]],[[14821,10711],[333,0]],[[15154,10711],[0,-51]],[[14478,10266],[41,-356]],[[14519,9910],[-239,-3],[-4,186]],[[14406,11362],[0,-140]],[[14406,11222],[-153,64]],[[14041,10495],[149,76]],[[14190,10571],[50,-2]],[[14240,10569],[40,-34]],[[14321,10993],[-77,-102]],[[14244,10891],[-40,0]],[[12880,10983],[0,81]],[[12880,11064],[126,-22]],[[13794,11830],[-59,41],[90,45]],[[14276,10846],[-32,45]],[[14460,10958],[18,-79]],[[14397,10792],[-54,10]],[[14127,10891],[-45,0]],[[14082,10891],[50,67]],[[14181,11232],[0,74]],[[14406,11222],[0,-97]],[[14821,10950],[0,-239]],[[14537,10955],[284,-5]],[[14240,10569],[-9,40]],[[14231,10609],[9,79]],[[14240,10688],[54,71]],[[13992,10073],[-18,-3]],[[14195,10116],[-136,-120]],[[14685,9910],[-27,0]],[[14658,9910],[-139,0]],[[13866,10703],[99,23],[4,-102]],[[13969,10624],[77,-10]],[[14046,10614],[113,-5]],[[14159,10609],[27,0]],[[14186,10609],[4,-38]],[[14077,10747],[9,35]],[[14086,10782],[27,-2]],[[14113,10780],[-4,-11],[4,-7],[-13,-43]],[[14100,10719],[-23,28]],[[14077,10747],[-18,30]],[[14059,10777],[5,25]],[[14064,10802],[22,-20]],[[14046,10614],[4,163]],[[14050,10777],[9,0]],[[14100,10719],[0,-26]],[[14100,10693],[59,-84]],[[14113,10780],[14,-3]],[[14127,10777],[0,-20]],[[14127,10757],[0,-28]],[[14127,10729],[-27,-36]],[[14064,10802],[27,51]],[[14091,10853],[27,-10]],[[14118,10843],[9,-18]],[[14127,10825],[0,-23]],[[14127,10802],[0,-25]],[[14141,10729],[-14,0]],[[14127,10757],[45,0]],[[14172,10757],[0,-21]],[[14172,10736],[-18,-12]],[[14154,10724],[-13,5]],[[14181,10833],[-13,-33]],[[14168,10800],[-41,2]],[[14127,10825],[36,23]],[[14163,10848],[18,-15]],[[14172,10787],[0,-30]],[[14168,10800],[4,-13]],[[14267,10780],[-41,-11]],[[14226,10769],[-54,18]],[[14181,10833],[86,-38]],[[14226,10769],[-54,-12]],[[14118,10843],[18,48]],[[14150,10891],[13,-43]],[[14091,10853],[-225,-150]],[[13933,10891],[149,0]],[[14186,10609],[45,0]],[[14181,10736],[-27,-12]],[[14172,10736],[9,0]],[[14127,10729],[14,0]],[[14181,10736],[59,-48]],[[14050,10777],[-81,-153]],[[12677,10975],[-59,-7]],[[12618,10968],[-103,15],[-32,-153],[-108,-48],[-148,66]],[[12227,10848],[0,499]],[[12227,11347],[567,-3]],[[12794,11344],[-104,-130]],[[12690,11214],[-58,-104],[126,21]],[[12758,11131],[18,-16]],[[12776,11115],[104,-51]],[[12690,11214],[68,-83]],[[12794,11344],[36,354]],[[12830,11698],[500,-3]],[[13578,11548],[-280,-67],[-238,-228],[-198,5],[-86,-143]],[[12645,10235],[-418,0]],[[12227,10235],[0,300],[0,92]],[[12227,10627],[409,0]],[[12357,11525],[81,-97],[-112,33]],[[12326,11461],[31,64]],[[12650,10627],[-32,341]],[[12227,11347],[0,73]],[[12227,11420],[99,41]],[[12357,11525],[95,173]],[[12452,11698],[378,0]],[[12227,10627],[0,214],[0,7]],[[12227,11420],[0,278]],[[12227,11698],[225,0]],[[13024,12473],[-59,-74],[86,6],[193,-461],[90,13]],[[13334,11957],[0,-38]],[[12830,11698],[-18,198],[-194,-20],[14,488],[-90,122],[81,-26]],[[12623,12460],[54,0]],[[12677,12460],[40,6]],[[12717,12466],[86,33]],[[12803,12499],[41,68]],[[12844,12567],[0,61]],[[12844,12628],[117,10]],[[12961,12638],[13,-15]],[[12974,12623],[-67,-86]],[[12907,12537],[40,-51]],[[12947,12486],[77,-13]],[[12907,12537],[54,-38]],[[12961,12499],[-14,-13]],[[12961,12499],[13,124]],[[12961,12638],[45,82]],[[13006,12720],[198,0]],[[13204,12720],[-72,-206],[-108,-41]],[[13334,12127],[-180,46],[-18,237],[95,86]],[[13231,12496],[108,-13]],[[13339,12483],[-5,-356]],[[13334,12127],[0,-170]],[[13204,12720],[9,0],[230,0],[49,0]],[[13492,12720],[-149,-204]],[[13343,12516],[-49,115],[-63,-135]],[[12677,12460],[31,34]],[[12708,12494],[9,-28]],[[12708,12494],[95,5]],[[12844,12628],[4,92]],[[12848,12720],[158,0]],[[13343,12516],[-4,-33]],[[12227,11698],[0,142],[0,107],[0,773],[517,0],[104,0]],[[12844,12567],[-221,0],[0,-107]],[[14821,11375],[-113,0]],[[14708,11375],[-95,-13]],[[14613,11362],[14,30]],[[14627,11392],[121,64],[-85,160]],[[14663,11616],[158,56]],[[14821,11672],[-5,-109]],[[14816,11563],[5,-188]],[[14708,11375],[67,-100]],[[14775,11275],[-153,39]],[[14622,11314],[-9,48]],[[14406,11443],[59,74],[-59,107]],[[14406,11624],[149,0]],[[14555,11624],[31,0]],[[14586,11624],[77,-8]],[[14627,11392],[-221,-30]],[[14622,11314],[-126,-128]],[[14730,11189],[-153,-66]],[[14775,11275],[-45,-86]],[[14559,11939],[-81,-132]],[[14478,11807],[-117,-74]],[[14267,11939],[13,15]],[[14280,11954],[162,-20]],[[14442,11934],[117,5]],[[14825,12242],[14,51]],[[14839,12293],[67,-3]],[[14906,12290],[50,-63]],[[14956,12227],[-23,-3],[-67,0],[-41,18]],[[14159,12547],[-95,135],[117,-59],[-22,-76]],[[14830,11883],[171,-81],[-176,94]],[[14825,11896],[-72,-20]],[[14753,11876],[-41,53]],[[14712,11929],[82,97]],[[14794,12026],[184,-155],[90,61]],[[15068,11932],[-27,-117]],[[15041,11815],[-45,-82]],[[14996,11733],[-31,-25]],[[14965,11708],[-181,119]],[[14784,11827],[46,56]],[[14586,11624],[23,74]],[[14609,11698],[85,127]],[[14694,11825],[90,2]],[[14965,11708],[-144,-36]],[[15208,12715],[-14,-216]],[[15194,12499],[-360,61]],[[14834,12560],[-13,157]],[[14821,12717],[189,0],[198,-2]],[[14694,11825],[-81,53],[63,66]],[[14676,11944],[36,-15]],[[14753,11876],[31,-49]],[[13492,12720],[131,0],[270,0]],[[13893,12720],[99,-481]],[[14456,12054],[-14,-120]],[[14280,11954],[113,252]],[[14393,12206],[63,-152]],[[14609,11698],[-32,-3]],[[14577,11695],[-13,15]],[[14564,11710],[-59,72]],[[14505,11782],[-27,25]],[[14559,11939],[0,59]],[[14559,11998],[117,-54]],[[14406,11624],[0,35]],[[14343,11695],[162,25]],[[14505,11720],[59,-10]],[[14577,11695],[-22,-71]],[[14821,11375],[0,-18]],[[14821,11357],[0,-122]],[[14821,11235],[0,-61]],[[14821,11174],[-91,15]],[[14505,11782],[0,-62]],[[14456,12054],[117,-23]],[[14573,12031],[-14,-33]],[[14821,11174],[0,-224]],[[14573,12031],[67,38],[-45,646]],[[14595,12715],[226,2]],[[14834,12560],[5,-201]],[[14839,12359],[0,-66]],[[14825,12242],[-9,-150]],[[14816,12092],[-22,-66]],[[14852,11176],[-31,59]],[[14821,11357],[63,-89],[-5,94],[126,13]],[[15005,11375],[59,-79]],[[15064,11296],[-86,-188],[-126,68]],[[14825,11896],[5,-13]],[[15181,12433],[-95,-41],[0,-130]],[[15086,12262],[-31,-5]],[[15055,12257],[-99,61]],[[14956,12318],[-117,41]],[[15194,12499],[-13,-66]],[[15113,11965],[-18,-8]],[[15095,11957],[-27,-25]],[[14816,12092],[306,-115]],[[15122,11977],[-9,-12]],[[15154,10891],[0,-180]],[[14852,11176],[279,-96]],[[15131,11080],[23,-189]],[[14956,12318],[-50,-28]],[[15077,11296],[126,-69],[-72,-147]],[[15064,11296],[13,0]],[[14956,12227],[99,30]],[[15086,12262],[32,-142]],[[15118,12120],[4,-143]],[[14996,11405],[9,-30]],[[14816,11563],[113,0]],[[14929,11563],[40,0]],[[14969,11563],[27,-158]],[[13893,12720],[333,-5]],[[14226,12715],[167,-171],[0,-338]],[[14226,12715],[369,0]],[[15361,10891],[-113,0]],[[15248,10891],[-94,0]],[[15077,11296],[27,81],[-108,28]],[[14969,11563],[72,0]],[[15041,11563],[140,-102]],[[15181,11461],[157,5]],[[15338,11466],[36,-5]],[[15374,11461],[113,3]],[[15487,11464],[27,-331]],[[15514,11133],[153,-244]],[[15667,10889],[-306,2]],[[15248,10891],[90,-48]],[[15338,10843],[145,-206],[-100,8]],[[15383,10645],[-229,15]],[[15095,11957],[-54,-142]],[[15118,12120],[153,134],[-90,179]],[[15208,12715],[49,0],[14,0]],[[15271,12715],[311,-405]],[[15582,12310],[-90,-256]],[[15492,12054],[-27,-92]],[[15465,11962],[-253,0]],[[15212,11962],[-99,3]],[[14996,11733],[90,-94],[-157,-76]],[[15226,11876],[117,0],[-99,-143]],[[15244,11733],[-18,143]],[[15361,10891],[-23,-48]],[[15492,12054],[166,15],[-13,-150]],[[15645,11919],[-162,10]],[[15483,11929],[-18,33]],[[16054,11919],[0,-150],[-184,-5]],[[15870,11764],[-54,155]],[[15816,11919],[238,0]],[[15212,11962],[14,-86]],[[15244,11733],[-50,-203]],[[15194,11530],[-153,33]],[[16644,11428],[-4,-252]],[[16640,11176],[-5,-107],[-193,0]],[[16442,11069],[-122,138]],[[16320,11207],[-144,282]],[[16176,11489],[9,41]],[[16185,11530],[216,-3],[-4,117]],[[16397,11644],[99,135],[157,-10]],[[16653,11769],[-9,-341]],[[15338,11466],[-144,64]],[[15483,11929],[-37,-193],[149,-31],[-203,-216]],[[15392,11489],[-18,-28]],[[16154,12410],[-5,-133]],[[16149,12277],[-405,-35],[-162,68]],[[15271,12715],[338,0],[265,0],[280,2]],[[16154,12717],[0,-160]],[[16154,12557],[0,-53]],[[16154,12504],[0,-94]],[[15194,11530],[-13,-69]],[[15888,11609],[-18,155]],[[16054,11919],[95,0]],[[16149,11919],[171,-74]],[[16320,11845],[77,-201]],[[16185,11530],[-297,79]],[[15870,11471],[18,138]],[[16176,11489],[-306,-18]],[[15816,11919],[-171,0]],[[16149,12277],[5,-152]],[[16154,12125],[-5,-206]],[[15392,11489],[118,-23]],[[15510,11466],[-23,-2]],[[15870,11471],[-360,-5]],[[14658,9910],[0,-331]],[[14658,9579],[-108,-297],[-243,2],[0,-175]],[[14307,9109],[-657,-3]],[[13650,9106],[261,443],[-140,137],[126,56]],[[13897,9742],[90,-66],[-27,119]],[[13960,9795],[27,161]],[[12672,9450],[-202,165],[-135,-36]],[[12335,9579],[49,163],[131,-104]],[[12515,9638],[211,-76],[-54,-112]],[[12654,9045],[86,176],[-68,229]],[[12515,9638],[94,168]],[[12609,9806],[90,-112],[104,96],[189,-91],[54,221],[-117,43],[104,272]],[[13253,10235],[9,-1129]],[[13262,9106],[-220,-2],[0,-282]],[[13042,8822],[-162,0]],[[12880,8822],[-226,223]],[[13906,9765],[-22,38]],[[13884,9803],[-5,36]],[[13879,9839],[27,-74]],[[13650,9106],[-248,-2]],[[13402,9104],[-140,2]],[[13938,10060],[-59,-221]],[[13884,9803],[13,-61]],[[12609,9806],[99,297],[-63,132]],[[13906,9765],[54,30]],[[12227,9597],[0,92],[0,124],[0,422]],[[12335,9579],[-108,18]],[[12654,9045],[-427,-53]],[[12227,8992],[0,257],[0,104],[0,61],[0,33],[0,150]],[[14330,9017],[4,-346]],[[14059,8519],[-468,-8]],[[13591,8511],[-9,209]],[[13582,8720],[27,155],[-135,-59]],[[13474,8816],[-68,-15]],[[13406,8801],[-4,303]],[[14307,9109],[23,-92]],[[13587,8389],[0,-178]],[[13587,8211],[-176,0]],[[13411,8211],[-27,295]],[[13384,8506],[207,-43]],[[13591,8463],[14,-74]],[[13605,8389],[-18,0]],[[13384,8506],[185,107],[-316,120]],[[13253,8733],[5,94],[148,-26]],[[13474,8816],[108,-96]],[[13591,8511],[0,-48]],[[13618,8389],[-13,0]],[[14014,8493],[-108,-96]],[[13906,8397],[-157,-8]],[[13749,8389],[-131,0]],[[13623,8328],[-36,61]],[[13618,8389],[23,-30]],[[13641,8359],[-18,-31]],[[13852,8260],[36,-133]],[[13888,8127],[-301,-30]],[[13587,8097],[0,114]],[[13623,8328],[54,-33],[-36,64]],[[13749,8389],[-23,-119],[126,-10]],[[13906,8397],[-54,-137]],[[13159,8750],[-117,72]],[[13253,8733],[-94,17]],[[14050,7820],[-36,30]],[[14014,7850],[-13,97]],[[14001,7947],[49,-127]],[[14145,7703],[0,43]],[[14145,7746],[0,53]],[[14145,7799],[0,234]],[[14307,8120],[0,-445]],[[14307,7675],[-162,28]],[[14014,7850],[36,-76]],[[14050,7774],[-9,-18]],[[14041,7756],[-153,41],[-22,-133],[-279,153]],[[13587,7817],[0,280]],[[13888,8127],[113,-180]],[[14123,7433],[4,0],[23,-38]],[[14150,7395],[-32,5]],[[14118,7400],[-32,92]],[[14086,7492],[37,-59]],[[14068,7784],[-18,36]],[[14001,7947],[144,86]],[[14145,7799],[-77,-15]],[[12871,7451],[9,-84]],[[12880,7367],[-14,-463],[-644,0],[0,173],[0,318],[0,114]],[[12222,7509],[410,61]],[[12632,7570],[9,-119],[230,0]],[[14086,7492],[-72,99],[63,117]],[[14077,7708],[68,-5]],[[14307,7675],[41,-84]],[[14348,7591],[-153,0],[-36,0],[-36,-46],[-5,-41],[5,-71]],[[13222,8524],[31,-292],[95,-21]],[[13348,8211],[-306,-91]],[[13042,8120],[-131,216]],[[12911,8336],[36,84]],[[12947,8420],[45,-3]],[[12992,8417],[230,107]],[[12623,8097],[-248,124],[-9,168],[-139,-2]],[[12227,8387],[0,338],[0,107]],[[12227,8832],[301,0]],[[12528,8832],[135,-443],[145,-61]],[[12808,8328],[-46,-168],[-139,-63]],[[12911,8336],[-9,35]],[[12902,8371],[-22,61],[18,23]],[[12898,8455],[49,-35]],[[13587,7817],[0,-450]],[[13587,7367],[-707,0]],[[12871,7451],[-9,658],[180,11]],[[13348,8211],[63,0]],[[12880,8822],[-352,10]],[[12227,8832],[0,160]],[[13024,8565],[-32,-148]],[[12898,8455],[126,110]],[[13222,8524],[-63,201]],[[13159,8725],[0,25]],[[12632,7570],[-9,527]],[[12808,8328],[58,-68],[36,111]],[[14118,7400],[14,-33]],[[14132,7367],[-545,0]],[[14041,7756],[36,-48]],[[12222,7509],[0,519],[5,359]],[[14068,7784],[-18,-10]],[[14145,7746],[-68,-38]],[[13024,8565],[135,160]],[[14150,7395],[36,-28],[-54,0]],[[16622,9953],[-59,196]],[[16563,10149],[-13,229]],[[16550,10378],[220,-43]],[[16770,10335],[41,-8]],[[16811,10327],[54,-374]],[[16865,9953],[-243,0]],[[16906,10406],[-95,-79]],[[16770,10335],[14,287]],[[16784,10622],[122,0]],[[16906,10622],[0,-214],[0,-2]],[[16901,9518],[0,-56],[-4,-94]],[[16897,9368],[-158,41]],[[16739,9409],[0,51]],[[16739,9460],[162,58]],[[16752,9200],[-72,-127],[-76,127]],[[16604,9200],[54,3]],[[16658,9203],[94,-3]],[[16541,9246],[-158,43],[-216,438]],[[16167,9727],[32,165]],[[16199,9892],[346,-163]],[[16545,9729],[63,-91]],[[16608,9638],[-9,-377],[-58,-15]],[[16455,9953],[90,-224]],[[16199,9892],[0,371]],[[16199,10263],[54,0]],[[16253,10263],[108,-132],[0,-178],[94,0]],[[16059,10271],[-81,-140],[180,-244],[-41,-160]],[[16117,9727],[-400,-87]],[[15717,9640],[220,290],[27,303],[-103,119]],[[15861,10352],[31,87]],[[15892,10439],[167,2]],[[16059,10441],[0,-170]],[[16550,10378],[0,63]],[[16550,10441],[85,59]],[[16635,10500],[0,30]],[[16635,10530],[149,92]],[[16199,10263],[-140,8]],[[16059,10441],[0,94]],[[16059,10535],[270,-50]],[[16329,10485],[-148,-28],[121,-178]],[[16302,10279],[-49,-16]],[[16897,9368],[0,-165]],[[16897,9203],[-50,0]],[[16847,9203],[9,89],[-185,0]],[[16671,9292],[68,117]],[[16563,10149],[18,-196]],[[16581,9953],[-126,0]],[[16302,10279],[72,162],[176,0]],[[16847,9203],[-95,-3]],[[16658,9203],[13,89]],[[16604,9200],[-63,0]],[[16541,9200],[0,46]],[[16608,9638],[108,-43]],[[16716,9595],[-40,-107],[63,-28]],[[16581,9953],[41,0]],[[16865,9953],[36,0]],[[16901,9953],[0,-196]],[[16901,9757],[-144,-28],[-41,-134]],[[16901,9757],[0,-216],[0,-23]],[[16167,9727],[-50,0]],[[16906,10406],[0,-94],[-5,-191],[0,-158],[0,-10]],[[15717,9640],[-257,92]],[[15460,9732],[5,267]],[[15465,9999],[0,241]],[[15465,10240],[337,21],[59,91]],[[15712,8816],[-27,-101]],[[15685,8715],[-184,-138]],[[15501,8577],[0,-122],[-280,-20],[280,-59]],[[15501,8376],[0,-231]],[[15501,8145],[-5,-20]],[[15496,8125],[-392,12]],[[15104,8137],[122,143],[-32,127],[-90,-43]],[[15104,8364],[0,150]],[[15104,8514],[27,104]],[[15131,8618],[0,132]],[[15131,8750],[320,13],[18,209]],[[15469,8972],[-4,137]],[[15465,9109],[-5,582]],[[15460,9691],[0,41]],[[16541,9200],[-117,0]],[[16424,9200],[-50,-178]],[[16374,9022],[-36,-239]],[[16338,8783],[0,-23]],[[16338,8760],[-302,0]],[[16036,8760],[-162,148]],[[15874,8908],[-45,114],[-148,-2],[-95,-262],[126,58]],[[15874,8908],[-180,8],[18,-100]],[[15501,8376],[108,-5],[-14,209]],[[15595,8580],[522,0]],[[16117,8580],[185,0]],[[16302,8580],[0,-51]],[[16302,8529],[0,-150]],[[16302,8379],[0,-247]],[[16302,8132],[-234,-40],[-14,86],[-76,-96],[-144,147],[-333,-84]],[[16424,9200],[76,-241],[-117,-21],[-9,84]],[[15496,7591],[0,534]],[[16302,8132],[72,-127]],[[16374,8005],[-342,-99],[-99,-315]],[[15933,7591],[-437,0]],[[16036,8760],[-225,-43]],[[15811,8717],[-126,-2]],[[16888,7934],[-190,66],[-90,-79],[-18,99]],[[16590,8020],[298,148]],[[16888,8168],[0,-43],[0,-191]],[[16338,8760],[-36,-180]],[[16117,8580],[-45,107],[-261,30]],[[16370,8160],[292,150],[104,272],[72,-68]],[[16838,8514],[-81,-92],[131,-58]],[[16888,8364],[0,-196]],[[16590,8020],[-220,140]],[[16838,8514],[50,0]],[[16888,8514],[0,-150]],[[15501,8577],[94,3]],[[16888,7934],[0,-254],[-9,-89],[-194,0],[-311,0]],[[16374,7591],[0,414]],[[16302,8132],[68,28]],[[16374,7591],[-202,0],[-32,0],[-207,0]],[[16302,8379],[140,0],[-32,127],[-108,23]],[[16338,8783],[550,-23]],[[16888,8760],[0,-76],[0,-109],[0,-61]],[[16897,9203],[-5,-188],[-4,-255]],[[14739,9025],[5,-8]],[[14744,9017],[-90,0]],[[14654,9017],[-324,0]],[[14658,9579],[298,-117]],[[14956,9462],[-153,-221]],[[14803,9241],[-64,-216]],[[14726,8562],[9,-234],[-207,-28],[-36,107]],[[14492,8407],[58,79],[-85,-97]],[[14465,8389],[-158,-269]],[[14307,8524],[185,-25],[130,127]],[[14622,8626],[104,-64]],[[14735,8735],[-108,-10],[81,114]],[[14708,8839],[27,-104]],[[15136,9104],[-144,-13]],[[14992,9091],[-144,-15]],[[14848,9076],[45,71],[-90,94]],[[14956,9462],[130,150],[374,79]],[[15465,9109],[-185,15]],[[15280,9124],[-144,-20]],[[15496,7591],[-81,0],[-815,2],[-252,-2]],[[14465,8389],[27,18]],[[14726,8562],[72,59]],[[14798,8621],[158,0]],[[14956,8621],[-90,-77],[121,-66]],[[14987,8478],[-31,-13]],[[14956,8465],[-45,3]],[[14911,8468],[-113,-102],[135,-17]],[[14933,8349],[68,0]],[[15001,8349],[-36,-128],[139,-84]],[[15136,9999],[329,0]],[[15154,10401],[-18,-247]],[[15032,9040],[-85,-58]],[[14947,8982],[58,79]],[[15005,9061],[32,-18]],[[15037,9043],[-5,-3]],[[15136,9104],[45,-99]],[[15181,9005],[-144,38]],[[15005,9061],[-13,30]],[[14622,8626],[113,71]],[[14735,8697],[63,-76]],[[14956,8621],[175,-3]],[[15104,8514],[-117,-36]],[[14929,8404],[-18,64]],[[14956,8465],[-27,-61]],[[14735,8697],[0,38]],[[14708,8839],[-54,178]],[[14744,9017],[221,-86]],[[14965,8931],[85,-3]],[[15050,8928],[81,-5],[0,-173]],[[14848,9076],[-109,-51]],[[15469,8972],[-266,25],[158,13],[-81,114]],[[15001,8349],[103,15]],[[14947,8982],[18,-51]],[[15050,8938],[0,-10]],[[15032,9040],[18,-102]],[[14929,8404],[4,-55]],[[15181,9005],[-131,-67]],[[15383,10645],[82,-405]],[[16635,10500],[-306,-15]],[[16059,10535],[0,214]],[[16059,10749],[0,66]],[[16059,10815],[383,99],[0,100]],[[16442,11014],[198,30]],[[16640,11044],[-140,-270],[135,-244]],[[16289,10563],[72,145],[-104,-53],[32,-92]],[[16906,11657],[0,-229]],[[16906,11428],[-262,0]],[[16653,11769],[253,-112]],[[16721,10787],[63,153],[72,-51],[-135,-102]],[[16154,12504],[54,-44],[-54,-50]],[[16906,11873],[0,-122],[0,-94]],[[16320,11845],[72,226]],[[16392,12071],[252,74]],[[16644,12145],[117,140]],[[16761,12285],[77,0]],[[16838,12285],[99,-13]],[[16937,12272],[0,-63],[-31,-216]],[[16906,11993],[-167,28],[27,-150],[140,2]],[[15883,10889],[122,193]],[[16005,11082],[-9,69]],[[15996,11151],[94,46],[55,-105],[175,115]],[[16442,11069],[0,-55]],[[16059,10815],[-176,74]],[[15892,10439],[-198,130],[72,142],[-45,178]],[[15721,10889],[162,0]],[[15883,10889],[0,-163],[176,23]],[[16307,12486],[13,-328]],[[16320,12158],[-166,-33]],[[16154,12557],[153,-71]],[[16545,12720],[41,-168],[-279,-66]],[[16154,12717],[4,0],[387,3]],[[15721,10889],[-54,0]],[[15514,11133],[491,-51]],[[16320,12158],[72,-87]],[[16761,12285],[-306,-28],[189,-112]],[[16545,12720],[59,0],[266,0],[67,0],[0,-102]],[[16937,12618],[-27,-191],[-212,28],[140,-170]],[[16906,11075],[-266,-31]],[[16640,11176],[266,120]],[[16906,11296],[0,-221]],[[16906,11428],[0,-92],[0,-30],[0,-10]],[[15996,11151],[-167,249],[41,71]],[[16906,11075],[0,-219],[0,-234]],[[16906,11993],[0,-64],[0,-56]],[[16937,12618],[0,-185],[0,-59],[0,-102]]]}