{"type":"Topology","transform":{"scale":[0.0012831345112129487,0.0009745357309423489],"translate":[-124.73273099999999,24.60334863324381]},"objects":{"area":{"type":"GeometryCollection","geometries":[{"arcs":[[0,1,2,3,4]],"type":"Polygon","properties":{"state":"NV","name":"ALAMO","zip":"89001"}},{"arcs":[[5,6,7,8]],"type":"Polygon","properties":{"state":"NV","name":"BOULDER CITY","zip":"89005"}},{"arcs":[[9,-5,10,11,12,13]],"type":"Polygon","properties":{"state":"NV","name":"CALIENTE","zip":"89008"}},{"arcs":[[14,15,16,17,18]],"type":"Polygon","properties":{"state":"NV","name":"HENDERSON","zip":"89012"}},{"arcs":[[19,20,21,22]],"type":"Polygon","properties":{"state":"NV","name":"GOLDFIELD","zip":"89013"}},{"arcs":[[23,24,25,26,-17]],"type":"Polygon","properties":{"state":"NV","name":"HENDERSON","zip":"89014"}},{"arcs":[[27,28,29,30,31,32,33,-7,34,-18,-27]],"type":"Polygon","properties":{"state":"NV","name":"HENDERSON","zip":"89015"}},{"arcs":[[-4,35,36,-11]],"type":"Polygon","properties":{"state":"NV","name":"HIKO","zip":"89017"}},{"arcs":[[37,38,39,40,41,42,43,-1]],"type":"Polygon","properties":{"state":"NV","name":"INDIAN SPRINGS","zip":"89018"}},{"arcs":[[44,45]],"type":"Polygon","properties":{"state":"NV","name":"JEAN","zip":"89019"}},{"arcs":[[46,47,-20,48,-2,-44]],"type":"Polygon","properties":{"state":"NV","name":"AMARGOSA VALLEY","zip":"89020"}},{"arcs":[[49,-14,50]],"type":"Polygon","properties":{"state":"NV","name":"MESQUITE","zip":"89027"}},{"arcs":[[51,52,53]],"type":"Polygon","properties":{"state":"NV","name":"LAUGHLIN","zip":"89029"}},{"arcs":[[54,55,56,57,58,59]],"type":"Polygon","properties":{"state":"NV","name":"NORTH LAS VEGAS","zip":"89030"}},{"arcs":[[60,61,62,63,64,-60]],"type":"Polygon","properties":{"state":"NV","name":"NORTH LAS VEGAS","zip":"89031"}},{"arcs":[[65,66,-61,-59,67]],"type":"Polygon","properties":{"state":"NV","name":"NORTH LAS VEGAS","zip":"89032"}},{"arcs":[[68,-39,69,-63]],"type":"Polygon","properties":{"state":"NV","name":"NORTH LAS VEGAS","zip":"89033"}},{"arcs":[[70,71,-64,-70,-38,-10,-50,72,-33]],"type":"Polygon","properties":{"state":"NV","name":"OVERTON","zip":"89040"}},{"arcs":[[73,74,75,-47,-43,76]],"type":"Polygon","properties":{"state":"NV","name":"PAHRUMP","zip":"89041"}},{"arcs":[[77,78,79,80,81,-12,-37]],"type":"Polygon","properties":{"state":"NV","name":"PIOCHE","zip":"89043"}},{"arcs":[[82,83,84]],"type":"Polygon","properties":{"state":"NV","name":"ROUND MOUNTAIN","zip":"89045"}},{"arcs":[[-53,85,86,-9,87]],"type":"Polygon","properties":{"state":"NV","name":"SEARCHLIGHT","zip":"89046"}},{"arcs":[[88,89,90,-22]],"type":"Polygon","properties":{"state":"NV","name":"SILVERPEAK","zip":"89047"}},{"arcs":[[91,92,93,-75,94,-77]],"type":"Polygon","properties":{"state":"NV","name":"PAHRUMP","zip":"89048"}},{"arcs":[[95,96,-83,97,98,99,100,-78,-36,-3,-49,-23,-91]],"type":"Polygon","properties":{"state":"NV","name":"TONOPAH","zip":"89049"}},{"arcs":[[101,102,-15,103]],"type":"Polygon","properties":{"state":"NV","name":"HENDERSON","zip":"89052"}},{"arcs":[[-74,-95]],"type":"Polygon","properties":{"state":"NV","name":"PAHRUMP","zip":"89060"}},{"arcs":[[104,-93,105]],"type":"Polygon","properties":{"state":"NV","name":"PAHRUMP","zip":"89061"}},{"arcs":[[106,107,-24,-16,-103]],"type":"Polygon","properties":{"state":"NV","name":"HENDERSON","zip":"89074"}},{"arcs":[[108,109,110,-57]],"type":"Polygon","properties":{"state":"NV","name":"LAS VEGAS","zip":"89101"}},{"arcs":[[111,112,113,114,115,116]],"type":"Polygon","properties":{"state":"NV","name":"LAS VEGAS","zip":"89102"}},{"arcs":[[117,118,-113,119,120]],"type":"Polygon","properties":{"state":"NV","name":"LAS VEGAS","zip":"89103"}},{"arcs":[[121,122,-117,-110,123,124]],"type":"Polygon","properties":{"state":"NV","name":"LAS VEGAS","zip":"89104"}},{"arcs":[[125,126,-68,-58,-111,-116]],"type":"Polygon","properties":{"state":"NV","name":"LAS VEGAS","zip":"89106"}},{"arcs":[[127,128,129,130,-126,-115]],"type":"Polygon","properties":{"state":"NV","name":"LAS VEGAS","zip":"89107"}},{"arcs":[[131,132,133,134,-66,-127,-131]],"type":"Polygon","properties":{"state":"NV","name":"LAS VEGAS","zip":"89108"}},{"arcs":[[135,-120,-112,-123,136]],"type":"Polygon","properties":{"state":"NV","name":"LAS VEGAS","zip":"89109"}},{"arcs":[[-56,137,138,-30,139,-124,-109]],"type":"Polygon","properties":{"state":"NV","name":"LAS VEGAS","zip":"89110"}},{"arcs":[[140,141,142,143,144]],"type":"Polygon","properties":{"state":"NV","name":"LAS VEGAS","zip":"89113"}},{"arcs":[[145,-138,-55,-65,-72,146]],"type":"Polygon","properties":{"state":"NV","name":"LAS VEGAS","zip":"89115"}},{"arcs":[[147,148,149,150]],"type":"Polygon","properties":{"state":"NV","name":"LAS VEGAS","zip":"89117"}},{"arcs":[[151,-143,-121,152]],"type":"Polygon","properties":{"state":"NV","name":"LAS VEGAS","zip":"89118"}},{"arcs":[[-136,153,154,155,-153]],"type":"Polygon","properties":{"state":"NV","name":"LAS VEGAS","zip":"89119"}},{"arcs":[[-108,156,-155,157,158,-25]],"type":"Polygon","properties":{"state":"NV","name":"LAS VEGAS","zip":"89120"}},{"arcs":[[159,-158,-154,-137,-122,160]],"type":"Polygon","properties":{"state":"NV","name":"LAS VEGAS","zip":"89121"}},{"arcs":[[-159,-160,161,-28,-26]],"type":"Polygon","properties":{"state":"NV","name":"LAS VEGAS","zip":"89122"}},{"arcs":[[162,163,164,-156,-157,-107,-102]],"type":"Polygon","properties":{"state":"NV","name":"LAS VEGAS","zip":"89123"}},{"arcs":[[-19,-35,-6,-87,165,-46,166,-106,-92,-42,167,168,169,170,171,172,-145,173,174,-163,-104]],"type":"Polygon","properties":{"state":"NV","name":"LAS VEGAS","zip":"89124"}},{"arcs":[[175,176,-132,-130,177]],"type":"Polygon","properties":{"state":"NV","name":"LAS VEGAS","zip":"89128"}},{"arcs":[[178,-169,179,-133,-177]],"type":"Polygon","properties":{"state":"NV","name":"LAS VEGAS","zip":"89129"}},{"arcs":[[-67,-135,180,181,-62]],"type":"Polygon","properties":{"state":"NV","name":"LAS VEGAS","zip":"89130"}},{"arcs":[[-182,182,183,-40,-69]],"type":"Polygon","properties":{"state":"NV","name":"LAS VEGAS","zip":"89131"}},{"arcs":[[184,-170,-179,-176]],"type":"Polygon","properties":{"state":"NV","name":"LAS VEGAS","zip":"89134"}},{"arcs":[[185,-172,186,187,-150]],"type":"Polygon","properties":{"state":"NV","name":"LAS VEGAS","zip":"89135"}},{"arcs":[[188,-174,-144,-152,-165]],"type":"Polygon","properties":{"state":"NV","name":"LAS VEGAS","zip":"89139"}},{"arcs":[[-189,-164,-175]],"type":"Polygon","properties":{"state":"NV","name":"LAS VEGAS","zip":"89141"}},{"arcs":[[-125,-140,-29,-162,-161]],"type":"Polygon","properties":{"state":"NV","name":"LAS VEGAS","zip":"89142"}},{"arcs":[[189,-41,-184]],"type":"Polygon","properties":{"state":"NV","name":"LAS VEGAS","zip":"89143"}},{"arcs":[[190,-187,-171,-185]],"type":"Polygon","properties":{"state":"NV","name":"LAS VEGAS","zip":"89144"}},{"arcs":[[-188,-191,-178,-129,-151]],"type":"Polygon","properties":{"state":"NV","name":"LAS VEGAS","zip":"89145"}},{"arcs":[[-128,-114,-119,-148]],"type":"Polygon","properties":{"state":"NV","name":"LAS VEGAS","zip":"89146"}},{"arcs":[[191,-186,-149,-118,-142]],"type":"Polygon","properties":{"state":"NV","name":"LAS VEGAS","zip":"89147"}},{"arcs":[[-192,-141,-173]],"type":"Polygon","properties":{"state":"NV","name":"LAS VEGAS","zip":"89148"}},{"arcs":[[-180,-168,-190,-183,-181,-134]],"type":"Polygon","properties":{"state":"NV","name":"LAS VEGAS","zip":"89149"}},{"arcs":[[-139,-146,192,-31]],"type":"Polygon","properties":{"state":"NV","name":"LAS VEGAS","zip":"89156"}},{"arcs":[[-71,-32,-193,-147]],"type":"Polygon","properties":{"state":"NV","name":"NELLIS AFB","zip":"89191"}},{"arcs":[[193,-80,194,-100,195,196,197,198,199]],"type":"Polygon","properties":{"state":"NV","name":"ELY","zip":"89301"}},{"arcs":[[-85,200,201,202,203,204,205,-98]],"type":"Polygon","properties":{"state":"NV","name":"AUSTIN","zip":"89310"}},{"arcs":[[-194,206,-81]],"type":"Polygon","properties":{"state":"NV","name":"BAKER","zip":"89311"}},{"arcs":[[-99,-206,207,208,209,-196]],"type":"Polygon","properties":{"state":"NV","name":"EUREKA","zip":"89316"}},{"arcs":[[-101,-195,-79]],"type":"Polygon","properties":{"state":"NV","name":"LUND","zip":"89317"}},{"arcs":[[210,211,212,213]],"type":"Polygon","properties":{"state":"NV","name":"DAYTON","zip":"89403"}},{"arcs":[[214,215,216,217,218]],"type":"Polygon","properties":{"state":"NV","name":"DENIO","zip":"89404"}},{"arcs":[[219,220,221,222,223,224,225]],"type":"Polygon","properties":{"state":"NV","name":"EMPIRE","zip":"89405"}},{"arcs":[[226,227,228,229,230,231,-202,232,233,234]],"type":"Polygon","properties":{"state":"NV","name":"FALLON","zip":"89406"}},{"arcs":[[235,236,237,-229]],"type":"Polygon","properties":{"state":"NV","name":"FERNLEY","zip":"89408"}},{"arcs":[[-97,238,239,-233,-201,-84]],"type":"Polygon","properties":{"state":"NV","name":"GABBS","zip":"89409"}},{"arcs":[[240,241,242,243]],"type":"Polygon","properties":{"state":"NV","name":"GARDNERVILLE","zip":"89410"}},{"arcs":[[244,-222,245,-216]],"type":"Polygon","properties":{"state":"NV","name":"GERLACH","zip":"89412"}},{"arcs":[[246,247,248,249,-243]],"type":"Polygon","properties":{"state":"NV","name":"GLENBROOK","zip":"89413"}},{"arcs":[[250,251,252,253,254,255]],"type":"Polygon","properties":{"state":"NV","name":"GOLCONDA","zip":"89414"}},{"arcs":[[256,257,-234,-240,258,259]],"type":"Polygon","properties":{"state":"NV","name":"HAWTHORNE","zip":"89415"}},{"arcs":[[260,261,262,-256]],"type":"Polygon","properties":{"state":"NV","name":"IMLAY","zip":"89418"}},{"arcs":[[-232,263,-223,-245,-215,264,-262,265,-203]],"type":"Polygon","properties":{"state":"NV","name":"LOVELOCK","zip":"89419"}},{"arcs":[[266,-259,-239,-96,-90]],"type":"Polygon","properties":{"state":"NV","name":"LUNING","zip":"89420"}},{"arcs":[[267,268,-244,-250,269,270,271,272]],"type":"Polygon","properties":{"state":"NV","name":"MINDEN","zip":"89423"}},{"arcs":[[-224,-264,-231,273,274,275]],"type":"Polygon","properties":{"state":"NV","name":"NIXON","zip":"89424"}},{"arcs":[[276,277,-218,278]],"type":"Polygon","properties":{"state":"NV","name":"OROVADA","zip":"89425"}},{"arcs":[[279,-277,280,281,-252]],"type":"Polygon","properties":{"state":"NV","name":"PARADISE VALLEY","zip":"89426"}},{"arcs":[[282,-235,-258]],"type":"Polygon","properties":{"state":"NV","name":"SCHURZ","zip":"89427"}},{"arcs":[[283,-236,-228,284,-214]],"type":"Polygon","properties":{"state":"NV","name":"SILVER SPRINGS","zip":"89429"}},{"arcs":[[285,-268,286]],"type":"Polygon","properties":{"state":"NV","name":"SMITH","zip":"89430"}},{"arcs":[[287,288,289,290,291]],"type":"Polygon","properties":{"state":"NV","name":"SPARKS","zip":"89431"}},{"arcs":[[292,293,294,-291]],"type":"Polygon","properties":{"state":"NV","name":"SUN VALLEY","zip":"89433"}},{"arcs":[[295,-288,296,297,298]],"type":"Polygon","properties":{"state":"NV","name":"SPARKS","zip":"89434"}},{"arcs":[[-292,-295,299,300,-297]],"type":"Polygon","properties":{"state":"NV","name":"SPARKS","zip":"89436"}},{"arcs":[[301,302,-299,303,304,-237,-284,-213,305,306]],"type":"Polygon","properties":{"state":"NV","name":"VIRGINIA CITY","zip":"89440"}},{"arcs":[[307,-274,-230,-238,-305]],"type":"Polygon","properties":{"state":"NV","name":"WADSWORTH","zip":"89442"}},{"arcs":[[308,309,-241,-269,-286]],"type":"Polygon","properties":{"state":"NV","name":"WELLINGTON","zip":"89444"}},{"arcs":[[-219,-278,-280,-251,-263,-265]],"type":"Polygon","properties":{"state":"NV","name":"WINNEMUCCA","zip":"89445"}},{"arcs":[[-273,310,-211,-285,-227,-283,-257,311,-309,-287]],"type":"Polygon","properties":{"state":"NV","name":"YERINGTON","zip":"89447"}},{"arcs":[[312,313,314,315,316]],"type":"Polygon","properties":{"state":"NV","name":"INCLINE VILLAGE","zip":"89451"}},{"arcs":[[317,318,319,320]],"type":"Polygon","properties":{"state":"NV","name":"RENO","zip":"89501"}},{"arcs":[[321,-318,322,-289,-296,-303,323]],"type":"Polygon","properties":{"state":"NV","name":"RENO","zip":"89502"}},{"arcs":[[324,325,326,-320,327]],"type":"Polygon","properties":{"state":"NV","name":"RENO","zip":"89503"}},{"arcs":[[328,-326,329,330,-220,331,-300,-294]],"type":"Polygon","properties":{"state":"NV","name":"RENO","zip":"89506"}},{"arcs":[[332,-316,333,334,-328,-319,-322]],"type":"Polygon","properties":{"state":"NV","name":"RENO","zip":"89509"}},{"arcs":[[-332,-226,335,-275,-308,-304,-298,-301]],"type":"Polygon","properties":{"state":"NV","name":"RENO","zip":"89510"}},{"arcs":[[336,-317,-333,-324,-302]],"type":"Polygon","properties":{"state":"NV","name":"RENO","zip":"89511"}},{"arcs":[[-327,-329,-293,-290,-323,-321]],"type":"Polygon","properties":{"state":"NV","name":"RENO","zip":"89512"}},{"arcs":[[337,-330,-325,-335]],"type":"Polygon","properties":{"state":"NV","name":"RENO","zip":"89523"}},{"arcs":[[338,339,340,-271]],"type":"Polygon","properties":{"state":"NV","name":"CARSON CITY","zip":"89701"}},{"arcs":[[341,-248,342,-314,343,344,-340]],"type":"Polygon","properties":{"state":"NV","name":"CARSON CITY","zip":"89703"}},{"arcs":[[-337,-307,345,-344,-313]],"type":"Polygon","properties":{"state":"NV","name":"WASHOE VALLEY","zip":"89704"}},{"arcs":[[-249,-342,-339,-270]],"type":"Polygon","properties":{"state":"NV","name":"CARSON CITY","zip":"89705"}},{"arcs":[[-345,-346,-306,-212,-311,-272,-341]],"type":"Polygon","properties":{"state":"NV","name":"CARSON CITY","zip":"89706"}},{"arcs":[[346,347,348,349,350]],"type":"Polygon","properties":{"state":"NV","name":"ELKO","zip":"89801"}},{"arcs":[[-210,351,-347,352,353,354,-197]],"type":"Polygon","properties":{"state":"NV","name":"SPRING CREEK","zip":"89815"}},{"arcs":[[-261,-255,355,356,-204,-266]],"type":"Polygon","properties":{"state":"NV","name":"BATTLE MOUNTAIN","zip":"89820"}},{"arcs":[[-205,-357,357,358,-208]],"type":"Polygon","properties":{"state":"NV","name":"CRESCENT VALLEY","zip":"89821"}},{"arcs":[[-209,-359,359,-348,-352]],"type":"Polygon","properties":{"state":"NV","name":"CARLIN","zip":"89822"}},{"arcs":[[-351,360,361,362,-353]],"type":"Polygon","properties":{"state":"NV","name":"DEETH","zip":"89823"}},{"arcs":[[363,-362,364,365]],"type":"Polygon","properties":{"state":"NV","name":"JACKPOT","zip":"89825"}},{"arcs":[[366,-253,-282,367,-365,-361,-350]],"type":"Polygon","properties":{"state":"NV","name":"MOUNTAIN CITY","zip":"89831"}},{"arcs":[[-355,368,-198]],"type":"Polygon","properties":{"state":"NV","name":"RUBY VALLEY","zip":"89833"}},{"arcs":[[-367,-349,-360,-358,-356,-254]],"type":"Polygon","properties":{"state":"NV","name":"TUSCARORA","zip":"89834"}},{"arcs":[[-354,-363,-364,369,-199,-369]],"type":"Polygon","properties":{"state":"NV","name":"WELLS","zip":"89835"}}]}},"arcs":[[[7620,12567],[-730,-7]],[[6890,12560],[-4,890]],[[6886,13450],[22,351],[396,-3]],[[7304,13798],[-76,-666],[216,5],[81,175],[189,-56]],[[7714,13256],[-148,-384],[54,-305]],[[7584,11494],[22,143]],[[7606,11637],[77,38],[-23,124],[0,16],[5,7]],[[7665,11822],[135,-96],[18,-288]],[[7818,11438],[-234,56]],[[8268,12560],[-648,7]],[[7714,13256],[0,397]],[[7714,13653],[608,-191]],[[8322,13462],[0,-10],[0,-112],[0,-73],[5,-547],[0,-160]],[[8327,12560],[-59,0]],[[7521,11677],[0,41]],[[7521,11718],[40,8]],[[7561,11726],[9,2]],[[7570,11728],[14,-35]],[[7584,11693],[-63,-16]],[[5899,13501],[-4,-809]],[[5895,12692],[-90,91],[-167,161]],[[5638,12944],[32,193],[-135,310],[-14,285]],[[5521,13732],[158,137],[0,-86],[216,-31],[4,-251]],[[7561,11726],[-54,25]],[[7507,11751],[32,31]],[[7539,11782],[13,-3]],[[7552,11779],[18,-51]],[[7552,11779],[27,58]],[[7579,11837],[5,18]],[[7584,11855],[0,33]],[[7584,11888],[0,56]],[[7584,11944],[63,-2]],[[7647,11942],[31,-110]],[[7678,11832],[-13,-10]],[[7606,11637],[-22,56]],[[7304,13798],[280,5]],[[7584,13803],[117,-25],[13,-125]],[[7620,12567],[22,-335],[-58,-211],[-59,17]],[[7525,12038],[-103,0]],[[7422,12038],[-37,0]],[[7385,12038],[-49,3]],[[7336,12041],[-95,84],[-355,-181]],[[6886,11944],[0,166]],[[6886,12110],[4,450]],[[7282,11291],[-90,94],[-113,114],[-40,43]],[[7039,11542],[58,97],[221,3],[67,-92],[-103,-259]],[[6886,12110],[-271,-135]],[[6615,11975],[-324,325],[-396,392]],[[5899,13501],[50,106],[572,28],[108,-152],[257,-33]],[[8327,12463],[-59,97]],[[8327,12560],[0,-97]],[[7872,10673],[-99,101],[-113,123]],[[7660,10897],[243,10]],[[7903,10907],[14,-33],[0,-3],[-45,-198]],[[7507,11942],[0,-54]],[[7507,11888],[0,-2]],[[7507,11886],[-27,2]],[[7480,11888],[-18,16]],[[7462,11904],[18,38]],[[7480,11942],[27,0]],[[7480,11942],[-58,-3]],[[7422,11939],[4,38]],[[7426,11977],[41,0],[27,0],[13,0]],[[7507,11977],[23,0]],[[7530,11977],[-23,-35]],[[7435,11896],[-13,20]],[[7422,11916],[0,23]],[[7462,11904],[-27,-8]],[[7426,11977],[-4,61]],[[7525,12038],[-18,-61]],[[7647,11942],[-59,33]],[[7588,11975],[-58,2]],[[8327,12463],[0,-554],[-131,-194],[-121,145],[27,420],[-82,-417],[-342,-31]],[[6836,11919],[-54,130],[-58,-130]],[[6724,11919],[0,-54]],[[6724,11865],[-109,110]],[[6886,11944],[-50,-25]],[[7584,13803],[0,638]],[[7584,14441],[40,0]],[[7624,14441],[248,0]],[[7872,14441],[455,0]],[[8327,14441],[0,-106],[0,-435],[-5,-438]],[[5989,14940],[73,-122],[-59,-338],[-158,-176]],[[5845,14304],[-103,328],[54,308]],[[5796,14940],[193,0]],[[7660,10897],[-365,378]],[[7295,11275],[289,219]],[[7818,11438],[85,-531]],[[5638,12944],[-40,40],[-221,214],[-464,442]],[[4913,13640],[383,372]],[[5296,14012],[-99,-428],[207,-50],[117,198]],[[6886,11944],[-5,-86]],[[6881,11858],[-45,-107]],[[6836,11751],[-112,114]],[[6724,11919],[112,0]],[[5296,14012],[194,221]],[[5490,14233],[157,-188],[198,259]],[[5989,14940],[347,-3]],[[6336,14937],[541,3]],[[6877,14940],[319,-221]],[[7196,14719],[388,-278]],[[7462,11672],[36,31]],[[7498,11703],[23,15]],[[7521,11677],[-59,-5]],[[6886,11698],[-50,53]],[[6881,11858],[5,-160]],[[7498,11703],[-4,45]],[[7494,11748],[13,3]],[[7507,11886],[0,-28]],[[7507,11858],[-40,0]],[[7467,11858],[13,30]],[[7462,11843],[-18,-18]],[[7444,11825],[-22,0]],[[7422,11825],[4,33]],[[7426,11858],[23,0]],[[7449,11858],[18,0]],[[7467,11858],[-5,-15]],[[7395,11797],[0,25]],[[7395,11822],[27,3]],[[7444,11825],[0,-28]],[[7444,11797],[-49,0]],[[7534,11843],[-40,0]],[[7494,11843],[-32,0]],[[7507,11858],[32,0]],[[7539,11858],[-5,-15]],[[7449,11858],[-5,23]],[[7444,11881],[-9,15]],[[7426,11858],[-31,0]],[[7395,11858],[0,18]],[[7395,11876],[0,5]],[[7395,11881],[49,0]],[[7395,11881],[0,38]],[[7395,11919],[0,30]],[[7395,11949],[0,8]],[[7395,11957],[27,-41]],[[7494,11817],[-50,-20]],[[7494,11843],[0,-26]],[[7507,11888],[32,0]],[[7539,11888],[45,0]],[[7584,11855],[-45,3]],[[7363,11715],[4,82]],[[7367,11797],[28,0]],[[7395,11797],[0,-46]],[[7395,11751],[0,-33]],[[7395,11718],[-32,-3]],[[7543,11919],[-4,-31]],[[7588,11975],[-45,-56]],[[7395,11858],[0,-36]],[[7395,11822],[-55,3]],[[7340,11825],[0,33]],[[7340,11858],[55,0]],[[7444,11754],[-49,-3]],[[7444,11797],[0,-43]],[[7494,11817],[0,-20]],[[7494,11797],[0,-43]],[[7494,11754],[-50,0]],[[7494,11748],[0,6]],[[7494,11797],[40,0]],[[7534,11797],[5,-15]],[[7534,11835],[0,-38]],[[7534,11843],[0,-8]],[[7534,11835],[45,2]],[[7462,11672],[-18,-15]],[[7444,11657],[0,51]],[[7444,11708],[0,46]],[[7295,11275],[-13,16]],[[7039,11542],[-153,156]],[[7336,12041],[-9,-92]],[[7327,11949],[0,-35]],[[7327,11914],[-9,-26]],[[7318,11888],[4,-30]],[[7322,11858],[18,-64]],[[7340,11794],[23,-79]],[[7395,11718],[4,-13]],[[7399,11705],[45,-48]],[[7363,11876],[4,43]],[[7367,11919],[28,0]],[[7395,11876],[-32,0]],[[7367,11919],[-40,-5]],[[7327,11949],[68,0]],[[7395,11957],[-19,23]],[[7376,11980],[50,-3]],[[7376,11980],[-13,20]],[[7363,12000],[22,38]],[[7363,11876],[-45,12]],[[7340,11825],[0,-31]],[[7322,11858],[9,0]],[[7331,11858],[9,0]],[[7444,11708],[-45,-3]],[[7363,12000],[-27,41]],[[7363,11876],[-32,-18]],[[7367,11797],[-27,-3]],[[7543,11919],[41,25]],[[8327,15316],[-379,56],[18,-709],[-94,-222]],[[7624,14441],[14,387],[-442,-109]],[[6877,14940],[58,989]],[[6935,15929],[234,0]],[[7169,15929],[464,-5]],[[7633,15924],[694,-5]],[[8327,15919],[0,-590],[0,-13]],[[5796,14940],[-374,-71]],[[5422,14869],[9,284],[225,168],[-49,478]],[[5607,15799],[126,369]],[[5733,16168],[608,-56]],[[6341,16112],[4,-241]],[[6345,15871],[-9,-934]],[[8327,15316],[0,-875]],[[6345,15871],[248,15],[180,198]],[[6773,16084],[81,-155]],[[6854,15929],[81,0]],[[4224,15072],[5,-142]],[[4229,14930],[-171,5],[-82,119]],[[3976,15054],[118,64]],[[4094,15118],[130,-46]],[[4562,16786],[-333,-3]],[[4229,16783],[-14,1063]],[[4215,17846],[658,0]],[[4873,17846],[-86,-134],[122,-298]],[[4909,17414],[-347,-628]],[[3742,15743],[-54,16]],[[3688,15759],[5,122],[0,333],[0,152]],[[3693,16366],[112,-94],[36,120],[271,147],[94,-208]],[[4206,16331],[0,-371]],[[4206,15960],[-99,-227]],[[4107,15733],[-95,267],[-90,-66],[68,-170]],[[3990,15764],[-99,157],[27,-134],[-63,66],[-113,-110]],[[4661,14848],[-225,265]],[[4436,15113],[-59,175]],[[4377,15288],[45,244],[-103,-112]],[[4319,15420],[-14,250]],[[4305,15670],[-13,129]],[[4292,15799],[1315,0]],[[5422,14869],[-68,-21]],[[5354,14848],[-477,0]],[[4877,14848],[-216,0]],[[4377,15288],[-144,97]],[[4233,15385],[14,25]],[[4247,15410],[72,10]],[[5490,14233],[-397,481]],[[5093,14714],[261,134]],[[4125,14630],[27,-94],[-131,40],[32,-137]],[[4053,14439],[-41,41],[-247,223],[-27,26]],[[3738,14729],[81,28]],[[3819,14757],[193,-3],[113,-124]],[[4229,16783],[-23,-452]],[[3693,16366],[-5,649],[0,407],[0,178],[0,246],[500,0],[27,0]],[[3738,14729],[-9,7],[-9,153]],[[3720,14889],[63,0]],[[3783,14889],[40,-71]],[[3823,14818],[-4,-61]],[[5526,16649],[108,521]],[[5634,17170],[72,102],[306,-49]],[[6012,17223],[0,-246]],[[6012,16977],[0,-153]],[[6012,16824],[0,-353],[-167,-10],[-54,-123]],[[5791,16338],[0,148],[-252,15],[-13,148]],[[4346,14172],[193,8],[5,434],[-81,110],[58,119]],[[4521,14843],[68,-201],[176,-101],[126,86],[-14,221]],[[5093,14714],[-202,-140],[117,-272],[-117,-54],[94,-130],[-103,-48],[-117,-287]],[[4765,13783],[-212,196],[-207,193]],[[5791,16338],[-27,-73]],[[5764,16265],[-130,-219],[-90,150],[-545,-53],[-27,195],[-221,120],[18,219]],[[4769,16677],[608,2],[45,-104],[104,74]],[[4292,15799],[-90,-2],[4,163]],[[4562,16786],[207,-109]],[[5764,16265],[-31,-97]],[[4913,13640],[-4,5],[-95,89],[-49,49]],[[4224,14808],[-99,-158]],[[4125,14650],[0,-20]],[[3823,14818],[59,43]],[[3882,14861],[158,0]],[[4040,14861],[121,0]],[[4161,14861],[63,-53]],[[4305,15670],[-153,-82]],[[4152,15588],[-140,143]],[[4012,15731],[109,-89],[-14,91]],[[5611,17852],[-184,-336],[-9,-285]],[[5418,17231],[-419,51],[-90,132]],[[4873,17846],[220,3],[518,3]],[[5634,17170],[-149,-33],[-67,94]],[[5611,17852],[396,0],[5,0]],[[6012,17852],[0,-629]],[[4521,14843],[140,5]],[[4094,15118],[139,267]],[[4436,15113],[-212,-41]],[[4238,14637],[-113,13]],[[4224,14808],[14,-171]],[[3895,15352],[32,-43]],[[3927,15309],[-68,5]],[[3859,15314],[0,38]],[[3859,15352],[23,2]],[[3882,15354],[13,-2]],[[3859,15352],[-18,15]],[[3841,15367],[41,51]],[[3882,15418],[0,-64]],[[3927,15306],[0,3]],[[3895,15352],[131,30]],[[4026,15382],[72,-28]],[[4098,15354],[-171,-48]],[[3882,15418],[4,97]],[[3886,15515],[140,-11],[0,-122]],[[3940,15092],[-13,140]],[[3927,15232],[0,74]],[[4098,15354],[135,49]],[[4233,15403],[14,7]],[[3976,15054],[-63,-23]],[[3913,15031],[27,61]],[[4233,15403],[-81,185]],[[4238,14637],[144,-150],[-171,-191]],[[4211,14296],[-77,72],[-81,71]],[[4161,14861],[68,69]],[[4346,14172],[-5,2],[-130,122]],[[3832,15105],[-54,-165]],[[3778,14940],[-36,2]],[[3742,14942],[-58,59],[0,97],[0,33],[0,35]],[[3684,15166],[130,8]],[[3814,15174],[-49,-76],[67,7]],[[3855,15319],[-18,-18]],[[3837,15301],[-9,10]],[[3828,15311],[4,13]],[[3832,15324],[23,-5]],[[3850,15263],[-13,38]],[[3855,15319],[4,-5]],[[3927,15232],[-77,31]],[[3796,15298],[-9,36]],[[3787,15334],[36,23]],[[3823,15357],[9,-33]],[[3828,15311],[-32,-13]],[[3841,15367],[-18,-10]],[[3787,15334],[-99,61]],[[3688,15395],[0,120],[0,244]],[[3742,15743],[144,-228]],[[3850,15263],[-36,-89]],[[3684,15166],[0,64],[4,23]],[[3688,15253],[108,45]],[[3990,15764],[22,-33]],[[3940,15092],[-108,13]],[[3688,15253],[0,142]],[[3882,14861],[-18,31]],[[3864,14892],[4,55]],[[3868,14947],[162,23],[10,-109]],[[3864,14892],[-81,-3]],[[3720,14889],[22,53]],[[3778,14940],[81,53]],[[3859,14993],[9,-46]],[[3913,15031],[-54,-38]],[[7156,16753],[-311,-201]],[[6845,16552],[-81,53],[99,257],[-63,105],[-221,-5]],[[6579,16962],[14,94]],[[6593,17056],[131,111],[18,186],[225,109]],[[6967,17462],[229,-302],[-40,-407]],[[6854,15929],[-9,623]],[[7156,16753],[162,104]],[[7318,16857],[117,-165],[-22,-239]],[[7413,16453],[-244,-524]],[[6012,16824],[338,3]],[[6350,16827],[-9,-623],[72,28],[-72,-120]],[[6350,16827],[220,-3]],[[6570,16824],[113,-7],[90,-733]],[[6570,16824],[9,138]],[[6967,17462],[180,145],[-68,156]],[[7079,17763],[176,28],[27,-250],[122,13],[-59,-120],[81,-5],[59,-185]],[[7485,17244],[-167,-387]],[[7858,17846],[-148,-315],[36,-160],[-185,5],[-76,-132]],[[7079,17763],[-49,86]],[[7030,17849],[527,-3],[301,0]],[[6593,17056],[-581,-79]],[[6012,17852],[1018,-3]],[[7413,16453],[166,-221],[-40,-163],[94,-145]],[[7858,17846],[289,0],[184,-2],[0,-1020],[-4,-905]]]}