{"type":"Topology","transform":{"scale":[0.0012831345112129487,0.0009745357309423489],"translate":[-124.73273099999999,24.60334863324381]},"objects":{"area":{"type":"GeometryCollection","geometries":[{"arcs":[[0,1,2]],"type":"Polygon","properties":{"state":"OH","name":"ALEXANDRIA","zip":"43001"}},{"arcs":[[3,4,5]],"type":"Polygon","properties":{"state":"OH","name":"AMLIN","zip":"43002"}},{"arcs":[[6,7,8,9,10]],"type":"Polygon","properties":{"state":"OH","name":"ASHLEY","zip":"43003"}},{"arcs":[[11,12,13,14,15]],"type":"Polygon","properties":{"state":"OH","name":"BLACKLICK","zip":"43004"}},{"arcs":[[16,17,18,19,20]],"type":"Polygon","properties":{"state":"OH","name":"BRINKHAVEN","zip":"43006"}},{"arcs":[[21,22,23,24,25,26]],"type":"Polygon","properties":{"state":"OH","name":"CABLE","zip":"43009"}},{"arcs":[[27,28,29,30,31,32]],"type":"Polygon","properties":{"state":"OH","name":"CENTERBURG","zip":"43011"}},{"arcs":[[33,34,-30]],"type":"Polygon","properties":{"state":"OH","name":"CROTON","zip":"43013"}},{"arcs":[[35,36,37,38,39,-18]],"type":"Polygon","properties":{"state":"OH","name":"DANVILLE","zip":"43014"}},{"arcs":[[40,41,42,43,-8,44,45,46,47,48]],"type":"Polygon","properties":{"state":"OH","name":"DELAWARE","zip":"43015"}},{"arcs":[[[49,50,51]],[[52,-6,53,54,55]]],"type":"MultiPolygon","properties":{"state":"OH","name":"DUBLIN","zip":"43016"}},{"arcs":[[56,57,-55,58,59,-50,60]],"type":"Polygon","properties":{"state":"OH","name":"DUBLIN","zip":"43017"}},{"arcs":[[61,62,63,64,65,66]],"type":"Polygon","properties":{"state":"OH","name":"FREDERICKTOWN","zip":"43019"}},{"arcs":[[67,68,69,-46]],"type":"Polygon","properties":{"state":"OH","name":"GALENA","zip":"43021"}},{"arcs":[[70,71,72,73,74]],"type":"Polygon","properties":{"state":"OH","name":"GAMBIER","zip":"43022"}},{"arcs":[[75,76,77,-1,78,79]],"type":"Polygon","properties":{"state":"OH","name":"GRANVILLE","zip":"43023"}},{"arcs":[[80,81,-77,82,83]],"type":"Polygon","properties":{"state":"OH","name":"HEBRON","zip":"43025"}},{"arcs":[[84,85,-4,-53,86,87,88]],"type":"Polygon","properties":{"state":"OH","name":"HILLIARD","zip":"43026"}},{"arcs":[[89,-74,90,91,-37]],"type":"Polygon","properties":{"state":"OH","name":"HOWARD","zip":"43028"}},{"arcs":[[92,93]],"type":"Polygon","properties":{"state":"OH","name":"IRWIN","zip":"43029"}},{"arcs":[[-3,94,95,96,97,-34,-29,98,99,-79]],"type":"Polygon","properties":{"state":"OH","name":"JOHNSTOWN","zip":"43031"}},{"arcs":[[100,101,102,-47,-70,103]],"type":"Polygon","properties":{"state":"OH","name":"LEWIS CENTER","zip":"43035"}},{"arcs":[[104,105,-71]],"type":"Polygon","properties":{"state":"OH","name":"MARTINSBURG","zip":"43037"}},{"arcs":[[106,-41,107,108,109,110,111,112,113,114]],"type":"Polygon","properties":{"state":"OH","name":"MARYSVILLE","zip":"43040"}},{"arcs":[[115,116,-23,117,-93,118,119,120,121]],"type":"Polygon","properties":{"state":"OH","name":"MECHANICSBURG","zip":"43044"}},{"arcs":[[122,123,-109,124,-119,-94]],"type":"Polygon","properties":{"state":"OH","name":"MILFORD CENTER","zip":"43045"}},{"arcs":[[125,126,127,-81,128]],"type":"Polygon","properties":{"state":"OH","name":"MILLERSPORT","zip":"43046"}},{"arcs":[[129,-33,130,-66,131,-91,-73]],"type":"Polygon","properties":{"state":"OH","name":"MOUNT VERNON","zip":"43050"}},{"arcs":[[132,-14,133,134,135,-96]],"type":"Polygon","properties":{"state":"OH","name":"NEW ALBANY","zip":"43054"}},{"arcs":[[136,137,-80,-100,138,139,140]],"type":"Polygon","properties":{"state":"OH","name":"NEWARK","zip":"43055"}},{"arcs":[[141,-83,-76,-138,142,143,144]],"type":"Polygon","properties":{"state":"OH","name":"HEATH","zip":"43056"}},{"arcs":[[145,-27,146,147,-110,-124]],"type":"Polygon","properties":{"state":"OH","name":"NORTH LEWISBURG","zip":"43060"}},{"arcs":[[148,-42,-107]],"type":"Polygon","properties":{"state":"OH","name":"OSTRANDER","zip":"43061"}},{"arcs":[[149,-15,-133,-95,-2,-78,-82,-128,150,151]],"type":"Polygon","properties":{"state":"OH","name":"PATASKALA","zip":"43062"}},{"arcs":[[-125,-108,-49,152,-59,-54,-5,-86,153,154,-120]],"type":"Polygon","properties":{"state":"OH","name":"PLAIN CITY","zip":"43064"}},{"arcs":[[-153,-48,-103,155,-51,-60]],"type":"Polygon","properties":{"state":"OH","name":"POWELL","zip":"43065"}},{"arcs":[[156,157,158,-43,-149,-115]],"type":"Polygon","properties":{"state":"OH","name":"RADNOR","zip":"43066"}},{"arcs":[[159,160,-113]],"type":"Polygon","properties":{"state":"OH","name":"RAYMOND","zip":"43067"}},{"arcs":[[161,162,-16,-150,163,164]],"type":"Polygon","properties":{"state":"OH","name":"REYNOLDSBURG","zip":"43068"}},{"arcs":[[165,166,-140]],"type":"Polygon","properties":{"state":"OH","name":"SAINT LOUISVILLE","zip":"43071"}},{"arcs":[[167,168,169,170,171,172]],"type":"Polygon","properties":{"state":"OH","name":"SAINT PARIS","zip":"43072"}},{"arcs":[[-45,-7,173,-31,-35,-98,174,-68]],"type":"Polygon","properties":{"state":"OH","name":"SUNBURY","zip":"43074"}},{"arcs":[[175,-129,-84,-142,176,177,178]],"type":"Polygon","properties":{"state":"OH","name":"THORNVILLE","zip":"43076"}},{"arcs":[[179,180,-24,-117,181,-171]],"type":"Polygon","properties":{"state":"OH","name":"URBANA","zip":"43078"}},{"arcs":[[-28,-130,-72,-106,182,183,-166,-139,-99]],"type":"Polygon","properties":{"state":"OH","name":"UTICA","zip":"43080"}},{"arcs":[[184,185,186,187,188,189,-135,190]],"type":"Polygon","properties":{"state":"OH","name":"WESTERVILLE","zip":"43081"}},{"arcs":[[-136,-190,191,-104,-69,-175,-97]],"type":"Polygon","properties":{"state":"OH","name":"WESTERVILLE","zip":"43082"}},{"arcs":[[-118,-22,-146,-123]],"type":"Polygon","properties":{"state":"OH","name":"WOODSTOCK","zip":"43084"}},{"arcs":[[192,-187,193,194]],"type":"Polygon","properties":{"state":"OH","name":"COLUMBUS","zip":"43085"}},{"arcs":[[195,196,197,198,199,200]],"type":"Polygon","properties":{"state":"OH","name":"AMANDA","zip":"43102"}},{"arcs":[[201,202,203,204,205,-197]],"type":"Polygon","properties":{"state":"OH","name":"ASHVILLE","zip":"43103"}},{"arcs":[[206,207,208,209,-151,-127]],"type":"Polygon","properties":{"state":"OH","name":"BALTIMORE","zip":"43105"}},{"arcs":[[210,211,212,213]],"type":"Polygon","properties":{"state":"OH","name":"BLOOMINGBURG","zip":"43106"}},{"arcs":[[214,215,216,217]],"type":"Polygon","properties":{"state":"OH","name":"BREMEN","zip":"43107"}},{"arcs":[[218,219,-165,220,221,222,-198,-206]],"type":"Polygon","properties":{"state":"OH","name":"CANAL WINCHESTER","zip":"43110"}},{"arcs":[[223,-209,224,-222]],"type":"Polygon","properties":{"state":"OH","name":"CARROLL","zip":"43112"}},{"arcs":[[225,226,-202,227,228,229,230]],"type":"Polygon","properties":{"state":"OH","name":"CIRCLEVILLE","zip":"43113"}},{"arcs":[[231,232,233,234,235]],"type":"Polygon","properties":{"state":"OH","name":"CLARKSBURG","zip":"43115"}},{"arcs":[[236,237,-89,238]],"type":"Polygon","properties":{"state":"OH","name":"GALLOWAY","zip":"43119"}},{"arcs":[[239,-237,240,241,242,243]],"type":"Polygon","properties":{"state":"OH","name":"GROVE CITY","zip":"43123"}},{"arcs":[[244,245,246,-219,-205]],"type":"Polygon","properties":{"state":"OH","name":"GROVEPORT","zip":"43125"}},{"arcs":[[247,248,-213,249]],"type":"Polygon","properties":{"state":"OH","name":"JEFFERSONVILLE","zip":"43128"}},{"arcs":[[250,251,252,-199,-223,-225,-208,253,254,-217]],"type":"Polygon","properties":{"state":"OH","name":"LANCASTER","zip":"43130"}},{"arcs":[[255,-229,256,-201,257,258,259]],"type":"Polygon","properties":{"state":"OH","name":"LAURELVILLE","zip":"43135"}},{"arcs":[[-204,260,-243,261,-245]],"type":"Polygon","properties":{"state":"OH","name":"LOCKBOURNE","zip":"43137"}},{"arcs":[[262,263,-251,-216,264,265,266,267,268,269,270]],"type":"Polygon","properties":{"state":"OH","name":"LOGAN","zip":"43138"}},{"arcs":[[271,272,-121,-155,273,-240,274,275,276]],"type":"Polygon","properties":{"state":"OH","name":"LONDON","zip":"43140"}},{"arcs":[[277,-211,278,-276,279,280,281]],"type":"Polygon","properties":{"state":"OH","name":"MOUNT STERLING","zip":"43143"}},{"arcs":[[282,-282,283,-235]],"type":"Polygon","properties":{"state":"OH","name":"NEW HOLLAND","zip":"43145"}},{"arcs":[[284,-280,-275,-244,-261,-203,-227]],"type":"Polygon","properties":{"state":"OH","name":"ORIENT","zip":"43146"}},{"arcs":[[-221,-164,-152,-210,-224]],"type":"Polygon","properties":{"state":"OH","name":"PICKERINGTON","zip":"43147"}},{"arcs":[[285,-254,-207,-126,-176]],"type":"Polygon","properties":{"state":"OH","name":"PLEASANTVILLE","zip":"43148"}},{"arcs":[[-200,-253,286,-263,287,-258]],"type":"Polygon","properties":{"state":"OH","name":"ROCKBRIDGE","zip":"43149"}},{"arcs":[[288,289,-218,-255,-286,-179]],"type":"Polygon","properties":{"state":"OH","name":"RUSHVILLE","zip":"43150"}},{"arcs":[[290,291,292,293,-259,-288,-271]],"type":"Polygon","properties":{"state":"OH","name":"SOUTH BLOOMINGVILLE","zip":"43152"}},{"arcs":[[-214,-249,294,295,296,-277,-279]],"type":"Polygon","properties":{"state":"OH","name":"SOUTH SOLON","zip":"43153"}},{"arcs":[[-228,-196,-257]],"type":"Polygon","properties":{"state":"OH","name":"STOUTSVILLE","zip":"43154"}},{"arcs":[[-252,-264,-287]],"type":"Polygon","properties":{"state":"OH","name":"SUGAR GROVE","zip":"43155"}},{"arcs":[[297,298,-250,-212,-278,-283,-234,299,300,301]],"type":"Polygon","properties":{"state":"OH","name":"WASHINGTON COURT HOUSE","zip":"43160"}},{"arcs":[[-274,-154,-85,-238]],"type":"Polygon","properties":{"state":"OH","name":"WEST JEFFERSON","zip":"43162"}},{"arcs":[[302,-236,-284,-281,-285,-226]],"type":"Polygon","properties":{"state":"OH","name":"WILLIAMSPORT","zip":"43164"}},{"arcs":[[303,304,305,306,307,308,309]],"type":"Polygon","properties":{"state":"OH","name":"COLUMBUS","zip":"43201"}},{"arcs":[[310,311,312,313,314,-307]],"type":"Polygon","properties":{"state":"OH","name":"COLUMBUS","zip":"43202"}},{"arcs":[[315,316,-310,317]],"type":"Polygon","properties":{"state":"OH","name":"COLUMBUS","zip":"43203"}},{"arcs":[[318,319,320,321,322]],"type":"Polygon","properties":{"state":"OH","name":"COLUMBUS","zip":"43204"}},{"arcs":[[323,324,325,-316]],"type":"Polygon","properties":{"state":"OH","name":"COLUMBUS","zip":"43205"}},{"arcs":[[326,327,328,329,-325]],"type":"Polygon","properties":{"state":"OH","name":"COLUMBUS","zip":"43206"}},{"arcs":[[330,-328,331,332,-246,-262]],"type":"Polygon","properties":{"state":"OH","name":"COLUMBUS","zip":"43207"}},{"arcs":[[333,334,-332,-327,-324,335,336]],"type":"Polygon","properties":{"state":"OH","name":"COLUMBUS","zip":"43209"}},{"arcs":[[337,338,-311,-306]],"type":"Polygon","properties":{"state":"OH","name":"COLUMBUS","zip":"43210"}},{"arcs":[[339,-308,-315,340]],"type":"Polygon","properties":{"state":"OH","name":"COLUMBUS","zip":"43211"}},{"arcs":[[341,342,-338,-305]],"type":"Polygon","properties":{"state":"OH","name":"COLUMBUS","zip":"43212"}},{"arcs":[[343,344,-337,345,346,-12,-163]],"type":"Polygon","properties":{"state":"OH","name":"COLUMBUS","zip":"43213"}},{"arcs":[[347,-313,348,349,-195,350]],"type":"Polygon","properties":{"state":"OH","name":"COLUMBUS","zip":"43214"}},{"arcs":[[-330,351,352,-321,-342,-304,-317,-326]],"type":"Polygon","properties":{"state":"OH","name":"COLUMBUS","zip":"43215"}},{"arcs":[[-318,-309,-340,353,354,-346,-336]],"type":"Polygon","properties":{"state":"OH","name":"COLUMBUS","zip":"43219"}},{"arcs":[[355,-57,356,-349]],"type":"Polygon","properties":{"state":"OH","name":"COLUMBUS","zip":"43220"}},{"arcs":[[357,-87,-56,-58,-356,-312,-339,-343,-320]],"type":"Polygon","properties":{"state":"OH","name":"COLUMBUS","zip":"43221"}},{"arcs":[[358,-322,-353]],"type":"Polygon","properties":{"state":"OH","name":"COLUMBUS","zip":"43222"}},{"arcs":[[359,-323,-359,-352,-329,-331,-242]],"type":"Polygon","properties":{"state":"OH","name":"COLUMBUS","zip":"43223"}},{"arcs":[[-341,-314,-348,360,361,-354]],"type":"Polygon","properties":{"state":"OH","name":"COLUMBUS","zip":"43224"}},{"arcs":[[-345,362,-334]],"type":"Polygon","properties":{"state":"OH","name":"COLUMBUS","zip":"43227"}},{"arcs":[[-241,-239,-88,-358,-319,-360]],"type":"Polygon","properties":{"state":"OH","name":"COLUMBUS","zip":"43228"}},{"arcs":[[363,-361,-351,-194,-186]],"type":"Polygon","properties":{"state":"OH","name":"COLUMBUS","zip":"43229"}},{"arcs":[[-347,-355,364,-191,-134,-13]],"type":"Polygon","properties":{"state":"OH","name":"COLUMBUS","zip":"43230"}},{"arcs":[[-362,-364,-185,-365]],"type":"Polygon","properties":{"state":"OH","name":"COLUMBUS","zip":"43231"}},{"arcs":[[-335,-363,-344,-162,-220,-247,-333]],"type":"Polygon","properties":{"state":"OH","name":"COLUMBUS","zip":"43232"}},{"arcs":[[-52,-156,-102,-188,-193,-350,-357,-61]],"type":"Polygon","properties":{"state":"OH","name":"COLUMBUS","zip":"43235"}},{"arcs":[[-101,-192,-189]],"type":"Polygon","properties":{"state":"OH","name":"COLUMBUS","zip":"43240"}},{"arcs":[[365,366,367,368,369,370,371,372,373,374]],"type":"Polygon","properties":{"state":"OH","name":"MARION","zip":"43302"}},{"arcs":[[375,376,377,378,379,380,381,382,383]],"type":"Polygon","properties":{"state":"OH","name":"BELLE CENTER","zip":"43310"}},{"arcs":[[384,385,386,387,388,-377,389,390]],"type":"Polygon","properties":{"state":"OH","name":"BELLEFONTAINE","zip":"43311"}},{"arcs":[[391,392,-375,393,394]],"type":"Polygon","properties":{"state":"OH","name":"CALEDONIA","zip":"43314"}},{"arcs":[[-10,395,-366,-393,396,397,-62,398]],"type":"Polygon","properties":{"state":"OH","name":"CARDINGTON","zip":"43315"}},{"arcs":[[399,400,401,402,403,404,405,406]],"type":"Polygon","properties":{"state":"OH","name":"CAREY","zip":"43316"}},{"arcs":[[407,408,409,-387,410,-180,-170]],"type":"Polygon","properties":{"state":"OH","name":"DE GRAFF","zip":"43318"}},{"arcs":[[-148,411,412,-111]],"type":"Polygon","properties":{"state":"OH","name":"EAST LIBERTY","zip":"43319"}},{"arcs":[[413,-397,-392,414]],"type":"Polygon","properties":{"state":"OH","name":"EDISON","zip":"43320"}},{"arcs":[[415,416,417]],"type":"Polygon","properties":{"state":"OH","name":"HARPSTER","zip":"43323"}},{"arcs":[[418,419,420,-378,-389]],"type":"Polygon","properties":{"state":"OH","name":"HUNTSVILLE","zip":"43324"}},{"arcs":[[421,422,423,-384,424,425,426,427,428,429]],"type":"Polygon","properties":{"state":"OH","name":"KENTON","zip":"43326"}},{"arcs":[[430,431,432,433,434,-379,-421]],"type":"Polygon","properties":{"state":"OH","name":"LAKEVIEW","zip":"43331"}},{"arcs":[[435,436,-430,437,438,439,440,-370]],"type":"Polygon","properties":{"state":"OH","name":"LA RUE","zip":"43332"}},{"arcs":[[441,442,443,-432,444,-419,-388,-410]],"type":"Polygon","properties":{"state":"OH","name":"LEWISTOWN","zip":"43333"}},{"arcs":[[-399,-67,-131,-32,-174,-11]],"type":"Polygon","properties":{"state":"OH","name":"MARENGO","zip":"43334"}},{"arcs":[[445,-440,446,-416,447,-372]],"type":"Polygon","properties":{"state":"OH","name":"MORRAL","zip":"43337"}},{"arcs":[[448,449,450,-63,-398,-414]],"type":"Polygon","properties":{"state":"OH","name":"MOUNT GILEAD","zip":"43338"}},{"arcs":[[451,452,453,-422,-437]],"type":"Polygon","properties":{"state":"OH","name":"MOUNT VICTORY","zip":"43340"}},{"arcs":[[-441,-446,-371]],"type":"Polygon","properties":{"state":"OH","name":"NEW BLOOMINGTON","zip":"43341"}},{"arcs":[[454,-158,455,-368]],"type":"Polygon","properties":{"state":"OH","name":"PROSPECT","zip":"43342"}},{"arcs":[[456,457,458,-442,-409,459]],"type":"Polygon","properties":{"state":"OH","name":"QUINCY","zip":"43343"}},{"arcs":[[-114,-161,460,-452,-436,-369,-456,-157]],"type":"Polygon","properties":{"state":"OH","name":"RICHWOOD","zip":"43344"}},{"arcs":[[461,462,-423,-454]],"type":"Polygon","properties":{"state":"OH","name":"RIDGEWAY","zip":"43345"}},{"arcs":[[-435,463,-380]],"type":"Polygon","properties":{"state":"OH","name":"ROUNDHEAD","zip":"43346"}},{"arcs":[[464,-390,-376,-424,-463]],"type":"Polygon","properties":{"state":"OH","name":"RUSHSYLVANIA","zip":"43347"}},{"arcs":[[-431,-420,-445]],"type":"Polygon","properties":{"state":"OH","name":"RUSSELLS POINT","zip":"43348"}},{"arcs":[[465,466,-406,467,468,-417,-447,-439]],"type":"Polygon","properties":{"state":"OH","name":"UPPER SANDUSKY","zip":"43351"}},{"arcs":[[-455,-367,-396,-9,-44,-159]],"type":"Polygon","properties":{"state":"OH","name":"WALDO","zip":"43356"}},{"arcs":[[-181,-411,-386,469,-25]],"type":"Polygon","properties":{"state":"OH","name":"WEST LIBERTY","zip":"43357"}},{"arcs":[[-112,-413,470,-391,-465,-462,-453,-461,-160]],"type":"Polygon","properties":{"state":"OH","name":"WEST MANSFIELD","zip":"43358"}},{"arcs":[[471,472,-407,-467]],"type":"Polygon","properties":{"state":"OH","name":"WHARTON","zip":"43359"}},{"arcs":[[-470,-385,-471,-412,-147,-26]],"type":"Polygon","properties":{"state":"OH","name":"ZANESFIELD","zip":"43360"}},{"arcs":[[473,474,475,476,477,478,479,480]],"type":"Polygon","properties":{"state":"OH","name":"BOWLING GREEN","zip":"43402"}},{"arcs":[[481,482,483,484,485]],"type":"Polygon","properties":{"state":"OH","name":"BRADNER","zip":"43406"}},{"arcs":[[486,487,488]],"type":"Polygon","properties":{"state":"OH","name":"BURGOON","zip":"43407"}},{"arcs":[[489,490,491,492]],"type":"Polygon","properties":{"state":"OH","name":"CLYDE","zip":"43410"}},{"arcs":[[493,494,495,496,497,498]],"type":"Polygon","properties":{"state":"OH","name":"CURTICE","zip":"43412"}},{"arcs":[[499,500,501,502,503,504]],"type":"Polygon","properties":{"state":"OH","name":"CYGNET","zip":"43413"}},{"arcs":[[505,506,507,508,509,510,511]],"type":"Polygon","properties":{"state":"OH","name":"ELMORE","zip":"43416"}},{"arcs":[[512,513,514,-489,515,516,517,518,519,520,-492]],"type":"Polygon","properties":{"state":"OH","name":"FREMONT","zip":"43420"}},{"arcs":[[521,522,523,524,-507]],"type":"Polygon","properties":{"state":"OH","name":"GENOA","zip":"43430"}},{"arcs":[[525,526,-486,527,528,-512]],"type":"Polygon","properties":{"state":"OH","name":"GIBSONBURG","zip":"43431"}},{"arcs":[[529,530,-509]],"type":"Polygon","properties":{"state":"OH","name":"GRAYTOWN","zip":"43432"}},{"arcs":[[531,532,-482,-527,533,-516,-488]],"type":"Polygon","properties":{"state":"OH","name":"HELENA","zip":"43435"}},{"arcs":[[534,535]],"type":"Polygon","properties":{"state":"OH","name":"LAKESIDE MARBLEHEAD","zip":"43440"}},{"arcs":[[-526,-511,536,-517,-534]],"type":"Polygon","properties":{"state":"OH","name":"LINDSEY","zip":"43442"}},{"arcs":[[537,538,-481,539]],"type":"Polygon","properties":{"state":"OH","name":"LUCKEY","zip":"43443"}},{"arcs":[[-508,-525,540,-498,541,-530]],"type":"Polygon","properties":{"state":"OH","name":"MARTIN","zip":"43445"}},{"arcs":[[542,543,544,-499,-541,-524]],"type":"Polygon","properties":{"state":"OH","name":"MILLBURY","zip":"43447"}},{"arcs":[[-510,-531,-542,-497,545,546,-518,-537]],"type":"Polygon","properties":{"state":"OH","name":"OAK HARBOR","zip":"43449"}},{"arcs":[[547,-474,-539,548,-528,-485,549]],"type":"Polygon","properties":{"state":"OH","name":"PEMBERVILLE","zip":"43450"}},{"arcs":[[550,-502,551,-475,-548]],"type":"Polygon","properties":{"state":"OH","name":"PORTAGE","zip":"43451"}},{"arcs":[[-547,552,-535,553,-519]],"type":"Polygon","properties":{"state":"OH","name":"PORT CLINTON","zip":"43452"}},{"arcs":[[554,-483,-533,555,556]],"type":"Polygon","properties":{"state":"OH","name":"RISINGSUN","zip":"43457"}},{"arcs":[[557,558,559,560]],"type":"Polygon","properties":{"state":"OH","name":"ROSSFORD","zip":"43460"}},{"arcs":[[561,562,-476,-552,-501]],"type":"Polygon","properties":{"state":"OH","name":"RUDOLPH","zip":"43462"}},{"arcs":[[563,564,565,-493,-521,566]],"type":"Polygon","properties":{"state":"OH","name":"VICKERY","zip":"43464"}},{"arcs":[[567,568,-544]],"type":"Polygon","properties":{"state":"OH","name":"WALBRIDGE","zip":"43465"}},{"arcs":[[-551,-550,-484,-555,569,-503]],"type":"Polygon","properties":{"state":"OH","name":"WAYNE","zip":"43466"}},{"arcs":[[-529,-549,-538,570,-522,-506]],"type":"Polygon","properties":{"state":"OH","name":"WOODVILLE","zip":"43469"}},{"arcs":[[571,572,573,574]],"type":"Polygon","properties":{"state":"OH","name":"ALVORDTON","zip":"43501"}},{"arcs":[[575,576,577,578,579,580]],"type":"Polygon","properties":{"state":"OH","name":"ARCHBOLD","zip":"43502"}},{"arcs":[[581,582,583,584,585]],"type":"Polygon","properties":{"state":"OH","name":"BERKEY","zip":"43504"}},{"arcs":[[586,587,588,589,590,591]],"type":"Polygon","properties":{"state":"OH","name":"BRYAN","zip":"43506"}},{"arcs":[[592,593,594,595,-562,-500]],"type":"Polygon","properties":{"state":"OH","name":"CUSTAR","zip":"43511"}},{"arcs":[[596,597,598,599,600,601,602,-587,603,-581,604,605]],"type":"Polygon","properties":{"state":"OH","name":"DEFIANCE","zip":"43512"}},{"arcs":[[606,607,608,609,610]],"type":"Polygon","properties":{"state":"OH","name":"DELTA","zip":"43515"}},{"arcs":[[611,612,613,614,615,-594,616]],"type":"Polygon","properties":{"state":"OH","name":"DESHLER","zip":"43516"}},{"arcs":[[617,618,619,-589]],"type":"Polygon","properties":{"state":"OH","name":"EDGERTON","zip":"43517"}},{"arcs":[[620,621,-620]],"type":"Polygon","properties":{"state":"OH","name":"EDON","zip":"43518"}},{"arcs":[[622,-574,623,624,625,-578]],"type":"Polygon","properties":{"state":"OH","name":"FAYETTE","zip":"43521"}},{"arcs":[[626,627,628,629,630,631,-478]],"type":"Polygon","properties":{"state":"OH","name":"GRAND RAPIDS","zip":"43522"}},{"arcs":[[632,633,634,635,-614]],"type":"Polygon","properties":{"state":"OH","name":"HAMLER","zip":"43524"}},{"arcs":[[636,637,638,-618,639,640]],"type":"Polygon","properties":{"state":"OH","name":"HICKSVILLE","zip":"43526"}},{"arcs":[[641,-606,642,643,-635]],"type":"Polygon","properties":{"state":"OH","name":"HOLGATE","zip":"43527"}},{"arcs":[[644,-586,645,646,647,648,649]],"type":"Polygon","properties":{"state":"OH","name":"HOLLAND","zip":"43528"}},{"arcs":[[650,651,652,-611,653,-629]],"type":"Polygon","properties":{"state":"OH","name":"LIBERTY CENTER","zip":"43532"}},{"arcs":[[654,-625,655,656,-608]],"type":"Polygon","properties":{"state":"OH","name":"LYONS","zip":"43533"}},{"arcs":[[657,658,-651,-628,659,-595,-616]],"type":"Polygon","properties":{"state":"OH","name":"MC CLURE","zip":"43534"}},{"arcs":[[660,-658,-615,-636,-644]],"type":"Polygon","properties":{"state":"OH","name":"MALINTA","zip":"43535"}},{"arcs":[[661,-641,662,663]],"type":"Polygon","properties":{"state":"OH","name":"MARK CENTER","zip":"43536"}},{"arcs":[[664,-649,665,666,667,668]],"type":"Polygon","properties":{"state":"OH","name":"MAUMEE","zip":"43537"}},{"arcs":[[669,-609,-657,670,-583]],"type":"Polygon","properties":{"state":"OH","name":"METAMORA","zip":"43540"}},{"arcs":[[671,672,673,-650,-665]],"type":"Polygon","properties":{"state":"OH","name":"MONCLOVA","zip":"43542"}},{"arcs":[[-622,674,675,676,-590]],"type":"Polygon","properties":{"state":"OH","name":"MONTPELIER","zip":"43543"}},{"arcs":[[-580,677,-652,-659,-661,-643,-605]],"type":"Polygon","properties":{"state":"OH","name":"NAPOLEON","zip":"43545"}},{"arcs":[[678,679,-597,-642,-634]],"type":"Polygon","properties":{"state":"OH","name":"NEW BAVARIA","zip":"43548"}},{"arcs":[[680,-663,-640,-588,-603]],"type":"Polygon","properties":{"state":"OH","name":"NEY","zip":"43549"}},{"arcs":[[681,-668,682,-561,683,-568,-543,-523,-571,-540,-480]],"type":"Polygon","properties":{"state":"OH","name":"PERRYSBURG","zip":"43551"}},{"arcs":[[684,-676,685,-572]],"type":"Polygon","properties":{"state":"OH","name":"PIONEER","zip":"43554"}},{"arcs":[[-681,-602,686,-664]],"type":"Polygon","properties":{"state":"OH","name":"SHERWOOD","zip":"43556"}},{"arcs":[[-592,687,-576,-604]],"type":"Polygon","properties":{"state":"OH","name":"STRYKER","zip":"43557"}},{"arcs":[[688,-630,-654,-610,-670,-582,-645,-674]],"type":"Polygon","properties":{"state":"OH","name":"SWANTON","zip":"43558"}},{"arcs":[[689,-646,-585,690,691]],"type":"Polygon","properties":{"state":"OH","name":"SYLVANIA","zip":"43560"}},{"arcs":[[692,-672,-669,-682,-479,-632]],"type":"Polygon","properties":{"state":"OH","name":"WATERVILLE","zip":"43566"}},{"arcs":[[-678,-579,-626,-655,-607,-653]],"type":"Polygon","properties":{"state":"OH","name":"WAUSEON","zip":"43567"}},{"arcs":[[-563,-596,-660,-627,-477]],"type":"Polygon","properties":{"state":"OH","name":"WESTON","zip":"43569"}},{"arcs":[[-688,-591,-677,-685,-575,-623,-577]],"type":"Polygon","properties":{"state":"OH","name":"WEST UNITY","zip":"43570"}},{"arcs":[[-631,-689,-673,-693]],"type":"Polygon","properties":{"state":"OH","name":"WHITEHOUSE","zip":"43571"}},{"arcs":[[693,694,695,696,697]],"type":"Polygon","properties":{"state":"OH","name":"TOLEDO","zip":"43602"}},{"arcs":[[698,-696,699,700,701]],"type":"Polygon","properties":{"state":"OH","name":"TOLEDO","zip":"43604"}},{"arcs":[[702,-697,-699,703,704,705,706,-559]],"type":"Polygon","properties":{"state":"OH","name":"TOLEDO","zip":"43605"}},{"arcs":[[707,708,709,710,711,712,713]],"type":"Polygon","properties":{"state":"OH","name":"TOLEDO","zip":"43606"}},{"arcs":[[714,715,-708,-694]],"type":"Polygon","properties":{"state":"OH","name":"TOLEDO","zip":"43607"}},{"arcs":[[716,717,718,719,-701]],"type":"Polygon","properties":{"state":"OH","name":"TOLEDO","zip":"43608"}},{"arcs":[[-558,720,721,-715,-698,-703]],"type":"Polygon","properties":{"state":"OH","name":"TOLEDO","zip":"43609"}},{"arcs":[[722,-713,723,-718]],"type":"Polygon","properties":{"state":"OH","name":"TOLEDO","zip":"43610"}},{"arcs":[[-720,724,725,-704,-702]],"type":"Polygon","properties":{"state":"OH","name":"TOLEDO","zip":"43611"}},{"arcs":[[-712,726,727,-725,-719,-724]],"type":"Polygon","properties":{"state":"OH","name":"TOLEDO","zip":"43612"}},{"arcs":[[-711,728,729,-727]],"type":"Polygon","properties":{"state":"OH","name":"TOLEDO","zip":"43613"}},{"arcs":[[-667,730,-721,-683]],"type":"Polygon","properties":{"state":"OH","name":"TOLEDO","zip":"43614"}},{"arcs":[[731,732,-709,-716,-722,-731,-666,-648]],"type":"Polygon","properties":{"state":"OH","name":"TOLEDO","zip":"43615"}},{"arcs":[[733,734,-706,735]],"type":"Polygon","properties":{"state":"OH","name":"OREGON","zip":"43616"}},{"arcs":[[-647,-690,-732]],"type":"Polygon","properties":{"state":"OH","name":"TOLEDO","zip":"43617"}},{"arcs":[[736,-734,737,-495]],"type":"Polygon","properties":{"state":"OH","name":"OREGON","zip":"43618"}},{"arcs":[[-707,-735,-737,-494,-545,-569,-684,-560]],"type":"Polygon","properties":{"state":"OH","name":"NORTHWOOD","zip":"43619"}},{"arcs":[[-723,-717,738,-714]],"type":"Polygon","properties":{"state":"OH","name":"TOLEDO","zip":"43620"}},{"arcs":[[-692,739,-729,-710,-733]],"type":"Polygon","properties":{"state":"OH","name":"TOLEDO","zip":"43623"}},{"arcs":[[-695,-739,-700]],"type":"Polygon","properties":{"state":"OH","name":"TOLEDO","zip":"43624"}},{"arcs":[[740,741,742,743,744,745,746,747,748,749]],"type":"Polygon","properties":{"state":"OH","name":"ZANESVILLE","zip":"43701"}},{"arcs":[[750,751,752,753,754,755,756,757]],"type":"Polygon","properties":{"state":"OH","name":"BARNESVILLE","zip":"43713"}},{"arcs":[[758,759,760,761,762,763,764]],"type":"Polygon","properties":{"state":"OH","name":"BEALLSVILLE","zip":"43716"}},{"arcs":[[765,766,-761,767,768,769]],"type":"Polygon","properties":{"state":"OH","name":"BELMONT","zip":"43718"}},{"arcs":[[770,-756,771,-768,-760]],"type":"Polygon","properties":{"state":"OH","name":"BETHESDA","zip":"43719"}},{"arcs":[[772,773,774,775,776,777,778]],"type":"Polygon","properties":{"state":"OH","name":"BLUE ROCK","zip":"43720"}},{"arcs":[[779,780,781,782]],"type":"Polygon","properties":{"state":"OH","name":"BYESVILLE","zip":"43723"}},{"arcs":[[783,784,785,786,787,788,789,790,791,792,793,794]],"type":"Polygon","properties":{"state":"OH","name":"CALDWELL","zip":"43724"}},{"arcs":[[795,796,797,798,799,-783]],"type":"Polygon","properties":{"state":"OH","name":"CAMBRIDGE","zip":"43725"}},{"arcs":[[800,801,-777,802,-750,803]],"type":"Polygon","properties":{"state":"OH","name":"CHANDLERSVILLE","zip":"43727"}},{"arcs":[[804,805,806,807,808]],"type":"Polygon","properties":{"state":"OH","name":"CHESTERHILL","zip":"43728"}},{"arcs":[[809,810,811,812,813,814]],"type":"Polygon","properties":{"state":"OH","name":"CORNING","zip":"43730"}},{"arcs":[[815,816,-812,817,818,-773]],"type":"Polygon","properties":{"state":"OH","name":"CROOKSVILLE","zip":"43731"}},{"arcs":[[-802,819,-796,-782,820,-789,821,-778]],"type":"Polygon","properties":{"state":"OH","name":"CUMBERLAND","zip":"43732"}},{"arcs":[[822,-741,-803,-776]],"type":"Polygon","properties":{"state":"OH","name":"DUNCAN FALLS","zip":"43734"}},{"arcs":[[823,-177,824]],"type":"Polygon","properties":{"state":"OH","name":"GLENFORD","zip":"43739"}},{"arcs":[[825,-144,826,-745]],"type":"Polygon","properties":{"state":"OH","name":"HOPEWELL","zip":"43746"}},{"arcs":[[827,-757,-771,-759]],"type":"Polygon","properties":{"state":"OH","name":"JERUSALEM","zip":"43747"}},{"arcs":[[-290,828,829,830,-265,-215]],"type":"Polygon","properties":{"state":"OH","name":"JUNCTION CITY","zip":"43748"}},{"arcs":[[831,832,833,834,835,836,837,-798]],"type":"Polygon","properties":{"state":"OH","name":"KIMBOLTON","zip":"43749"}},{"arcs":[[838,839,-794,840,841]],"type":"Polygon","properties":{"state":"OH","name":"LEWISVILLE","zip":"43754"}},{"arcs":[[842,843,-799,-838,844]],"type":"Polygon","properties":{"state":"OH","name":"LORE CITY","zip":"43755"}},{"arcs":[[845,-816,-779,-822,-788,846,847]],"type":"Polygon","properties":{"state":"OH","name":"MC CONNELSVILLE","zip":"43756"}},{"arcs":[[848,-813,-817,-846,849,-808]],"type":"Polygon","properties":{"state":"OH","name":"MALTA","zip":"43758"}},{"arcs":[[-145,-826,-744,850,851,-825]],"type":"Polygon","properties":{"state":"OH","name":"MOUNT PERRY","zip":"43760"}},{"arcs":[[852,853,854,-832,-797,-820,-801]],"type":"Polygon","properties":{"state":"OH","name":"NEW CONCORD","zip":"43762"}},{"arcs":[[855,-830,856,-852,857,-818,-811,858]],"type":"Polygon","properties":{"state":"OH","name":"NEW LEXINGTON","zip":"43764"}},{"arcs":[[-831,-856,859,-815,860,-266]],"type":"Polygon","properties":{"state":"OH","name":"NEW STRAITSVILLE","zip":"43766"}},{"arcs":[[-804,-749,861,-853]],"type":"Polygon","properties":{"state":"OH","name":"NORWICH","zip":"43767"}},{"arcs":[[862,-742,-823,-775]],"type":"Polygon","properties":{"state":"OH","name":"PHILO","zip":"43771"}},{"arcs":[[-821,-781,863,-790]],"type":"Polygon","properties":{"state":"OH","name":"PLEASANT CITY","zip":"43772"}},{"arcs":[[864,865,866,-845,-837,867,-752]],"type":"Polygon","properties":{"state":"OH","name":"QUAKER CITY","zip":"43773"}},{"arcs":[[-851,-743,-863,-774,-819,-858]],"type":"Polygon","properties":{"state":"OH","name":"ROSEVILLE","zip":"43777"}},{"arcs":[[868,-843,-867]],"type":"Polygon","properties":{"state":"OH","name":"SALESVILLE","zip":"43778"}},{"arcs":[[869,870,-792]],"type":"Polygon","properties":{"state":"OH","name":"SARAHSVILLE","zip":"43779"}},{"arcs":[[-864,-780,-800,-844,-869,-866,871,-870,-791]],"type":"Polygon","properties":{"state":"OH","name":"SENECAVILLE","zip":"43780"}},{"arcs":[[-859,-810,-860]],"type":"Polygon","properties":{"state":"OH","name":"SHAWNEE","zip":"43782"}},{"arcs":[[-829,-289,-178,-824,-857]],"type":"Polygon","properties":{"state":"OH","name":"SOMERSET","zip":"43783"}},{"arcs":[[-850,-848,872,873,874,-809]],"type":"Polygon","properties":{"state":"OH","name":"STOCKPORT","zip":"43787"}},{"arcs":[[-872,-865,-751,875,-841,-793,-871]],"type":"Polygon","properties":{"state":"OH","name":"SUMMERFIELD","zip":"43788"}},{"arcs":[[876,-842,-876,-758,-828,-765,877,878,879]],"type":"Polygon","properties":{"state":"OH","name":"WOODSFIELD","zip":"43793"}},{"arcs":[[880,881,882,-854,-862,-748]],"type":"Polygon","properties":{"state":"OH","name":"ADAMSVILLE","zip":"43802"}},{"arcs":[[883,884,885,886]],"type":"Polygon","properties":{"state":"OH","name":"BALTIC","zip":"43804"}},{"arcs":[[887,888,-882]],"type":"Polygon","properties":{"state":"OH","name":"CONESVILLE","zip":"43811"}},{"arcs":[[889,890,891,892,893,894,895,-833,-855,-883,-889]],"type":"Polygon","properties":{"state":"OH","name":"COSHOCTON","zip":"43812"}},{"arcs":[[896,897,898,-890,-888,-881,-747]],"type":"Polygon","properties":{"state":"OH","name":"DRESDEN","zip":"43821"}},{"arcs":[[-167,-184,899,900,-898,901,-141]],"type":"Polygon","properties":{"state":"OH","name":"FRAZEYSBURG","zip":"43822"}},{"arcs":[[902,903,-894,904,-886,905]],"type":"Polygon","properties":{"state":"OH","name":"FRESNO","zip":"43824"}},{"arcs":[[-143,-137,-902,-897,-746,-827]],"type":"Polygon","properties":{"state":"OH","name":"NASHPORT","zip":"43830"}},{"arcs":[[906,-903,907,908,-834,-896]],"type":"Polygon","properties":{"state":"OH","name":"NEWCOMERSTOWN","zip":"43832"}},{"arcs":[[909,910,-835,-909,911,912,913,914]],"type":"Polygon","properties":{"state":"OH","name":"PORT WASHINGTON","zip":"43837"}},{"arcs":[[-885,915,916,-912,-908,-906]],"type":"Polygon","properties":{"state":"OH","name":"STONE CREEK","zip":"43840"}},{"arcs":[[-105,-75,-90,-36,-17,917,-900,-183]],"type":"Polygon","properties":{"state":"OH","name":"WALHONDING","zip":"43843"}},{"arcs":[[-899,-901,-918,-21,918,-891]],"type":"Polygon","properties":{"state":"OH","name":"WARSAW","zip":"43844"}},{"arcs":[[-904,-907,-895]],"type":"Polygon","properties":{"state":"OH","name":"WEST LAFAYETTE","zip":"43845"}},{"arcs":[[919,920,921]],"type":"Polygon","properties":{"state":"OH","name":"ADENA","zip":"43901"}},{"arcs":[[-767,922,923,-762]],"type":"Polygon","properties":{"state":"OH","name":"ALLEDONIA","zip":"43902"}},{"arcs":[[924,925,926,927,928,929]],"type":"Polygon","properties":{"state":"OH","name":"AMSTERDAM","zip":"43903"}},{"arcs":[[930,931,932,933,934]],"type":"Polygon","properties":{"state":"OH","name":"BELLAIRE","zip":"43906"}},{"arcs":[[935,936,937,938,939,940,941,-921,942,943]],"type":"Polygon","properties":{"state":"OH","name":"CADIZ","zip":"43907"}},{"arcs":[[944,945,946,947,948,-928]],"type":"Polygon","properties":{"state":"OH","name":"BERGHOLZ","zip":"43908"}},{"arcs":[[949,-929,-949,950,951,952,-941]],"type":"Polygon","properties":{"state":"OH","name":"BLOOMINGDALE","zip":"43910"}},{"arcs":[[953,954,955,956,-934]],"type":"Polygon","properties":{"state":"OH","name":"BRIDGEPORT","zip":"43912"}},{"arcs":[[957,958,959]],"type":"Polygon","properties":{"state":"OH","name":"BRILLIANT","zip":"43913"}},{"arcs":[[-764,960,961,962,-878]],"type":"Polygon","properties":{"state":"OH","name":"CLARINGTON","zip":"43915"}},{"arcs":[[963,-922,-942,-953,964,965,966,-955]],"type":"Polygon","properties":{"state":"OH","name":"DILLONVALE","zip":"43917"}},{"arcs":[[967,968,969,970,971]],"type":"Polygon","properties":{"state":"OH","name":"EAST LIVERPOOL","zip":"43920"}},{"arcs":[[[972,973,974]],[[975,976,977,978]]],"type":"MultiPolygon","properties":{"state":"OH","name":"HAMMONDSVILLE","zip":"43930"}},{"arcs":[[979,-973,980,-977,981,982,-947]],"type":"Polygon","properties":{"state":"OH","name":"IRONDALE","zip":"43932"}},{"arcs":[[983,-923,-766,984,-932,985,986]],"type":"Polygon","properties":{"state":"OH","name":"JACOBSBURG","zip":"43933"}},{"arcs":[[-956,-967,987,988,989]],"type":"Polygon","properties":{"state":"OH","name":"MARTINS FERRY","zip":"43935"}},{"arcs":[[-959,990,991,992,993]],"type":"Polygon","properties":{"state":"OH","name":"MINGO JUNCTION","zip":"43938"}},{"arcs":[[-961,-763,-924,-984,994]],"type":"Polygon","properties":{"state":"OH","name":"POWHATAN POINT","zip":"43942"}},{"arcs":[[995,-988,-966,996,-991,-958,997,998]],"type":"Polygon","properties":{"state":"OH","name":"RAYLAND","zip":"43943"}},{"arcs":[[999,1000,-951,-948,-983,1001]],"type":"Polygon","properties":{"state":"OH","name":"RICHMOND","zip":"43944"}},{"arcs":[[1002,1003,1004,1005,1006,-974,-980,-946]],"type":"Polygon","properties":{"state":"OH","name":"SALINEVILLE","zip":"43945"}},{"arcs":[[1007,-879,-963,1008]],"type":"Polygon","properties":{"state":"OH","name":"SARDIS","zip":"43946"}},{"arcs":[[-986,-931,1009]],"type":"Polygon","properties":{"state":"OH","name":"SHADYSIDE","zip":"43947"}},{"arcs":[[1010,-943,-920,-964,-954,-933,-985,-770]],"type":"Polygon","properties":{"state":"OH","name":"SAINT CLAIRSVILLE","zip":"43950"}},{"arcs":[[-993,1011,-1000,1012,1013]],"type":"Polygon","properties":{"state":"OH","name":"STEUBENVILLE","zip":"43952"}},{"arcs":[[-1001,-1012,-992,-997,-965,-952]],"type":"Polygon","properties":{"state":"OH","name":"STEUBENVILLE","zip":"43953"}},{"arcs":[[1014,-999,1015]],"type":"Polygon","properties":{"state":"OH","name":"TILTONSVILLE","zip":"43963"}},{"arcs":[[-1013,-1002,-982,-976,1016]],"type":"Polygon","properties":{"state":"OH","name":"TORONTO","zip":"43964"}},{"arcs":[[-975,-1007,1017,-968,1018,-978,-981]],"type":"Polygon","properties":{"state":"OH","name":"WELLSVILLE","zip":"43968"}},{"arcs":[[-989,-996,-1015,1019]],"type":"Polygon","properties":{"state":"OH","name":"YORKVILLE","zip":"43971"}},{"arcs":[[1020,-753,-868,-836,-911,1021,-936,1022]],"type":"Polygon","properties":{"state":"OH","name":"FREEPORT","zip":"43973"}},{"arcs":[[-940,1023,-930,-950]],"type":"Polygon","properties":{"state":"OH","name":"HOPEDALE","zip":"43976"}},{"arcs":[[-772,-755,1024,-1023,-944,-1011,-769]],"type":"Polygon","properties":{"state":"OH","name":"FLUSHING","zip":"43977"}},{"arcs":[[-1021,-1025,-754]],"type":"Polygon","properties":{"state":"OH","name":"PIEDMONT","zip":"43983"}},{"arcs":[[-939,1025,-925,-1024]],"type":"Polygon","properties":{"state":"OH","name":"JEWETT","zip":"43986"}},{"arcs":[[1026,1027,1028,-926,-1026,-938,1029]],"type":"Polygon","properties":{"state":"OH","name":"SCIO","zip":"43988"}},{"arcs":[[1030,1031,1032,1033,1034]],"type":"Polygon","properties":{"state":"OH","name":"AMHERST","zip":"44001"}},{"arcs":[[1035,1036,1037,1038,1039]],"type":"Polygon","properties":{"state":"OH","name":"ANDOVER","zip":"44003"}},{"arcs":[[1040,1041,1042,1043,1044,1045]],"type":"Polygon","properties":{"state":"OH","name":"ASHTABULA","zip":"44004"}},{"arcs":[[1046,1047,1048,-1042]],"type":"Polygon","properties":{"state":"OH","name":"AUSTINBURG","zip":"44010"}},{"arcs":[[1049,1050,1051,1052,1053]],"type":"Polygon","properties":{"state":"OH","name":"AVON","zip":"44011"}},{"arcs":[[1054,-1053,1055,1056]],"type":"Polygon","properties":{"state":"OH","name":"AVON LAKE","zip":"44012"}},{"arcs":[[1057,1058,1059,1060]],"type":"Polygon","properties":{"state":"OH","name":"BEREA","zip":"44017"}},{"arcs":[[1061,1062,1063,1064,1065,1066,1067,1068]],"type":"Polygon","properties":{"state":"OH","name":"BURTON","zip":"44021"}},{"arcs":[[1069,1070,1071,1072,1073,1074,1075,1076,1077]],"type":"Polygon","properties":{"state":"OH","name":"CHAGRIN FALLS","zip":"44022"}},{"arcs":[[1078,-1077,1079,-1064,1080,1081]],"type":"Polygon","properties":{"state":"OH","name":"CHAGRIN FALLS","zip":"44023"}},{"arcs":[[1082,1083,1084,1085,1086,1087,1088,-1066,1089]],"type":"Polygon","properties":{"state":"OH","name":"CHARDON","zip":"44024"}},{"arcs":[[1090,1091,-1074,1092,1093,-1083]],"type":"Polygon","properties":{"state":"OH","name":"CHESTERLAND","zip":"44026"}},{"arcs":[[1094,1095,1096,1097,1098]],"type":"Polygon","properties":{"state":"OH","name":"COLUMBIA STATION","zip":"44028"}},{"arcs":[[1099,1100,-1045,1101]],"type":"Polygon","properties":{"state":"OH","name":"CONNEAUT","zip":"44030"}},{"arcs":[[1102,1103,-1039]],"type":"Polygon","properties":{"state":"OH","name":"DORSET","zip":"44032"}},{"arcs":[[1104,1105,1106,-1034,1107,1108,1109,-1051,1110]],"type":"Polygon","properties":{"state":"OH","name":"ELYRIA","zip":"44035"}},{"arcs":[[1111,-1111,-1050,1112,1113,1114,-1097]],"type":"Polygon","properties":{"state":"OH","name":"NORTH RIDGEVILLE","zip":"44039"}},{"arcs":[[1115,1116,1117,-1093,-1073]],"type":"Polygon","properties":{"state":"OH","name":"GATES MILLS","zip":"44040"}},{"arcs":[[1118,1119,-1043,-1049,1120,1121]],"type":"Polygon","properties":{"state":"OH","name":"GENEVA","zip":"44041"}},{"arcs":[[1122,1123,1124,1125,-1105,-1112,-1096,1126]],"type":"Polygon","properties":{"state":"OH","name":"GRAFTON","zip":"44044"}},{"arcs":[[1127,-1067,-1089,1128,1129]],"type":"Polygon","properties":{"state":"OH","name":"HUNTSBURG","zip":"44046"}},{"arcs":[[1130,1131,-1047,-1041,1132,1133,-1103,-1038,1134,1135]],"type":"Polygon","properties":{"state":"OH","name":"JEFFERSON","zip":"44047"}},{"arcs":[[1136,-1133,-1046,-1101]],"type":"Polygon","properties":{"state":"OH","name":"KINGSVILLE","zip":"44048"}},{"arcs":[[1137,1138,-1106,-1126]],"type":"Polygon","properties":{"state":"OH","name":"LAGRANGE","zip":"44050"}},{"arcs":[[1139,1140,1141,1142]],"type":"Polygon","properties":{"state":"OH","name":"LORAIN","zip":"44052"}},{"arcs":[[1143,1144,-1141,1145,-1108,-1033]],"type":"Polygon","properties":{"state":"OH","name":"LORAIN","zip":"44053"}},{"arcs":[[-1110,1146,-1143,1147,-1056,-1052]],"type":"Polygon","properties":{"state":"OH","name":"SHEFFIELD LAKE","zip":"44054"}},{"arcs":[[-1140,-1147,-1109,-1146]],"type":"Polygon","properties":{"state":"OH","name":"LORAIN","zip":"44055"}},{"arcs":[[1148,1149,1150,1151]],"type":"Polygon","properties":{"state":"OH","name":"MACEDONIA","zip":"44056"}},{"arcs":[[1152,1153,1154,-1119,1155]],"type":"Polygon","properties":{"state":"OH","name":"MADISON","zip":"44057"}},{"arcs":[[1156,1157,1158,-1085]],"type":"Polygon","properties":{"state":"OH","name":"MENTOR","zip":"44060"}},{"arcs":[[1159,1160,-1068,-1128,1161,1162]],"type":"Polygon","properties":{"state":"OH","name":"MIDDLEFIELD","zip":"44062"}},{"arcs":[[-1088,1163,1164,-1129]],"type":"Polygon","properties":{"state":"OH","name":"MONTVILLE","zip":"44064"}},{"arcs":[[-1080,-1076,1165,-1091,-1090,-1065]],"type":"Polygon","properties":{"state":"OH","name":"NEWBURY","zip":"44065"}},{"arcs":[[1166,1167,1168,1169,1170,-1151]],"type":"Polygon","properties":{"state":"OH","name":"NORTHFIELD","zip":"44067"}},{"arcs":[[1171,1172,1173,1174,-1114]],"type":"Polygon","properties":{"state":"OH","name":"NORTH OLMSTED","zip":"44070"}},{"arcs":[[-1092,-1166,-1075]],"type":"Polygon","properties":{"state":"OH","name":"NOVELTY","zip":"44072"}},{"arcs":[[1175,1176,-1035,-1107,-1139]],"type":"Polygon","properties":{"state":"OH","name":"OBERLIN","zip":"44074"}},{"arcs":[[1177,1178,1179,1180,1181,-1136]],"type":"Polygon","properties":{"state":"OH","name":"ORWELL","zip":"44076"}},{"arcs":[[1182,-1086,-1159,1183,1184,-1153]],"type":"Polygon","properties":{"state":"OH","name":"PAINESVILLE","zip":"44077"}},{"arcs":[[-1154,-1185,1185]],"type":"Polygon","properties":{"state":"OH","name":"PERRY","zip":"44081"}},{"arcs":[[1186,-1040,-1104,-1134,-1137,-1100]],"type":"Polygon","properties":{"state":"OH","name":"PIERPONT","zip":"44082"}},{"arcs":[[1187,-1121,-1048,-1132,1188]],"type":"Polygon","properties":{"state":"OH","name":"ROCK CREEK","zip":"44084"}},{"arcs":[[-1182,1189,1190,-1189,-1131]],"type":"Polygon","properties":{"state":"OH","name":"ROME","zip":"44085"}},{"arcs":[[-1183,-1156,-1122,-1188,-1191,-1164,-1087]],"type":"Polygon","properties":{"state":"OH","name":"THOMPSON","zip":"44086"}},{"arcs":[[1191,-1149,1192,1193]],"type":"Polygon","properties":{"state":"OH","name":"TWINSBURG","zip":"44087"}},{"arcs":[[1194,1195,-1144,-1032,1196,1197]],"type":"Polygon","properties":{"state":"OH","name":"VERMILION","zip":"44089"}},{"arcs":[[1198,1199,-1176,-1138,-1125,1200,1201,1202]],"type":"Polygon","properties":{"state":"OH","name":"WELLINGTON","zip":"44090"}},{"arcs":[[1203,1204,1205,1206]],"type":"Polygon","properties":{"state":"OH","name":"WICKLIFFE","zip":"44092"}},{"arcs":[[1207,1208,-1178,-1135,-1037]],"type":"Polygon","properties":{"state":"OH","name":"WILLIAMSFIELD","zip":"44093"}},{"arcs":[[-1118,1209,-1204,1210,1211,-1157,-1084,-1094]],"type":"Polygon","properties":{"state":"OH","name":"WILLOUGHBY","zip":"44094"}},{"arcs":[[-1207,1212,1213,-1211]],"type":"Polygon","properties":{"state":"OH","name":"EASTLAKE","zip":"44095"}},{"arcs":[[-1130,-1165,-1190,-1181,1214,-1162]],"type":"Polygon","properties":{"state":"OH","name":"WINDSOR","zip":"44099"}},{"arcs":[[1215,1216,1217,1218,1219,1220]],"type":"Polygon","properties":{"state":"OH","name":"CLEVELAND","zip":"44102"}},{"arcs":[[1221,1222,1223,1224,1225,1226]],"type":"Polygon","properties":{"state":"OH","name":"CLEVELAND","zip":"44103"}},{"arcs":[[1227,1228,1229,1230,-1227,1231]],"type":"Polygon","properties":{"state":"OH","name":"CLEVELAND","zip":"44104"}},{"arcs":[[1232,1233,1234,-1229,1235,1236,1237]],"type":"Polygon","properties":{"state":"OH","name":"CLEVELAND","zip":"44105"}},{"arcs":[[-1226,1238,1239,1240,1241,-1232]],"type":"Polygon","properties":{"state":"OH","name":"CLEVELAND","zip":"44106"}},{"arcs":[[1242,1243,-1217,1244]],"type":"Polygon","properties":{"state":"OH","name":"LAKEWOOD","zip":"44107"}},{"arcs":[[-1225,1245,1246,1247,-1239]],"type":"Polygon","properties":{"state":"OH","name":"CLEVELAND","zip":"44108"}},{"arcs":[[1248,1249,1250,1251,-1220,1252,-1233,1253]],"type":"Polygon","properties":{"state":"OH","name":"CLEVELAND","zip":"44109"}},{"arcs":[[1254,1255,1256,-1247,1257]],"type":"Polygon","properties":{"state":"OH","name":"CLEVELAND","zip":"44110"}},{"arcs":[[1258,1259,-1245,-1216,1260,1261]],"type":"Polygon","properties":{"state":"OH","name":"CLEVELAND","zip":"44111"}},{"arcs":[[-1257,1262,1263,1264,-1240,-1248]],"type":"Polygon","properties":{"state":"OH","name":"CLEVELAND","zip":"44112"}},{"arcs":[[1265,1266,-1234,-1253,-1219,1267]],"type":"Polygon","properties":{"state":"OH","name":"CLEVELAND","zip":"44113"}},{"arcs":[[1268,-1266,1269,-1223]],"type":"Polygon","properties":{"state":"OH","name":"CLEVELAND","zip":"44114"}},{"arcs":[[1270,-1267,-1269,-1222,-1231]],"type":"Polygon","properties":{"state":"OH","name":"CLEVELAND","zip":"44115"}},{"arcs":[[1271,1272,1273,1274,-1243,-1260]],"type":"Polygon","properties":{"state":"OH","name":"ROCKY RIVER","zip":"44116"}},{"arcs":[[-1256,1275,1276,1277,1278,1279,-1263]],"type":"Polygon","properties":{"state":"OH","name":"EUCLID","zip":"44117"}},{"arcs":[[1280,1281,-1241,-1265,1282]],"type":"Polygon","properties":{"state":"OH","name":"CLEVELAND","zip":"44118"}},{"arcs":[[-1255,1283,1284,-1276]],"type":"Polygon","properties":{"state":"OH","name":"CLEVELAND","zip":"44119"}},{"arcs":[[1285,1286,-1236,-1228,-1242,-1282]],"type":"Polygon","properties":{"state":"OH","name":"CLEVELAND","zip":"44120"}},{"arcs":[[1287,1288,-1283,-1264,-1280,1289]],"type":"Polygon","properties":{"state":"OH","name":"CLEVELAND","zip":"44121"}},{"arcs":[[-1281,-1289,1290,-1071,1291,-1286]],"type":"Polygon","properties":{"state":"OH","name":"BEACHWOOD","zip":"44122"}},{"arcs":[[-1285,1292,1293,-1277]],"type":"Polygon","properties":{"state":"OH","name":"EUCLID","zip":"44123"}},{"arcs":[[-1288,1294,-1116,-1072,-1291]],"type":"Polygon","properties":{"state":"OH","name":"CLEVELAND","zip":"44124"}},{"arcs":[[1295,1296,-1254,-1238,1297,1298,1299,-1170]],"type":"Polygon","properties":{"state":"OH","name":"CLEVELAND","zip":"44125"}},{"arcs":[[1300,1301,-1173,1302,-1272,-1259]],"type":"Polygon","properties":{"state":"OH","name":"CLEVELAND","zip":"44126"}},{"arcs":[[-1235,-1271,-1230]],"type":"Polygon","properties":{"state":"OH","name":"CLEVELAND","zip":"44127"}},{"arcs":[[-1237,-1287,-1292,-1070,1303,1304,1305,-1298]],"type":"Polygon","properties":{"state":"OH","name":"CLEVELAND","zip":"44128"}},{"arcs":[[1306,1307,1308,1309,-1251]],"type":"Polygon","properties":{"state":"OH","name":"CLEVELAND","zip":"44129"}},{"arcs":[[1310,1311,-1058,1312,1313,1314,-1309,1315]],"type":"Polygon","properties":{"state":"OH","name":"CLEVELAND","zip":"44130"}},{"arcs":[[1316,1317,-1249,-1297,1318]],"type":"Polygon","properties":{"state":"OH","name":"INDEPENDENCE","zip":"44131"}},{"arcs":[[1319,-1278,-1294,1320,-1213,-1206]],"type":"Polygon","properties":{"state":"OH","name":"EUCLID","zip":"44132"}},{"arcs":[[1321,1322,1323,-1316,-1308,1324]],"type":"Polygon","properties":{"state":"OH","name":"NORTH ROYALTON","zip":"44133"}},{"arcs":[[-1307,-1250,-1318,1325,-1325]],"type":"Polygon","properties":{"state":"OH","name":"CLEVELAND","zip":"44134"}},{"arcs":[[1326,-1301,-1262,1327,-1314]],"type":"Polygon","properties":{"state":"OH","name":"CLEVELAND","zip":"44135"}},{"arcs":[[1328,1329,-1311,-1324]],"type":"Polygon","properties":{"state":"OH","name":"STRONGSVILLE","zip":"44136"}},{"arcs":[[1330,-1299,-1306]],"type":"Polygon","properties":{"state":"OH","name":"MAPLE HEIGHTS","zip":"44137"}},{"arcs":[[-1098,-1115,-1175,1331,-1060]],"type":"Polygon","properties":{"state":"OH","name":"OLMSTED FALLS","zip":"44138"}},{"arcs":[[1332,-1304,-1078,-1079,1333,-1193]],"type":"Polygon","properties":{"state":"OH","name":"SOLON","zip":"44139"}},{"arcs":[[1334,-1055,1335,-1274]],"type":"Polygon","properties":{"state":"OH","name":"BAY VILLAGE","zip":"44140"}},{"arcs":[[1336,-1319,-1296,-1169,1337,1338]],"type":"Polygon","properties":{"state":"OH","name":"BRECKSVILLE","zip":"44141"}},{"arcs":[[-1174,-1302,-1327,-1313,-1061,-1332]],"type":"Polygon","properties":{"state":"OH","name":"BROOKPARK","zip":"44142"}},{"arcs":[[-1279,-1320,-1205,-1210,-1117,-1295,-1290]],"type":"Polygon","properties":{"state":"OH","name":"CLEVELAND","zip":"44143"}},{"arcs":[[-1315,-1328,-1261,-1221,-1252,-1310]],"type":"Polygon","properties":{"state":"OH","name":"CLEVELAND","zip":"44144"}},{"arcs":[[-1335,-1273,-1303,-1172,-1113,-1054]],"type":"Polygon","properties":{"state":"OH","name":"WESTLAKE","zip":"44145"}},{"arcs":[[-1300,-1331,-1305,-1333,-1152,-1171]],"type":"Polygon","properties":{"state":"OH","name":"BEDFORD","zip":"44146"}},{"arcs":[[1339,1340,-1322,-1326,-1317,-1337]],"type":"Polygon","properties":{"state":"OH","name":"BROADVIEW HEIGHTS","zip":"44147"}},{"arcs":[[1341,-1099,-1059,-1312,-1330]],"type":"Polygon","properties":{"state":"OH","name":"STRONGSVILLE","zip":"44149"}},{"arcs":[[1342,1343,1344,1345,1346,1347]],"type":"Polygon","properties":{"state":"OH","name":"ATWATER","zip":"44201"}},{"arcs":[[1348,1349,1350,-1194,-1334,-1082]],"type":"Polygon","properties":{"state":"OH","name":"AURORA","zip":"44202"}},{"arcs":[[1351,1352,1353,1354,1355,1356,1357]],"type":"Polygon","properties":{"state":"OH","name":"BARBERTON","zip":"44203"}},{"arcs":[[1358,1359,1360,-1342,-1329]],"type":"Polygon","properties":{"state":"OH","name":"BRUNSWICK","zip":"44212"}},{"arcs":[[1361,1362,1363,1364,1365]],"type":"Polygon","properties":{"state":"OH","name":"BURBANK","zip":"44214"}},{"arcs":[[1366,1367,1368,1369,1370,-1358,1371]],"type":"Polygon","properties":{"state":"OH","name":"CLINTON","zip":"44216"}},{"arcs":[[1372,1373,-1365,1374,1375]],"type":"Polygon","properties":{"state":"OH","name":"CRESTON","zip":"44217"}},{"arcs":[[1376,1377,1378,1379,1380]],"type":"Polygon","properties":{"state":"OH","name":"CUYAHOGA FALLS","zip":"44221"}},{"arcs":[[1381,1382,1383,1384,-1377]],"type":"Polygon","properties":{"state":"OH","name":"CUYAHOGA FALLS","zip":"44223"}},{"arcs":[[1385,-1378,-1385,1386,1387,1388,1389]],"type":"Polygon","properties":{"state":"OH","name":"STOW","zip":"44224"}},{"arcs":[[1390,1391,1392,-1352,-1371]],"type":"Polygon","properties":{"state":"OH","name":"DOYLESTOWN","zip":"44230"}},{"arcs":[[1393,1394,1395,1396,-1069,1397]],"type":"Polygon","properties":{"state":"OH","name":"GARRETTSVILLE","zip":"44231"}},{"arcs":[[-1323,-1341,1398,1399,-1359]],"type":"Polygon","properties":{"state":"OH","name":"HINCKLEY","zip":"44233"}},{"arcs":[[1400,-1062,-1397]],"type":"Polygon","properties":{"state":"OH","name":"HIRAM","zip":"44234"}},{"arcs":[[1401,1402,1403,1404]],"type":"Polygon","properties":{"state":"OH","name":"HOMERVILLE","zip":"44235"}},{"arcs":[[1405,-1167,-1150,-1192,-1351,1406,-1388]],"type":"Polygon","properties":{"state":"OH","name":"HUDSON","zip":"44236"}},{"arcs":[[1407,-1389,1408,1409,1410,1411]],"type":"Polygon","properties":{"state":"OH","name":"KENT","zip":"44240"}},{"arcs":[[1412,-1409,-1407,-1350,1413]],"type":"Polygon","properties":{"state":"OH","name":"STREETSBORO","zip":"44241"}},{"arcs":[[1414,1415,-1201,-1124]],"type":"Polygon","properties":{"state":"OH","name":"LITCHFIELD","zip":"44253"}},{"arcs":[[1416,-1363,1417,-1404,1418,1419]],"type":"Polygon","properties":{"state":"OH","name":"LODI","zip":"44254"}},{"arcs":[[1420,1421,-1414,-1349,-1081,-1063,-1401,-1396]],"type":"Polygon","properties":{"state":"OH","name":"MANTUA","zip":"44255"}},{"arcs":[[1422,1423,-1420,1424,-1415,-1123,1425,-1360,-1400,1426,1427]],"type":"Polygon","properties":{"state":"OH","name":"MEDINA","zip":"44256"}},{"arcs":[[1428,1429,-1412,1430,-1346,1431,1432]],"type":"Polygon","properties":{"state":"OH","name":"MOGADORE","zip":"44260"}},{"arcs":[[1433,-1379,-1386]],"type":"Polygon","properties":{"state":"OH","name":"MUNROE FALLS","zip":"44262"}},{"arcs":[[1434,1435,1436,-1338,-1168,-1406,-1387,-1384]],"type":"Polygon","properties":{"state":"OH","name":"PENINSULA","zip":"44264"}},{"arcs":[[1437,1438,-1410,-1413,-1422,1439,1440]],"type":"Polygon","properties":{"state":"OH","name":"RAVENNA","zip":"44266"}},{"arcs":[[1441,1442,1443,1444,-1392]],"type":"Polygon","properties":{"state":"OH","name":"RITTMAN","zip":"44270"}},{"arcs":[[1445,-1347,-1431,-1411,-1439,1446]],"type":"Polygon","properties":{"state":"OH","name":"ROOTSTOWN","zip":"44272"}},{"arcs":[[-1364,-1417,-1424,1447,-1444,1448,-1375]],"type":"Polygon","properties":{"state":"OH","name":"SEVILLE","zip":"44273"}},{"arcs":[[-1403,-1202,-1416,-1425,-1419]],"type":"Polygon","properties":{"state":"OH","name":"SPENCER","zip":"44275"}},{"arcs":[[-1449,-1443,1449,1450,1451,-1376]],"type":"Polygon","properties":{"state":"OH","name":"STERLING","zip":"44276"}},{"arcs":[[-1430,1452,1453,-1380,-1434,-1390,-1408]],"type":"Polygon","properties":{"state":"OH","name":"TALLMADGE","zip":"44278"}},{"arcs":[[-1095,-1361,-1426,-1127]],"type":"Polygon","properties":{"state":"OH","name":"VALLEY CITY","zip":"44280"}},{"arcs":[[-1393,-1445,-1448,-1423,1454,-1353]],"type":"Polygon","properties":{"state":"OH","name":"WADSWORTH","zip":"44281"}},{"arcs":[[-1340,-1339,-1437,1455,-1399]],"type":"Polygon","properties":{"state":"OH","name":"RICHFIELD","zip":"44286"}},{"arcs":[[1456,1457,1458,-1405,-1418,-1362,1459,1460]],"type":"Polygon","properties":{"state":"OH","name":"WEST SALEM","zip":"44287"}},{"arcs":[[1461,-1440,-1421,-1395,1462]],"type":"Polygon","properties":{"state":"OH","name":"WINDHAM","zip":"44288"}},{"arcs":[[1463,1464,1465,1466]],"type":"Polygon","properties":{"state":"OH","name":"AKRON","zip":"44301"}},{"arcs":[[1467,1468,1469,1470,1471]],"type":"Polygon","properties":{"state":"OH","name":"AKRON","zip":"44302"}},{"arcs":[[1472,-1472,1473,1474,1475]],"type":"Polygon","properties":{"state":"OH","name":"AKRON","zip":"44303"}},{"arcs":[[1476,-1476,1477,1478,1479,1480]],"type":"Polygon","properties":{"state":"OH","name":"AKRON","zip":"44304"}},{"arcs":[[1481,1482,-1479,1483,-1453]],"type":"Polygon","properties":{"state":"OH","name":"AKRON","zip":"44305"}},{"arcs":[[1484,-1480,-1483,1485,1486,-1466]],"type":"Polygon","properties":{"state":"OH","name":"AKRON","zip":"44306"}},{"arcs":[[1487,1488,-1469,1489,1490]],"type":"Polygon","properties":{"state":"OH","name":"AKRON","zip":"44307"}},{"arcs":[[1491,-1490,-1468,-1473,-1477]],"type":"Polygon","properties":{"state":"OH","name":"AKRON","zip":"44308"}},{"arcs":[[-1484,-1478,-1475,1492,-1382,-1381,-1454]],"type":"Polygon","properties":{"state":"OH","name":"AKRON","zip":"44310"}},{"arcs":[[1493,-1491,-1492,-1481,-1485,-1465]],"type":"Polygon","properties":{"state":"OH","name":"AKRON","zip":"44311"}},{"arcs":[[1494,-1486,-1482,-1429,1495]],"type":"Polygon","properties":{"state":"OH","name":"AKRON","zip":"44312"}},{"arcs":[[-1471,1496,1497,1498,-1435,-1383,-1493,-1474]],"type":"Polygon","properties":{"state":"OH","name":"AKRON","zip":"44313"}},{"arcs":[[1499,-1356,1500,-1488,-1494,-1464]],"type":"Polygon","properties":{"state":"OH","name":"AKRON","zip":"44314"}},{"arcs":[[1501,1502,-1372,-1357,-1500,-1467,-1487,-1495]],"type":"Polygon","properties":{"state":"OH","name":"AKRON","zip":"44319"}},{"arcs":[[1503,-1497,-1470,-1489,-1501,-1355]],"type":"Polygon","properties":{"state":"OH","name":"AKRON","zip":"44320"}},{"arcs":[[-1428,1504,-1498,-1504,-1354,-1455]],"type":"Polygon","properties":{"state":"OH","name":"AKRON","zip":"44321"}},{"arcs":[[-1505,-1427,-1456,-1436,-1499]],"type":"Polygon","properties":{"state":"OH","name":"AKRON","zip":"44333"}},{"arcs":[[1505,1506,1507,1508,1509,1510,1511,1512]],"type":"Polygon","properties":{"state":"OH","name":"BERLIN CENTER","zip":"44401"}},{"arcs":[[1513,1514,-1160,1515,1516]],"type":"Polygon","properties":{"state":"OH","name":"BRISTOLVILLE","zip":"44402"}},{"arcs":[[1517,1518,1519,1520,1521]],"type":"Polygon","properties":{"state":"OH","name":"BROOKFIELD","zip":"44403"}},{"arcs":[[1522,1523,-1521,1524,1525]],"type":"Polygon","properties":{"state":"OH","name":"BURGHILL","zip":"44404"}},{"arcs":[[1526,1527,1528,1529,1530]],"type":"Polygon","properties":{"state":"OH","name":"CAMPBELL","zip":"44405"}},{"arcs":[[1531,1532,1533,-1506,1534,1535,1536,1537,1538]],"type":"Polygon","properties":{"state":"OH","name":"CANFIELD","zip":"44406"}},{"arcs":[[1539,1540,-1533,1541,1542,1543,1544]],"type":"Polygon","properties":{"state":"OH","name":"COLUMBIANA","zip":"44408"}},{"arcs":[[1545,1546,1547,1548,-1517,1549,1550,1551]],"type":"Polygon","properties":{"state":"OH","name":"CORTLAND","zip":"44410"}},{"arcs":[[1552,-1348,-1446,1553,-1510]],"type":"Polygon","properties":{"state":"OH","name":"DEERFIELD","zip":"44411"}},{"arcs":[[[-1438,1554,1555,-1554,-1447]],[[1556,-1512,1557,1558]]],"type":"MultiPolygon","properties":{"state":"OH","name":"DIAMOND","zip":"44412"}},{"arcs":[[1559,1560,1561,1562,1563,1564]],"type":"Polygon","properties":{"state":"OH","name":"EAST PALESTINE","zip":"44413"}},{"arcs":[[-1551,1565,1566]],"type":"Polygon","properties":{"state":"OH","name":"FARMDALE","zip":"44417"}},{"arcs":[[-1520,1567,-1552,1568,-1525]],"type":"Polygon","properties":{"state":"OH","name":"FOWLER","zip":"44418"}},{"arcs":[[1569,1570,1571,1572,1573,1574,1575,1576]],"type":"Polygon","properties":{"state":"OH","name":"GIRARD","zip":"44420"}},{"arcs":[[1577,1578,1579,1580]],"type":"Polygon","properties":{"state":"OH","name":"HANOVERTON","zip":"44423"}},{"arcs":[[1581,-1575,1582,-1518,1583,1584,1585]],"type":"Polygon","properties":{"state":"OH","name":"HUBBARD","zip":"44425"}},{"arcs":[[1586,-1005,1587,1588,1589,-1579]],"type":"Polygon","properties":{"state":"OH","name":"KENSINGTON","zip":"44427"}},{"arcs":[[1590,-1526,-1569,-1567,1591,-1179,-1209]],"type":"Polygon","properties":{"state":"OH","name":"KINSMAN","zip":"44428"}},{"arcs":[[-1556,1592,-1558,-1511]],"type":"Polygon","properties":{"state":"OH","name":"LAKE MILTON","zip":"44429"}},{"arcs":[[1593,1594,1595,1596,1597]],"type":"Polygon","properties":{"state":"OH","name":"LEAVITTSBURG","zip":"44430"}},{"arcs":[[1598,1599,-1540]],"type":"Polygon","properties":{"state":"OH","name":"LEETONIA","zip":"44431"}},{"arcs":[[-1018,-1006,-1587,-1578,1600,-1599,-1545,1601,1602,-969]],"type":"Polygon","properties":{"state":"OH","name":"LISBON","zip":"44432"}},{"arcs":[[1603,1604,-1530,1605,-1586,1606,1607]],"type":"Polygon","properties":{"state":"OH","name":"LOWELLVILLE","zip":"44436"}},{"arcs":[[1608,1609,-1572]],"type":"Polygon","properties":{"state":"OH","name":"MC DONALD","zip":"44437"}},{"arcs":[[-1524,1610,-1584,-1522]],"type":"Polygon","properties":{"state":"OH","name":"MASURY","zip":"44438"}},{"arcs":[[1611,1612,1613,1614,-1609]],"type":"Polygon","properties":{"state":"OH","name":"MINERAL RIDGE","zip":"44440"}},{"arcs":[[1615,-971,1616,-1561]],"type":"Polygon","properties":{"state":"OH","name":"NEGLEY","zip":"44441"}},{"arcs":[[1617,1618,1619,-1608,1620]],"type":"Polygon","properties":{"state":"OH","name":"NEW MIDDLETOWN","zip":"44442"}},{"arcs":[[1621,-1564,1622,-1543,1623,1624,-1619]],"type":"Polygon","properties":{"state":"OH","name":"NEW SPRINGFIELD","zip":"44443"}},{"arcs":[[-1593,-1555,-1441,-1462,1625,-1595,1626,1627,-1559]],"type":"Polygon","properties":{"state":"OH","name":"NEWTON FALLS","zip":"44444"}},{"arcs":[[1628,-1602,-1544,-1623,-1563]],"type":"Polygon","properties":{"state":"OH","name":"NEW WATERFORD","zip":"44445"}},{"arcs":[[1629,1630,1631,-1573,-1610,-1615]],"type":"Polygon","properties":{"state":"OH","name":"NILES","zip":"44446"}},{"arcs":[[1632,-1343,-1553,-1509,1633]],"type":"Polygon","properties":{"state":"OH","name":"NORTH BENTON","zip":"44449"}},{"arcs":[[-1516,-1163,-1215,-1180,-1592,-1566,-1550]],"type":"Polygon","properties":{"state":"OH","name":"NORTH BLOOMFIELD","zip":"44450"}},{"arcs":[[-1628,1634,-1613,1635,-1535,-1513,-1557]],"type":"Polygon","properties":{"state":"OH","name":"NORTH JACKSON","zip":"44451"}},{"arcs":[[-1542,-1532,1636,-1624]],"type":"Polygon","properties":{"state":"OH","name":"NORTH LIMA","zip":"44452"}},{"arcs":[[1637,-1565,-1622,-1618]],"type":"Polygon","properties":{"state":"OH","name":"PETERSBURG","zip":"44454"}},{"arcs":[[-970,-1603,-1629,-1562,-1617]],"type":"Polygon","properties":{"state":"OH","name":"ROGERS","zip":"44455"}},{"arcs":[[-1601,-1581,1638,1639,-1507,-1534,-1541,-1600]],"type":"Polygon","properties":{"state":"OH","name":"SALEM","zip":"44460"}},{"arcs":[[-1394,1640,1641,-1596,-1626,-1463]],"type":"Polygon","properties":{"state":"OH","name":"SOUTHINGTON","zip":"44470"}},{"arcs":[[1642,1643,-1531,-1605]],"type":"Polygon","properties":{"state":"OH","name":"STRUTHERS","zip":"44471"}},{"arcs":[[1644,-1546,-1568,-1519,-1583,-1574,-1632]],"type":"Polygon","properties":{"state":"OH","name":"VIENNA","zip":"44473"}},{"arcs":[[[1645,1646,-1597,-1642,1647,-1514,-1549]],[[-1635,-1627,-1594,1648,-1630,-1614]]],"type":"MultiPolygon","properties":{"state":"OH","name":"WARREN","zip":"44481"}},{"arcs":[[-1646,-1548,1649,1650]],"type":"Polygon","properties":{"state":"OH","name":"WARREN","zip":"44483"}},{"arcs":[[1651,-1650,-1547,-1645,-1631]],"type":"Polygon","properties":{"state":"OH","name":"WARREN","zip":"44484"}},{"arcs":[[-1652,-1649,-1598,-1647,-1651]],"type":"Polygon","properties":{"state":"OH","name":"WARREN","zip":"44485"}},{"arcs":[[-1161,-1515,-1648,-1641,-1398]],"type":"Polygon","properties":{"state":"OH","name":"WEST FARMINGTON","zip":"44491"}},{"arcs":[[1652,1653,1654,1655,1656,1657,1658,1659,1660,-1527,-1644,1661,1662]],"type":"Polygon","properties":{"state":"OH","name":"YOUNGSTOWN","zip":"44502"}},{"arcs":[[1663,-1660,1664,1665]],"type":"Polygon","properties":{"state":"OH","name":"YOUNGSTOWN","zip":"44503"}},{"arcs":[[1666,1667,-1657]],"type":"Polygon","properties":{"state":"OH","name":"YOUNGSTOWN","zip":"44504"}},{"arcs":[[1668,-1658,-1668,1669,-1576,-1582,-1606,-1529,1670,-1666]],"type":"Polygon","properties":{"state":"OH","name":"YOUNGSTOWN","zip":"44505"}},{"arcs":[[-1661,-1664,-1671,-1528]],"type":"Polygon","properties":{"state":"OH","name":"YOUNGSTOWN","zip":"44506"}},{"arcs":[[1671,1672,-1653]],"type":"Polygon","properties":{"state":"OH","name":"YOUNGSTOWN","zip":"44507"}},{"arcs":[[1673,1674,-1570,1675,-1655]],"type":"Polygon","properties":{"state":"OH","name":"YOUNGSTOWN","zip":"44509"}},{"arcs":[[-1656,-1676,-1577,-1670,-1667]],"type":"Polygon","properties":{"state":"OH","name":"YOUNGSTOWN","zip":"44510"}},{"arcs":[[1676,-1537,1677,-1674,-1654,-1673]],"type":"Polygon","properties":{"state":"OH","name":"YOUNGSTOWN","zip":"44511"}},{"arcs":[[-1677,-1672,-1663,1678,-1538]],"type":"Polygon","properties":{"state":"OH","name":"YOUNGSTOWN","zip":"44512"}},{"arcs":[[-1625,-1637,-1539,-1679,-1662,-1643,-1604,-1620]],"type":"Polygon","properties":{"state":"OH","name":"YOUNGSTOWN","zip":"44514"}},{"arcs":[[-1612,-1571,-1675,-1678,-1536,-1636]],"type":"Polygon","properties":{"state":"OH","name":"YOUNGSTOWN","zip":"44515"}},{"arcs":[[-1659,-1669,-1665]],"type":"Polygon","properties":{"state":"OH","name":"YOUNGSTOWN","zip":"44555"}},{"arcs":[[1679,1680,1681,-1344,-1633,1682]],"type":"Polygon","properties":{"state":"OH","name":"ALLIANCE","zip":"44601"}},{"arcs":[[1683,1684,1685,1686,1687]],"type":"Polygon","properties":{"state":"OH","name":"APPLE CREEK","zip":"44606"}},{"arcs":[[1688,1689,1690,1691]],"type":"Polygon","properties":{"state":"OH","name":"BEACH CITY","zip":"44608"}},{"arcs":[[-1634,-1508,-1640,1692,-1683]],"type":"Polygon","properties":{"state":"OH","name":"BELOIT","zip":"44609"}},{"arcs":[[1693,1694,1695,1696]],"type":"Polygon","properties":{"state":"OH","name":"BIG PRAIRIE","zip":"44611"}},{"arcs":[[1697,1698,1699,1700,1701]],"type":"Polygon","properties":{"state":"OH","name":"BOLIVAR","zip":"44612"}},{"arcs":[[1702,1703,-1369,1704,1705]],"type":"Polygon","properties":{"state":"OH","name":"CANAL FULTON","zip":"44614"}},{"arcs":[[1706,1707,1708,1709,1710,1711,-1589,1712,-1003,-945,-927,-1029,1713]],"type":"Polygon","properties":{"state":"OH","name":"CARROLLTON","zip":"44615"}},{"arcs":[[1714,1715,1716,1717,1718,-1688]],"type":"Polygon","properties":{"state":"OH","name":"DALTON","zip":"44618"}},{"arcs":[[1719,1720,1721,-1708]],"type":"Polygon","properties":{"state":"OH","name":"DELLROY","zip":"44620"}},{"arcs":[[1722,1723,1724,1725]],"type":"Polygon","properties":{"state":"OH","name":"DENNISON","zip":"44621"}},{"arcs":[[1726,1727,1728,1729,1730,-1702]],"type":"Polygon","properties":{"state":"OH","name":"DOVER","zip":"44622"}},{"arcs":[[1731,-1730,1732,1733,1734,-1684,-1719,1735,1736,-1690]],"type":"Polygon","properties":{"state":"OH","name":"DUNDEE","zip":"44624"}},{"arcs":[[1737,1738,-1580,-1590,-1712]],"type":"Polygon","properties":{"state":"OH","name":"EAST ROCHESTER","zip":"44625"}},{"arcs":[[1739,1740,-1700,1741,1742,1743,1744]],"type":"Polygon","properties":{"state":"OH","name":"EAST SPARTA","zip":"44626"}},{"arcs":[[1745,1746,1747,-1685,-1735,1748]],"type":"Polygon","properties":{"state":"OH","name":"FREDERICKSBURG","zip":"44627"}},{"arcs":[[1749,1750,-1695,1751,1752,-19,-40]],"type":"Polygon","properties":{"state":"OH","name":"GLENMONT","zip":"44628"}},{"arcs":[[1753,1754,-914]],"type":"Polygon","properties":{"state":"OH","name":"GNADENHUTTEN","zip":"44629"}},{"arcs":[[1755,-1432,-1345,-1682,1756,1757,1758]],"type":"Polygon","properties":{"state":"OH","name":"HARTVILLE","zip":"44632"}},{"arcs":[[1759,1760,-1746]],"type":"Polygon","properties":{"state":"OH","name":"HOLMESVILLE","zip":"44633"}},{"arcs":[[-1739,1761,1762,1763,-1680,-1693,-1639]],"type":"Polygon","properties":{"state":"OH","name":"HOMEWORTH","zip":"44634"}},{"arcs":[[-919,-20,-1753,1764,-892]],"type":"Polygon","properties":{"state":"OH","name":"KILLBUCK","zip":"44637"}},{"arcs":[[-1751,1765,1766,-1696]],"type":"Polygon","properties":{"state":"OH","name":"LAKEVILLE","zip":"44638"}},{"arcs":[[1767,1768,-1757,-1681,-1764,1769,1770]],"type":"Polygon","properties":{"state":"OH","name":"LOUISVILLE","zip":"44641"}},{"arcs":[[1771,-1740,1772,-1709,-1722]],"type":"Polygon","properties":{"state":"OH","name":"MAGNOLIA","zip":"44643"}},{"arcs":[[1773,1774,1775,-1710]],"type":"Polygon","properties":{"state":"OH","name":"MALVERN","zip":"44644"}},{"arcs":[[1776,1777,-1450,-1442,-1391,-1370,-1704]],"type":"Polygon","properties":{"state":"OH","name":"MARSHALLVILLE","zip":"44645"}},{"arcs":[[1778,1779,1780,-1705,-1368,1781,1782,1783,1784]],"type":"Polygon","properties":{"state":"OH","name":"MASSILLON","zip":"44646"}},{"arcs":[[1785,-1706,-1781,1786,-1717]],"type":"Polygon","properties":{"state":"OH","name":"MASSILLON","zip":"44647"}},{"arcs":[[-1713,-1588,-1004]],"type":"Polygon","properties":{"state":"OH","name":"MECHANICSTOWN","zip":"44651"}},{"arcs":[[-1752,-1694,1787,-1760,-1749,-1734,1788,-887,-905,-893,-1765]],"type":"Polygon","properties":{"state":"OH","name":"MILLERSBURG","zip":"44654"}},{"arcs":[[-1701,-1741,-1772,-1721,1789,1790,-1727]],"type":"Polygon","properties":{"state":"OH","name":"MINERAL CITY","zip":"44656"}},{"arcs":[[-1711,-1776,1791,1792,-1762,-1738]],"type":"Polygon","properties":{"state":"OH","name":"MINERVA","zip":"44657"}},{"arcs":[[-1736,-1718,-1787,-1780,1793,-1742,-1699,1794,-1692]],"type":"Polygon","properties":{"state":"OH","name":"NAVARRE","zip":"44662"}},{"arcs":[[1795,-1728,-1791,1796,-1725,1797,-1754,-913,-917]],"type":"Polygon","properties":{"state":"OH","name":"NEW PHILADELPHIA","zip":"44663"}},{"arcs":[[1798,-1777,-1703,-1786,-1716]],"type":"Polygon","properties":{"state":"OH","name":"NORTH LAWRENCE","zip":"44666"}},{"arcs":[[1799,1800,-1451,-1778,-1799,-1715,-1687]],"type":"Polygon","properties":{"state":"OH","name":"ORRVILLE","zip":"44667"}},{"arcs":[[1801,-1770,-1763,-1793]],"type":"Polygon","properties":{"state":"OH","name":"PARIS","zip":"44669"}},{"arcs":[[-1790,-1720,-1707,1802,-1726,-1797]],"type":"Polygon","properties":{"state":"OH","name":"SHERRODSVILLE","zip":"44675"}},{"arcs":[[-1767,1803,1804,1805,-1747,-1761,-1788,-1697]],"type":"Polygon","properties":{"state":"OH","name":"SHREVE","zip":"44676"}},{"arcs":[[1806,-1373,-1452,-1801]],"type":"Polygon","properties":{"state":"OH","name":"SMITHVILLE","zip":"44677"}},{"arcs":[[-1732,-1689,-1795,-1698,-1731]],"type":"Polygon","properties":{"state":"OH","name":"STRASBURG","zip":"44680"}},{"arcs":[[-916,-884,-1789,-1733,-1729,-1796]],"type":"Polygon","properties":{"state":"OH","name":"SUGARCREEK","zip":"44681"}},{"arcs":[[-1798,-1724,1807,-1027,1808,-915,-1755]],"type":"Polygon","properties":{"state":"OH","name":"UHRICHSVILLE","zip":"44683"}},{"arcs":[[1809,-1502,-1496,-1433,-1756]],"type":"Polygon","properties":{"state":"OH","name":"UNIONTOWN","zip":"44685"}},{"arcs":[[-1773,-1745,1810,1811,-1774]],"type":"Polygon","properties":{"state":"OH","name":"WAYNESBURG","zip":"44688"}},{"type":null,"properties":{"state":"OH","name":"WILMOT","zip":"44689"}},{"arcs":[[-1748,-1806,1812,-1460,-1366,-1374,-1807,-1800,-1686]],"type":"Polygon","properties":{"state":"OH","name":"WOOSTER","zip":"44691"}},{"arcs":[[-1723,-1803,-1714,-1028,-1808]],"type":"Polygon","properties":{"state":"OH","name":"BOWERSTON","zip":"44695"}},{"arcs":[[-1809,-1030,-937,-1022,-910]],"type":"Polygon","properties":{"state":"OH","name":"TIPPECANOE","zip":"44699"}},{"arcs":[[1813,1814,1815]],"type":"Polygon","properties":{"state":"OH","name":"CANTON","zip":"44702"}},{"arcs":[[1816,1817,1818,1819,-1816,1820]],"type":"Polygon","properties":{"state":"OH","name":"CANTON","zip":"44703"}},{"arcs":[[1821,1822,-1814,1823,1824]],"type":"Polygon","properties":{"state":"OH","name":"CANTON","zip":"44704"}},{"arcs":[[1825,-1825,1826,1827,-1768]],"type":"Polygon","properties":{"state":"OH","name":"CANTON","zip":"44705"}},{"arcs":[[1828,-1743,-1794,-1779,1829,1830,1831]],"type":"Polygon","properties":{"state":"OH","name":"CANTON","zip":"44706"}},{"arcs":[[1832,-1821,-1815,-1823,1833,-1811,-1744,-1829]],"type":"Polygon","properties":{"state":"OH","name":"CANTON","zip":"44707"}},{"arcs":[[1834,-1784,1835,-1817,-1831]],"type":"Polygon","properties":{"state":"OH","name":"CANTON","zip":"44708"}},{"arcs":[[1836,1837,1838,-1819]],"type":"Polygon","properties":{"state":"OH","name":"CANTON","zip":"44709"}},{"arcs":[[-1785,-1835,-1830]],"type":"Polygon","properties":{"state":"OH","name":"CANTON","zip":"44710"}},{"arcs":[[-1824,-1820,-1839,1839,-1827]],"type":"Polygon","properties":{"state":"OH","name":"CANTON","zip":"44714"}},{"arcs":[[-1783,1840,-1837,-1818,-1836]],"type":"Polygon","properties":{"state":"OH","name":"CANTON","zip":"44718"}},{"arcs":[[1841,-1838,-1841,-1782,-1367,-1503,-1810,-1759]],"type":"Polygon","properties":{"state":"OH","name":"CANTON","zip":"44720"}},{"arcs":[[-1828,-1840,-1842,-1758,-1769]],"type":"Polygon","properties":{"state":"OH","name":"CANTON","zip":"44721"}},{"arcs":[[-1775,-1812,-1834,-1822,-1826,-1771,-1802,-1792]],"type":"Polygon","properties":{"state":"OH","name":"CANTON","zip":"44730"}},{"arcs":[[1842,1843,1844,1845,-402,1846]],"type":"Polygon","properties":{"state":"OH","name":"ALVADA","zip":"44802"}},{"arcs":[[1847,1848,1849,1850,-1844]],"type":"Polygon","properties":{"state":"OH","name":"ARCADIA","zip":"44804"}},{"arcs":[[1851,1852,1853,1854,1855,1856,1857,1858,-1458,1859,1860]],"type":"Polygon","properties":{"state":"OH","name":"ASHLAND","zip":"44805"}},{"arcs":[[1861,1862,1863,1864]],"type":"Polygon","properties":{"state":"OH","name":"ATTICA","zip":"44807"}},{"arcs":[[1865,1866,1867,1868,-490,-566,1869,1870]],"type":"Polygon","properties":{"state":"OH","name":"BELLEVUE","zip":"44811"}},{"arcs":[[1871,1872,1873,1874,1875,-64,-451]],"type":"Polygon","properties":{"state":"OH","name":"BELLVILLE","zip":"44813"}},{"arcs":[[1876,1877,1878,-1198,1879,1880]],"type":"Polygon","properties":{"state":"OH","name":"BERLIN HEIGHTS","zip":"44814"}},{"arcs":[[1881,-1850,1882,1883,-504,-570]],"type":"Polygon","properties":{"state":"OH","name":"BLOOMDALE","zip":"44817"}},{"arcs":[[1884,1885,1886,-1863,1887,1888]],"type":"Polygon","properties":{"state":"OH","name":"BLOOMVILLE","zip":"44818"}},{"arcs":[[-374,1889,1890,-1889,1891,1892,1893,1894,-394]],"type":"Polygon","properties":{"state":"OH","name":"BUCYRUS","zip":"44820"}},{"arcs":[[-132,-65,-1876,1895,-38,-92]],"type":"Polygon","properties":{"state":"OH","name":"BUTLER","zip":"44822"}},{"arcs":[[-565,1896,-1870]],"type":"Polygon","properties":{"state":"OH","name":"CASTALIA","zip":"44824"}},{"arcs":[[1897,1898,-1881,1899]],"type":"Polygon","properties":{"state":"OH","name":"COLLINS","zip":"44826"}},{"arcs":[[1900,-1894,1901,1902,1903]],"type":"Polygon","properties":{"state":"OH","name":"CRESTLINE","zip":"44827"}},{"arcs":[[-1882,-557,1904,1905,1906,-1845,-1851]],"type":"Polygon","properties":{"state":"OH","name":"FOSTORIA","zip":"44830"}},{"arcs":[[-395,-1895,-1901,1907,1908,-449,-415]],"type":"Polygon","properties":{"state":"OH","name":"GALION","zip":"44833"}},{"arcs":[[1909,1910,-513,-491,-1869]],"type":"Polygon","properties":{"state":"OH","name":"GREEN SPRINGS","zip":"44836"}},{"arcs":[[[1911,1912,1913,1914,1915]],[[1916,1917,-1856]]],"type":"MultiPolygon","properties":{"state":"OH","name":"GREENWICH","zip":"44837"}},{"arcs":[[1918,1919,1920,-1195,-1879]],"type":"Polygon","properties":{"state":"OH","name":"HURON","zip":"44839"}},{"arcs":[[-1805,1921,-1861,1922,-1461,-1813]],"type":"Polygon","properties":{"state":"OH","name":"JEROMESVILLE","zip":"44840"}},{"arcs":[[-515,1923,-1905,-556,-532,-487]],"type":"Polygon","properties":{"state":"OH","name":"KANSAS","zip":"44841"}},{"arcs":[[1924,-1852,-1922,-1804,-1766,-1750,-39]],"type":"Polygon","properties":{"state":"OH","name":"LOUDONVILLE","zip":"44842"}},{"arcs":[[1925,-1874,1926,-1854]],"type":"Polygon","properties":{"state":"OH","name":"LUCAS","zip":"44843"}},{"arcs":[[1927,-404,1928,1929]],"type":"Polygon","properties":{"state":"OH","name":"MC CUTCHENVILLE","zip":"44844"}},{"arcs":[[1930,1931,-1919,-1878,1932]],"type":"Polygon","properties":{"state":"OH","name":"MILAN","zip":"44846"}},{"arcs":[[1933,1934,-1866,1935,-1931]],"type":"Polygon","properties":{"state":"OH","name":"MONROEVILLE","zip":"44847"}},{"arcs":[[-373,-448,-418,-469,1936,-1890]],"type":"Polygon","properties":{"state":"OH","name":"NEVADA","zip":"44849"}},{"arcs":[[1937,1938,-1916,1939,1940,-1898,1941,-1199]],"type":"Polygon","properties":{"state":"OH","name":"NEW LONDON","zip":"44851"}},{"arcs":[[-1846,-1907,1942,-1929,-403]],"type":"Polygon","properties":{"state":"OH","name":"NEW RIEGEL","zip":"44853"}},{"arcs":[[-1862,1943,1944,1945,-1892,-1888]],"type":"Polygon","properties":{"state":"OH","name":"NEW WASHINGTON","zip":"44854"}},{"arcs":[[1946,1947,1948,-1940,-1915]],"type":"Polygon","properties":{"state":"OH","name":"NORTH FAIRFIELD","zip":"44855"}},{"arcs":[[-1933,-1877,-1899,-1941,-1949,-1934]],"type":"Polygon","properties":{"state":"OH","name":"NORWALK","zip":"44857"}},{"arcs":[[1949,-1912,-1939,1950,-1858]],"type":"Polygon","properties":{"state":"OH","name":"NOVA","zip":"44859"}},{"arcs":[[-1896,-1875,-1926,-1853,-1925]],"type":"Polygon","properties":{"state":"OH","name":"PERRYSVILLE","zip":"44864"}},{"arcs":[[1951,-1945,1952,-1947,-1914,1953,1954]],"type":"Polygon","properties":{"state":"OH","name":"PLYMOUTH","zip":"44865"}},{"arcs":[[-1860,-1457,-1923]],"type":"Polygon","properties":{"state":"OH","name":"POLK","zip":"44866"}},{"arcs":[[1955,-1910,-1868,1956,-1864,-1887]],"type":"Polygon","properties":{"state":"OH","name":"REPUBLIC","zip":"44867"}},{"arcs":[[-1897,-564,1957,-1920,-1932,-1936,-1871]],"type":"Polygon","properties":{"state":"OH","name":"SANDUSKY","zip":"44870"}},{"arcs":[[1958,-1955,1959,1960,-1903]],"type":"Polygon","properties":{"state":"OH","name":"SHELBY","zip":"44875"}},{"arcs":[[-1954,-1913,-1950,-1857,-1918,1961,-1960]],"type":"Polygon","properties":{"state":"OH","name":"SHILOH","zip":"44878"}},{"arcs":[[-1951,-1938,-1203,-1402,-1459,-1859]],"type":"Polygon","properties":{"state":"OH","name":"SULLIVAN","zip":"44880"}},{"arcs":[[-405,-1928,1962,-1885,-1891,-1937,-468]],"type":"Polygon","properties":{"state":"OH","name":"SYCAMORE","zip":"44882"}},{"arcs":[[-1963,-1930,-1943,-1906,-1924,-514,-1911,-1956,-1886]],"type":"Polygon","properties":{"state":"OH","name":"TIFFIN","zip":"44883"}},{"arcs":[[-1946,-1952,-1959,-1902,-1893]],"type":"Polygon","properties":{"state":"OH","name":"TIRO","zip":"44887"}},{"arcs":[[-1942,-1900,-1880,-1197,-1031,-1177,-1200]],"type":"Polygon","properties":{"state":"OH","name":"WAKEMAN","zip":"44889"}},{"arcs":[[-1957,-1867,-1935,-1948,-1953,-1944,-1865]],"type":"Polygon","properties":{"state":"OH","name":"WILLARD","zip":"44890"}},{"arcs":[[1963,1964,1965]],"type":"Polygon","properties":{"state":"OH","name":"MANSFIELD","zip":"44902"}},{"arcs":[[1966,-1908,-1904,-1961,-1962,-1917,-1855,-1927,-1873,1967,1968,1969,-1965,1970,1971]],"type":"Polygon","properties":{"state":"OH","name":"MANSFIELD","zip":"44903"}},{"arcs":[[-1967,1972,1973,-1968,-1872,-450,-1909]],"type":"Polygon","properties":{"state":"OH","name":"MANSFIELD","zip":"44904"}},{"arcs":[[1974,-1966,-1970]],"type":"Polygon","properties":{"state":"OH","name":"MANSFIELD","zip":"44905"}},{"arcs":[[-1972,1975,-1973]],"type":"Polygon","properties":{"state":"OH","name":"MANSFIELD","zip":"44906"}},{"arcs":[[-1971,-1964,-1975,-1969,-1974,-1976]],"type":"Polygon","properties":{"state":"OH","name":"MANSFIELD","zip":"44907"}},{"arcs":[[1976,1977,1978]],"type":"Polygon","properties":{"state":"OH","name":"ADDYSTON","zip":"45001"}},{"arcs":[[1979,1980,1981,1982]],"type":"Polygon","properties":{"state":"OH","name":"CLEVES","zip":"45002"}},{"arcs":[[1983,1984,1985]],"type":"Polygon","properties":{"state":"OH","name":"COLLEGE CORNER","zip":"45003"}},{"arcs":[[1986,1987,1988,1989,1990,1991]],"type":"Polygon","properties":{"state":"OH","name":"FRANKLIN","zip":"45005"}},{"arcs":[[1992,1993,1994,1995,1996,1997,1998,1999]],"type":"Polygon","properties":{"state":"OH","name":"HAMILTON","zip":"45011"}},{"arcs":[[2000,2001,2002,-1995,2003,2004,2005]],"type":"Polygon","properties":{"state":"OH","name":"HAMILTON","zip":"45013"}},{"arcs":[[2006,-1993,2007,2008,2009,2010,2011,-2005]],"type":"Polygon","properties":{"state":"OH","name":"FAIRFIELD","zip":"45014"}},{"arcs":[[-2004,-1994,-2007]],"type":"Polygon","properties":{"state":"OH","name":"HAMILTON","zip":"45015"}},{"arcs":[[2012,2013,2014,-2006,2015,2016,-1982]],"type":"Polygon","properties":{"state":"OH","name":"HARRISON","zip":"45030"}},{"arcs":[[2017,2018,2019]],"type":"Polygon","properties":{"state":"OH","name":"KINGS MILLS","zip":"45034"}},{"arcs":[[2020,2021,2022,2023,-1988,2024,2025,2026,2027,2028,2029,-2020]],"type":"Polygon","properties":{"state":"OH","name":"LEBANON","zip":"45036"}},{"arcs":[[2030,2031,2032,-2018,-2030,2033]],"type":"Polygon","properties":{"state":"OH","name":"MAINEVILLE","zip":"45039"}},{"arcs":[[2034,2035,2036,2037,2038,-2021,-2019,-2033]],"type":"Polygon","properties":{"state":"OH","name":"MASON","zip":"45040"}},{"arcs":[[2039,2040,2041,2042,2043,-1990]],"type":"Polygon","properties":{"state":"OH","name":"MIDDLETOWN","zip":"45042"}},{"arcs":[[2044,-2040,-1989,-2024,2045,-2022,-2039,2046,-1998]],"type":"Polygon","properties":{"state":"OH","name":"MIDDLETOWN","zip":"45044"}},{"arcs":[[-2023,-2046]],"type":"Polygon","properties":{"state":"OH","name":"MONROE","zip":"45050"}},{"arcs":[[2047,-2013,-1981,2048,-1979,2049]],"type":"Polygon","properties":{"state":"OH","name":"NORTH BEND","zip":"45052"}},{"arcs":[[-2015,2050,2051,-2001]],"type":"Polygon","properties":{"state":"OH","name":"OKEANA","zip":"45053"}},{"arcs":[[2052,2053,-2027,2054]],"type":"Polygon","properties":{"state":"OH","name":"OREGONIA","zip":"45054"}},{"arcs":[[2055,-1984,2056,2057,-2002,-2052]],"type":"Polygon","properties":{"state":"OH","name":"OXFORD","zip":"45056"}},{"arcs":[[2058,-2042,-1996,-2003,-2058]],"type":"Polygon","properties":{"state":"OH","name":"SOMERVILLE","zip":"45064"}},{"arcs":[[2059,-2034,-2029]],"type":"Polygon","properties":{"state":"OH","name":"SOUTH LEBANON","zip":"45065"}},{"arcs":[[-1987,2060,2061,2062,-2025]],"type":"Polygon","properties":{"state":"OH","name":"SPRINGBORO","zip":"45066"}},{"arcs":[[-2041,-2045,-1997]],"type":"Polygon","properties":{"state":"OH","name":"TRENTON","zip":"45067"}},{"arcs":[[-2026,-2063,2063,2064,2065,2066,2067,-2055]],"type":"Polygon","properties":{"state":"OH","name":"WAYNESVILLE","zip":"45068"}},{"arcs":[[2068,-1999,-2047,-2038,2069]],"type":"Polygon","properties":{"state":"OH","name":"WEST CHESTER","zip":"45069"}},{"arcs":[[2070,2071,2072]],"type":"Polygon","properties":{"state":"OH","name":"ABERDEEN","zip":"45101"}},{"arcs":[[2073,2074,2075,2076]],"type":"Polygon","properties":{"state":"OH","name":"AMELIA","zip":"45102"}},{"arcs":[[2077,2078,-2077,2079,2080,2081]],"type":"Polygon","properties":{"state":"OH","name":"BATAVIA","zip":"45103"}},{"arcs":[[2082,-2074,-2079,2083,2084,2085,2086,2087,2088,2089]],"type":"Polygon","properties":{"state":"OH","name":"BETHEL","zip":"45106"}},{"arcs":[[2090,2091,2092,2093,2094,2095,2096,2097,2098]],"type":"Polygon","properties":{"state":"OH","name":"BLANCHESTER","zip":"45107"}},{"arcs":[[2099,2100,2101]],"type":"Polygon","properties":{"state":"OH","name":"CAMP DENNISON","zip":"45111"}},{"arcs":[[2102,-2096,2103,-2053,-2068]],"type":"Polygon","properties":{"state":"OH","name":"CLARKSVILLE","zip":"45113"}},{"arcs":[[2104,2105,2106,2107,-2092]],"type":"Polygon","properties":{"state":"OH","name":"FAYETTEVILLE","zip":"45118"}},{"arcs":[[2108,2109,2110,-2089,2111]],"type":"Polygon","properties":{"state":"OH","name":"FELICITY","zip":"45120"}},{"arcs":[[2112,-2087,2113,2114,2115,2116,2117,-2109]],"type":"Polygon","properties":{"state":"OH","name":"GEORGETOWN","zip":"45121"}},{"arcs":[[2118,-2082,2119,2120,2121,2122,-2093,-2108]],"type":"Polygon","properties":{"state":"OH","name":"GOSHEN","zip":"45122"}},{"arcs":[[2123,-301,2124,2125,2126,2127]],"type":"Polygon","properties":{"state":"OH","name":"GREENFIELD","zip":"45123"}},{"arcs":[[-2088,-2113,-2112]],"type":"Polygon","properties":{"state":"OH","name":"HAMERSVILLE","zip":"45130"}},{"arcs":[[2128,2129,2130,2131,2132,2133,2134,-2128,2135,2136,2137,2138]],"type":"Polygon","properties":{"state":"OH","name":"HILLSBORO","zip":"45133"}},{"arcs":[[-2135,2139,2140,-302,-2124]],"type":"Polygon","properties":{"state":"OH","name":"LEESBURG","zip":"45135"}},{"arcs":[[2141,-2101,2142,2143,2144,-2035,-2032,2145,-2121]],"type":"Polygon","properties":{"state":"OH","name":"LOVELAND","zip":"45140"}},{"arcs":[[-2091,2146,2147,2148,-2133,2149,-2105]],"type":"Polygon","properties":{"state":"OH","name":"LYNCHBURG","zip":"45142"}},{"arcs":[[2150,2151,-2072,2152,2153,2154,2155]],"type":"Polygon","properties":{"state":"OH","name":"MANCHESTER","zip":"45144"}},{"arcs":[[2156,-2098,2157,2158,-2148]],"type":"Polygon","properties":{"state":"OH","name":"MARTINSVILLE","zip":"45146"}},{"arcs":[[-2099,-2157,-2147]],"type":"Polygon","properties":{"state":"OH","name":"MIDLAND","zip":"45148"}},{"arcs":[[2159,2160,2161,2162,-2102,-2142,-2120,-2081]],"type":"Polygon","properties":{"state":"OH","name":"MILFORD","zip":"45150"}},{"arcs":[[-2031,-2060,-2028,-2054,-2104,-2095,2163,-2122,-2146]],"type":"Polygon","properties":{"state":"OH","name":"MORROW","zip":"45152"}},{"arcs":[[2164,-2090,-2111,2165]],"type":"Polygon","properties":{"state":"OH","name":"MOSCOW","zip":"45153"}},{"arcs":[[2166,-2085,2167,-2106,-2150,-2132]],"type":"Polygon","properties":{"state":"OH","name":"MOUNT ORAB","zip":"45154"}},{"arcs":[[-2165,2168,2169,2170,-2075,-2083]],"type":"Polygon","properties":{"state":"OH","name":"NEW RICHMOND","zip":"45157"}},{"arcs":[[2171,2172,-2140,-2134,-2149,-2159]],"type":"Polygon","properties":{"state":"OH","name":"NEW VIENNA","zip":"45159"}},{"arcs":[[-2164,-2094,-2123]],"type":"Polygon","properties":{"state":"OH","name":"PLEASANT PLAIN","zip":"45162"}},{"arcs":[[-2071,2173,-2117,2174,2175,-2153]],"type":"Polygon","properties":{"state":"OH","name":"RIPLEY","zip":"45167"}},{"arcs":[[2176,-2175,-2116,2177]],"type":"Polygon","properties":{"state":"OH","name":"RUSSELLVILLE","zip":"45168"}},{"arcs":[[-2173,2178,2179,-298,-2141]],"type":"Polygon","properties":{"state":"OH","name":"SABINA","zip":"45169"}},{"arcs":[[-2086,-2167,-2131,2180,-2114]],"type":"Polygon","properties":{"state":"OH","name":"SARDINIA","zip":"45171"}},{"arcs":[[2181,2182,2183,-2162]],"type":"Polygon","properties":{"state":"OH","name":"TERRACE PARK","zip":"45174"}},{"arcs":[[-2084,-2078,-2119,-2107,-2168]],"type":"Polygon","properties":{"state":"OH","name":"WILLIAMSBURG","zip":"45176"}},{"arcs":[[-2103,-2067,2184,2185,-2179,-2172,-2158,-2097]],"type":"Polygon","properties":{"state":"OH","name":"WILMINGTON","zip":"45177"}},{"arcs":[[2186,2187,2188,2189,2190,2191]],"type":"Polygon","properties":{"state":"OH","name":"CINCINNATI","zip":"45202"}},{"arcs":[[2192,2193,-2192,2194]],"type":"Polygon","properties":{"state":"OH","name":"CINCINNATI","zip":"45203"}},{"arcs":[[2195,2196,2197,-2193,2198,2199]],"type":"Polygon","properties":{"state":"OH","name":"CINCINNATI","zip":"45204"}},{"arcs":[[2200,2201,-2197]],"type":"Polygon","properties":{"state":"OH","name":"CINCINNATI","zip":"45205"}},{"arcs":[[2202,2203,2204,2205,-2188]],"type":"Polygon","properties":{"state":"OH","name":"CINCINNATI","zip":"45206"}},{"arcs":[[2206,-2205,2207,2208]],"type":"Polygon","properties":{"state":"OH","name":"CINCINNATI","zip":"45207"}},{"arcs":[[-2207,2209,2210,2211,2212,-2189,-2206]],"type":"Polygon","properties":{"state":"OH","name":"CINCINNATI","zip":"45208"}},{"arcs":[[2213,2214,2215,-2211]],"type":"Polygon","properties":{"state":"OH","name":"CINCINNATI","zip":"45209"}},{"arcs":[[2216,2217,-2187]],"type":"Polygon","properties":{"state":"OH","name":"CINCINNATI","zip":"45210"}},{"arcs":[[2218,2219,2220,2221,2222,2223,2224]],"type":"Polygon","properties":{"state":"OH","name":"CINCINNATI","zip":"45211"}},{"arcs":[[-2210,-2209,2225,2226,2227,-2214]],"type":"Polygon","properties":{"state":"OH","name":"CINCINNATI","zip":"45212"}},{"arcs":[[-2228,2228,2229,2230,-2215]],"type":"Polygon","properties":{"state":"OH","name":"CINCINNATI","zip":"45213"}},{"arcs":[[-2194,-2198,-2202,-2220,2231,2232,-2217]],"type":"Polygon","properties":{"state":"OH","name":"CINCINNATI","zip":"45214"}},{"arcs":[[2233,2234,2235,2236,2237,2238,2239,2240]],"type":"Polygon","properties":{"state":"OH","name":"CINCINNATI","zip":"45215"}},{"arcs":[[2241,2242,2243,-2235,2244]],"type":"Polygon","properties":{"state":"OH","name":"CINCINNATI","zip":"45216"}},{"arcs":[[2245,2246,-2242,2247,2248]],"type":"Polygon","properties":{"state":"OH","name":"CINCINNATI","zip":"45217"}},{"arcs":[[2249,2250,2251,-2203,-2218,-2233]],"type":"Polygon","properties":{"state":"OH","name":"CINCINNATI","zip":"45219"}},{"arcs":[[2252,2253,2254,-2246,2255,-2251]],"type":"Polygon","properties":{"state":"OH","name":"CINCINNATI","zip":"45220"}},{"arcs":[[2256,2257,2258,-2254,2259,-2225]],"type":"Polygon","properties":{"state":"OH","name":"CINCINNATI","zip":"45223"}},{"arcs":[[2260,2261,-2236,-2244,2262,-2258]],"type":"Polygon","properties":{"state":"OH","name":"CINCINNATI","zip":"45224"}},{"arcs":[[-2232,-2219,-2260,-2253,-2250]],"type":"Polygon","properties":{"state":"OH","name":"CINCINNATI","zip":"45225"}},{"arcs":[[2263,2264,2265,-2190,-2213,2266,2267]],"type":"Polygon","properties":{"state":"OH","name":"CINCINNATI","zip":"45226"}},{"arcs":[[-2216,-2231,2268,2269,-2183,2270,-2267,-2212]],"type":"Polygon","properties":{"state":"OH","name":"CINCINNATI","zip":"45227"}},{"arcs":[[-2265,2271,2272]],"type":"Polygon","properties":{"state":"OH","name":"CINCINNATI","zip":"45228"}},{"arcs":[[-2249,2273,-2226,-2208,-2204,-2252,-2256]],"type":"Polygon","properties":{"state":"OH","name":"CINCINNATI","zip":"45229"}},{"arcs":[[2274,2275,-2272,-2264,2276]],"type":"Polygon","properties":{"state":"OH","name":"CINCINNATI","zip":"45230"}},{"arcs":[[2277,2278,-2010,2279,-2237,-2262]],"type":"Polygon","properties":{"state":"OH","name":"CINCINNATI","zip":"45231"}},{"arcs":[[-2259,-2263,-2243,-2247,-2255]],"type":"Polygon","properties":{"state":"OH","name":"CINCINNATI","zip":"45232"}},{"arcs":[[-1977,2280,2281,-2200,2282]],"type":"Polygon","properties":{"state":"OH","name":"CINCINNATI","zip":"45233"}},{"arcs":[[2283,-2269,-2230,2284,-2241,2285,2286]],"type":"Polygon","properties":{"state":"OH","name":"CINCINNATI","zip":"45236"}},{"arcs":[[-2245,-2234,-2285,-2229,-2227,-2274,-2248]],"type":"Polygon","properties":{"state":"OH","name":"CINCINNATI","zip":"45237"}},{"arcs":[[-2196,-2282,2287,-2221,-2201]],"type":"Polygon","properties":{"state":"OH","name":"CINCINNATI","zip":"45238"}},{"arcs":[[2288,2289,-2278,-2261,-2257,-2224]],"type":"Polygon","properties":{"state":"OH","name":"CINCINNATI","zip":"45239"}},{"arcs":[[-2009,2290,-2238,-2280]],"type":"Polygon","properties":{"state":"OH","name":"CINCINNATI","zip":"45240"}},{"arcs":[[2291,-2286,-2240,2292,-2070,-2037,2293]],"type":"Polygon","properties":{"state":"OH","name":"CINCINNATI","zip":"45241"}},{"arcs":[[-2292,2294,-2144,2295,-2287]],"type":"Polygon","properties":{"state":"OH","name":"CINCINNATI","zip":"45242"}},{"arcs":[[-2184,-2270,-2284,-2296,-2143,-2100,-2163]],"type":"Polygon","properties":{"state":"OH","name":"CINCINNATI","zip":"45243"}},{"arcs":[[-2268,-2271,-2182,-2161,2296,2297,-2277]],"type":"Polygon","properties":{"state":"OH","name":"CINCINNATI","zip":"45244"}},{"arcs":[[2298,-2297,-2160,-2080,-2076,-2171]],"type":"Polygon","properties":{"state":"OH","name":"CINCINNATI","zip":"45245"}},{"arcs":[[-2008,-2000,-2069,-2293,-2239,-2291]],"type":"Polygon","properties":{"state":"OH","name":"CINCINNATI","zip":"45246"}},{"arcs":[[-2223,2299,-1983,-2017,2300,2301,-2289]],"type":"Polygon","properties":{"state":"OH","name":"CINCINNATI","zip":"45247"}},{"arcs":[[-2288,-2281,-2049,-1980,-2300,-2222]],"type":"Polygon","properties":{"state":"OH","name":"CINCINNATI","zip":"45248"}},{"arcs":[[-2294,-2036,-2145,-2295]],"type":"Polygon","properties":{"state":"OH","name":"CINCINNATI","zip":"45249"}},{"arcs":[[-2290,-2302,2302,-2011,-2279]],"type":"Polygon","properties":{"state":"OH","name":"CINCINNATI","zip":"45251"}},{"arcs":[[-2016,-2012,-2303,-2301]],"type":"Polygon","properties":{"state":"OH","name":"CINCINNATI","zip":"45252"}},{"arcs":[[-2275,-2298,-2299,-2170,2303]],"type":"Polygon","properties":{"state":"OH","name":"CINCINNATI","zip":"45255"}},{"arcs":[[2304,2305,2306,2307,2308,2309]],"type":"Polygon","properties":{"state":"OH","name":"ANNA","zip":"45302"}},{"arcs":[[2310,2311,2312,2313]],"type":"Polygon","properties":{"state":"OH","name":"ANSONIA","zip":"45303"}},{"arcs":[[2314,2315,2316,2317,2318,2319,2320,2321]],"type":"Polygon","properties":{"state":"OH","name":"ARCANUM","zip":"45304"}},{"arcs":[[2322,2323,2324,2325,2326]],"type":"Polygon","properties":{"state":"OH","name":"BELLBROOK","zip":"45305"}},{"arcs":[[2327,2328,2329,2330,-2309]],"type":"Polygon","properties":{"state":"OH","name":"BOTKINS","zip":"45306"}},{"arcs":[[2331,-2319,2332,2333,2334]],"type":"Polygon","properties":{"state":"OH","name":"BRADFORD","zip":"45308"}},{"arcs":[[2335,2336,-2322,2337,2338,2339,2340,2341,2342]],"type":"Polygon","properties":{"state":"OH","name":"BROOKVILLE","zip":"45309"}},{"arcs":[[-2059,-2057,-1986,2343,2344,2345,2346,-2043]],"type":"Polygon","properties":{"state":"OH","name":"CAMDEN","zip":"45311"}},{"arcs":[[2347,2348,2349,2350,-168]],"type":"Polygon","properties":{"state":"OH","name":"CASSTOWN","zip":"45312"}},{"arcs":[[2351,2352,2353,2354,-296]],"type":"Polygon","properties":{"state":"OH","name":"CEDARVILLE","zip":"45314"}},{"arcs":[[2355,-2340,2356]],"type":"Polygon","properties":{"state":"OH","name":"CLAYTON","zip":"45315"}},{"arcs":[[-2351,2357,2358,-460,-408,-169]],"type":"Polygon","properties":{"state":"OH","name":"CONOVER","zip":"45317"}},{"arcs":[[2359,2360,-2335,2361,2362,2363,2364]],"type":"Polygon","properties":{"state":"OH","name":"COVINGTON","zip":"45318"}},{"arcs":[[2365,2366,2367,2368,2369,-2345]],"type":"Polygon","properties":{"state":"OH","name":"EATON","zip":"45320"}},{"arcs":[[2370,2371,2372,2373,-2368]],"type":"Polygon","properties":{"state":"OH","name":"ELDORADO","zip":"45321"}},{"arcs":[[2374,2375,-2357,-2339,2376,2377,2378]],"type":"Polygon","properties":{"state":"OH","name":"ENGLEWOOD","zip":"45322"}},{"arcs":[[2379,2380,2381,2382]],"type":"Polygon","properties":{"state":"OH","name":"ENON","zip":"45323"}},{"arcs":[[2383,2384,2385,2386,-2382,2387,2388,2389]],"type":"Polygon","properties":{"state":"OH","name":"FAIRBORN","zip":"45324"}},{"arcs":[[2390,2391,2392,2393]],"type":"Polygon","properties":{"state":"OH","name":"FARMERSVILLE","zip":"45325"}},{"arcs":[[2394,2395,2396,-2358,-2350]],"type":"Polygon","properties":{"state":"OH","name":"FLETCHER","zip":"45326"}},{"arcs":[[2397,-1991,-2044,-2347,2398,-2394,2399]],"type":"Polygon","properties":{"state":"OH","name":"GERMANTOWN","zip":"45327"}},{"arcs":[[2400,2401,-2314,2402,-2333,-2318,2403,2404]],"type":"Polygon","properties":{"state":"OH","name":"GREENVILLE","zip":"45331"}},{"arcs":[[2405,2406,-2405,2407]],"type":"Polygon","properties":{"state":"OH","name":"HOLLANSBURG","zip":"45332"}},{"arcs":[[2408,-2364,2409,2410,2411]],"type":"Polygon","properties":{"state":"OH","name":"HOUSTON","zip":"45333"}},{"arcs":[[-2331,2412,-443,-459,2413,-2310]],"type":"Polygon","properties":{"state":"OH","name":"JACKSON CENTER","zip":"45334"}},{"arcs":[[2414,-2352,-295,-248,-299,-2180,-2186]],"type":"Polygon","properties":{"state":"OH","name":"JAMESTOWN","zip":"45335"}},{"arcs":[[2415,-2320,-2332,2416,2417]],"type":"Polygon","properties":{"state":"OH","name":"LAURA","zip":"45337"}},{"arcs":[[2418,-2369,-2374,2419,-2315,-2337]],"type":"Polygon","properties":{"state":"OH","name":"LEWISBURG","zip":"45338"}},{"arcs":[[2420,-2418,2421,2422]],"type":"Polygon","properties":{"state":"OH","name":"LUDLOW FALLS","zip":"45339"}},{"arcs":[[2423,-2305,-2414,-458]],"type":"Polygon","properties":{"state":"OH","name":"MAPLEWOOD","zip":"45340"}},{"arcs":[[2424,2425,-2386]],"type":"Polygon","properties":{"state":"OH","name":"MEDWAY","zip":"45341"}},{"arcs":[[2426,-2061,-1992,-2398,2427,2428,2429]],"type":"Polygon","properties":{"state":"OH","name":"MIAMISBURG","zip":"45342"}},{"arcs":[[-2387,-2426,2430,2431,2432,-2348,-173,2433,2434,2435,2436,-2383]],"type":"Polygon","properties":{"state":"OH","name":"NEW CARLISLE","zip":"45344"}},{"arcs":[[2437,-2392,2438,-2343,2439]],"type":"Polygon","properties":{"state":"OH","name":"NEW LEBANON","zip":"45345"}},{"arcs":[[-2372,2440,-2408,-2404,-2317]],"type":"Polygon","properties":{"state":"OH","name":"NEW MADISON","zip":"45346"}},{"arcs":[[2441,-2406,-2441,-2371,-2367]],"type":"Polygon","properties":{"state":"OH","name":"NEW PARIS","zip":"45347"}},{"arcs":[[2442,2443,2444,2445,2446,2447]],"type":"Polygon","properties":{"state":"OH","name":"NEW WESTON","zip":"45348"}},{"arcs":[[2448,-2365,-2409,2449,-2396]],"type":"Polygon","properties":{"state":"OH","name":"PIQUA","zip":"45356"}},{"arcs":[[-2361,2450,-2422,-2417]],"type":"Polygon","properties":{"state":"OH","name":"PLEASANT HILL","zip":"45359"}},{"arcs":[[2451,-2447,2452,2453,-2312]],"type":"Polygon","properties":{"state":"OH","name":"ROSSBURG","zip":"45362"}},{"arcs":[[2454,2455,-2410,-2363]],"type":"Polygon","properties":{"state":"OH","name":"RUSSIA","zip":"45363"}},{"arcs":[[-2412,2456,2457,-2306,-2424,-457,-2359,-2397,-2450]],"type":"Polygon","properties":{"state":"OH","name":"SIDNEY","zip":"45365"}},{"arcs":[[-297,-2355,2458,2459,2460,2461,-272]],"type":"Polygon","properties":{"state":"OH","name":"SOUTH CHARLESTON","zip":"45368"}},{"arcs":[[-2462,2462,2463,-122,-273]],"type":"Polygon","properties":{"state":"OH","name":"SOUTH VIENNA","zip":"45369"}},{"arcs":[[2464,-2327,2465,-2065]],"type":"Polygon","properties":{"state":"OH","name":"SPRING VALLEY","zip":"45370"}},{"arcs":[[2466,2467,2468,-2432,2469]],"type":"Polygon","properties":{"state":"OH","name":"TIPP CITY","zip":"45371"}},{"arcs":[[-2469,2470,-2423,-2451,-2360,-2449,-2395,-2349,-2433]],"type":"Polygon","properties":{"state":"OH","name":"TROY","zip":"45373"}},{"arcs":[[2471,2472,-2378,2473,-2467]],"type":"Polygon","properties":{"state":"OH","name":"VANDALIA","zip":"45377"}},{"arcs":[[-2334,-2403,-2313,-2454,2474,2475,-2455,-2362]],"type":"Polygon","properties":{"state":"OH","name":"VERSAILLES","zip":"45380"}},{"arcs":[[-2346,-2370,-2419,-2336,-2439,-2391,-2399]],"type":"Polygon","properties":{"state":"OH","name":"WEST ALEXANDRIA","zip":"45381"}},{"arcs":[[-2316,-2420,-2373]],"type":"Polygon","properties":{"state":"OH","name":"WEST MANCHESTER","zip":"45382"}},{"arcs":[[-2338,-2321,-2416,-2421,-2471,-2468,-2474,-2377]],"type":"Polygon","properties":{"state":"OH","name":"WEST MILTON","zip":"45383"}},{"arcs":[[-2326,2476,2477,2478,2479,-2389,2480,-2353,-2415,-2185,-2066,-2466]],"type":"Polygon","properties":{"state":"OH","name":"XENIA","zip":"45385"}},{"arcs":[[-2354,-2481,-2388,-2381,2481,-2459]],"type":"Polygon","properties":{"state":"OH","name":"YELLOW SPRINGS","zip":"45387"}},{"arcs":[[-2446,2482,2483,-2475,-2453]],"type":"Polygon","properties":{"state":"OH","name":"YORKSHIRE","zip":"45388"}},{"arcs":[[-2402,2484,2485,-2448,-2452,-2311]],"type":"Polygon","properties":{"state":"OH","name":"UNION CITY","zip":"45390"}},{"arcs":[[2486,2487,2488,2489,2490,2491,2492]],"type":"Polygon","properties":{"state":"OH","name":"DAYTON","zip":"45402"}},{"arcs":[[2493,2494,-2493,2495,2496]],"type":"Polygon","properties":{"state":"OH","name":"DAYTON","zip":"45403"}},{"arcs":[[-2492,2497,2498,2499,2500,-2496]],"type":"Polygon","properties":{"state":"OH","name":"DAYTON","zip":"45404"}},{"arcs":[[-2491,2501,2502,2503,2504,-2498]],"type":"Polygon","properties":{"state":"OH","name":"DAYTON","zip":"45405"}},{"arcs":[[2505,2506,2507,2508,-2502]],"type":"Polygon","properties":{"state":"OH","name":"DAYTON","zip":"45406"}},{"arcs":[[2509,2510,-2506,-2490,2511]],"type":"Polygon","properties":{"state":"OH","name":"DAYTON","zip":"45407"}},{"arcs":[[2512,2513,2514,2515,-2512,-2489]],"type":"Polygon","properties":{"state":"OH","name":"DAYTON","zip":"45408"}},{"arcs":[[2516,2517,2518,-2513,-2488,2519,2520]],"type":"Polygon","properties":{"state":"OH","name":"DAYTON","zip":"45409"}},{"arcs":[[2521,-2520,-2487,-2495,2522]],"type":"Polygon","properties":{"state":"OH","name":"DAYTON","zip":"45410"}},{"arcs":[[2523,-2379,-2473,2524,-2499,-2505]],"type":"Polygon","properties":{"state":"OH","name":"DAYTON","zip":"45414"}},{"arcs":[[2525,2526,-2375,-2524,-2504]],"type":"Polygon","properties":{"state":"OH","name":"DAYTON","zip":"45415"}},{"arcs":[[2527,-2526,-2503,-2509]],"type":"Polygon","properties":{"state":"OH","name":"DAYTON","zip":"45416"}},{"arcs":[[2528,2529,-2510,-2516]],"type":"Polygon","properties":{"state":"OH","name":"DAYTON","zip":"45417"}},{"arcs":[[-2438,2530,-2529,-2515,2531,2532,-2428,-2400,-2393]],"type":"Polygon","properties":{"state":"OH","name":"DAYTON","zip":"45418"}},{"arcs":[[2533,-2517,2534]],"type":"Polygon","properties":{"state":"OH","name":"DAYTON","zip":"45419"}},{"arcs":[[2535,2536,2537,-2535,-2521,-2522,2538]],"type":"Polygon","properties":{"state":"OH","name":"DAYTON","zip":"45420"}},{"arcs":[[2539,2540,-2500,-2525,-2472,-2470,-2431,-2425,-2385]],"type":"Polygon","properties":{"state":"OH","name":"DAYTON","zip":"45424"}},{"arcs":[[2541,-2341,-2356,-2376,-2527,-2528,-2508]],"type":"Polygon","properties":{"state":"OH","name":"DAYTON","zip":"45426"}},{"arcs":[[-2531,-2440,-2342,-2542,-2507,-2511,-2530]],"type":"Polygon","properties":{"state":"OH","name":"DAYTON","zip":"45427"}},{"arcs":[[2542,-2518,-2534,-2538,2543,2544]],"type":"Polygon","properties":{"state":"OH","name":"DAYTON","zip":"45429"}},{"arcs":[[2545,2546,-2536,2547]],"type":"Polygon","properties":{"state":"OH","name":"DAYTON","zip":"45430"}},{"arcs":[[-2501,-2541,2548,-2390,-2480,2549,-2497]],"type":"Polygon","properties":{"state":"OH","name":"DAYTON","zip":"45431"}},{"arcs":[[-2523,-2494,-2550,-2479,2550,-2548,-2539]],"type":"Polygon","properties":{"state":"OH","name":"DAYTON","zip":"45432"}},{"arcs":[[-2549,-2540,-2384]],"type":"Polygon","properties":{"state":"OH","name":"DAYTON","zip":"45433"}},{"arcs":[[2551,-2546,-2551,-2478]],"type":"Polygon","properties":{"state":"OH","name":"DAYTON","zip":"45434"}},{"arcs":[[2552,2553,-2532,-2514,-2519,-2543]],"type":"Polygon","properties":{"state":"OH","name":"DAYTON","zip":"45439"}},{"arcs":[[-2537,-2547,-2552,-2477,-2325,2554,-2544]],"type":"Polygon","properties":{"state":"OH","name":"DAYTON","zip":"45440"}},{"arcs":[[-2533,-2554,2555,-2429]],"type":"Polygon","properties":{"state":"OH","name":"DAYTON","zip":"45449"}},{"arcs":[[-2064,-2062,-2427,2556,-2323,-2465]],"type":"Polygon","properties":{"state":"OH","name":"DAYTON","zip":"45458"}},{"arcs":[[-2556,-2553,-2545,-2555,-2324,-2557,-2430]],"type":"Polygon","properties":{"state":"OH","name":"DAYTON","zip":"45459"}},{"arcs":[[[2557,2558,2559,-2434,-172,-182,-116,-2464]],[[2560,2561,2562,2563]],[[-2437,2564,2565,-2460,-2482,-2380]]],"type":"MultiPolygon","properties":{"state":"OH","name":"SPRINGFIELD","zip":"45502"}},{"arcs":[[2566,-2559,2567,-2563]],"type":"Polygon","properties":{"state":"OH","name":"SPRINGFIELD","zip":"45503"}},{"arcs":[[-2560,-2567,-2562,2568,-2435]],"type":"Polygon","properties":{"state":"OH","name":"SPRINGFIELD","zip":"45504"}},{"arcs":[[-2566,2569,-2564,-2568,-2558,-2463,-2461]],"type":"Polygon","properties":{"state":"OH","name":"SPRINGFIELD","zip":"45505"}},{"arcs":[[-2565,-2436,-2569,-2561,-2570]],"type":"Polygon","properties":{"state":"OH","name":"SPRINGFIELD","zip":"45506"}},{"arcs":[[2570,2571,2572,-232,-303,-231,2573,-260,-294,2574,2575,2576,2577,2578]],"type":"Polygon","properties":{"state":"OH","name":"CHILLICOTHE","zip":"45601"}},{"arcs":[[-2127,2579,-2571,2580,2581,-2136]],"type":"Polygon","properties":{"state":"OH","name":"BAINBRIDGE","zip":"45612"}},{"arcs":[[2582,2583,2584,-2578,2585,2586]],"type":"Polygon","properties":{"state":"OH","name":"BEAVER","zip":"45613"}},{"arcs":[[2587,2588,2589,2590,2591]],"type":"Polygon","properties":{"state":"OH","name":"BIDWELL","zip":"45614"}},{"arcs":[[2592,2593,2594,2595,2596,2597,-2156]],"type":"Polygon","properties":{"state":"OH","name":"BLUE CREEK","zip":"45616"}},{"arcs":[[2598,2599,2600,2601,2602,2603]],"type":"Polygon","properties":{"state":"OH","name":"CHESAPEAKE","zip":"45619"}},{"arcs":[[2604,-2591,2605,2606]],"type":"Polygon","properties":{"state":"OH","name":"CHESHIRE","zip":"45620"}},{"arcs":[[2607,2608,-291,-270]],"type":"Polygon","properties":{"state":"OH","name":"CREOLA","zip":"45622"}},{"arcs":[[2609,2610,2611,2612,2613]],"type":"Polygon","properties":{"state":"OH","name":"CROWN CITY","zip":"45623"}},{"arcs":[[2614,-2125,-300,-233,-2573]],"type":"Polygon","properties":{"state":"OH","name":"FRANKFORT","zip":"45628"}},{"arcs":[[2615,2616,2617,2618]],"type":"Polygon","properties":{"state":"OH","name":"FRANKLIN FURNACE","zip":"45629"}},{"arcs":[[2619,2620,-2592,-2605,2621,-2613]],"type":"Polygon","properties":{"state":"OH","name":"GALLIPOLIS","zip":"45631"}},{"arcs":[[2622,2623,2624,2625]],"type":"Polygon","properties":{"state":"OH","name":"HAMDEN","zip":"45634"}},{"arcs":[[2626,2627,-2616,2628,2629]],"type":"Polygon","properties":{"state":"OH","name":"IRONTON","zip":"45638"}},{"arcs":[[-2577,2630,2631,2632,2633,2634,2635,-2586]],"type":"Polygon","properties":{"state":"OH","name":"JACKSON","zip":"45640"}},{"arcs":[[-230,-256,-2574]],"type":"Polygon","properties":{"state":"OH","name":"KINGSTON","zip":"45644"}},{"arcs":[[2636,2637,-2602,2638,-2630]],"type":"Polygon","properties":{"state":"OH","name":"KITTS HILL","zip":"45645"}},{"arcs":[[2639,-2138]],"type":"Polygon","properties":{"state":"OH","name":"LATHAM","zip":"45646"}},{"arcs":[[-293,2640,2641,-2575]],"type":"Polygon","properties":{"state":"OH","name":"LONDONDERRY","zip":"45647"}},{"arcs":[[2642,2643,2644,2645,-2583,2646,2647]],"type":"Polygon","properties":{"state":"OH","name":"LUCASVILLE","zip":"45648"}},{"arcs":[[2648,-2593,-2155]],"type":"Polygon","properties":{"state":"OH","name":"LYNX","zip":"45650"}},{"arcs":[[2649,-2641,-292,-2609,2650,2651,2652,2653,2654,-2626]],"type":"Polygon","properties":{"state":"OH","name":"MC ARTHUR","zip":"45651"}},{"arcs":[[2655,2656,2657,-2643]],"type":"Polygon","properties":{"state":"OH","name":"MC DERMOTT","zip":"45652"}},{"arcs":[[-2587,-2636,2658,2659,2660,2661,-2647]],"type":"Polygon","properties":{"state":"OH","name":"MINFORD","zip":"45653"}},{"arcs":[[-269,2662,-2651,-2608]],"type":"Polygon","properties":{"state":"OH","name":"NEW PLYMOUTH","zip":"45654"}},{"arcs":[[2663,2664,-2659,-2635,2665]],"type":"Polygon","properties":{"state":"OH","name":"OAK HILL","zip":"45656"}},{"arcs":[[2666,-2596,2667,2668,-2644,-2658]],"type":"Polygon","properties":{"state":"OH","name":"OTWAY","zip":"45657"}},{"arcs":[[2669,2670,2671,-2664,2672,-2620,-2612]],"type":"Polygon","properties":{"state":"OH","name":"PATRIOT","zip":"45658"}},{"arcs":[[2673,-2637,-2629,-2619,2674,2675,2676]],"type":"Polygon","properties":{"state":"OH","name":"PEDRO","zip":"45659"}},{"arcs":[[2677,-2139,-2640,-2137,-2582,2678,2679,2680,-2668,-2595,2681]],"type":"Polygon","properties":{"state":"OH","name":"PEEBLES","zip":"45660"}},{"arcs":[[-2646,2682,-2680,2683,-2584]],"type":"Polygon","properties":{"state":"OH","name":"PIKETON","zip":"45661"}},{"arcs":[[2684,-2656,-2648,-2662,2685,2686]],"type":"Polygon","properties":{"state":"OH","name":"PORTSMOUTH","zip":"45662"}},{"arcs":[[-2667,-2657,-2685,2687,2688,-2597]],"type":"Polygon","properties":{"state":"OH","name":"WEST PORTSMOUTH","zip":"45663"}},{"arcs":[[2689,-2610,2690,-2599]],"type":"Polygon","properties":{"state":"OH","name":"PROCTORVILLE","zip":"45669"}},{"arcs":[[-2681,-2683,-2645,-2669]],"type":"Polygon","properties":{"state":"OH","name":"RARDEN","zip":"45671"}},{"arcs":[[-2642,-2650,-2625,2691,-2631,-2576]],"type":"Polygon","properties":{"state":"OH","name":"RAY","zip":"45672"}},{"arcs":[[2692,-2670,-2611,-2690,-2604]],"type":"Polygon","properties":{"state":"OH","name":"SCOTTOWN","zip":"45678"}},{"arcs":[[2693,-2129,-2678]],"type":"Polygon","properties":{"state":"OH","name":"SEAMAN","zip":"45679"}},{"arcs":[[-2627,-2639,-2601,2694]],"type":"Polygon","properties":{"state":"OH","name":"SOUTH POINT","zip":"45680"}},{"arcs":[[-2580,-2126,-2615,-2572]],"type":"Polygon","properties":{"state":"OH","name":"SOUTH SALEM","zip":"45681"}},{"arcs":[[2695,-2676,2696,-2660,-2665]],"type":"Polygon","properties":{"state":"OH","name":"SOUTH WEBSTER","zip":"45682"}},{"arcs":[[-2689,2697,-2151,-2598]],"type":"Polygon","properties":{"state":"OH","name":"STOUT","zip":"45684"}},{"arcs":[[-2634,2698,-2588,-2621,-2673,-2666]],"type":"Polygon","properties":{"state":"OH","name":"THURMAN","zip":"45685"}},{"arcs":[[-2699,-2633,2699,2700,-2589]],"type":"Polygon","properties":{"state":"OH","name":"VINTON","zip":"45686"}},{"arcs":[[-2696,-2672,-2677]],"type":"Polygon","properties":{"state":"OH","name":"WATERLOO","zip":"45688"}},{"arcs":[[-2679,-2581,-2579,-2585,-2684]],"type":"Polygon","properties":{"state":"OH","name":"WAVERLY","zip":"45690"}},{"arcs":[[2701,-2632,-2692,-2624]],"type":"Polygon","properties":{"state":"OH","name":"WELLSTON","zip":"45692"}},{"arcs":[[-2649,-2154,-2176,-2177,2702,-2682,-2594]],"type":"Polygon","properties":{"state":"OH","name":"WEST UNION","zip":"45693"}},{"arcs":[[-2618,2703,-2686,-2661,-2697,-2675]],"type":"Polygon","properties":{"state":"OH","name":"WHEELERSBURG","zip":"45694"}},{"arcs":[[-2623,-2655,2704,2705,-2700,-2702]],"type":"Polygon","properties":{"state":"OH","name":"WILKESVILLE","zip":"45695"}},{"arcs":[[-2674,-2671,-2693,-2603,-2638]],"type":"Polygon","properties":{"state":"OH","name":"WILLOW WOOD","zip":"45696"}},{"arcs":[[-2181,-2130,-2694,-2703,-2178,-2115]],"type":"Polygon","properties":{"state":"OH","name":"WINCHESTER","zip":"45697"}},{"arcs":[[2706,2707,2708,2709,2710,2711,2712,2713]],"type":"Polygon","properties":{"state":"OH","name":"ATHENS","zip":"45701"}},{"arcs":[[2714,2715,-2705,-2654,2716,-2709,2717]],"type":"Polygon","properties":{"state":"OH","name":"ALBANY","zip":"45710"}},{"arcs":[[2718,2719,-806,2720,2721,-2713]],"type":"Polygon","properties":{"state":"OH","name":"AMESVILLE","zip":"45711"}},{"arcs":[[2722,2723,2724,2725,2726]],"type":"Polygon","properties":{"state":"OH","name":"BELPRE","zip":"45714"}},{"arcs":[[2727,2728,-873,-847,-787]],"type":"Polygon","properties":{"state":"OH","name":"BEVERLY","zip":"45715"}},{"arcs":[[2729,2730,2731,2732,2733,2734,2735,2736]],"type":"Polygon","properties":{"state":"OH","name":"COOLVILLE","zip":"45723"}},{"arcs":[[2737,-2721,-805,-875,2738,2739,2740,2741,-2733]],"type":"Polygon","properties":{"state":"OH","name":"CUTLER","zip":"45724"}},{"arcs":[[2742,2743,-784]],"type":"Polygon","properties":{"state":"OH","name":"DEXTER CITY","zip":"45727"}},{"arcs":[[2744,-2740,2745,2746,-2725]],"type":"Polygon","properties":{"state":"OH","name":"FLEMING","zip":"45729"}},{"arcs":[[2747,-267,-861,-814,-849,-807,-2720,2748]],"type":"Polygon","properties":{"state":"OH","name":"GLOUSTER","zip":"45732"}},{"arcs":[[2749,2750,-839,-877,2751]],"type":"Polygon","properties":{"state":"OH","name":"GRAYSVILLE","zip":"45734"}},{"arcs":[[2752,-2707,2753,-2731]],"type":"Polygon","properties":{"state":"OH","name":"GUYSVILLE","zip":"45735"}},{"arcs":[[-2706,-2716,2754,2755,2756,-2590,-2701]],"type":"Polygon","properties":{"state":"OH","name":"LANGSVILLE","zip":"45741"}},{"arcs":[[-2734,-2742,2757,-2723,2758]],"type":"Polygon","properties":{"state":"OH","name":"LITTLE HOCKING","zip":"45742"}},{"arcs":[[2759,2760,2761,2762,2763]],"type":"Polygon","properties":{"state":"OH","name":"LONG BOTTOM","zip":"45743"}},{"arcs":[[2764,2765,2766,-2728,-786,2767]],"type":"Polygon","properties":{"state":"OH","name":"LOWELL","zip":"45744"}},{"arcs":[[2768,-2743,-795,-840,-2751,2769,2770,2771,-2765]],"type":"Polygon","properties":{"state":"OH","name":"LOWER SALEM","zip":"45745"}},{"arcs":[[-785,-2744,-2769,-2768]],"type":"Polygon","properties":{"state":"OH","name":"MACKSBURG","zip":"45746"}},{"arcs":[[2772,2773,-2726,-2747,2774,-2766,-2772,2775]],"type":"Polygon","properties":{"state":"OH","name":"MARIETTA","zip":"45750"}},{"arcs":[[-2606,-2757,2776,2777,2778]],"type":"Polygon","properties":{"state":"OH","name":"MIDDLEPORT","zip":"45760"}},{"arcs":[[-2712,2779,2780,-2749,-2719]],"type":"Polygon","properties":{"state":"OH","name":"MILLFIELD","zip":"45761"}},{"arcs":[[-2663,-268,-2748,-2781,2781,2782,-2652]],"type":"Polygon","properties":{"state":"OH","name":"NELSONVILLE","zip":"45764"}},{"arcs":[[-2717,-2653,-2783,2783,-2710]],"type":"Polygon","properties":{"state":"OH","name":"NEW MARSHFIELD","zip":"45766"}},{"arcs":[[2784,2785,-2752,-880,-1008,2786,2787]],"type":"Polygon","properties":{"state":"OH","name":"NEW MATAMORAS","zip":"45767"}},{"arcs":[[2788,2789,-2788,2790]],"type":"Polygon","properties":{"state":"OH","name":"NEWPORT","zip":"45768"}},{"arcs":[[2791,-2755,-2715,2792,-2737,2793,-2761,2794,2795,-2778]],"type":"Polygon","properties":{"state":"OH","name":"POMEROY","zip":"45769"}},{"arcs":[[2796,-2764,2797]],"type":"Polygon","properties":{"state":"OH","name":"PORTLAND","zip":"45770"}},{"arcs":[[-2795,-2760,-2797,2798]],"type":"Polygon","properties":{"state":"OH","name":"RACINE","zip":"45771"}},{"arcs":[[-2794,-2736,2799,-2762]],"type":"Polygon","properties":{"state":"OH","name":"REEDSVILLE","zip":"45772"}},{"arcs":[[-2773,2800,-2789,2801]],"type":"Polygon","properties":{"state":"OH","name":"RENO","zip":"45773"}},{"arcs":[[-2756,-2792,-2777]],"type":"Polygon","properties":{"state":"OH","name":"RUTLAND","zip":"45775"}},{"arcs":[[-2793,-2718,-2708,-2753,-2730]],"type":"Polygon","properties":{"state":"OH","name":"SHADE","zip":"45776"}},{"arcs":[[-2732,-2754,-2714,-2722,-2738]],"type":"Polygon","properties":{"state":"OH","name":"STEWART","zip":"45778"}},{"arcs":[[-2782,-2780,-2711,-2784]],"type":"Polygon","properties":{"state":"OH","name":"THE PLAINS","zip":"45780"}},{"arcs":[[-2758,-2741,-2745,-2724]],"type":"Polygon","properties":{"state":"OH","name":"VINCENT","zip":"45784"}},{"arcs":[[-874,-2729,-2767,-2775,-2746,-2739]],"type":"Polygon","properties":{"state":"OH","name":"WATERFORD","zip":"45786"}},{"arcs":[[-2776,-2771,2802,-2785,-2790,-2801]],"type":"Polygon","properties":{"state":"OH","name":"WHIPPLE","zip":"45788"}},{"arcs":[[-2803,-2770,-2750,-2786]],"type":"Polygon","properties":{"state":"OH","name":"WINGETT RUN","zip":"45789"}},{"arcs":[[2803,2804,2805,2806,2807,2808,2809]],"type":"Polygon","properties":{"state":"OH","name":"LIMA","zip":"45801"}},{"arcs":[[2810,2811,-2804]],"type":"Polygon","properties":{"state":"OH","name":"LIMA","zip":"45804"}},{"arcs":[[2812,2813,-2805,-2812]],"type":"Polygon","properties":{"state":"OH","name":"LIMA","zip":"45805"}},{"arcs":[[2814,2815,2816,2817,2818,-2813,-2811,-2810]],"type":"Polygon","properties":{"state":"OH","name":"LIMA","zip":"45806"}},{"arcs":[[2819,2820,2821,2822,-2806,-2814,-2819]],"type":"Polygon","properties":{"state":"OH","name":"LIMA","zip":"45807"}},{"arcs":[[2823,2824,2825,2826,2827,-426,2828]],"type":"Polygon","properties":{"state":"OH","name":"ADA","zip":"45810"}},{"arcs":[[2829,-2829,-425,-383]],"type":"Polygon","properties":{"state":"OH","name":"ALGER","zip":"45812"}},{"arcs":[[2830,-638,2831,2832,2833]],"type":"Polygon","properties":{"state":"OH","name":"ANTWERP","zip":"45813"}},{"arcs":[[2834,2835,2836,2837,2838]],"type":"Polygon","properties":{"state":"OH","name":"ARLINGTON","zip":"45814"}},{"arcs":[[2839,-2825,2840,-2808,2841,2842,2843]],"type":"Polygon","properties":{"state":"OH","name":"BLUFFTON","zip":"45817"}},{"arcs":[[-637,-662,-687,-601,2844,-2832]],"type":"Polygon","properties":{"state":"OH","name":"CECIL","zip":"45821"}},{"arcs":[[2845,2846,2847,2848,2849,2850,2851,2852,2853,2854]],"type":"Polygon","properties":{"state":"OH","name":"CELINA","zip":"45822"}},{"arcs":[[2855,2856,2857,2858,2859,2860]],"type":"Polygon","properties":{"state":"OH","name":"CLOVERDALE","zip":"45827"}},{"arcs":[[2861,2862,-2846]],"type":"Polygon","properties":{"state":"OH","name":"COLDWATER","zip":"45828"}},{"arcs":[[-2807,-2823,2863,2864,2865,-2842]],"type":"Polygon","properties":{"state":"OH","name":"COLUMBUS GROVE","zip":"45830"}},{"arcs":[[2866,-598,-680,2867,2868,-2858]],"type":"Polygon","properties":{"state":"OH","name":"CONTINENTAL","zip":"45831"}},{"arcs":[[2869,2870,2871,2872,2873]],"type":"Polygon","properties":{"state":"OH","name":"CONVOY","zip":"45832"}},{"arcs":[[2874,2875,2876,2877,-2821,2878]],"type":"Polygon","properties":{"state":"OH","name":"DELPHOS","zip":"45833"}},{"arcs":[[-2828,2879,-427]],"type":"Polygon","properties":{"state":"OH","name":"DOLA","zip":"45835"}},{"arcs":[[-2827,2880,-2836,2881,-428,-2880]],"type":"Polygon","properties":{"state":"OH","name":"DUNKIRK","zip":"45836"}},{"arcs":[[2882,2883,2884,2885,2886,-1848,-1843,2887,2888,-2838,2889]],"type":"Polygon","properties":{"state":"OH","name":"FINDLAY","zip":"45840"}},{"arcs":[[2890,-2890,-2837,-2881,-2826,-2840]],"type":"Polygon","properties":{"state":"OH","name":"JENERA","zip":"45841"}},{"arcs":[[-438,-429,-2882,-2835,2891,-472,-466]],"type":"Polygon","properties":{"state":"OH","name":"FOREST","zip":"45843"}},{"arcs":[[-2822,-2878,2892,-2860,2893,-2864]],"type":"Polygon","properties":{"state":"OH","name":"FORT JENNINGS","zip":"45844"}},{"arcs":[[-2476,-2484,2894,2895,-2457,-2411,-2456]],"type":"Polygon","properties":{"state":"OH","name":"FORT LORAMIE","zip":"45845"}},{"arcs":[[2896,-2847,-2863,2897,-2443,-2486]],"type":"Polygon","properties":{"state":"OH","name":"FORT RECOVERY","zip":"45846"}},{"arcs":[[2898,2899,2900,-2856,2901,2902]],"type":"Polygon","properties":{"state":"OH","name":"GROVER HILL","zip":"45849"}},{"arcs":[[-382,2903,-2815,-2809,-2841,-2824,-2830]],"type":"Polygon","properties":{"state":"OH","name":"HARROD","zip":"45850"}},{"arcs":[[2904,2905,2906,-2899]],"type":"Polygon","properties":{"state":"OH","name":"HAVILAND","zip":"45851"}},{"arcs":[[-679,-633,-613,2907,2908,-2868]],"type":"Polygon","properties":{"state":"OH","name":"LEIPSIC","zip":"45856"}},{"arcs":[[-612,2909,2910,-2886,2911,-2908]],"type":"Polygon","properties":{"state":"OH","name":"MC COMB","zip":"45858"}},{"arcs":[[-2445,2912,-2854,2913,2914,-2895,-2483]],"type":"Polygon","properties":{"state":"OH","name":"MARIA STEIN","zip":"45860"}},{"arcs":[[2915,-2850,2916,2917]],"type":"Polygon","properties":{"state":"OH","name":"MENDON","zip":"45862"}},{"arcs":[[-2877,2918,2919,-2902,-2861,-2893]],"type":"Polygon","properties":{"state":"OH","name":"MIDDLE POINT","zip":"45863"}},{"arcs":[[-2896,-2915,2920,-2307,-2458]],"type":"Polygon","properties":{"state":"OH","name":"MINSTER","zip":"45865"}},{"arcs":[[-2889,2921,-400,-473,-2892,-2839]],"type":"Polygon","properties":{"state":"OH","name":"MOUNT BLANCHARD","zip":"45867"}},{"arcs":[[2922,-2844,2923,2924,-2884]],"type":"Polygon","properties":{"state":"OH","name":"MOUNT CORY","zip":"45868"}},{"arcs":[[-2921,-2914,-2853,2925,2926,-2328,-2308]],"type":"Polygon","properties":{"state":"OH","name":"NEW BREMEN","zip":"45869"}},{"arcs":[[-2927,2927,2928,-2329]],"type":"Polygon","properties":{"state":"OH","name":"NEW KNOXVILLE","zip":"45871"}},{"arcs":[[-593,-505,-1884,2929,-2910,-617]],"type":"Polygon","properties":{"state":"OH","name":"NORTH BALTIMORE","zip":"45872"}},{"arcs":[[-2901,2930,-599,-2867,-2857]],"type":"Polygon","properties":{"state":"OH","name":"OAKWOOD","zip":"45873"}},{"arcs":[[2931,2932,2933,2934,-2871,2935]],"type":"Polygon","properties":{"state":"OH","name":"OHIO CITY","zip":"45874"}},{"arcs":[[-2859,-2869,-2909,-2912,-2885,-2925,2936,-2865,-2894]],"type":"Polygon","properties":{"state":"OH","name":"OTTAWA","zip":"45875"}},{"arcs":[[-2866,-2937,-2924,-2843]],"type":"Polygon","properties":{"state":"OH","name":"PANDORA","zip":"45877"}},{"arcs":[[-2907,2937,-2833,-2845,-600,-2931,-2900]],"type":"Polygon","properties":{"state":"OH","name":"PAULDING","zip":"45879"}},{"arcs":[[2938,-2834,-2938,-2906,2939,-2873]],"type":"Polygon","properties":{"state":"OH","name":"PAYNE","zip":"45880"}},{"arcs":[[-2923,-2883,-2891]],"type":"Polygon","properties":{"state":"OH","name":"RAWSON","zip":"45881"}},{"arcs":[[2940,-2933,2941,-2917,-2849,2942]],"type":"Polygon","properties":{"state":"OH","name":"ROCKFORD","zip":"45882"}},{"arcs":[[-2862,-2855,-2913,-2444,-2898]],"type":"Polygon","properties":{"state":"OH","name":"SAINT HENRY","zip":"45883"}},{"arcs":[[2943,2944,-2928,-2926,-2852]],"type":"Polygon","properties":{"state":"OH","name":"SAINT MARYS","zip":"45885"}},{"arcs":[[2945,-2874,-2940,-2905,-2903,-2920]],"type":"Polygon","properties":{"state":"OH","name":"SCOTT","zip":"45886"}},{"arcs":[[2946,-2879,-2820,-2818,2947,-2944,-2851,-2916]],"type":"Polygon","properties":{"state":"OH","name":"SPENCERVILLE","zip":"45887"}},{"arcs":[[-2887,-2911,-2930,-1883,-1849]],"type":"Polygon","properties":{"state":"OH","name":"VAN BUREN","zip":"45889"}},{"arcs":[[-2922,-2888,-1847,-401]],"type":"Polygon","properties":{"state":"OH","name":"VANLUE","zip":"45890"}},{"arcs":[[2948,-2936,-2870,-2946,-2919,-2876]],"type":"Polygon","properties":{"state":"OH","name":"VAN WERT","zip":"45891"}},{"arcs":[[-2942,-2932,-2949,-2875,-2947,-2918]],"type":"Polygon","properties":{"state":"OH","name":"VENEDOCIA","zip":"45894"}},{"arcs":[[-2413,-2330,-2929,-2945,-2948,-2817,2949,-433,-444]],"type":"Polygon","properties":{"state":"OH","name":"WAPAKONETA","zip":"45895"}},{"arcs":[[-434,-2950,-2816,-2904,-381,-464]],"type":"Polygon","properties":{"state":"OH","name":"WAYNESFIELD","zip":"45896"}},{"arcs":[[2950,-2934,-2941]],"type":"Polygon","properties":{"state":"OH","name":"WILLSHIRE","zip":"45898"}}]}},"arcs":[[[32870,15921],[-32,-78]],[[32838,15843],[-54,53]],[[32784,15896],[86,25]],[[32402,15855],[-41,5]],[[32361,15860],[0,16]],[[32361,15876],[41,-21]],[[32582,16166],[-5,0]],[[32577,16166],[-99,43]],[[32478,16209],[41,74]],[[32519,16283],[117,-46]],[[32636,16237],[-54,-71]],[[32667,15782],[-22,5]],[[32645,15787],[27,58]],[[32672,15845],[27,8]],[[32699,15853],[4,-49]],[[32703,15804],[-36,-22]],[[33194,16229],[-36,38]],[[33158,16267],[5,56]],[[33163,16323],[67,5]],[[33230,16328],[-45,-51],[86,-12]],[[33271,16265],[-77,-36]],[[32041,15995],[23,-58]],[[32064,15937],[-50,-54]],[[32014,15883],[5,97],[-50,28]],[[31969,16008],[54,33]],[[32023,16041],[5,0]],[[32028,16041],[13,-46]],[[32856,16077],[14,-18]],[[32870,16059],[-77,-21]],[[32793,16038],[-76,46]],[[32717,16084],[-32,64]],[[32685,16148],[108,38]],[[32793,16186],[63,-109]],[[32793,16038],[-81,-28]],[[32712,16010],[5,74]],[[33158,16267],[0,-86]],[[33158,16181],[-72,28],[-36,122]],[[33050,16331],[0,38]],[[33050,16369],[72,-10]],[[33122,16359],[41,-36]],[[32393,16003],[0,25]],[[32393,16028],[-9,130]],[[32384,16158],[63,53]],[[32447,16211],[31,-2]],[[32577,16166],[-13,-92]],[[32564,16074],[-27,-38]],[[32537,16036],[-41,-3],[9,-56]],[[32505,15977],[-40,8],[9,53],[-77,-50]],[[32397,15988],[-4,15]],[[32451,15911],[-22,31]],[[32429,15942],[45,-23]],[[32474,15919],[-23,-8]],[[32420,15863],[-18,-8]],[[32361,15876],[32,66]],[[32393,15942],[45,-74]],[[32438,15868],[-18,-5]],[[32442,15871],[0,-3]],[[32442,15868],[-4,0]],[[32393,15942],[0,28]],[[32393,15970],[36,-28]],[[32451,15911],[-9,-40]],[[32757,16232],[9,61]],[[32766,16293],[-18,86],[54,8]],[[32802,16387],[136,-23]],[[32938,16364],[45,-28],[-14,-61]],[[32969,16275],[-176,-66]],[[32793,16209],[-36,23]],[[32564,16074],[126,-107]],[[32690,15967],[-131,13]],[[32559,15980],[-22,56]],[[33082,16094],[-54,-17]],[[33028,16077],[-18,17]],[[33010,16094],[-50,84],[54,41]],[[33014,16219],[68,-114]],[[33082,16105],[0,-11]],[[32928,15835],[0,-8]],[[32928,15827],[-76,-15]],[[32852,15812],[-14,31]],[[32870,15921],[-5,36]],[[32865,15957],[73,10],[-10,-132]],[[32928,15723],[-76,18]],[[32852,15741],[0,71]],[[32928,15827],[-13,-43],[50,-13]],[[32965,15771],[-37,-48]],[[32330,15779],[-5,25]],[[32325,15804],[36,56]],[[32420,15863],[18,-51]],[[32438,15812],[-59,-36]],[[32379,15776],[-49,3]],[[33158,16181],[-76,-76]],[[33014,16219],[14,81]],[[33028,16300],[22,31]],[[32158,15914],[-31,-43],[4,50]],[[32131,15921],[27,-7]],[[32784,15896],[-76,-15]],[[32708,15881],[-14,53]],[[32694,15934],[0,33]],[[32694,15967],[18,43]],[[32870,16059],[-5,-64]],[[32865,15995],[0,-38]],[[32555,15949],[-36,-10]],[[32519,15939],[-9,5]],[[32510,15944],[-5,33]],[[32559,15980],[-4,-31]],[[33082,16094],[0,-2]],[[33082,16092],[-54,-15]],[[32330,16171],[4,-143],[59,0]],[[32393,16003],[-176,-89]],[[32217,15914],[-9,94],[-68,25]],[[32140,16033],[-45,0]],[[32095,16033],[-13,89]],[[32082,16122],[31,16]],[[32113,16138],[23,-51],[58,23],[-40,89],[58,-41]],[[32212,16158],[118,18]],[[32330,16176],[0,-5]],[[31996,15804],[-13,16]],[[31983,15820],[31,63]],[[32064,15937],[67,-16]],[[32158,15914],[41,2]],[[32199,15916],[-32,-38],[50,-20]],[[32217,15858],[-18,-56],[-72,43],[-5,-58]],[[32122,15787],[-126,17]],[[32131,15921],[-22,84]],[[32109,16005],[54,-2],[-23,30]],[[32217,15914],[-18,2]],[[32938,15667],[-46,-25]],[[32892,15642],[-81,86]],[[32811,15728],[41,13]],[[32928,15723],[10,-56]],[[33010,16094],[-72,33],[9,-56],[-91,6]],[[32793,16186],[0,23]],[[32969,16275],[59,25]],[[32708,15881],[-9,-28]],[[32672,15845],[-41,36]],[[32631,15881],[54,48]],[[32685,15929],[9,5]],[[33140,15942],[-9,-79]],[[33131,15863],[-203,-28]],[[32865,15995],[100,-13]],[[32965,15982],[72,-50],[45,76]],[[33082,16008],[58,-66]],[[33122,15746],[-157,25]],[[33131,15863],[18,-53]],[[33149,15810],[0,-74]],[[33149,15736],[-27,10]],[[32109,16005],[-68,-10]],[[32028,16041],[13,-3]],[[32041,16038],[54,-5]],[[32330,16171],[54,-13]],[[32753,15733],[-50,71]],[[32811,15728],[-36,-5]],[[32775,15723],[-22,10]],[[32397,15988],[-4,-18]],[[32325,15804],[-81,3]],[[32244,15807],[-27,51]],[[32510,15944],[-36,-25]],[[32330,16176],[45,71]],[[32375,16247],[76,0]],[[32451,16247],[-4,-36]],[[32113,16138],[72,81]],[[32185,16219],[27,-61]],[[32654,15715],[4,39]],[[32658,15754],[9,28]],[[32753,15733],[-81,-23]],[[32672,15710],[-18,5]],[[32965,15982],[121,41]],[[33086,16023],[-4,-15]],[[31717,15840],[5,74]],[[31722,15914],[54,107]],[[31776,16021],[27,-13]],[[31803,16008],[49,-94],[-45,-59]],[[31807,15855],[-13,-20]],[[31794,15835],[-77,5]],[[32582,16166],[103,-18]],[[32694,15967],[-4,0]],[[32956,15601],[-18,66]],[[33122,15746],[-90,-31],[5,-91]],[[33037,15624],[-5,-48]],[[33032,15576],[-76,25]],[[31803,16008],[49,25]],[[31852,16033],[117,-25]],[[31983,15820],[-176,35]],[[33082,16092],[4,0]],[[33086,16092],[0,-69]],[[32586,15883],[-22,31]],[[32564,15914],[-23,-3]],[[32541,15911],[-22,18]],[[32519,15929],[0,10]],[[32519,15939],[27,-2]],[[32546,15937],[139,-8]],[[32631,15881],[-45,2]],[[32546,15937],[9,12]],[[32496,15876],[23,53]],[[32541,15911],[-18,-33]],[[32523,15878],[-27,-2]],[[32699,15344],[-45,122]],[[32654,15466],[4,79]],[[32658,15545],[23,-2]],[[32681,15543],[49,-21],[54,-168]],[[32784,15354],[-4,-23]],[[32780,15331],[-81,13]],[[32654,15466],[-99,-20],[-81,61]],[[32474,15507],[-5,51],[18,5],[18,10]],[[32505,15573],[59,8]],[[32564,15581],[94,-5]],[[32658,15576],[0,-31]],[[32892,15642],[-22,-36]],[[32870,15606],[-68,-13]],[[32802,15593],[-36,72]],[[32766,15665],[9,58]],[[32208,15494],[59,-56]],[[32267,15438],[-104,-76],[31,58],[-63,26]],[[32131,15446],[0,53]],[[32131,15499],[77,-5]],[[33019,15535],[-9,-89]],[[33010,15446],[-63,5]],[[32947,15451],[4,89]],[[32951,15540],[68,-5]],[[32658,15576],[-36,104]],[[32622,15680],[32,35]],[[32672,15710],[67,-58]],[[32739,15652],[-13,-92]],[[32726,15560],[-45,-17]],[[32739,15652],[27,13]],[[32802,15593],[-13,-53],[-63,20]],[[32478,15296],[-40,196]],[[32438,15492],[36,15]],[[32654,15466],[-32,-107],[72,-15]],[[32694,15344],[-9,-43]],[[32685,15301],[-103,-38]],[[32582,15263],[-104,33]],[[32465,15268],[-36,-38]],[[32429,15230],[-86,10]],[[32343,15240],[-40,43]],[[32303,15283],[94,41]],[[32397,15324],[41,15],[27,-71]],[[32424,15708],[-94,-23]],[[32330,15685],[0,94]],[[32379,15776],[45,-68]],[[32361,15626],[-31,59]],[[32424,15708],[27,7]],[[32451,15715],[59,-38]],[[32510,15677],[-9,-79]],[[32501,15598],[-140,28]],[[32564,15581],[-5,15],[14,28],[0,28]],[[32573,15652],[36,43]],[[32609,15695],[13,-15]],[[32041,15400],[-22,107]],[[32019,15507],[112,-8]],[[32131,15446],[-90,-46]],[[32947,15451],[-9,0]],[[32938,15451],[-118,-69]],[[32820,15382],[-36,-28]],[[32870,15606],[58,-38]],[[32928,15568],[23,-28]],[[32694,15189],[-9,112]],[[32694,15344],[5,0]],[[32780,15331],[72,-86]],[[32852,15245],[-131,-94]],[[32721,15151],[-27,38]],[[32505,15573],[-4,25]],[[32510,15677],[63,-25]],[[32856,15235],[54,158]],[[32910,15393],[28,58]],[[33010,15446],[36,-38]],[[33046,15408],[58,-59]],[[33104,15349],[5,-20]],[[33109,15329],[-86,-92]],[[33023,15237],[-76,-61]],[[32947,15176],[-46,3]],[[32901,15179],[-45,56]],[[32068,15573],[32,122]],[[32100,15695],[22,92]],[[32244,15807],[-5,-117],[91,-5]],[[32361,15626],[-27,-20]],[[32334,15606],[-108,28],[-23,-125]],[[32203,15509],[-135,64]],[[32325,15415],[-58,23]],[[32208,15494],[-5,15]],[[32334,15606],[72,-130]],[[32406,15476],[-31,-81]],[[32375,15395],[-50,20]],[[32303,15283],[-46,92],[68,40]],[[32375,15395],[22,-71]],[[32438,15492],[-32,-16]],[[32956,15601],[-28,-33]],[[32820,15382],[90,11]],[[32856,15235],[-4,10]],[[33032,15576],[-9,-41]],[[33023,15535],[-4,0]],[[32901,15179],[-27,-48]],[[32874,15131],[-72,-39]],[[32802,15092],[-85,41]],[[32717,15133],[4,18]],[[32019,15507],[-27,2]],[[31992,15509],[13,62]],[[32005,15571],[63,2]],[[32068,15237],[-4,125],[-54,5]],[[32010,15367],[31,33]],[[32343,15240],[-72,-13]],[[32271,15227],[-99,-48]],[[32172,15179],[-104,58]],[[32478,15296],[-13,-28]],[[32537,15779],[-27,0]],[[32510,15779],[-5,10]],[[32505,15789],[0,21]],[[32505,15810],[23,-3]],[[32528,15807],[18,-18]],[[32546,15789],[-5,-10]],[[32541,15779],[-4,0]],[[32505,15810],[-9,7]],[[32496,15817],[0,13]],[[32496,15830],[32,0]],[[32528,15830],[0,-5]],[[32528,15825],[0,-18]],[[32564,15766],[-27,-2]],[[32537,15764],[0,15]],[[32541,15779],[23,-13]],[[32456,15726],[4,71]],[[32460,15797],[9,-8]],[[32469,15789],[18,-25]],[[32487,15764],[-4,0]],[[32483,15764],[-27,-38]],[[32564,15766],[0,-20]],[[32564,15746],[-27,5]],[[32537,15751],[0,13]],[[32564,15746],[4,-15]],[[32568,15731],[-45,2]],[[32523,15733],[0,3]],[[32523,15736],[14,15]],[[32510,15677],[13,56]],[[32568,15731],[14,-8]],[[32582,15723],[27,-28]],[[32591,15754],[0,-26]],[[32591,15728],[-9,-5]],[[32564,15766],[27,10]],[[32591,15776],[0,-22]],[[32505,15789],[-18,8]],[[32487,15797],[9,20]],[[32573,15827],[-27,-38]],[[32528,15825],[45,2]],[[32510,15779],[-41,10]],[[32469,15789],[18,8]],[[32658,15754],[-22,-8]],[[32636,15746],[-45,8]],[[32591,15776],[36,8]],[[32627,15784],[18,3]],[[32523,15863],[5,-33]],[[32496,15830],[-9,33]],[[32487,15863],[9,13]],[[32523,15878],[0,-15]],[[32523,15736],[-13,15]],[[32510,15751],[-23,13]],[[32573,15827],[9,31]],[[32582,15858],[45,-74]],[[32496,15830],[-54,38]],[[32442,15871],[45,-8]],[[32460,15797],[-22,15]],[[32510,15751],[-27,13]],[[32451,15715],[5,11]],[[32523,15863],[36,-3]],[[32559,15860],[23,-2]],[[32636,15746],[-45,-18]],[[32564,15914],[-5,-54]],[[32582,15858],[4,25]],[[32528,16372],[-18,-56]],[[32510,16316],[-45,-41]],[[32465,16275],[-135,30]],[[32330,16305],[-54,13]],[[32276,16318],[27,31]],[[32303,16349],[-18,58],[40,0],[-68,31],[14,35]],[[32271,16473],[126,-12],[9,58]],[[32406,16519],[32,15]],[[32438,16534],[121,3]],[[32559,16537],[-67,-140],[36,-25]],[[31996,16346],[-40,-61]],[[31956,16285],[-27,-5]],[[31929,16280],[-72,38]],[[31857,16318],[0,26]],[[31857,16344],[13,30]],[[31870,16374],[-18,28]],[[31852,16402],[23,41]],[[31875,16443],[36,12]],[[31911,16455],[0,-63],[85,-46]],[[32050,16201],[-76,-89]],[[31974,16112],[-90,-30]],[[31884,16082],[-32,-11],[41,41],[-50,15],[0,72]],[[31843,16199],[9,20]],[[31852,16219],[86,10],[-9,51]],[[31956,16285],[36,3],[0,-74],[45,23]],[[32037,16237],[13,-36]],[[32595,16463],[-40,-91]],[[32555,16372],[-27,0]],[[32559,16537],[27,0]],[[32586,16537],[9,-46],[32,-13],[-32,-15]],[[32519,16283],[-9,33]],[[32555,16372],[81,-13]],[[32636,16359],[90,-89],[40,23]],[[32757,16232],[-94,43],[-14,-13],[-13,-25]],[[32154,16728],[0,15]],[[32154,16743],[13,74]],[[32167,16817],[77,38]],[[32244,16855],[27,-28]],[[32271,16827],[41,-46]],[[32312,16781],[0,-8]],[[32312,16773],[-100,-76]],[[32212,16697],[-58,31]],[[31776,16021],[0,2]],[[31776,16023],[27,97],[-59,35],[23,59]],[[31767,16214],[76,-15]],[[31884,16082],[-32,-49]],[[32041,16038],[14,148]],[[32055,16186],[49,-20],[-22,-44]],[[32631,16455],[5,-96]],[[32595,16463],[36,-8]],[[32406,16542],[-162,-15]],[[32244,16527],[135,68]],[[32379,16595],[27,-53]],[[31852,16219],[0,51]],[[31852,16270],[-9,10]],[[31843,16280],[14,38]],[[32181,16427],[-81,-71]],[[32100,16356],[-72,13]],[[32028,16369],[-32,-23]],[[31911,16455],[45,67]],[[31956,16522],[0,28]],[[31956,16550],[67,15]],[[32023,16565],[45,0]],[[32068,16565],[131,-61]],[[32199,16504],[-18,-77]],[[31843,16280],[-27,-8]],[[31816,16272],[-67,26]],[[31749,16298],[31,71]],[[31780,16369],[72,3]],[[31852,16372],[5,-28]],[[32276,16318],[-68,0]],[[32208,16318],[-27,109]],[[32199,16504],[4,0]],[[32203,16504],[23,0]],[[32226,16504],[18,-31]],[[32244,16473],[-9,-84],[68,-40]],[[31767,16214],[-23,13]],[[31744,16227],[0,68]],[[31744,16295],[5,3]],[[31816,16272],[36,-2]],[[32271,16473],[-27,0]],[[32226,16504],[18,23]],[[32406,16542],[0,-23]],[[32631,16455],[113,-2]],[[32744,16453],[40,-18]],[[32784,16435],[18,-48]],[[32208,16318],[-41,-51]],[[32167,16267],[-49,49]],[[32118,16316],[-18,40]],[[32465,16275],[-14,-28]],[[32375,16247],[-45,58]],[[31731,16056],[4,69]],[[31735,16125],[9,79]],[[31744,16204],[0,23]],[[31776,16023],[-45,33]],[[32185,16219],[-18,48]],[[32118,16316],[-68,-44]],[[32050,16272],[-22,97]],[[31852,16372],[18,2]],[[32050,16272],[-13,-35]],[[32203,16504],[-36,38],[14,112]],[[32181,16654],[31,43]],[[32312,16773],[63,-68]],[[32375,16705],[4,-110]],[[31974,16112],[85,-25],[-36,-46]],[[32055,16186],[-5,15]],[[32181,16654],[-59,30]],[[32122,16684],[32,44]],[[32122,17295],[-13,-115]],[[32109,17180],[-135,-40]],[[31974,17140],[-18,-3]],[[31956,17137],[-9,99],[-36,0]],[[31911,17236],[-59,15],[63,36]],[[31915,17287],[54,43]],[[31969,17330],[5,-18],[9,0],[144,-2]],[[32127,17310],[-5,-15]],[[32199,17167],[9,-35]],[[32208,17132],[-32,13]],[[32176,17145],[-22,30]],[[32154,17175],[31,46]],[[32185,17221],[14,-54]],[[32348,17084],[-50,30]],[[32298,17114],[23,23]],[[32321,17137],[58,-13],[-31,-40]],[[32618,17178],[-59,-89]],[[32559,17089],[-76,15]],[[32483,17104],[18,71],[58,3]],[[32559,17178],[59,0]],[[32199,17442],[0,18]],[[32199,17460],[68,20],[-10,54]],[[32257,17534],[140,-69]],[[32397,17465],[-36,0]],[[32361,17465],[-122,-36]],[[32239,17429],[-40,13]],[[31956,17043],[-27,43]],[[31929,17086],[94,28]],[[32023,17114],[45,0]],[[32068,17114],[18,-30]],[[32086,17084],[-40,-41]],[[32046,17043],[-90,0]],[[32289,17262],[-27,78]],[[32262,17340],[27,28]],[[32289,17368],[0,5]],[[32289,17373],[63,-17]],[[32352,17356],[0,-61]],[[32352,17295],[-45,-44]],[[32307,17251],[-18,11]],[[32483,17104],[-81,-15]],[[32402,17089],[-50,-5]],[[32352,17084],[-4,0]],[[32321,17137],[13,69]],[[32334,17206],[54,0],[36,89]],[[32424,17295],[59,0]],[[32483,17295],[13,0]],[[32496,17295],[54,-16]],[[32550,17279],[-31,-53],[40,-48]],[[32262,17340],[-63,-17]],[[32199,17323],[-27,61]],[[32172,17384],[63,25]],[[32235,17409],[54,-41]],[[32307,17251],[0,-45]],[[32307,17206],[-108,-39]],[[32185,17221],[14,28]],[[32199,17249],[90,13]],[[32289,17373],[50,87]],[[32339,17460],[13,-104]],[[32298,17114],[-54,-10]],[[32244,17104],[-36,28]],[[32307,17206],[27,0]],[[32667,17335],[0,69]],[[32667,17404],[81,-71],[-81,2]],[[32352,17295],[72,0]],[[32190,17310],[9,-23]],[[32199,17287],[-77,8]],[[32127,17310],[63,0]],[[32235,17409],[4,20]],[[32361,17465],[-22,-5]],[[32172,17384],[-23,-16]],[[32149,17368],[14,64]],[[32163,17432],[36,10]],[[32397,17465],[90,-51]],[[32487,17414],[-4,-119]],[[32109,17175],[0,5]],[[32199,17287],[0,-38]],[[32154,17175],[-45,0]],[[32109,17175],[-41,-61]],[[32023,17114],[-49,26]],[[32487,17414],[90,-61],[90,51]],[[32667,17335],[-171,-40]],[[32140,17073],[36,72]],[[32244,17104],[-23,-18]],[[32221,17086],[-81,-13]],[[32064,17442],[22,18]],[[32086,17460],[14,-3]],[[32100,17457],[-5,-15]],[[32095,17442],[-31,0]],[[31929,17086],[-32,61]],[[31897,17147],[59,-10]],[[32640,17282],[5,-15]],[[32645,17267],[0,-74]],[[32645,17193],[-27,-15]],[[32550,17279],[90,3]],[[32149,17368],[-45,74]],[[32104,17442],[59,-10]],[[32140,17073],[-54,11]],[[32190,17310],[9,13]],[[31366,17478],[-23,68]],[[31343,17546],[14,0],[76,3]],[[31433,17549],[0,-71]],[[31433,17478],[-67,0]],[[31492,17279],[-45,115]],[[31447,17394],[13,71]],[[31460,17465],[90,-31]],[[31550,17434],[32,-139]],[[31582,17295],[-77,-16]],[[31505,17279],[-13,0]],[[31902,17506],[-63,23]],[[31839,17529],[0,35]],[[31839,17564],[45,3],[13,0]],[[31897,17567],[18,-54]],[[31915,17513],[-13,-7]],[[31402,17264],[-14,-15]],[[31388,17249],[-135,-31]],[[31253,17218],[-49,133]],[[31204,17351],[139,45]],[[31343,17396],[27,-28]],[[31370,17368],[32,-104]],[[31956,17043],[-45,-31]],[[31911,17012],[-90,105]],[[31821,17117],[13,45]],[[31834,17162],[63,-15]],[[31568,17017],[-18,-7]],[[31550,17010],[-72,-15]],[[31478,16995],[-58,45],[-18,-45]],[[31402,16995],[-27,30]],[[31375,17025],[13,61],[-40,-2]],[[31348,17084],[-5,83]],[[31343,17167],[45,82]],[[31402,17264],[90,15]],[[31505,17279],[63,-15],[0,-130]],[[31568,17134],[0,-117]],[[31717,17325],[-49,104],[22,69]],[[31690,17498],[54,31]],[[31744,17529],[41,-16]],[[31785,17513],[0,-173]],[[31785,17340],[-68,-15]],[[31911,16997],[-72,0]],[[31839,16997],[-108,0]],[[31731,16997],[0,120]],[[31731,17117],[58,15]],[[31789,17132],[32,-15]],[[31911,17012],[0,-15]],[[31253,17218],[-135,-5]],[[31118,17213],[0,125]],[[31118,17338],[86,13]],[[31118,17338],[0,107],[0,66],[0,28],[27,2],[36,0]],[[31181,17541],[23,-190]],[[31460,17465],[-27,13]],[[31433,17549],[32,2],[144,6]],[[31609,17557],[0,-23]],[[31609,17534],[-59,-100]],[[31911,17236],[-77,-48]],[[31834,17188],[0,63]],[[31834,17251],[0,84]],[[31834,17335],[14,0]],[[31848,17335],[31,-30]],[[31879,17305],[36,-18]],[[31731,16997],[-41,0]],[[31690,16997],[-18,18]],[[31672,17015],[14,99]],[[31686,17114],[45,3]],[[31253,17084],[-31,0]],[[31222,17084],[-104,-31]],[[31118,17053],[0,51],[0,28],[0,25],[0,56]],[[31253,17218],[0,-15]],[[31253,17203],[-45,-46],[45,-73]],[[31672,17015],[-104,2]],[[31568,17134],[104,-5]],[[31672,17129],[14,-15]],[[31911,17445],[-9,61]],[[31915,17513],[18,-12]],[[31933,17501],[27,-13]],[[31960,17488],[32,-33]],[[31992,17455],[-63,-18]],[[31929,17437],[-18,8]],[[31834,17251],[-40,5]],[[31794,17256],[-122,67]],[[31672,17323],[45,2]],[[31785,17340],[49,-5]],[[31690,17498],[-81,36]],[[31609,17557],[63,2],[18,0],[54,3]],[[31744,17562],[0,-33]],[[31789,17132],[-45,43]],[[31744,17175],[50,81]],[[31834,17188],[0,-26]],[[31672,17129],[72,46]],[[31267,17084],[-14,0]],[[31253,17203],[9,0]],[[31262,17203],[5,-119]],[[31960,17389],[-31,48]],[[31992,17455],[4,-5]],[[31996,17450],[54,-28]],[[32050,17422],[-63,-41]],[[31987,17381],[-27,8]],[[31839,17529],[-54,-16]],[[31744,17562],[63,0],[32,2]],[[31960,17389],[-22,-21]],[[31938,17368],[-59,28]],[[31879,17396],[32,49]],[[31181,17541],[41,3]],[[31222,17544],[121,-117]],[[31343,17427],[0,-31]],[[31582,17295],[90,28]],[[31690,16997],[-76,-2]],[[31614,16995],[-64,15]],[[31343,17167],[-81,36]],[[31969,17330],[18,51]],[[32050,17422],[14,20]],[[32095,17442],[9,0]],[[31366,17478],[-23,-51]],[[31222,17544],[121,2]],[[31348,17084],[-81,0]],[[31370,17368],[77,26]],[[31879,17396],[-31,-61]],[[31983,17526],[-50,-25]],[[31897,17567],[122,5]],[[32019,17572],[-36,-46]],[[31879,17305],[59,63]],[[32086,17485],[0,16]],[[32086,17501],[18,-11]],[[32104,17490],[5,0]],[[32109,17490],[0,-15]],[[32109,17475],[-23,10]],[[32122,17506],[-13,-16]],[[32104,17490],[5,13]],[[32109,17503],[13,8]],[[32122,17511],[0,-5]],[[32086,17460],[23,15]],[[32122,17506],[36,28]],[[32158,17534],[14,7]],[[32172,17541],[-41,-81]],[[32131,17460],[-31,-3]],[[32086,17501],[-63,2]],[[32023,17503],[0,31]],[[32023,17534],[14,-3]],[[32037,17531],[31,-10]],[[32068,17521],[9,0]],[[32077,17521],[0,-8]],[[32077,17513],[9,-12]],[[32086,17485],[-49,-12]],[[32037,17473],[-14,30]],[[32109,17503],[-9,10]],[[32100,17513],[-9,18]],[[32091,17531],[31,8]],[[32122,17539],[0,-28]],[[32064,17442],[-27,18]],[[32037,17460],[0,13]],[[32100,17513],[-23,0]],[[32077,17521],[14,10]],[[32122,17539],[9,38]],[[32131,17577],[18,0],[9,0],[5,0],[9,0],[-14,-43]],[[32068,17521],[0,53]],[[32068,17574],[27,0],[36,3]],[[32037,17531],[-5,41]],[[32032,17572],[18,0],[18,2]],[[31996,17450],[41,10]],[[31960,17488],[23,38]],[[31983,17526],[40,8]],[[32190,17534],[0,-74]],[[32190,17460],[-59,0]],[[32172,17541],[18,-7]],[[32199,17460],[-9,0]],[[32190,17534],[67,0]],[[32109,17503],[-23,-2]],[[32019,17572],[13,0]],[[33383,15695],[-9,-30]],[[33374,15665],[-58,-28]],[[33316,15637],[-108,12]],[[33208,15649],[-23,72]],[[33185,15721],[9,96]],[[33194,15817],[86,-2],[-5,53]],[[33275,15868],[99,8]],[[33374,15876],[59,-51]],[[33433,15825],[4,-92]],[[33437,15733],[-54,-38]],[[33901,15662],[-4,0]],[[33897,15662],[9,226]],[[33906,15888],[0,21]],[[33906,15909],[45,10]],[[33951,15919],[40,-36]],[[33991,15883],[23,-155]],[[34014,15728],[-99,-66]],[[33915,15662],[-14,0]],[[34054,15596],[-63,79],[41,48]],[[34032,15723],[22,23]],[[34054,15746],[18,-25]],[[34072,15721],[45,-69]],[[34117,15652],[-9,-20]],[[34108,15632],[18,-67],[-63,23]],[[34063,15588],[-9,8]],[[34171,15804],[-81,-68]],[[34090,15736],[-18,-15]],[[34054,15746],[-18,145]],[[34036,15891],[41,23]],[[34077,15914],[18,-82],[76,-28]],[[34032,15723],[-18,5]],[[33991,15883],[45,8]],[[33307,15560],[-18,3]],[[33289,15563],[27,30]],[[33316,15593],[67,3],[-4,66]],[[33379,15662],[13,13]],[[33392,15675],[122,-87]],[[33514,15588],[-14,-38]],[[33500,15550],[-193,10]],[[33694,15784],[-22,-71]],[[33672,15713],[-50,23]],[[33622,15736],[-4,5]],[[33618,15741],[76,43]],[[33766,15451],[-76,0],[22,-56]],[[33712,15395],[0,-23]],[[33712,15372],[-85,3]],[[33627,15375],[0,79],[-46,2]],[[33581,15456],[-18,92]],[[33563,15548],[0,76],[95,2],[14,67]],[[33672,15693],[31,0]],[[33703,15693],[-9,-44],[68,-20]],[[33762,15629],[-72,3],[0,-89],[94,5]],[[33784,15548],[50,-18]],[[33834,15530],[0,-31]],[[33834,15499],[-68,-48]],[[33618,15741],[-64,-8]],[[33554,15733],[-36,112],[41,71]],[[33559,15916],[162,23]],[[33721,15939],[-22,-150]],[[33699,15789],[-5,-5]],[[33464,15728],[72,-71]],[[33536,15657],[-22,-69]],[[33392,15675],[-9,20]],[[33437,15733],[27,-5]],[[33442,15276],[-18,-41]],[[33424,15235],[-90,35]],[[33334,15270],[4,64]],[[33338,15334],[14,-3]],[[33352,15331],[90,-55]],[[33185,15372],[-9,59]],[[33176,15431],[54,89]],[[33230,15520],[54,-31]],[[33284,15489],[-9,-99]],[[33275,15390],[-4,-53],[-50,5]],[[33221,15342],[-36,30]],[[33307,15560],[40,-48]],[[33347,15512],[-63,-23]],[[33230,15520],[-45,63]],[[33185,15583],[104,-20]],[[33536,15657],[18,76]],[[33622,15736],[50,-43]],[[33563,15548],[-63,2]],[[33379,15662],[-5,3]],[[33118,15619],[-81,5]],[[33122,15746],[-4,-127]],[[33185,15721],[-36,15]],[[33149,15810],[45,7]],[[34054,15596],[-67,-18],[-72,84]],[[33023,15535],[86,-8]],[[33109,15527],[-5,-61]],[[33104,15466],[-58,-58]],[[33559,15916],[-90,41]],[[33469,15957],[58,43]],[[33527,16000],[86,46],[18,-84],[23,69],[76,-10]],[[33730,16021],[32,-18]],[[33762,16003],[40,-82]],[[33802,15921],[-4,-2]],[[33798,15919],[-77,20]],[[33928,15497],[-40,-43]],[[33888,15454],[-54,45]],[[33834,15530],[36,13],[-32,86],[59,10]],[[33897,15639],[76,-51],[-36,-71],[32,-30],[-41,10]],[[33793,15901],[-54,-119]],[[33739,15782],[-40,7]],[[33798,15919],[-5,-18]],[[33451,15385],[-104,127]],[[33581,15456],[-45,3],[0,-79]],[[33536,15380],[-85,5]],[[33338,15334],[-63,56]],[[33451,15385],[-99,-54]],[[33208,15649],[-36,-33]],[[33172,15616],[-54,3]],[[33464,15728],[0,176]],[[33464,15904],[-13,53]],[[33451,15957],[18,0]],[[33109,15438],[-5,28]],[[33109,15527],[9,92]],[[33172,15616],[13,-33]],[[33176,15431],[-67,7]],[[33109,15438],[76,-66]],[[33221,15342],[-45,-41],[-72,48]],[[33433,15825],[31,79]],[[33316,15593],[0,44]],[[33672,15713],[31,-20]],[[33897,15662],[-81,-2]],[[33816,15660],[18,91]],[[33834,15751],[-41,150]],[[33802,15921],[104,-33]],[[33834,15751],[-95,31]],[[33762,15629],[0,-8]],[[33762,15621],[22,-73]],[[33816,15660],[-54,-39]],[[33536,15380],[5,-5]],[[33541,15375],[-32,-107]],[[33509,15268],[-67,8]],[[33901,15662],[-4,-23]],[[33973,15423],[-45,74]],[[34063,15588],[63,-99]],[[34126,15489],[-126,26],[32,-100]],[[34032,15415],[-59,8]],[[33374,15876],[32,84]],[[33406,15960],[13,0]],[[33419,15960],[32,-3]],[[33509,16300],[72,-86]],[[33581,16214],[-18,5]],[[33563,16219],[-81,38]],[[33482,16257],[-58,26],[85,17]],[[33406,15960],[-95,20]],[[33311,15980],[50,33],[58,-53]],[[33311,15980],[-22,36]],[[33289,16016],[-32,22],[77,107],[-23,41],[59,0],[-59,61]],[[33311,16247],[18,15]],[[33329,16262],[95,-58]],[[33424,16204],[-14,-69],[68,-43]],[[33478,16092],[-9,-59],[58,-15]],[[33527,16018],[0,-18]],[[33275,15868],[-31,-8]],[[33244,15860],[31,94],[-40,36]],[[33235,15990],[54,26]],[[33086,16092],[63,-36]],[[33149,16056],[86,-66]],[[33244,15860],[-104,82]],[[33563,16178],[-13,-84]],[[33550,16094],[-72,-2]],[[33424,16204],[58,53]],[[33563,16219],[0,-41]],[[33527,16018],[23,76]],[[33563,16178],[82,-2]],[[33645,16176],[0,-82],[90,-5],[-5,-68]],[[33789,16097],[-41,-23],[50,-13],[-18,-40]],[[33780,16021],[-18,-18]],[[33645,16176],[4,28]],[[33649,16204],[59,-21]],[[33708,16183],[4,-68],[54,0]],[[33766,16115],[23,-18]],[[33581,16214],[14,48]],[[33595,16262],[54,-58]],[[33194,16229],[0,-173],[-45,0]],[[33271,16265],[40,-18]],[[34185,15962],[-14,0]],[[34171,15962],[-22,115],[49,2]],[[34198,16079],[-13,-117]],[[34090,15736],[72,-21]],[[34162,15715],[-4,-66],[-41,3]],[[34126,16234],[-45,41]],[[34081,16275],[0,2]],[[34081,16277],[63,77]],[[34144,16354],[45,-87]],[[34189,16267],[0,-35]],[[34189,16232],[-63,2]],[[34284,15789],[-68,-5],[5,-43]],[[34221,15741],[-41,61]],[[34180,15802],[32,53]],[[34212,15855],[77,10]],[[34289,15865],[-5,-76]],[[33978,16016],[36,15],[-72,58]],[[33942,16089],[0,54]],[[33942,16143],[85,28]],[[34027,16171],[131,-36]],[[34158,16135],[22,-23]],[[34180,16112],[5,0]],[[34185,16112],[13,-33]],[[34171,15962],[-103,28]],[[34068,15990],[-108,-15],[18,41]],[[34144,16354],[-4,15]],[[34140,16369],[45,-31]],[[34185,16338],[49,-50]],[[34234,16288],[9,-41]],[[34243,16247],[-54,20]],[[34180,16112],[9,120]],[[34243,16247],[-40,-28],[72,-23]],[[34275,16196],[-50,-46],[18,-63]],[[34243,16087],[-58,25]],[[34212,15855],[0,89]],[[34212,15944],[22,-5]],[[34234,15939],[59,-53]],[[34293,15886],[-4,-21]],[[34356,16056],[-27,38]],[[34329,16094],[54,-15]],[[34383,16079],[-27,-23]],[[34108,15632],[113,-16]],[[34221,15616],[-27,-96]],[[34194,15520],[-68,-31]],[[34212,15944],[-27,18]],[[34243,16087],[14,-8]],[[34257,16079],[36,-46],[-45,-73]],[[34248,15960],[-14,-21]],[[34370,16433],[-9,73]],[[34361,16506],[27,56]],[[34388,16562],[13,-18]],[[34401,16544],[59,0]],[[34460,16544],[0,-89],[-90,-22]],[[34298,16397],[-5,-18]],[[34293,16379],[-50,48],[37,26]],[[34280,16453],[18,-56]],[[34361,16361],[-23,16]],[[34338,16377],[0,20]],[[34338,16397],[5,0]],[[34343,16397],[18,-36]],[[34185,16338],[108,41]],[[34298,16397],[40,0]],[[34338,16377],[-58,-102]],[[34280,16275],[-46,13]],[[34234,15710],[-72,5]],[[34171,15804],[9,-2]],[[34221,15741],[13,-26]],[[34234,15715],[0,-5]],[[34248,15960],[63,0]],[[34311,15960],[0,-6]],[[34311,15954],[-18,-68]],[[34329,16094],[-22,0]],[[34307,16094],[54,56]],[[34361,16150],[27,-2]],[[34388,16148],[-5,-69]],[[34234,15710],[-13,-94]],[[34311,15970],[0,-10]],[[34257,16079],[50,15]],[[34356,16056],[-22,-66]],[[34334,15990],[-23,-20]],[[34320,16242],[-27,-38]],[[34293,16204],[-18,-8]],[[34280,16275],[40,-33]],[[34140,16369],[-18,23]],[[34122,16392],[45,-18],[-36,89]],[[34131,16463],[58,31]],[[34189,16494],[100,-16]],[[34289,16478],[-9,-25]],[[34099,15375],[-67,40]],[[34194,15520],[-14,-105],[-81,-40]],[[34284,15789],[-14,-84],[-36,10]],[[34077,15914],[-9,76]],[[34361,16150],[-68,54]],[[34320,16242],[63,-26]],[[34383,16216],[5,-68]],[[34316,15960],[-5,10]],[[34334,15990],[-18,-30]],[[34361,16361],[22,-145]],[[34289,16478],[72,28]],[[34370,16433],[-27,-36]],[[34316,15960],[-5,-6]],[[33919,15998],[-45,-59],[32,-30]],[[33780,16021],[162,68]],[[33978,16016],[-59,-18]],[[34158,16135],[-32,99]],[[33951,15919],[-32,79]],[[34027,16171],[54,104]],[[33915,16166],[18,22]],[[33933,16188],[76,89]],[[34009,16277],[72,0]],[[33942,16143],[-27,23]],[[33055,17155],[-9,35]],[[33046,17190],[36,54]],[[33082,17244],[72,-18]],[[33154,17226],[-18,-53]],[[33136,17173],[-81,-18]],[[34455,17559],[5,-140],[0,-7]],[[34460,17412],[-117,0]],[[34343,17412],[-23,35]],[[34320,17447],[99,112]],[[34419,17559],[36,0]],[[34343,17679],[-113,-33]],[[34230,17646],[-63,-18]],[[34167,17628],[-9,89]],[[34158,17717],[149,53]],[[34307,17770],[27,-28]],[[34334,17742],[9,-63]],[[34230,17646],[-32,-87]],[[34198,17559],[-40,15]],[[34158,17574],[9,54]],[[33325,17254],[-72,0]],[[33253,17254],[-5,13]],[[33248,17267],[5,51]],[[33253,17318],[76,-3]],[[33329,17315],[-4,-61]],[[33329,17345],[0,-30]],[[33253,17318],[0,22]],[[33253,17340],[76,5]],[[33424,17226],[-5,-41]],[[33419,17185],[-18,0]],[[33401,17185],[0,41]],[[33401,17226],[23,0]],[[34000,17213],[-40,10]],[[33960,17223],[-45,0]],[[33915,17223],[-27,46]],[[33888,17269],[54,69]],[[33942,17338],[63,2]],[[34005,17340],[13,-12]],[[34018,17328],[-45,-31],[59,-91]],[[34032,17206],[-32,7]],[[33708,17262],[-5,17]],[[33703,17279],[18,18]],[[33721,17297],[18,41]],[[33739,17338],[41,5]],[[33780,17343],[9,-5]],[[33789,17338],[-9,-41],[72,-20]],[[33852,17277],[-9,-15]],[[33843,17262],[-68,-28]],[[33775,17234],[-67,28]],[[33780,17183],[-5,51]],[[33843,17262],[45,7]],[[33915,17223],[-50,-43]],[[33865,17180],[-85,3]],[[33892,17338],[-45,71]],[[33847,17409],[5,41]],[[33852,17450],[22,33]],[[33874,17483],[122,0]],[[33996,17483],[36,-5]],[[34032,17478],[-18,-77]],[[34014,17401],[-9,-61]],[[33942,17338],[-50,0]],[[33892,17338],[-22,0]],[[33870,17338],[-81,0]],[[33780,17343],[0,66]],[[33780,17409],[67,0]],[[33397,17106],[-72,0]],[[33325,17106],[-23,79]],[[33302,17185],[23,0]],[[33325,17185],[76,0]],[[33401,17185],[-4,-79]],[[34460,17666],[-63,0]],[[34397,17666],[-23,97],[-40,-21]],[[34307,17770],[148,59],[0,-13],[5,-76],[0,-44],[0,-30]],[[34320,17447],[-13,120],[67,2]],[[34374,17569],[45,-10]],[[33289,17185],[-54,-28]],[[33235,17157],[-36,-12]],[[33199,17145],[-63,28]],[[33154,17226],[22,28]],[[33176,17254],[50,2]],[[33226,17256],[22,11]],[[33253,17254],[-5,-69],[41,0]],[[33302,17185],[-13,0]],[[33325,17254],[0,-8]],[[33325,17246],[0,-25]],[[33325,17221],[0,-36]],[[33739,17338],[0,33]],[[33739,17371],[18,38]],[[33757,17409],[23,0]],[[34081,17554],[0,148]],[[34081,17702],[77,15]],[[34158,17574],[-77,-53]],[[34081,17521],[0,33]],[[33325,17038],[-9,-8]],[[33316,17030],[-90,-10]],[[33226,17020],[0,10]],[[33226,17030],[9,127]],[[33325,17106],[0,-68]],[[34081,17361],[-63,-33]],[[34014,17401],[67,3]],[[34081,17404],[0,-43]],[[34302,17412],[-72,84]],[[34230,17496],[-32,63]],[[34343,17679],[40,-44]],[[34383,17635],[-9,-66]],[[34343,17412],[-36,0]],[[34307,17412],[-5,0]],[[34397,17666],[-14,-31]],[[33226,17030],[-54,38]],[[33172,17068],[27,77]],[[33221,17284],[-45,-22]],[[33176,17262],[-31,35]],[[33145,17297],[58,26]],[[33203,17323],[18,-39]],[[33082,17244],[0,23]],[[33082,17267],[63,30]],[[33176,17262],[0,-8]],[[33226,17256],[-5,28]],[[33203,17323],[50,17]],[[33703,17185],[18,-71]],[[33721,17114],[-31,3]],[[33690,17117],[-9,68]],[[33681,17185],[22,0]],[[33982,17551],[-4,21]],[[33978,17572],[22,91]],[[34000,17663],[81,39]],[[34081,17554],[-99,-3]],[[33852,17450],[-72,40],[0,61]],[[33780,17551],[76,51]],[[33856,17602],[18,-119]],[[34149,17246],[-32,-20]],[[34117,17226],[-85,-20]],[[34081,17361],[45,-21]],[[34126,17340],[23,-94]],[[34032,17478],[49,-3]],[[34081,17475],[0,-71]],[[33852,17277],[18,61]],[[33690,17117],[-27,-8]],[[33663,17109],[-23,8]],[[33640,17117],[-18,68]],[[33622,17185],[5,0]],[[33627,17185],[54,0]],[[33325,17246],[76,38]],[[33401,17284],[0,-30]],[[33401,17254],[-18,-13]],[[33383,17241],[-58,-20]],[[33172,17068],[-117,23]],[[33055,17091],[0,64]],[[34307,17412],[49,-74]],[[34356,17338],[5,-8]],[[34361,17330],[-208,8]],[[34153,17338],[-13,81]],[[34140,17419],[162,-7]],[[33982,17551],[14,-68]],[[33856,17602],[77,28]],[[33933,17630],[45,-58]],[[33933,17630],[67,33]],[[34460,17666],[0,-33],[-5,-74]],[[34081,17483],[0,38]],[[34230,17496],[-77,-46],[-72,33]],[[34140,17419],[-59,56]],[[34081,17475],[0,8]],[[33775,17117],[-54,-3]],[[33703,17185],[63,-2]],[[33766,17183],[9,-66]],[[32969,17180],[-27,41]],[[32942,17221],[140,46]],[[33046,17190],[-72,-10]],[[32974,17180],[-5,0]],[[33118,16913],[-50,0],[-31,89]],[[33037,17002],[18,89]],[[33226,17020],[9,-56]],[[33235,16964],[-63,3],[0,-69]],[[33172,16898],[-54,15]],[[33730,17465],[9,-56]],[[33739,17409],[-36,18]],[[33703,17427],[0,38]],[[33703,17465],[27,0]],[[34460,17412],[0,-77]],[[34460,17335],[-104,3]],[[33757,17409],[-18,0]],[[33730,17465],[32,74]],[[33762,17539],[18,12]],[[33703,17465],[0,8]],[[33703,17473],[59,66]],[[34153,17338],[-27,2]],[[33496,17290],[-14,22]],[[33482,17312],[0,18]],[[33482,17330],[45,10]],[[33527,17340],[-4,-33]],[[33523,17307],[0,-20]],[[33523,17287],[-27,3]],[[33572,17335],[-4,8]],[[33568,17343],[4,30]],[[33572,17373],[23,11]],[[33595,17384],[0,-26]],[[33595,17358],[0,-23]],[[33595,17335],[-23,0]],[[33613,17330],[0,-30]],[[33613,17300],[-18,0]],[[33595,17300],[-27,20]],[[33568,17320],[4,15]],[[33595,17335],[18,-5]],[[33550,17284],[4,18]],[[33554,17302],[9,5]],[[33563,17307],[32,-7]],[[33613,17300],[14,-10]],[[33627,17290],[4,-21]],[[33631,17269],[-81,15]],[[33595,17358],[23,3]],[[33618,17361],[4,-5]],[[33622,17356],[5,-28]],[[33627,17328],[-14,2]],[[33442,17307],[-14,21]],[[33428,17328],[54,2]],[[33482,17312],[-40,-5]],[[33595,17384],[27,25]],[[33622,17409],[0,-25]],[[33622,17384],[-4,-23]],[[33563,17269],[-13,-13]],[[33550,17256],[-32,-2]],[[33518,17254],[0,5]],[[33518,17259],[5,28]],[[33523,17307],[31,-5]],[[33550,17284],[13,-15]],[[33645,17427],[9,-13]],[[33654,17414],[-5,-13]],[[33649,17401],[-27,-17]],[[33622,17409],[23,18]],[[33437,17287],[-4,13]],[[33433,17300],[9,7]],[[33496,17290],[-9,-8]],[[33487,17282],[-50,5]],[[33649,17401],[9,-5]],[[33658,17396],[-9,-30]],[[33649,17366],[-27,-10]],[[33536,17343],[5,-5]],[[33541,17338],[22,-31]],[[33527,17340],[9,3]],[[33568,17343],[-27,-5]],[[33536,17343],[36,30]],[[33568,17320],[-5,-13]],[[33433,17300],[-32,-13]],[[33401,17287],[0,28]],[[33401,17315],[0,5]],[[33401,17320],[27,8]],[[33654,17414],[18,13]],[[33672,17427],[9,7]],[[33681,17434],[13,-7]],[[33694,17427],[-22,-43]],[[33672,17384],[-14,12]],[[33681,17335],[-27,-15]],[[33654,17320],[-27,8]],[[33649,17366],[32,-31]],[[33645,17427],[13,20]],[[33658,17447],[14,-20]],[[33654,17320],[-5,-25]],[[33649,17295],[-22,-5]],[[33685,17379],[0,-21]],[[33685,17358],[-4,-23]],[[33672,17384],[13,-5]],[[33685,17358],[36,-61]],[[33703,17279],[-54,16]],[[33658,17447],[27,15]],[[33685,17462],[-4,-28]],[[33685,17379],[54,-8]],[[33622,17185],[-4,5]],[[33618,17190],[-55,79]],[[33631,17269],[0,-7]],[[33631,17262],[-4,-41]],[[33627,17221],[0,-36]],[[33437,17287],[-31,-33]],[[33406,17254],[-5,0]],[[33401,17284],[0,3]],[[33708,17262],[-5,0]],[[33703,17262],[-40,0]],[[33663,17262],[-32,0]],[[33518,17254],[-9,-69]],[[33509,17185],[-9,3]],[[33500,17188],[-4,66]],[[33496,17254],[22,5]],[[33469,17185],[-27,0]],[[33442,17185],[-23,0]],[[33424,17226],[49,28]],[[33473,17254],[9,0]],[[33482,17254],[14,0]],[[33500,17188],[-31,-3]],[[33581,17185],[-31,0]],[[33550,17185],[0,71]],[[33618,17190],[-37,-5]],[[33703,17427],[-9,0]],[[33685,17462],[18,11]],[[33532,17185],[0,-76]],[[33532,17109],[-63,0]],[[33469,17109],[0,76]],[[33509,17185],[23,0]],[[33550,17185],[-18,0]],[[33473,17254],[-67,0]],[[33487,17282],[-5,-28]],[[33469,17109],[-36,0]],[[33433,17109],[9,76]],[[33663,17262],[-36,-41]],[[33383,17241],[18,-15]],[[33703,17185],[0,77]],[[33780,17183],[-14,0]],[[33401,17315],[-72,0]],[[33329,17345],[72,-25]],[[33559,17109],[22,76]],[[33640,17117],[-13,-33]],[[33627,17084],[-68,25]],[[33559,17109],[-9,0]],[[33550,17109],[-18,0]],[[33433,17109],[-36,-3]],[[34045,16829],[-13,-18]],[[34032,16811],[-144,-2]],[[33888,16809],[-41,33]],[[33847,16842],[32,43]],[[33879,16885],[126,5]],[[34005,16890],[40,-61]],[[33865,17180],[-36,-66]],[[33829,17114],[-36,-8]],[[33793,17106],[-18,11]],[[33577,16804],[-32,20]],[[33545,16824],[0,74]],[[33545,16898],[73,-13]],[[33618,16885],[13,-20]],[[33631,16865],[18,-18]],[[33649,16847],[-4,-56]],[[33645,16791],[-68,13]],[[33469,17109],[0,-76]],[[33469,17033],[-59,12]],[[33410,17045],[-13,61]],[[33284,16694],[-4,123]],[[33280,16817],[40,15]],[[33320,16832],[23,0]],[[33343,16832],[-18,-94]],[[33325,16738],[-41,-44]],[[33694,16750],[-9,-25]],[[33685,16725],[-22,-8]],[[33663,16717],[-82,21]],[[33581,16738],[-4,5]],[[33577,16743],[0,61]],[[33645,16791],[49,-41]],[[33397,16725],[-14,-8]],[[33383,16717],[-58,21]],[[33343,16832],[54,-18]],[[33397,16814],[0,-89]],[[33699,16946],[4,43]],[[33703,16989],[27,-12]],[[33730,16977],[0,-23]],[[33730,16954],[-9,-8]],[[33721,16946],[-22,0]],[[33699,16946],[-23,5]],[[33676,16951],[-36,82]],[[33640,17033],[45,-18]],[[33685,17015],[18,-26]],[[33762,16964],[-32,13]],[[33685,17015],[14,18]],[[33699,17033],[76,0]],[[33775,17033],[0,-69]],[[33775,16964],[-13,0]],[[33577,16743],[-72,25]],[[33505,16768],[9,46]],[[33514,16814],[31,10]],[[34081,17173],[0,-49]],[[34081,17124],[-103,-20]],[[33978,17104],[-9,25]],[[33969,17129],[31,84]],[[34032,17206],[49,-33]],[[33550,17109],[0,-76]],[[33550,17033],[-81,0]],[[33969,17129],[-45,16],[36,78]],[[33167,16817],[5,81]],[[33172,16898],[72,-8]],[[33244,16890],[18,-51]],[[33262,16839],[-95,-22]],[[33699,17033],[-36,76]],[[33793,17106],[-18,-73]],[[33793,16911],[-18,53]],[[33775,17033],[63,0]],[[33838,17033],[0,-112],[41,7]],[[33879,16928],[-5,-30]],[[33874,16898],[-81,13]],[[33852,17073],[-14,-40]],[[33829,17114],[23,-41]],[[33316,17030],[-14,-66]],[[33302,16964],[-67,0]],[[33352,16878],[-32,-46]],[[33280,16817],[-18,22]],[[33244,16890],[40,13]],[[33284,16903],[68,-25]],[[33978,17104],[-9,-31]],[[33969,17073],[-117,0]],[[33545,16946],[-54,18],[-40,-79]],[[33451,16885],[-63,5],[-5,-12],[-31,0]],[[33284,16903],[18,61]],[[33325,17038],[85,7]],[[33550,17033],[-5,-59]],[[33545,16974],[0,-28]],[[33775,16822],[-18,63]],[[33757,16885],[36,26]],[[33874,16898],[5,-13]],[[33847,16842],[-49,-33]],[[33798,16809],[-23,13]],[[33762,16964],[-32,-10]],[[33640,17033],[-13,-21]],[[33627,17012],[-9,21]],[[33618,17033],[9,51]],[[34059,16962],[-54,-36]],[[34005,16926],[-126,2]],[[33969,17073],[76,-22]],[[34045,17051],[14,-89]],[[33505,16768],[-54,-28]],[[33451,16740],[13,74]],[[33464,16814],[0,36]],[[33464,16850],[50,-36]],[[34027,16890],[-22,0]],[[34005,16926],[22,-36]],[[33451,16885],[13,-35]],[[33464,16814],[-67,0]],[[33451,16740],[4,-15]],[[33455,16725],[-13,-18]],[[33442,16707],[-45,18]],[[33757,16885],[-36,38]],[[33721,16923],[0,23]],[[33545,16946],[0,-48]],[[33618,17033],[-68,0]],[[33185,16689],[5,94],[-86,16]],[[33104,16799],[27,18]],[[33131,16817],[36,0]],[[33284,16694],[-76,-15]],[[33208,16679],[-23,10]],[[34081,17081],[-36,-30]],[[34081,17124],[0,-43]],[[33667,16855],[-9,30]],[[33658,16885],[32,-5]],[[33690,16880],[0,-25]],[[33690,16855],[-23,0]],[[33676,16913],[-4,-7]],[[33672,16906],[-9,5]],[[33663,16911],[-14,10]],[[33649,16921],[9,10]],[[33658,16931],[18,-18]],[[33676,16916],[0,-3]],[[33658,16931],[14,15]],[[33672,16946],[0,-15]],[[33672,16931],[4,-15]],[[33681,16903],[-5,13]],[[33672,16931],[27,-15]],[[33699,16916],[0,-13]],[[33699,16903],[-9,-5]],[[33690,16898],[-9,2],[0,3]],[[33757,16885],[-36,3]],[[33721,16888],[-22,15]],[[33699,16916],[22,7]],[[33690,16880],[0,18]],[[33721,16888],[-22,-54]],[[33699,16834],[-9,21]],[[33663,16888],[-14,0]],[[33649,16888],[14,23]],[[33672,16906],[4,-3]],[[33676,16903],[-13,-15]],[[33681,16903],[-5,0]],[[33672,16946],[4,5]],[[33658,16885],[5,3]],[[33699,16799],[0,35]],[[33775,16822],[-76,-23]],[[33649,16921],[-40,18]],[[33609,16939],[0,2]],[[33609,16941],[18,71]],[[33667,16855],[-18,-8]],[[33631,16865],[18,23]],[[33699,16799],[0,-36]],[[33699,16763],[-5,-13]],[[33618,16885],[-9,54]],[[33545,16974],[64,-33]],[[34194,16839],[0,-28]],[[34194,16811],[-59,-12]],[[34135,16799],[-49,15]],[[34086,16814],[-5,33]],[[34081,16847],[0,41]],[[34081,16888],[27,15]],[[34108,16903],[32,-15]],[[34140,16888],[54,-49]],[[34230,17183],[-68,0]],[[34162,17183],[-45,43]],[[34149,17246],[99,8]],[[34248,17254],[-18,-71]],[[34433,17045],[-50,0]],[[34383,17045],[-4,59]],[[34379,17104],[40,5]],[[34419,17109],[27,0]],[[34446,17109],[-13,-64]],[[34460,17223],[0,-40],[0,-8],[0,-66]],[[34460,17109],[-14,0]],[[34419,17109],[-22,84]],[[34397,17193],[63,30]],[[34392,16890],[-9,13]],[[34383,16903],[0,15]],[[34383,16918],[36,-12]],[[34419,16906],[-4,-13]],[[34415,16893],[-23,-3]],[[34325,16789],[-14,0]],[[34311,16789],[-31,-21]],[[34280,16768],[-86,43]],[[34194,16839],[36,72]],[[34230,16911],[63,-16]],[[34293,16895],[14,-22]],[[34307,16873],[18,-59]],[[34325,16814],[0,-25]],[[34311,16633],[-22,89]],[[34289,16722],[-9,46]],[[34311,16789],[59,-36]],[[34370,16753],[13,-31]],[[34383,16722],[-36,-94]],[[34347,16628],[-36,5]],[[34365,17122],[-45,-18]],[[34320,17104],[-59,0]],[[34261,17104],[-4,10]],[[34257,17114],[-27,69]],[[34248,17254],[59,15]],[[34307,17269],[13,-84],[45,38]],[[34365,17223],[0,-101]],[[34081,16847],[-36,-18]],[[34027,16890],[54,-2]],[[34059,16962],[22,-21]],[[34081,16941],[0,-53]],[[34140,16954],[0,-66]],[[34108,16903],[9,59]],[[34117,16962],[23,-8]],[[34455,16720],[5,-48],[0,-39]],[[34460,16633],[-36,-20]],[[34424,16613],[-27,36]],[[34397,16649],[-5,68]],[[34392,16717],[23,5]],[[34415,16722],[40,-2]],[[34307,17269],[54,15]],[[34361,17284],[31,-17],[-27,-44]],[[34379,17104],[-14,18]],[[34365,17223],[32,-30]],[[34316,16962],[-9,0]],[[34307,16962],[-18,0]],[[34289,16962],[13,43]],[[34302,17005],[9,30]],[[34311,17035],[72,3]],[[34383,17038],[-27,-43]],[[34356,16995],[-18,-33]],[[34338,16962],[-22,0]],[[34176,16633],[13,-114]],[[34189,16519],[-81,59]],[[34108,16578],[-4,55]],[[34104,16633],[72,0]],[[34419,16962],[-63,33]],[[34383,17038],[0,7]],[[34433,17045],[27,6]],[[34460,17051],[0,-11],[0,-86],[0,-5]],[[34460,16949],[-41,13]],[[34189,16519],[0,-25]],[[34131,16463],[-50,51]],[[34081,16514],[5,13]],[[34086,16527],[22,51]],[[34460,17335],[0,-61],[0,-51]],[[34361,17284],[0,46]],[[34081,16941],[36,21]],[[34189,17061],[-49,-28]],[[34140,17033],[-23,28]],[[34117,17061],[41,48]],[[34158,17109],[27,-18]],[[34185,17091],[4,-30]],[[34311,16633],[-72,6]],[[34239,16639],[18,83],[13,0],[19,0]],[[34176,16633],[63,6]],[[34347,16628],[23,-17]],[[34370,16611],[18,-49]],[[34424,16811],[-5,49]],[[34419,16860],[-4,33]],[[34419,16906],[0,56]],[[34460,16949],[0,-71],[0,-59],[0,-8]],[[34460,16811],[-36,0]],[[34289,16962],[-14,20]],[[34275,16982],[27,23]],[[34460,17109],[0,-8],[0,-28],[0,-22]],[[34289,16962],[-59,0]],[[34230,16962],[-9,0]],[[34221,16962],[27,38]],[[34248,17000],[27,-18]],[[34460,16633],[0,-68],[0,-21]],[[34401,16544],[23,69]],[[34460,16778],[-23,-10]],[[34437,16768],[-22,13]],[[34415,16781],[9,30]],[[34460,16811],[0,-33]],[[34437,16768],[-22,-46]],[[34392,16717],[-9,5]],[[34370,16753],[13,28]],[[34383,16781],[32,0]],[[34081,17081],[36,-20]],[[34140,17033],[18,-71]],[[34158,16962],[-18,-8]],[[34397,16649],[-27,-38]],[[34248,17000],[-18,33]],[[34230,17033],[77,2]],[[34307,17035],[4,0]],[[34059,16783],[-27,28]],[[34086,16814],[-27,-31]],[[34158,16962],[63,0]],[[34230,16962],[0,-51]],[[34325,16789],[58,-8]],[[34460,16778],[0,-33],[-5,-25]],[[34104,16633],[-9,31]],[[34095,16664],[40,135]],[[34081,17173],[68,0]],[[34149,17173],[9,-64]],[[34419,16860],[-36,28]],[[34383,16888],[9,2]],[[34307,17035],[13,69]],[[34257,17114],[-68,36],[-4,-49]],[[34185,17101],[0,-10]],[[34149,17173],[13,10]],[[34189,17061],[41,-28]],[[34261,17104],[-36,-53]],[[34225,17051],[-9,15],[5,2],[-36,33]],[[34230,17033],[-5,18]],[[34361,16888],[-18,28]],[[34343,16916],[-14,-5]],[[34329,16911],[9,33]],[[34338,16944],[14,-3]],[[34352,16941],[9,-2]],[[34361,16939],[0,-5]],[[34361,16934],[-9,0]],[[34352,16934],[13,-11]],[[34365,16923],[18,-20]],[[34383,16888],[-9,0]],[[34374,16888],[-13,0]],[[34365,16928],[0,-5]],[[34352,16934],[9,-3]],[[34361,16931],[4,-3]],[[34352,16941],[-9,18]],[[34343,16959],[18,-20]],[[34361,16931],[0,3]],[[34343,16959],[-5,3]],[[34383,16918],[-18,10]],[[34361,16888],[-18,0]],[[34343,16888],[0,28]],[[34329,16911],[-22,5]],[[34307,16916],[0,46]],[[34316,16962],[22,-18]],[[34343,16888],[-36,-15]],[[34293,16895],[14,21]],[[34374,16888],[-4,-69],[-45,-5]],[[34059,16679],[-81,-7]],[[33978,16672],[-90,104]],[[33888,16776],[0,33]],[[34059,16783],[-5,-20],[18,-38],[-13,-46]],[[33532,16514],[-32,-23]],[[33500,16491],[-99,38]],[[33401,16529],[23,89]],[[33424,16618],[76,-43]],[[33500,16575],[32,-61]],[[33672,16463],[-23,-15]],[[33649,16448],[-72,2]],[[33577,16450],[0,33]],[[33577,16483],[68,31],[27,-51]],[[34095,16664],[-36,15]],[[33275,16440],[-22,-74]],[[33253,16366],[-54,3]],[[33199,16369],[22,114]],[[33221,16483],[54,-43]],[[33690,16400],[-14,66]],[[33676,16466],[63,23]],[[33739,16489],[36,-41]],[[33775,16448],[-13,-31]],[[33762,16417],[-72,-17]],[[33631,16677],[-54,40]],[[33577,16717],[4,21]],[[33663,16717],[4,-35]],[[33667,16682],[-36,-5]],[[33928,16328],[5,13]],[[33933,16341],[18,97],[-59,12]],[[33892,16450],[5,16]],[[33897,16466],[81,20]],[[33978,16486],[54,-23],[18,56]],[[34050,16519],[36,8]],[[34081,16514],[41,-122]],[[34009,16277],[-67,-5],[-14,56]],[[33500,16575],[-9,61],[86,20]],[[33577,16656],[13,-61]],[[33590,16595],[19,-20]],[[33609,16575],[-73,-64]],[[33536,16511],[-4,3]],[[33933,16341],[-59,0]],[[33874,16341],[-9,59]],[[33865,16400],[27,50]],[[33906,16270],[9,-48]],[[33915,16222],[-90,-28],[-27,50]],[[33798,16244],[45,36]],[[33843,16280],[63,-10]],[[33762,16417],[63,-45],[-36,-39]],[[33789,16333],[-158,-12]],[[33631,16321],[-18,33]],[[33613,16354],[32,23]],[[33645,16377],[45,23]],[[33649,16448],[-40,-46],[36,-25]],[[33613,16354],[-50,15]],[[33563,16369],[-76,33],[27,31]],[[33514,16433],[-14,58]],[[33536,16511],[41,-28]],[[33577,16483],[0,-33]],[[34050,16519],[22,114]],[[34072,16633],[32,0]],[[33843,16522],[-36,-54]],[[33807,16468],[-32,-20]],[[33739,16489],[14,43]],[[33753,16532],[45,12]],[[33798,16544],[40,0]],[[33838,16544],[5,-22]],[[33397,16435],[-36,48]],[[33361,16483],[0,18]],[[33361,16501],[40,28]],[[33514,16433],[-117,2]],[[33122,16359],[50,41]],[[33172,16400],[27,-31]],[[33253,16366],[9,-2]],[[33262,16364],[-32,-36]],[[33708,16183],[81,56]],[[33789,16239],[-23,-124]],[[33793,16743],[5,66]],[[33888,16776],[-27,-20]],[[33861,16756],[-59,-16]],[[33802,16740],[-9,3]],[[33397,16435],[-90,-18]],[[33307,16417],[54,66]],[[34072,16633],[-85,21]],[[33987,16654],[-9,15]],[[33978,16669],[0,3]],[[33262,16364],[94,-36],[-27,-66]],[[33172,16400],[31,99]],[[33203,16499],[18,-16]],[[33843,16636],[-5,38]],[[33838,16674],[23,82]],[[33978,16669],[-45,-48]],[[33933,16621],[-90,15]],[[33865,16400],[-58,68]],[[33843,16522],[54,-56]],[[33897,16466],[0,76]],[[33897,16542],[40,5]],[[33937,16547],[41,-61]],[[33577,16717],[-45,-7]],[[33532,16710],[-77,15]],[[33735,16605],[-23,-25]],[[33712,16580],[-45,-2]],[[33667,16578],[0,104]],[[33685,16725],[23,-28]],[[33708,16697],[0,-41]],[[33708,16656],[27,-45]],[[33735,16611],[0,-6]],[[33590,16595],[41,82]],[[33667,16578],[-58,-3]],[[33275,16440],[32,-23]],[[33563,16369],[-90,-41],[36,-28]],[[33874,16341],[-27,-13]],[[33847,16328],[-58,5]],[[33937,16547],[-4,36]],[[33933,16583],[36,-13],[18,84]],[[33712,16580],[41,-48]],[[33676,16466],[-4,-3]],[[33595,16262],[36,59]],[[33847,16328],[-4,-48]],[[33798,16244],[-9,-5]],[[33577,16656],[-45,54]],[[33424,16618],[4,43]],[[33428,16661],[14,46]],[[33933,16583],[0,38]],[[33928,16328],[-22,-58]],[[33203,16499],[0,15]],[[33203,16514],[0,53]],[[33203,16567],[158,-66]],[[33428,16661],[-45,56]],[[33915,16222],[18,-34]],[[33915,16166],[-126,-69]],[[33793,16743],[-94,20]],[[33838,16544],[0,13]],[[33838,16557],[59,-15]],[[33203,16567],[5,112]],[[33793,16628],[0,-10]],[[33793,16618],[-4,0]],[[33789,16618],[4,10]],[[33780,16621],[0,10]],[[33780,16631],[0,5]],[[33780,16636],[18,3]],[[33798,16639],[-5,-11]],[[33789,16618],[-9,3]],[[33829,16621],[5,-13]],[[33834,16608],[-41,10]],[[33793,16628],[9,0]],[[33802,16628],[27,-7]],[[33843,16636],[-14,-15]],[[33802,16628],[9,54]],[[33811,16682],[27,-8]],[[33780,16616],[18,-72]],[[33735,16605],[36,13]],[[33771,16618],[9,3]],[[33780,16621],[0,-5]],[[33780,16616],[0,5]],[[33834,16608],[4,-51]],[[33771,16618],[-36,-7]],[[33708,16656],[72,-25]],[[33780,16636],[-27,43]],[[33753,16679],[45,3]],[[33798,16682],[0,-43]],[[33798,16682],[13,0]],[[33708,16697],[45,-18]],[[33802,16740],[-4,-58]],[[32154,16827],[40,28],[-58,51]],[[32136,16906],[13,15]],[[32149,16921],[90,-5]],[[32239,16916],[5,-61]],[[32167,16817],[-13,10]],[[32136,16906],[-72,2],[4,43]],[[32068,16951],[14,28]],[[32082,16979],[27,5]],[[32109,16984],[40,-63]],[[33109,16593],[-9,-18]],[[33100,16575],[-77,-18]],[[33023,16557],[-13,10]],[[33010,16567],[-41,140]],[[32969,16707],[-13,49]],[[32956,16756],[22,40]],[[32978,16796],[86,23]],[[33064,16819],[67,-2]],[[33104,16799],[59,-46],[-32,-53]],[[33131,16700],[-22,-107]],[[32690,16822],[-72,-3]],[[32618,16819],[-77,31],[18,58]],[[32559,16908],[95,15]],[[32654,16923],[36,-101]],[[32721,17173],[-22,-178]],[[32699,16995],[-45,-13]],[[32654,16982],[-68,-8],[-36,69]],[[32550,17043],[36,30],[-27,16]],[[32645,17193],[67,-18]],[[32712,17175],[9,-2]],[[32784,16435],[140,41]],[[32924,16476],[27,0]],[[32951,16476],[54,-23]],[[33005,16453],[0,-8]],[[33005,16445],[-67,-81]],[[32888,17122],[-9,12]],[[32879,17134],[0,28]],[[32879,17162],[90,18]],[[32974,17180],[49,-18],[-63,-45]],[[32960,17117],[-72,5]],[[32140,17073],[-31,-89]],[[32082,16979],[-32,18]],[[32050,16997],[-4,46]],[[32510,16745],[-63,105]],[[32447,16850],[36,73]],[[32483,16923],[76,-15]],[[32618,16819],[-18,-89]],[[32600,16730],[-90,15]],[[32438,16534],[27,166]],[[32465,16700],[45,45]],[[32600,16730],[54,-15]],[[32654,16715],[-5,-66]],[[32649,16649],[-13,-31]],[[32636,16618],[-50,-81]],[[33005,16445],[45,-76]],[[32645,17267],[58,-3],[9,-89]],[[32938,16974],[-23,0]],[[32915,16974],[-27,148]],[[32960,17117],[-22,-143]],[[32757,16588],[-121,30]],[[32649,16649],[63,58]],[[32712,16707],[77,-74]],[[32789,16633],[-32,-45]],[[32221,17086],[82,-35]],[[32303,17051],[-14,-123]],[[32289,16928],[-50,-12]],[[32757,16588],[9,-72]],[[32766,16516],[-22,-63]],[[32550,17043],[-63,0]],[[32487,17043],[-76,-15],[-9,61]],[[32965,16875],[0,-56]],[[32965,16819],[-118,0]],[[32847,16819],[-18,76]],[[32829,16895],[90,36]],[[32919,16931],[46,-56]],[[32969,16707],[-22,-13]],[[32947,16694],[-46,46],[55,16]],[[32879,17162],[-77,31]],[[32802,17193],[14,66]],[[32816,17259],[126,-38]],[[33203,16514],[-94,79]],[[33131,16700],[54,-11]],[[32352,17084],[-49,-33]],[[33050,16369],[54,64],[-4,142]],[[33023,16557],[-18,-104]],[[32951,16476],[5,79],[54,12]],[[32366,16819],[-54,-38]],[[32271,16827],[50,28]],[[32321,16855],[45,-36]],[[32798,17129],[-18,49]],[[32780,17178],[22,15]],[[32879,17134],[-81,-5]],[[32798,17129],[-36,-78],[45,-82]],[[32807,16969],[-108,26]],[[32721,17173],[59,5]],[[32375,16705],[90,-5]],[[33118,16913],[-54,-20]],[[33064,16893],[-99,-18]],[[32919,16931],[-27,38]],[[32892,16969],[23,5]],[[32938,16974],[99,28]],[[32289,16928],[72,-20],[-40,-53]],[[32690,16822],[49,0]],[[32739,16822],[-36,-16]],[[32703,16806],[-49,-91]],[[32829,16895],[-13,0]],[[32816,16895],[-9,74]],[[32807,16969],[85,0]],[[32978,16796],[-13,23]],[[33064,16893],[0,-74]],[[32708,16783],[-5,23]],[[32739,16822],[90,35],[-13,38]],[[32847,16819],[-40,0],[18,-66]],[[32825,16753],[-117,30]],[[32483,16923],[4,120]],[[32654,16982],[0,-59]],[[32640,17282],[176,-23]],[[32712,16707],[-4,76]],[[32825,16753],[63,-3],[0,-48]],[[32888,16702],[-99,-69]],[[32947,16694],[-59,8]],[[32366,16819],[81,31]],[[32915,16575],[-14,-3]],[[32901,16572],[9,23]],[[32910,16595],[5,-20]],[[32856,16550],[-90,-34]],[[32924,16476],[-27,46]],[[32897,16522],[27,43]],[[32924,16565],[54,71],[-68,-41]],[[32901,16572],[-18,-7]],[[32883,16565],[0,51],[-90,-18],[63,-48]],[[32856,16550],[5,-34]],[[32861,16516],[36,6]],[[32924,16565],[-9,10]],[[32883,16565],[-22,-49]],[[31199,14920],[-9,-13]],[[31190,14907],[-9,13]],[[31181,14920],[18,0]],[[31226,14975],[-31,-28]],[[31195,14947],[-68,13]],[[31127,14960],[68,66]],[[31195,15026],[31,-51]],[[31190,15362],[-81,-25]],[[31109,15337],[0,48],[0,13]],[[31109,15398],[81,-36]],[[31550,15367],[0,-89]],[[31550,15278],[-54,-28]],[[31496,15250],[-13,46]],[[31483,15296],[-23,76]],[[31460,15372],[27,5]],[[31487,15377],[63,-10]],[[31375,15098],[-14,27]],[[31361,15125],[-58,34]],[[31303,15159],[22,81],[-40,84]],[[31285,15324],[45,0]],[[31330,15324],[36,-115],[40,18]],[[31406,15227],[27,-74]],[[31433,15153],[-45,3],[9,-58]],[[31397,15098],[-22,0]],[[31163,15085],[-13,89]],[[31150,15174],[121,104],[-72,41]],[[31199,15319],[86,5]],[[31303,15159],[0,-13]],[[31303,15146],[-59,-61]],[[31244,15085],[-81,0]],[[31303,15146],[58,-21]],[[31375,15098],[-23,-11]],[[31352,15087],[-45,3]],[[31307,15090],[-9,0]],[[31298,15090],[-40,2]],[[31258,15092],[-14,-7]],[[31127,14960],[-22,0]],[[31105,14960],[0,15],[0,110]],[[31105,15085],[58,0]],[[31244,15085],[-18,-41]],[[31226,15044],[-31,-18]],[[31555,15148],[-9,-15]],[[31546,15133],[4,20]],[[31550,15153],[5,-5]],[[31550,15153],[-72,44]],[[31478,15197],[0,15]],[[31478,15212],[0,36]],[[31478,15248],[18,2]],[[31550,15278],[59,38]],[[31609,15316],[41,-53]],[[31650,15263],[-9,-71],[40,0]],[[31681,15192],[-85,-16]],[[31596,15176],[-28,-25]],[[31568,15151],[-13,-3]],[[31586,15141],[10,-49]],[[31596,15092],[-86,-5]],[[31510,15087],[36,46]],[[31568,15151],[18,-10]],[[31510,15087],[0,-5]],[[31510,15082],[-41,-10]],[[31469,15072],[0,26]],[[31469,15098],[5,53]],[[31474,15151],[4,46]],[[31483,15296],[-81,-20]],[[31402,15276],[-72,48]],[[31330,15324],[-18,51]],[[31312,15375],[58,18]],[[31370,15393],[90,-21]],[[31406,15227],[-4,49]],[[31478,15248],[-45,-18],[45,-18]],[[31474,15151],[-41,2]],[[31105,14889],[0,71]],[[31195,14947],[4,-27]],[[31181,14920],[-76,-31]],[[31105,15085],[0,61],[4,28],[0,15]],[[31109,15189],[41,-15]],[[31753,15230],[-4,-46]],[[31749,15184],[-68,8]],[[31650,15263],[103,-33]],[[31109,15189],[0,76],[0,44],[0,28]],[[31190,15362],[9,-8]],[[31199,15354],[0,-35]],[[31199,15354],[113,21]],[[31596,15176],[-10,-35]],[[31550,15367],[32,10]],[[31582,15377],[32,-20]],[[31614,15357],[-5,-41]],[[31614,15357],[40,15]],[[31654,15372],[90,28]],[[31744,15400],[27,-43]],[[31771,15357],[5,-127]],[[31776,15230],[-23,0]],[[31402,15080],[-5,18]],[[31469,15098],[-67,-18]],[[31897,14472],[72,38]],[[31969,14510],[5,-81],[-41,-13]],[[31933,14416],[-36,56]],[[31627,14785],[-9,-46]],[[31618,14739],[-108,46]],[[31510,14785],[45,48]],[[31555,14833],[72,-48]],[[31699,14958],[-27,-163]],[[31672,14795],[-45,-10]],[[31555,14833],[-14,71]],[[31541,14904],[77,46]],[[31618,14950],[81,8]],[[31636,14688],[-18,51]],[[31672,14795],[54,-36]],[[31726,14759],[90,16]],[[31816,14775],[14,-23]],[[31830,14752],[-45,-18]],[[31785,14734],[-99,-26],[22,-53]],[[31708,14655],[-67,-36]],[[31641,14619],[-5,69]],[[31825,15009],[5,-16]],[[31830,14993],[-81,-7]],[[31749,14986],[-9,48]],[[31740,15034],[4,36]],[[31744,15070],[5,111]],[[31749,15181],[22,-66],[27,49]],[[31798,15164],[68,-23]],[[31866,15141],[-5,-18]],[[31861,15123],[-67,-23],[31,-91]],[[31514,14955],[0,33]],[[31514,14988],[14,-13]],[[31528,14975],[-14,-20]],[[31776,15230],[49,-38],[-27,-28]],[[31749,15181],[0,3]],[[31830,14993],[22,-86]],[[31852,14907],[-67,5]],[[31785,14912],[-45,-3],[9,59]],[[31749,14968],[0,18]],[[31758,14635],[-59,-97]],[[31699,14538],[-117,36]],[[31582,14574],[59,45]],[[31708,14655],[50,-20]],[[31758,14635],[40,7],[-13,92]],[[31830,14752],[103,-74]],[[31933,14678],[-4,-3]],[[31929,14675],[-59,-68]],[[31870,14607],[-58,-69]],[[31812,14538],[-113,0]],[[31749,14968],[-50,-10]],[[31618,14950],[-18,31]],[[31600,14981],[23,78]],[[31623,15059],[0,-5]],[[31623,15054],[49,-68],[68,48]],[[32163,15054],[9,125]],[[32271,15227],[36,-86]],[[32307,15141],[-50,-59]],[[32257,15082],[-63,-76]],[[32194,15006],[-31,48]],[[32131,14810],[-99,8]],[[32032,14818],[-36,66],[-36,-89]],[[31960,14795],[-103,0]],[[31857,14795],[0,84]],[[31857,14879],[54,13],[-32,48],[72,-18],[-58,59],[63,-6],[-18,61],[45,21]],[[31983,15057],[49,33]],[[32032,15090],[131,-36]],[[32194,15006],[45,-79]],[[32239,14927],[0,-20]],[[32239,14907],[-13,-66]],[[32226,14841],[-95,-31]],[[32032,15090],[-27,25],[45,38]],[[32050,15153],[18,84]],[[31600,14981],[-72,-6]],[[31514,14988],[-18,15]],[[31496,15003],[14,21]],[[31510,15024],[0,58]],[[31596,15092],[27,-33]],[[31825,15009],[45,27]],[[31870,15036],[86,41]],[[31956,15077],[27,-20]],[[31857,14879],[-5,28]],[[32176,14441],[-4,-5]],[[32172,14436],[-239,-20]],[[31969,14510],[-22,26],[36,-8]],[[31983,14528],[175,-28]],[[32158,14500],[18,-23]],[[32176,14477],[0,-36]],[[31870,15036],[-9,87]],[[31866,15141],[76,-8]],[[31942,15133],[14,-56]],[[31541,14904],[-4,-2]],[[31537,14902],[-27,28]],[[31510,14930],[0,15]],[[31510,14945],[4,10]],[[31744,15070],[-67,48],[-54,-64]],[[31564,14642],[72,46]],[[31582,14574],[-18,68]],[[31857,14795],[-41,-20]],[[31726,14759],[59,153]],[[31564,14642],[-68,153]],[[31496,14795],[5,2]],[[31501,14797],[9,-12]],[[31942,15133],[77,71]],[[32019,15204],[31,-51]],[[31897,14472],[-85,66]],[[31870,14607],[113,-49]],[[31983,14558],[0,-30]],[[31987,14581],[-4,-23]],[[31929,14675],[58,-94]],[[32019,15204],[-99,140]],[[31920,15344],[90,23]],[[31960,14795],[-27,-117]],[[31510,14930],[-18,-5]],[[31492,14925],[0,7]],[[31492,14932],[18,13]],[[31771,15357],[99,-8]],[[31870,15349],[50,-5]],[[31339,14884],[18,10]],[[31357,14894],[27,8]],[[31384,14902],[9,-3]],[[31393,14899],[-5,-2]],[[31388,14897],[-49,-28]],[[31339,14869],[0,15]],[[31321,14876],[4,8]],[[31325,14884],[14,0]],[[31339,14869],[-18,7]],[[31258,14853],[36,23]],[[31294,14876],[9,21]],[[31303,14897],[22,-13]],[[31321,14876],[-63,-25]],[[31258,14851],[0,2]],[[31294,14876],[0,28]],[[31294,14904],[9,-7]],[[31357,14894],[0,18]],[[31357,14912],[13,5]],[[31370,14917],[14,-5]],[[31384,14912],[0,-10]],[[31393,14925],[-9,-13]],[[31370,14917],[9,13]],[[31379,14930],[14,-5]],[[31393,14925],[4,0]],[[31397,14925],[27,0]],[[31424,14925],[9,-13]],[[31433,14912],[-40,-13]],[[31397,14925],[14,17]],[[31411,14942],[4,0]],[[31415,14942],[9,-17]],[[31339,14884],[0,13]],[[31339,14897],[18,-3]],[[31303,14935],[0,-26]],[[31303,14909],[-9,-5]],[[31294,14904],[-32,13]],[[31262,14917],[-9,41]],[[31253,14958],[23,7]],[[31276,14965],[18,-15]],[[31294,14950],[9,-15]],[[31379,14930],[0,15]],[[31379,14945],[18,15]],[[31397,14960],[14,-18]],[[31397,14960],[27,13]],[[31424,14973],[9,-15]],[[31433,14958],[-18,-16]],[[31303,14909],[27,-2]],[[31330,14907],[9,-10]],[[31411,14996],[-23,-8]],[[31388,14988],[-27,0]],[[31361,14988],[0,8]],[[31361,14996],[5,46]],[[31366,15042],[0,5]],[[31366,15047],[36,-5]],[[31402,15042],[18,-31]],[[31420,15011],[-9,-15]],[[31366,14958],[-9,2]],[[31357,14960],[0,18]],[[31357,14978],[4,10]],[[31388,14988],[-22,-30]],[[31352,14927],[-4,13]],[[31348,14940],[9,20]],[[31366,14958],[4,-8]],[[31370,14950],[-18,-23]],[[31330,14907],[9,2]],[[31339,14909],[0,-2],[9,5],[4,2]],[[31352,14914],[5,-2]],[[31339,14909],[-14,16]],[[31325,14925],[9,12]],[[31334,14937],[14,3]],[[31352,14927],[0,-13]],[[31294,14950],[9,20]],[[31303,14970],[22,-10]],[[31325,14960],[9,-23]],[[31325,14925],[-22,10]],[[31303,14970],[13,26]],[[31316,14996],[45,0]],[[31357,14978],[-32,-18]],[[31433,14884],[-13,-23]],[[31420,14861],[-14,-10]],[[31406,14851],[-18,46]],[[31433,14912],[5,-3]],[[31438,14909],[-5,-25]],[[31433,14958],[5,5]],[[31438,14963],[54,-31]],[[31492,14925],[-54,-16]],[[31420,14861],[-5,-33]],[[31415,14828],[-9,23]],[[31370,14950],[9,-5]],[[31469,14864],[-27,-44]],[[31442,14820],[-27,8]],[[31433,14884],[36,-20]],[[31316,14996],[-18,7]],[[31298,15003],[0,87]],[[31307,15090],[27,-41],[18,-10],[14,3]],[[31199,14920],[50,-11]],[[31249,14909],[9,-56]],[[31258,14851],[-68,56]],[[31465,14991],[-27,-28]],[[31424,14973],[-13,23]],[[31420,15011],[18,5]],[[31438,15016],[27,-25]],[[31249,14909],[13,8]],[[31276,14965],[0,41]],[[31276,15006],[22,-3]],[[31352,15087],[14,-40]],[[31465,15062],[-27,-46]],[[31402,15042],[0,38]],[[31469,15072],[-4,-10]],[[31465,15062],[45,-38]],[[31496,15003],[-31,-12]],[[31537,14902],[-27,-41]],[[31510,14861],[-41,3]],[[31501,14797],[9,64]],[[31253,14958],[-27,17]],[[31226,15044],[27,-30]],[[31253,15014],[23,-8]],[[31253,15014],[5,78]],[[31496,14795],[-54,25]],[[31672,16206],[-13,-38]],[[31659,16168],[-145,0]],[[31514,16168],[-18,66]],[[31496,16234],[32,15]],[[31528,16249],[126,0]],[[31654,16249],[18,-43]],[[31217,15982],[-27,79]],[[31190,16061],[86,10]],[[31276,16071],[13,-66]],[[31289,16005],[-72,-23]],[[31366,15715],[-50,0]],[[31316,15715],[-94,-2]],[[31222,15713],[0,71]],[[31222,15784],[139,81]],[[31361,15865],[50,-15]],[[31411,15850],[0,-104]],[[31411,15746],[0,-31]],[[31411,15715],[-45,0]],[[31668,15398],[-9,20]],[[31659,15418],[0,28]],[[31659,15446],[40,30]],[[31699,15476],[18,-43]],[[31717,15433],[-49,-35]],[[31528,16249],[-14,28]],[[31514,16277],[45,16]],[[31559,16293],[131,2]],[[31690,16295],[-36,-46]],[[31420,15850],[-9,0]],[[31361,15865],[-27,120]],[[31334,15985],[72,0]],[[31406,15985],[14,-135]],[[31384,15568],[-14,36]],[[31370,15604],[-4,111]],[[31411,15715],[31,3]],[[31442,15718],[14,-38]],[[31456,15680],[18,-59]],[[31474,15621],[0,-53]],[[31474,15568],[-14,-15]],[[31460,15553],[-76,15]],[[31109,15398],[0,78]],[[31109,15476],[225,-38]],[[31334,15438],[36,10]],[[31370,15448],[0,-55]],[[31717,15840],[-9,-30]],[[31708,15810],[-54,-11],[-13,79]],[[31641,15878],[36,23]],[[31677,15901],[45,13]],[[31992,15509],[-50,-20]],[[31942,15489],[-76,5],[-18,74]],[[31848,15568],[99,15]],[[31947,15583],[58,-12]],[[31514,15626],[-40,-5]],[[31456,15680],[58,-54]],[[31677,15901],[18,89]],[[31695,15990],[36,66]],[[31559,15899],[-31,-23]],[[31528,15876],[-108,-26]],[[31406,15985],[0,15]],[[31406,16000],[59,18]],[[31465,16018],[22,-15]],[[31487,16003],[9,-99],[63,-5]],[[31109,15476],[0,44],[0,101]],[[31109,15621],[86,0]],[[31195,15621],[40,0]],[[31235,15621],[95,-63]],[[31330,15558],[-59,-46],[63,-74]],[[31195,15621],[0,92]],[[31195,15713],[27,0]],[[31222,15713],[13,-51]],[[31235,15662],[0,-41]],[[31537,15657],[-18,-31]],[[31519,15626],[-5,0]],[[31442,15718],[68,0]],[[31510,15718],[9,-48]],[[31519,15670],[18,-13]],[[31794,15685],[36,-64]],[[31830,15621],[-36,18]],[[31794,15639],[-23,33]],[[31771,15672],[23,13]],[[31668,15563],[36,76]],[[31704,15639],[0,5]],[[31704,15644],[45,18]],[[31749,15662],[22,10]],[[31794,15639],[-9,-53]],[[31785,15586],[-59,-26]],[[31726,15560],[-58,3]],[[31370,15454],[0,61]],[[31370,15515],[104,-21]],[[31474,15494],[0,-15]],[[31474,15479],[-104,-25]],[[31641,15878],[-9,28]],[[31632,15906],[27,87]],[[31659,15993],[36,-3]],[[31496,15479],[-9,-102]],[[31370,15448],[0,6]],[[31474,15479],[22,0]],[[31114,15840],[0,10],[0,43]],[[31114,15893],[103,89]],[[31289,16005],[45,-20]],[[31222,15784],[-99,59]],[[31123,15843],[-9,-3]],[[31123,15736],[-9,-15]],[[31114,15721],[0,40],[0,43],[0,36]],[[31123,15843],[31,-26],[-31,-81]],[[31532,16056],[-45,-53]],[[31465,16018],[-41,81]],[[31424,16099],[68,-2]],[[31492,16097],[40,-41]],[[31690,16295],[54,0]],[[31744,16204],[-72,2]],[[31870,15349],[72,140]],[[31442,15761],[-31,-15]],[[31420,15850],[22,-28]],[[31442,15822],[0,-61]],[[31370,15604],[-40,-46]],[[31235,15662],[77,-2],[-50,30],[54,25]],[[31501,15794],[-59,-33]],[[31442,15822],[54,23]],[[31496,15845],[5,-51]],[[31735,16125],[-76,43]],[[31704,15644],[0,16]],[[31704,15660],[27,48],[18,-46]],[[31568,15426],[14,-49]],[[31496,15479],[41,-8]],[[31537,15471],[31,-43]],[[31568,15428],[0,-2]],[[31704,15660],[-14,43]],[[31690,15703],[-9,63]],[[31681,15766],[27,44]],[[31794,15835],[22,-86]],[[31816,15749],[-18,-34]],[[31798,15715],[0,-17]],[[31798,15698],[-4,-13]],[[31492,15512],[-18,-18]],[[31370,15515],[14,53]],[[31460,15553],[32,-41]],[[31195,15713],[-72,23]],[[31109,15621],[5,100]],[[31150,16117],[103,43]],[[31253,16160],[45,0]],[[31298,16160],[45,3]],[[31343,16163],[-18,-30]],[[31325,16133],[-135,-18]],[[31190,16115],[-40,2]],[[31632,15906],[-73,-7]],[[31532,16056],[127,-63]],[[31528,15876],[-32,-31]],[[31190,16061],[0,54]],[[31325,16133],[-9,-31]],[[31316,16102],[-40,-31]],[[31406,16000],[0,107]],[[31406,16107],[18,-8]],[[31492,16097],[-14,66]],[[31478,16163],[36,5]],[[31947,15583],[-18,23]],[[31929,15606],[67,61],[-22,41]],[[31974,15708],[18,18]],[[31992,15726],[108,-31]],[[31992,15726],[0,15]],[[31992,15741],[4,63]],[[31654,15372],[14,26]],[[31717,15433],[27,-33]],[[31623,15682],[-91,36]],[[31532,15718],[-4,38]],[[31528,15756],[153,10]],[[31690,15703],[-67,-21]],[[31528,15756],[-27,38]],[[31623,15682],[-9,-22]],[[31614,15660],[-95,10]],[[31510,15718],[22,0]],[[31316,16102],[90,13]],[[31406,16115],[0,-8]],[[31699,15476],[14,8]],[[31713,15484],[40,15],[-22,31]],[[31731,15530],[0,10]],[[31731,15540],[-5,20]],[[31785,15586],[9,-54],[54,36]],[[31830,15621],[99,-15]],[[31343,16163],[63,0]],[[31406,16163],[0,-48]],[[31114,15893],[4,224],[0,21]],[[31118,16138],[32,-21]],[[31609,15550],[-9,-7]],[[31600,15543],[-4,-11]],[[31596,15532],[-5,11]],[[31591,15543],[-5,12]],[[31586,15555],[14,5]],[[31600,15560],[18,8]],[[31618,15568],[-9,-18]],[[31650,15550],[-5,-10]],[[31645,15540],[-36,10]],[[31618,15568],[14,5]],[[31632,15573],[18,-23]],[[31600,15560],[-9,11]],[[31591,15571],[32,43]],[[31623,15614],[27,-33]],[[31650,15581],[-18,-8]],[[31586,15555],[-31,41]],[[31555,15596],[4,10]],[[31559,15606],[18,3]],[[31577,15609],[14,-38]],[[31586,15555],[-27,5]],[[31559,15560],[-27,21]],[[31532,15581],[0,10]],[[31532,15591],[23,5]],[[31564,15543],[-18,12]],[[31546,15555],[13,5]],[[31591,15543],[-27,0]],[[31596,15532],[-10,-10]],[[31586,15522],[-9,3]],[[31577,15525],[-31,2]],[[31546,15527],[18,16]],[[31618,15527],[-22,-35]],[[31596,15492],[-10,0]],[[31586,15492],[0,30]],[[31600,15543],[14,-13]],[[31614,15530],[4,-3]],[[31645,15532],[-31,-2]],[[31645,15540],[0,-8]],[[31577,15609],[-40,48]],[[31614,15660],[9,-46]],[[31559,15606],[-13,3]],[[31546,15609],[-27,17]],[[31532,15591],[14,18]],[[31546,15527],[0,-2]],[[31546,15525],[0,30]],[[31492,15512],[54,13]],[[31577,15525],[-27,-43]],[[31550,15482],[-13,-11]],[[31632,15502],[-36,-10]],[[31618,15527],[14,-25]],[[31663,15512],[0,-23]],[[31663,15489],[-18,-10]],[[31645,15479],[-13,23]],[[31645,15532],[18,-20]],[[31704,15639],[-36,-51]],[[31668,15588],[-18,-7]],[[31532,15581],[-58,-13]],[[31586,15466],[0,26]],[[31645,15479],[-9,-31]],[[31636,15448],[-50,18]],[[31699,15512],[-4,-28]],[[31695,15484],[-32,5]],[[31663,15512],[36,0]],[[31668,15588],[0,-25]],[[31731,15540],[-81,10]],[[31731,15530],[-32,-18]],[[31713,15484],[-18,0]],[[31586,15466],[-9,-2]],[[31577,15464],[-27,18]],[[31659,15446],[-23,2]],[[31577,15464],[-9,-36]],[[31568,15426],[91,-8]],[[31992,15741],[-36,-10]],[[31956,15731],[-27,79],[-36,-39]],[[31893,15771],[-77,-22]],[[31893,15718],[-5,5]],[[31888,15723],[5,0]],[[31893,15723],[4,-2]],[[31897,15721],[-4,-3]],[[31798,15698],[63,12],[-9,-76],[36,38]],[[31888,15672],[86,36]],[[31893,15723],[0,48]],[[31956,15731],[-59,-10]],[[31888,15723],[-90,-8]],[[31888,15672],[5,46]],[[32433,14991],[-40,56]],[[32393,15047],[-36,51]],[[32357,15098],[76,48],[-4,84]],[[32582,15263],[49,-94],[63,20]],[[32717,15133],[-68,-58],[59,-79]],[[32708,14996],[13,-94]],[[32721,14902],[-22,-13]],[[32699,14889],[-77,20]],[[32622,14909],[27,41],[-162,76],[-54,-35]],[[32257,15082],[50,-56],[-4,44],[90,-23]],[[32433,14991],[-63,-87]],[[32370,14904],[-131,23]],[[32640,14721],[-81,38]],[[32559,14759],[18,49]],[[32577,14808],[63,-16],[-18,117]],[[32699,14889],[22,-102],[-45,-68]],[[32676,14719],[-36,2]],[[33005,14658],[0,5]],[[33005,14663],[108,119]],[[33113,14782],[50,-2]],[[33163,14780],[0,-77]],[[33163,14703],[-68,-2],[36,-23],[-18,-64],[-108,44]],[[32176,14477],[50,36]],[[32226,14513],[27,25],[-63,71]],[[32190,14609],[63,8]],[[32253,14617],[113,-104]],[[32366,14513],[22,-21]],[[32388,14492],[-58,-18],[31,-66],[-36,-12],[-68,81],[-81,-36]],[[32992,14281],[9,-86]],[[33001,14195],[-77,-18]],[[32924,14177],[-41,66],[45,20]],[[32928,14263],[19,21]],[[32947,14284],[22,23]],[[32969,14307],[23,-26]],[[33212,14701],[-49,2]],[[33163,14780],[67,-41]],[[33230,14739],[-18,-38]],[[32947,15176],[-5,-91]],[[32942,15085],[-68,46]],[[33068,14286],[-9,5]],[[33059,14291],[-36,156]],[[33023,14447],[50,15]],[[33073,14462],[85,-5]],[[33158,14457],[9,-87],[-76,-12],[-23,-72]],[[32357,15098],[-50,43]],[[32712,14398],[-45,-66]],[[32667,14332],[-45,115]],[[32622,14447],[122,7]],[[32744,14454],[-32,-56]],[[33073,14462],[13,79],[-81,0],[9,63]],[[33014,14604],[-9,54]],[[33212,14701],[-81,-148],[27,-96]],[[32978,14991],[-4,-77]],[[32974,14914],[-136,49]],[[32838,14963],[5,33]],[[32843,14996],[135,-5]],[[32888,14266],[-63,-33]],[[32825,14233],[-158,99]],[[32712,14398],[117,-53]],[[32829,14345],[41,-56],[4,-13],[14,-10]],[[32721,14902],[68,-10]],[[32789,14892],[176,-84]],[[32965,14808],[-5,-28]],[[32960,14780],[-68,-59]],[[32892,14721],[-180,-35]],[[32712,14686],[-36,33]],[[32829,14345],[90,43]],[[32919,14388],[-18,-71],[46,-33]],[[32928,14263],[-40,3]],[[32239,14907],[95,-33],[-108,-33]],[[32802,15092],[0,-22]],[[32802,15070],[-94,-74]],[[32510,14602],[-90,63]],[[32420,14665],[0,59],[-59,7]],[[32361,14731],[-18,44]],[[32343,14775],[216,-16]],[[32640,14721],[-67,-94],[36,-25]],[[32609,14602],[-99,0]],[[32158,14500],[68,13]],[[32843,14996],[-41,74]],[[32942,15085],[122,84]],[[33064,15169],[13,-8]],[[33077,15161],[0,-86]],[[33077,15075],[-40,-89]],[[33037,14986],[-59,5]],[[32510,14602],[4,-41]],[[32514,14561],[-99,23]],[[32415,14584],[5,81]],[[32712,14686],[0,-28]],[[32712,14658],[-27,-51]],[[32685,14607],[-49,12]],[[32636,14619],[-27,-17]],[[33023,15237],[41,-68]],[[32956,14617],[-73,2],[-36,-73]],[[32847,14546],[-135,112]],[[32892,14721],[64,-104]],[[32415,14584],[-49,-71]],[[32253,14617],[86,74]],[[32339,14691],[22,40]],[[33023,14447],[-49,-3]],[[32974,14444],[-36,3]],[[32938,14447],[-14,94],[-77,5]],[[32956,14617],[58,-13]],[[32938,14447],[-19,-59]],[[32744,14454],[18,61]],[[32762,14515],[85,8]],[[32847,14523],[-4,-69],[95,-7]],[[32100,14678],[58,41],[-27,91]],[[32370,14904],[36,-38]],[[32406,14866],[-121,-48],[27,-28]],[[32312,14790],[27,-99]],[[32190,14609],[-36,94],[-54,-25]],[[32343,14775],[-31,15]],[[32406,14866],[90,18],[81,-76]],[[32514,14500],[0,61]],[[32636,14619],[36,-45],[-45,-79]],[[32627,14495],[-113,5]],[[32514,14500],[-49,-51]],[[32465,14449],[-77,43]],[[32992,14281],[67,10]],[[33068,14286],[-67,-91]],[[32838,14963],[-40,5],[-9,-76]],[[32969,14307],[5,137]],[[32100,14678],[-86,53],[18,87]],[[32924,14177],[-72,-10],[-27,66]],[[32847,14546],[0,-23]],[[32762,14515],[-77,92]],[[32465,14449],[-171,-89],[-122,76]],[[32960,14780],[-4,-105],[49,-12]],[[32965,14808],[85,-8]],[[33050,14800],[63,-18]],[[32974,14914],[-9,-106]],[[31987,14581],[104,26],[9,71]],[[32622,14447],[5,48]],[[33037,14986],[22,-89]],[[33059,14897],[-9,-97]],[[33343,15100],[-27,-94]],[[33316,15006],[-72,-36]],[[33244,14970],[-86,31],[0,69]],[[33158,15070],[-31,58],[36,5]],[[33163,15133],[49,23]],[[33212,15156],[41,-3]],[[33253,15153],[90,-5]],[[33343,15148],[0,-48]],[[33239,14947],[-58,-33],[-27,44],[-23,-61]],[[33131,14897],[-72,0]],[[33077,15075],[81,-5]],[[33244,14970],[-5,-23]],[[33253,15153],[13,82]],[[33266,15235],[68,35]],[[33424,15235],[0,-56]],[[33424,15179],[-27,38],[-54,-69]],[[33572,15059],[-9,33]],[[33563,15092],[32,44]],[[33595,15136],[27,40]],[[33622,15176],[23,-61]],[[33645,15115],[-5,-68],[-68,12]],[[33627,15375],[4,-21]],[[33631,15354],[-90,21]],[[33334,14925],[-18,43]],[[33316,14968],[67,10],[5,76]],[[33388,15054],[58,-2]],[[33446,15052],[54,-3]],[[33500,15049],[18,-56]],[[33518,14993],[-27,-35]],[[33491,14958],[-130,-41]],[[33361,14917],[-27,8]],[[33446,15052],[-22,127]],[[33509,15268],[50,-41]],[[33559,15227],[-18,-89]],[[33541,15138],[-18,-43]],[[33523,15095],[-23,-46]],[[33766,15451],[9,-48]],[[33775,15403],[-63,-8]],[[33595,15136],[-54,2]],[[33559,15227],[59,0]],[[33618,15227],[4,-51]],[[33172,15248],[-63,81]],[[33266,15235],[-94,13]],[[33888,15306],[-14,74],[41,5]],[[33915,15385],[-27,69]],[[33973,15423],[36,-94],[-121,-23]],[[33316,14968],[0,38]],[[33343,15100],[45,-46]],[[33131,14897],[27,-11]],[[33158,14886],[36,-30],[-58,-5],[54,-36]],[[33190,14815],[-27,-35]],[[33523,15095],[40,-3]],[[33572,15059],[-54,-66]],[[33406,14805],[-54,33]],[[33352,14838],[13,66]],[[33365,14904],[122,-43]],[[33487,14861],[-36,-23]],[[33451,14838],[-45,-33]],[[33717,15372],[0,-61]],[[33717,15311],[-45,-33]],[[33672,15278],[-41,76]],[[33712,15372],[5,0]],[[33717,15372],[58,31]],[[33915,15385],[-86,-51]],[[33829,15334],[-85,-25]],[[33744,15309],[-27,2]],[[33802,15217],[-31,-56]],[[33771,15161],[-45,31],[-81,-77]],[[33618,15227],[54,51]],[[33744,15309],[9,-82],[49,-10]],[[33190,14815],[36,3]],[[33226,14818],[45,-36]],[[33271,14782],[-41,-43]],[[33212,15156],[-18,15]],[[33194,15171],[-22,77]],[[33194,15171],[-27,-10]],[[33167,15161],[-90,0]],[[33167,15161],[-4,-28]],[[33888,15220],[-18,53]],[[33870,15273],[18,33]],[[34099,15375],[-157,-158]],[[33942,15217],[-54,3]],[[33820,15136],[18,81]],[[33838,15217],[50,3]],[[33942,15217],[-122,-81]],[[33226,14818],[0,61],[-68,7]],[[33239,14947],[95,-22]],[[33361,14917],[4,-13]],[[33352,14838],[-45,-43]],[[33307,14795],[-36,-13]],[[33451,14716],[-45,89]],[[33451,14838],[40,-137],[-40,15]],[[33451,14716],[-77,-66],[-67,145]],[[33491,14958],[-4,-97]],[[33802,15217],[36,0]],[[33820,15136],[-49,25]],[[33829,15334],[41,-61]],[[31735,16550],[-81,0]],[[31654,16550],[-9,45]],[[31645,16595],[104,51]],[[31749,16646],[13,8]],[[31762,16654],[18,0]],[[31780,16654],[14,-120],[-45,0]],[[31749,16534],[-14,16]],[[31735,16550],[-99,-23]],[[31636,16527],[18,23]],[[31636,16527],[-63,-23],[0,43]],[[31573,16547],[72,48]],[[31749,16534],[-5,-58]],[[31744,16476],[-9,-31]],[[31735,16445],[-203,38]],[[31532,16483],[23,87]],[[31555,16570],[18,-23]],[[31555,16570],[-45,20]],[[31510,16590],[58,18],[-27,59]],[[31541,16667],[45,15]],[[31586,16682],[163,-36]],[[31839,16550],[-14,66]],[[31825,16616],[86,23]],[[31911,16639],[40,0]],[[31951,16639],[5,-39]],[[31956,16600],[0,-50]],[[31956,16522],[-117,28]],[[31875,16443],[-36,107]],[[31118,16949],[0,66],[0,38]],[[31222,17084],[18,-46]],[[31240,17038],[-32,-59]],[[31208,16979],[-90,-30]],[[32068,16684],[-13,-45]],[[32055,16639],[-77,0]],[[31978,16639],[0,106]],[[31978,16745],[81,-15]],[[32059,16730],[9,-46]],[[31911,16730],[0,-91]],[[31825,16616],[-45,38]],[[31762,16654],[-13,89]],[[31749,16743],[90,20]],[[31839,16763],[72,-33]],[[31375,17025],[-135,13]],[[31285,16277],[-14,59],[-139,15]],[[31132,16351],[-14,8]],[[31118,16359],[0,28],[0,43],[0,8]],[[31118,16438],[167,33]],[[31285,16471],[103,-16]],[[31388,16455],[0,-12]],[[31388,16443],[0,-150]],[[31388,16293],[-13,-46]],[[31375,16247],[-68,-15]],[[31307,16232],[-22,45]],[[31433,16786],[45,74]],[[31478,16860],[0,30]],[[31478,16890],[113,-17]],[[31591,16873],[0,-59]],[[31591,16814],[-158,-43]],[[31433,16771],[0,15]],[[31285,16277],[-77,-15]],[[31208,16262],[-76,89]],[[31586,16682],[10,132]],[[31596,16814],[153,-48]],[[31749,16766],[0,-23]],[[31478,16890],[0,105]],[[31614,16995],[27,-74]],[[31641,16921],[-50,-48]],[[31253,16783],[-90,-116]],[[31163,16667],[-45,27]],[[31118,16694],[0,51],[0,79]],[[31118,16824],[77,-10]],[[31195,16814],[58,-31]],[[31433,16605],[-45,16]],[[31388,16621],[0,15]],[[31388,16636],[45,104]],[[31433,16740],[108,-73]],[[31510,16590],[-77,15]],[[31956,16600],[67,-35]],[[31951,16639],[27,0]],[[32055,16639],[13,-74]],[[31929,16730],[-32,69]],[[31897,16799],[-58,33]],[[31839,16832],[0,20]],[[31839,16852],[85,3],[5,81],[58,15]],[[31987,16951],[81,0]],[[32154,16827],[-32,-59]],[[32122,16768],[-63,-38]],[[31978,16745],[-49,-15]],[[31911,16730],[18,0]],[[32068,16684],[54,0]],[[31433,16740],[0,31]],[[31591,16814],[5,0]],[[31406,16163],[-18,25]],[[31388,16188],[90,-25]],[[31118,16138],[0,38],[0,150],[0,33]],[[31208,16262],[-4,-86],[49,-16]],[[31312,16814],[45,61]],[[31357,16875],[63,23]],[[31420,16898],[58,-38]],[[31433,16786],[-58,28]],[[31375,16814],[-63,0]],[[31852,16402],[-108,74]],[[31312,16814],[-104,15]],[[31208,16829],[32,46]],[[31240,16875],[117,0]],[[31839,16997],[0,-135]],[[31839,16862],[-198,59]],[[31911,16997],[63,0]],[[31974,16997],[13,-46]],[[31839,16852],[0,10]],[[31298,16160],[9,72]],[[31375,16247],[13,-15]],[[31388,16232],[0,-44]],[[31375,16547],[13,-92]],[[31285,16471],[76,76]],[[31361,16547],[14,0]],[[31388,16636],[-13,158]],[[31375,16794],[0,20]],[[31388,16232],[108,2]],[[32122,16768],[32,-25]],[[31897,16799],[14,-69]],[[31839,16763],[0,56]],[[31839,16819],[0,13]],[[31388,16293],[63,-31],[23,46]],[[31474,16308],[40,-31]],[[31474,16308],[40,46]],[[31514,16354],[45,-61]],[[32050,16997],[-76,0]],[[31420,16898],[-45,38],[27,59]],[[31316,16590],[0,-43]],[[31316,16547],[-108,-3]],[[31208,16544],[-63,77],[-27,-31]],[[31118,16590],[0,104]],[[31163,16667],[153,-77]],[[31839,16819],[-77,0],[-13,-53]],[[31240,16875],[-32,104]],[[31118,16824],[0,56],[0,69]],[[31208,16829],[-13,-15]],[[31118,16471],[90,73]],[[31316,16547],[45,0]],[[31118,16438],[0,33]],[[31388,16443],[90,25]],[[31478,16468],[36,-114]],[[31375,16794],[-122,-11]],[[31375,16547],[58,58]],[[31532,16483],[-54,-15]],[[31388,16621],[-72,-31]],[[31735,16445],[45,-76]],[[31118,16471],[0,35],[0,31],[0,53]]]}