{"type":"Topology","transform":{"scale":[0.0012831345112129487,0.0009745357309423489],"translate":[-124.73273099999999,24.60334863324381]},"objects":{"area":{"type":"GeometryCollection","geometries":[{"arcs":[[0,1,2,3,4,5,6,7,8,9,10]],"type":"Polygon","properties":{"state":"OK","name":"N CENTRAL COMANCHE CNTY","zip":"00067"}},{"arcs":[[11,12,13,14,15,16,17]],"type":"Polygon","properties":{"state":"OK","name":"ALEX","zip":"73002"}},{"arcs":[[18,19,20,21,22,23]],"type":"Polygon","properties":{"state":"OK","name":"EDMOND","zip":"73003"}},{"arcs":[[24,25,26,27,-14]],"type":"Polygon","properties":{"state":"OK","name":"AMBER","zip":"73004"}},{"arcs":[[28,29,30,31,32,33,34,35,36,37]],"type":"Polygon","properties":{"state":"OK","name":"ANADARKO","zip":"73005"}},{"arcs":[[38,39,40,41,-32]],"type":"Polygon","properties":{"state":"OK","name":"APACHE","zip":"73006"}},{"arcs":[[42,43,44,45,46]],"type":"Polygon","properties":{"state":"OK","name":"ARCADIA","zip":"73007"}},{"arcs":[[47,48,49,50,51]],"type":"Polygon","properties":{"state":"OK","name":"BETHANY","zip":"73008"}},{"arcs":[[52,53,54,55,56,57,58,59,60,-35]],"type":"Polygon","properties":{"state":"OK","name":"BINGER","zip":"73009"}},{"arcs":[[-28,61,62,63,-15]],"type":"Polygon","properties":{"state":"OK","name":"BLANCHARD","zip":"73010"}},{"arcs":[[64,-17,65]],"type":"Polygon","properties":{"state":"OK","name":"BRADLEY","zip":"73011"}},{"arcs":[[66,67,68,69,-24,70,-43,71,72,73]],"type":"Polygon","properties":{"state":"OK","name":"EDMOND","zip":"73013"}},{"arcs":[[[74,75,76,77,78,79,80]],[[81,82,83,-59]]],"type":"MultiPolygon","properties":{"state":"OK","name":"CALUMET","zip":"73014"}},{"arcs":[[84,-5,85,86,87,-55,88,-41]],"type":"Polygon","properties":{"state":"OK","name":"CARNEGIE","zip":"73015"}},{"arcs":[[89,90,91,-30]],"type":"Polygon","properties":{"state":"OK","name":"CEMENT","zip":"73017"}},{"arcs":[[92,93,94,-90,-29,95,96,-25,-13]],"type":"Polygon","properties":{"state":"OK","name":"CHICKASHA","zip":"73018"}},{"arcs":[[97,98,99,100,101,102,103,104]],"type":"Polygon","properties":{"state":"OK","name":"CHOCTAW","zip":"73020"}},{"arcs":[[105,106,107]],"type":"Polygon","properties":{"state":"OK","name":"COLONY","zip":"73021"}},{"arcs":[[108,109,110,111,112,-107,113]],"type":"Polygon","properties":{"state":"OK","name":"CORN","zip":"73024"}},{"arcs":[[114,115,116,117,118,119]],"type":"Polygon","properties":{"state":"OK","name":"NORMAN","zip":"73026"}},{"arcs":[[120,121,122,123,124,125,126]],"type":"Polygon","properties":{"state":"OK","name":"COYLE","zip":"73027"}},{"arcs":[[127,128,129,130]],"type":"Polygon","properties":{"state":"OK","name":"CRESCENT","zip":"73028"}},{"arcs":[[-39,-31,-92,131]],"type":"Polygon","properties":{"state":"OK","name":"CYRIL","zip":"73029"}},{"arcs":[[132,133,134,135,136,137,138]],"type":"Polygon","properties":{"state":"OK","name":"DAVIS","zip":"73030"}},{"arcs":[[139,-44,-71,-23]],"type":"Polygon","properties":{"state":"OK","name":"EDMOND","zip":"73034"}},{"arcs":[[[140,141,-80,142,143,144,145,146]],[[147,-60,-84,148]]],"type":"MultiPolygon","properties":{"state":"OK","name":"EL RENO","zip":"73036"}},{"arcs":[[-89,-54,149,-33,-42]],"type":"Polygon","properties":{"state":"OK","name":"FORT COBB","zip":"73038"}},{"arcs":[[[150,151,152,153]],[[154,155,-76,156,157]]],"type":"MultiPolygon","properties":{"state":"OK","name":"GEARY","zip":"73040"}},{"arcs":[[158,159,160,161,162]],"type":"Polygon","properties":{"state":"OK","name":"GOTEBO","zip":"73041"}},{"arcs":[[-53,-34,-150]],"type":"Polygon","properties":{"state":"OK","name":"GRACEMONT","zip":"73042"}},{"arcs":[[163,-77,-156]],"type":"Polygon","properties":{"state":"OK","name":"GREENFIELD","zip":"73043"}},{"arcs":[[164,165,-45,-140,-22,166,167,-131,168,169,-122]],"type":"Polygon","properties":{"state":"OK","name":"GUTHRIE","zip":"73044"}},{"arcs":[[170,171,172,173,174,-103]],"type":"Polygon","properties":{"state":"OK","name":"HARRAH","zip":"73045"}},{"arcs":[[[-157,-75,175]],[[176,177,178,179,-82,-58]]],"type":"MultiPolygon","properties":{"state":"OK","name":"HINTON","zip":"73047"}},{"arcs":[[180,-56,-88,-108,-113,181,-154,182,-178]],"type":"Polygon","properties":{"state":"OK","name":"HYDRO","zip":"73048"}},{"arcs":[[183,184,185,-72,-47,186,-171,-102]],"type":"Polygon","properties":{"state":"OK","name":"JONES","zip":"73049"}},{"arcs":[[187,188,189,190]],"type":"Polygon","properties":{"state":"OK","name":"LEXINGTON","zip":"73051"}},{"arcs":[[191,-66,192,193,194,195]],"type":"Polygon","properties":{"state":"OK","name":"LINDSAY","zip":"73052"}},{"arcs":[[-181,-177,-57]],"type":"Polygon","properties":{"state":"OK","name":"LOOKEBA","zip":"73053"}},{"arcs":[[196,-172,-187,-46,-166,197,-127,198]],"type":"Polygon","properties":{"state":"OK","name":"LUTHER","zip":"73054"}},{"arcs":[[199,200,201,202,-196,203,204]],"type":"Polygon","properties":{"state":"OK","name":"MARLOW","zip":"73055"}},{"arcs":[[205,206,207,208,209,-129]],"type":"Polygon","properties":{"state":"OK","name":"MARSHALL","zip":"73056"}},{"arcs":[[210,211,212,213,214,215,-194]],"type":"Polygon","properties":{"state":"OK","name":"MAYSVILLE","zip":"73057"}},{"arcs":[[-165,-121,-198]],"type":"Polygon","properties":{"state":"OK","name":"MERIDIAN","zip":"73058"}},{"arcs":[[-61,-148,216,-141,217,218,219,-36]],"type":"Polygon","properties":{"state":"OK","name":"MINCO","zip":"73059"}},{"arcs":[[220,221,222,223,224]],"type":"Polygon","properties":{"state":"OK","name":"MORRISON","zip":"73061"}},{"arcs":[[-4,225,-159,226,-86]],"type":"Polygon","properties":{"state":"OK","name":"MOUNTAIN VIEW","zip":"73062"}},{"arcs":[[227,-169,-130,-210,228]],"type":"Polygon","properties":{"state":"OK","name":"MULHALL","zip":"73063"}},{"arcs":[[229,230,231,232,233,-146]],"type":"Polygon","properties":{"state":"OK","name":"MUSTANG","zip":"73064"}},{"arcs":[[234,235,-62,236,237]],"type":"Polygon","properties":{"state":"OK","name":"NEWCASTLE","zip":"73065"}},{"arcs":[[-12,238,-93]],"type":"Polygon","properties":{"state":"OK","name":"NINNEKAH","zip":"73067"}},{"arcs":[[239,-190,240,241,-119,242]],"type":"Polygon","properties":{"state":"OK","name":"NOBLE","zip":"73068"}},{"arcs":[[243,244,245]],"type":"Polygon","properties":{"state":"OK","name":"NORMAN","zip":"73069"}},{"arcs":[[246,-246,247,-115]],"type":"Polygon","properties":{"state":"OK","name":"NORMAN","zip":"73071"}},{"arcs":[[[248,249,-244,-247,-120,-242,250]],[[251,-235,252]]],"type":"MultiPolygon","properties":{"state":"OK","name":"NORMAN","zip":"73072"}},{"arcs":[[253,-229,-209,254,255]],"type":"Polygon","properties":{"state":"OK","name":"ORLANDO","zip":"73073"}},{"arcs":[[256,257,258,-213]],"type":"Polygon","properties":{"state":"OK","name":"PAOLI","zip":"73074"}},{"arcs":[[259,-214,-259,260,261,262]],"type":"Polygon","properties":{"state":"OK","name":"PAULS VALLEY","zip":"73075"}},{"arcs":[[263,264,265,266,-223,267,268,-256]],"type":"Polygon","properties":{"state":"OK","name":"PERRY","zip":"73077"}},{"arcs":[[269,-20,270,-144]],"type":"Polygon","properties":{"state":"OK","name":"PIEDMONT","zip":"73078"}},{"arcs":[[-97,271,-37,-220,-26]],"type":"Polygon","properties":{"state":"OK","name":"POCASSET","zip":"73079"}},{"arcs":[[-16,-64,272,273,274,-211,-193]],"type":"Polygon","properties":{"state":"OK","name":"PURCELL","zip":"73080"}},{"arcs":[[-203,275,-94,-239,-18,-65,-192]],"type":"Polygon","properties":{"state":"OK","name":"RUSH SPRINGS","zip":"73082"}},{"arcs":[[276,-184,-101]],"type":"Polygon","properties":{"state":"OK","name":"SPENCER","zip":"73084"}},{"arcs":[[277,278,-138,279,280]],"type":"Polygon","properties":{"state":"OK","name":"SULPHUR","zip":"73086"}},{"arcs":[[-219,281,-237,-27]],"type":"Polygon","properties":{"state":"OK","name":"TUTTLE","zip":"73089"}},{"arcs":[[-38,-272,-96]],"type":"Polygon","properties":{"state":"OK","name":"VERDEN","zip":"73092"}},{"arcs":[[-63,-236,-252,282,-273]],"type":"Polygon","properties":{"state":"OK","name":"WASHINGTON","zip":"73093"}},{"arcs":[[283,-257,-212,-275,284]],"type":"Polygon","properties":{"state":"OK","name":"WAYNE","zip":"73095"}},{"arcs":[[285,286,287,288,-151,-182,-112]],"type":"Polygon","properties":{"state":"OK","name":"WEATHERFORD","zip":"73096"}},{"arcs":[[289,-263,290,-136]],"type":"Polygon","properties":{"state":"OK","name":"WYNNEWOOD","zip":"73098"}},{"arcs":[[291,292,-230,-145,-271,-19,-70,293,294,295,296,-50]],"type":"Polygon","properties":{"state":"OK","name":"YUKON","zip":"73099"}},{"arcs":[[297,298,299,300]],"type":"Polygon","properties":{"state":"OK","name":"OKLAHOMA CITY","zip":"73102"}},{"arcs":[[301,-301,302,303,304]],"type":"Polygon","properties":{"state":"OK","name":"OKLAHOMA CITY","zip":"73103"}},{"arcs":[[305,-298,-302,306,307]],"type":"Polygon","properties":{"state":"OK","name":"OKLAHOMA CITY","zip":"73104"}},{"arcs":[[308,-307,-305,309,310,311]],"type":"Polygon","properties":{"state":"OK","name":"OKLAHOMA CITY","zip":"73105"}},{"arcs":[[312,313,314,-303,-300]],"type":"Polygon","properties":{"state":"OK","name":"OKLAHOMA CITY","zip":"73106"}},{"arcs":[[315,316,317,-314]],"type":"Polygon","properties":{"state":"OK","name":"OKLAHOMA CITY","zip":"73107"}},{"arcs":[[318,-316,-313,319,320]],"type":"Polygon","properties":{"state":"OK","name":"OKLAHOMA CITY","zip":"73108"}},{"arcs":[[321,-320,-299,322,323]],"type":"Polygon","properties":{"state":"OK","name":"OKLAHOMA CITY","zip":"73109"}},{"arcs":[[324,325,326,327,328,329]],"type":"Polygon","properties":{"state":"OK","name":"OKLAHOMA CITY","zip":"73110"}},{"arcs":[[330,331,-309,332]],"type":"Polygon","properties":{"state":"OK","name":"OKLAHOMA CITY","zip":"73111"}},{"arcs":[[-318,333,334,335]],"type":"Polygon","properties":{"state":"OK","name":"OKLAHOMA CITY","zip":"73112"}},{"arcs":[[336,337,-67,338,-312]],"type":"Polygon","properties":{"state":"OK","name":"OKLAHOMA CITY","zip":"73114"}},{"arcs":[[339,340,341,342,-325]],"type":"Polygon","properties":{"state":"OK","name":"OKLAHOMA CITY","zip":"73115"}},{"arcs":[[343,-335,344,345,-337,-311]],"type":"Polygon","properties":{"state":"OK","name":"OKLAHOMA CITY","zip":"73116"}},{"arcs":[[-343,346,-308,-332,347,348,-326]],"type":"Polygon","properties":{"state":"OK","name":"OKLAHOMA CITY","zip":"73117"}},{"arcs":[[-336,-344,-310,-304,-315]],"type":"Polygon","properties":{"state":"OK","name":"OKLAHOMA CITY","zip":"73118"}},{"arcs":[[349,350,-321,-322]],"type":"Polygon","properties":{"state":"OK","name":"OKLAHOMA CITY","zip":"73119"}},{"arcs":[[-346,351,352,353,354,-338]],"type":"Polygon","properties":{"state":"OK","name":"OKLAHOMA CITY","zip":"73120"}},{"arcs":[[-331,355,356,-348]],"type":"Polygon","properties":{"state":"OK","name":"OKLAHOMA CITY","zip":"73121"}},{"arcs":[[[-297,357,-51]],[[358,-48,359,-334]]],"type":"MultiPolygon","properties":{"state":"OK","name":"OKLAHOMA CITY","zip":"73122"}},{"arcs":[[360,-292,-49,-359,-317]],"type":"Polygon","properties":{"state":"OK","name":"OKLAHOMA CITY","zip":"73127"}},{"arcs":[[361,-293,-361,-319]],"type":"Polygon","properties":{"state":"OK","name":"OKLAHOMA CITY","zip":"73128"}},{"arcs":[[362,363,-323,-306,-347,-342]],"type":"Polygon","properties":{"state":"OK","name":"OKLAHOMA CITY","zip":"73129"}},{"arcs":[[364,-328,365,-99]],"type":"Polygon","properties":{"state":"OK","name":"OKLAHOMA CITY","zip":"73130"}},{"arcs":[[-333,-339,-74,366,-356]],"type":"Polygon","properties":{"state":"OK","name":"OKLAHOMA CITY","zip":"73131"}},{"arcs":[[-52,-358,-296,367,-352,-345,-360]],"type":"Polygon","properties":{"state":"OK","name":"OKLAHOMA CITY","zip":"73132"}},{"arcs":[[-355,368,-68]],"type":"Polygon","properties":{"state":"OK","name":"OKLAHOMA CITY","zip":"73134"}},{"arcs":[[369,-363,-341,370,371,372,373]],"type":"Polygon","properties":{"state":"OK","name":"OKLAHOMA CITY","zip":"73135"}},{"arcs":[[374,375,-324,376,377]],"type":"Polygon","properties":{"state":"OK","name":"OKLAHOMA CITY","zip":"73139"}},{"arcs":[[-357,378,-185,-277,-100,-366,-327,-349]],"type":"Polygon","properties":{"state":"OK","name":"OKLAHOMA CITY","zip":"73141"}},{"arcs":[[379,-294,-69,-369,-354]],"type":"Polygon","properties":{"state":"OK","name":"OKLAHOMA CITY","zip":"73142"}},{"arcs":[[-340,-330,380,-371]],"type":"Polygon","properties":{"state":"OK","name":"OKLAHOMA CITY","zip":"73145"}},{"arcs":[[381,-377,-364,-370]],"type":"Polygon","properties":{"state":"OK","name":"OKLAHOMA CITY","zip":"73149"}},{"arcs":[[-381,-329,-365,-98,382,-372]],"type":"Polygon","properties":{"state":"OK","name":"OKLAHOMA CITY","zip":"73150"}},{"arcs":[[-367,-73,-186,-379]],"type":"Polygon","properties":{"state":"OK","name":"OKLAHOMA CITY","zip":"73151"}},{"arcs":[[383,384,385,386,-350,-376]],"type":"Polygon","properties":{"state":"OK","name":"OKLAHOMA CITY","zip":"73159"}},{"arcs":[[387,-378,-382,-374,388,-245,-250]],"type":"Polygon","properties":{"state":"OK","name":"OKLAHOMA CITY","zip":"73160"}},{"arcs":[[-368,-295,-380,-353]],"type":"Polygon","properties":{"state":"OK","name":"OKLAHOMA CITY","zip":"73162"}},{"arcs":[[-373,-383,-105,389,-116,-248,-389]],"type":"Polygon","properties":{"state":"OK","name":"OKLAHOMA CITY","zip":"73165"}},{"arcs":[[390,-232,391,-386]],"type":"Polygon","properties":{"state":"OK","name":"OKLAHOMA CITY","zip":"73169"}},{"arcs":[[392,-384,-375,-388,-249,393]],"type":"Polygon","properties":{"state":"OK","name":"OKLAHOMA CITY","zip":"73170"}},{"arcs":[[-233,-391,-385,-393,394]],"type":"Polygon","properties":{"state":"OK","name":"OKLAHOMA CITY","zip":"73173"}},{"arcs":[[-362,-351,-387,-392,-231]],"type":"Polygon","properties":{"state":"OK","name":"OKLAHOMA CITY","zip":"73179"}},{"arcs":[[395,396,397,398,399,-133,400,401,402,403,404]],"type":"Polygon","properties":{"state":"OK","name":"ARDMORE","zip":"73401"}},{"arcs":[[405,406,407,408,409]],"type":"Polygon","properties":{"state":"OK","name":"BURNEYVILLE","zip":"73430"}},{"arcs":[[410,411,412,413,414,415]],"type":"Polygon","properties":{"state":"OK","name":"COLEMAN","zip":"73432"}},{"arcs":[[-135,416,417,418,419,-215,-260,-290]],"type":"Polygon","properties":{"state":"OK","name":"ELMORE CITY","zip":"73433"}},{"arcs":[[-195,-216,-420,420,-204]],"type":"Polygon","properties":{"state":"OK","name":"FOSTER","zip":"73434"}},{"arcs":[[421,422,423,424,425,-398]],"type":"Polygon","properties":{"state":"OK","name":"GRAHAM","zip":"73437"}},{"arcs":[[426,-422,427]],"type":"Polygon","properties":{"state":"OK","name":"HEALDTON","zip":"73438"}},{"arcs":[[428,429]],"type":"Polygon","properties":{"state":"OK","name":"KINGSTON","zip":"73439"}},{"arcs":[[430,431,432,-406]],"type":"Polygon","properties":{"state":"OK","name":"LEON","zip":"73441"}},{"arcs":[[433,434,435,-424]],"type":"Polygon","properties":{"state":"OK","name":"LOCO","zip":"73442"}},{"arcs":[[436,-408,437,-396]],"type":"Polygon","properties":{"state":"OK","name":"LONE GROVE","zip":"73443"}},{"arcs":[[438,439,-417,-134,-400]],"type":"Polygon","properties":{"state":"OK","name":"HENNEPIN","zip":"73444"}},{"arcs":[[440,-404,441,442,443,-429,444]],"type":"Polygon","properties":{"state":"OK","name":"MADILL","zip":"73446"}},{"arcs":[[445,-442,-403,446]],"type":"Polygon","properties":{"state":"OK","name":"MANNSVILLE","zip":"73447"}},{"arcs":[[-437,-405,-441,447,448,449,-409]],"type":"Polygon","properties":{"state":"OK","name":"MARIETTA","zip":"73448"}},{"arcs":[[450,451,452,453]],"type":"Polygon","properties":{"state":"OK","name":"MEAD","zip":"73449"}},{"arcs":[[454,455,456,-411,457]],"type":"Polygon","properties":{"state":"OK","name":"MILBURN","zip":"73450"}},{"arcs":[[458,459,460,-434,-423,-427,461,-432,462]],"type":"Polygon","properties":{"state":"OK","name":"RINGLING","zip":"73456"}},{"arcs":[[463,-401,-139,-279]],"type":"Polygon","properties":{"state":"OK","name":"SPRINGER","zip":"73458"}},{"arcs":[[464,-449]],"type":"Polygon","properties":{"state":"OK","name":"THACKERVILLE","zip":"73459"}},{"arcs":[[-443,-446,465,466,467,468,469,-412,-457,470]],"type":"Polygon","properties":{"state":"OK","name":"TISHOMINGO","zip":"73460"}},{"arcs":[[471,-413,-470,472]],"type":"Polygon","properties":{"state":"OK","name":"WAPANUCKA","zip":"73461"}},{"arcs":[[-433,-462,-428,-397,-438,-407]],"type":"Polygon","properties":{"state":"OK","name":"WILSON","zip":"73463"}},{"arcs":[[-426,473,474,-439,-399]],"type":"Polygon","properties":{"state":"OK","name":"RATLIFF CITY","zip":"73481"}},{"arcs":[[475,-418,-440,-475]],"type":"Polygon","properties":{"state":"OK","name":"TUSSY","zip":"73488"}},{"arcs":[[476,477,478,479,480,481,-200]],"type":"Polygon","properties":{"state":"OK","name":"LAWTON","zip":"73501"}},{"arcs":[[482,483,-9]],"type":"Polygon","properties":{"state":"OK","name":"FORT SILL","zip":"73503"}},{"arcs":[[484,-10,-484,485,-481]],"type":"Polygon","properties":{"state":"OK","name":"LAWTON","zip":"73505"}},{"arcs":[[-482,-486,-483,-8,486,-201]],"type":"Polygon","properties":{"state":"OK","name":"LAWTON","zip":"73507"}},{"arcs":[[487,488,489,490,491]],"type":"Polygon","properties":{"state":"OK","name":"ALTUS","zip":"73521"}},{"arcs":[[492,493,-492]],"type":"Polygon","properties":{"state":"OK","name":"BLAIR","zip":"73526"}},{"arcs":[[494,495,496,497,-11,-485,-480,498]],"type":"Polygon","properties":{"state":"OK","name":"CACHE","zip":"73527"}},{"arcs":[[499,500,-496,501]],"type":"Polygon","properties":{"state":"OK","name":"CHATTANOOGA","zip":"73528"}},{"arcs":[[502,503,504,505,-435]],"type":"Polygon","properties":{"state":"OK","name":"COMANCHE","zip":"73529"}},{"arcs":[[506,507,508,509,510,511]],"type":"Polygon","properties":{"state":"OK","name":"DAVIDSON","zip":"73530"}},{"arcs":[[512,513,514,515]],"type":"Polygon","properties":{"state":"OK","name":"DEVOL","zip":"73531"}},{"arcs":[[516,517,518,-490,519]],"type":"Polygon","properties":{"state":"OK","name":"DUKE","zip":"73532"}},{"arcs":[[-425,-436,-506,520,-477,-205,-421,-419,-476,-474]],"type":"Polygon","properties":{"state":"OK","name":"DUNCAN","zip":"73533"}},{"arcs":[[521,522,523,524]],"type":"Polygon","properties":{"state":"OK","name":"ELDORADO","zip":"73537"}},{"arcs":[[525,-6,-85,-40]],"type":"Polygon","properties":{"state":"OK","name":"ELGIN","zip":"73538"}},{"arcs":[[526,-510,527,-522,528,-520,-489,529,530]],"type":"Polygon","properties":{"state":"OK","name":"ELMER","zip":"73539"}},{"arcs":[[-495,531,532,-502]],"type":"Polygon","properties":{"state":"OK","name":"FAXON","zip":"73540"}},{"arcs":[[-487,-7,-526,-132,-91,-95,-276,-202]],"type":"Polygon","properties":{"state":"OK","name":"FLETCHER","zip":"73541"}},{"arcs":[[533,534,535,536,537,-511,-527]],"type":"Polygon","properties":{"state":"OK","name":"FREDERICK","zip":"73542"}},{"arcs":[[538,-532,-499,-479]],"type":"Polygon","properties":{"state":"OK","name":"GERONIMO","zip":"73543"}},{"arcs":[[539,-524,540,541,542,543,-518]],"type":"Polygon","properties":{"state":"OK","name":"GOULD","zip":"73544"}},{"arcs":[[544,545,-515,546,-508]],"type":"Polygon","properties":{"state":"OK","name":"GRANDFIELD","zip":"73546"}},{"arcs":[[547,548,549,550]],"type":"Polygon","properties":{"state":"OK","name":"GRANITE","zip":"73547"}},{"arcs":[[551,552]],"type":"Polygon","properties":{"state":"OK","name":"HASTINGS","zip":"73548"}},{"arcs":[[-494,553,554,555,556,557,558,-530,-488]],"type":"Polygon","properties":{"state":"OK","name":"HEADRICK","zip":"73549"}},{"arcs":[[559,-542,560,561,562,563]],"type":"Polygon","properties":{"state":"OK","name":"HOLLIS","zip":"73550"}},{"arcs":[[564,-512,-538]],"type":"Polygon","properties":{"state":"OK","name":"HOLLISTER","zip":"73551"}},{"arcs":[[565,-536,566,-1,-498]],"type":"Polygon","properties":{"state":"OK","name":"INDIAHOMA","zip":"73552"}},{"arcs":[[567,-545,-507,-565,-537,-566,-497,-501]],"type":"Polygon","properties":{"state":"OK","name":"LOVELAND","zip":"73553"}},{"arcs":[[-491,-519,-544,568,-564,569,-549,570,-554,-493]],"type":"Polygon","properties":{"state":"OK","name":"MANGUM","zip":"73554"}},{"arcs":[[571,-557,572,-2]],"type":"Polygon","properties":{"state":"OK","name":"MOUNTAIN PARK","zip":"73559"}},{"arcs":[[-525,-540,-517,-529]],"type":"Polygon","properties":{"state":"OK","name":"OLUSTEE","zip":"73560"}},{"arcs":[[573,-459,574]],"type":"Polygon","properties":{"state":"OK","name":"OSCAR","zip":"73561"}},{"arcs":[[575,576,577,-513]],"type":"Polygon","properties":{"state":"OK","name":"RANDLETT","zip":"73562"}},{"arcs":[[578,579,-160,-226,-3,-573,-556]],"type":"Polygon","properties":{"state":"OK","name":"ROOSEVELT","zip":"73564"}},{"arcs":[[580,581,582,583,-460,-574]],"type":"Polygon","properties":{"state":"OK","name":"RYAN","zip":"73565"}},{"arcs":[[-535,584,-558,-572,-567]],"type":"Polygon","properties":{"state":"OK","name":"SNYDER","zip":"73566"}},{"arcs":[[585,586,-577,587,-504,588,-552]],"type":"Polygon","properties":{"state":"OK","name":"TEMPLE","zip":"73568"}},{"arcs":[[589,-582]],"type":"Polygon","properties":{"state":"OK","name":"TERRAL","zip":"73569"}},{"arcs":[[-531,-559,-585,-534]],"type":"Polygon","properties":{"state":"OK","name":"TIPTON","zip":"73570"}},{"arcs":[[-560,-569,-543]],"type":"Polygon","properties":{"state":"OK","name":"VINSON","zip":"73571"}},{"arcs":[[-568,-500,-533,-539,-478,-521,-505,-588,-576,-516,-546]],"type":"Polygon","properties":{"state":"OK","name":"WALTERS","zip":"73572"}},{"arcs":[[-553,-589,-503,-461,-584,590,-586]],"type":"Polygon","properties":{"state":"OK","name":"WAURIKA","zip":"73573"}},{"arcs":[[591,592,593,594,-286,-111]],"type":"Polygon","properties":{"state":"OK","name":"CLINTON","zip":"73601"}},{"arcs":[[595,-287,-595]],"type":"Polygon","properties":{"state":"OK","name":"ARAPAHO","zip":"73620"}},{"arcs":[[596,597,-109]],"type":"Polygon","properties":{"state":"OK","name":"BESSIE","zip":"73622"}},{"arcs":[[598,599,600]],"type":"Polygon","properties":{"state":"OK","name":"BURNS FLAT","zip":"73624"}},{"arcs":[[601,602,603,604,605,606,-593]],"type":"Polygon","properties":{"state":"OK","name":"BUTLER","zip":"73625"}},{"arcs":[[607,608,-603,609,-600]],"type":"Polygon","properties":{"state":"OK","name":"CANUTE","zip":"73626"}},{"arcs":[[610,611,612,613,614,615,-551]],"type":"Polygon","properties":{"state":"OK","name":"CARTER","zip":"73627"}},{"arcs":[[616,617,618,619,620,621,622,623]],"type":"Polygon","properties":{"state":"OK","name":"CHEYENNE","zip":"73628"}},{"arcs":[[624,625,626,-597,-114,-106,-87,-227,-163,627]],"type":"Polygon","properties":{"state":"OK","name":"CORDELL","zip":"73632"}},{"arcs":[[628,629,630,-621]],"type":"Polygon","properties":{"state":"OK","name":"CRAWFORD","zip":"73638"}},{"arcs":[[-594,-607,631,632,633,634,635,-288,-596]],"type":"Polygon","properties":{"state":"OK","name":"CUSTER CITY","zip":"73639"}},{"arcs":[[636,-608,-599,637,-626,638,-614]],"type":"Polygon","properties":{"state":"OK","name":"DILL CITY","zip":"73641"}},{"arcs":[[639,640,-630,641]],"type":"Polygon","properties":{"state":"OK","name":"DURHAM","zip":"73642"}},{"arcs":[[-613,642,-617,643,-604,-609,-637]],"type":"Polygon","properties":{"state":"OK","name":"ELK CITY","zip":"73644"}},{"arcs":[[644,645,646,647,648,-562]],"type":"Polygon","properties":{"state":"OK","name":"ERICK","zip":"73645"}},{"arcs":[[649,650,651,652]],"type":"Polygon","properties":{"state":"OK","name":"FAY","zip":"73646"}},{"arcs":[[-638,-601,-610,-602,-592,-110,-598,-627]],"type":"Polygon","properties":{"state":"OK","name":"FOSS","zip":"73647"}},{"arcs":[[-624,653,-605,-644]],"type":"Polygon","properties":{"state":"OK","name":"HAMMON","zip":"73650"}},{"arcs":[[654,655,656,-161,-580]],"type":"Polygon","properties":{"state":"OK","name":"HOBART","zip":"73651"}},{"arcs":[[-606,-654,-623,657,658,-632]],"type":"Polygon","properties":{"state":"OK","name":"LEEDEY","zip":"73654"}},{"arcs":[[-555,-571,-548,-616,659,-655,-579]],"type":"Polygon","properties":{"state":"OK","name":"LONE WOLF","zip":"73655"}},{"arcs":[[660,661,662,-653,663]],"type":"Polygon","properties":{"state":"OK","name":"OAKWOOD","zip":"73658"}},{"arcs":[[664,-634]],"type":"Polygon","properties":{"state":"OK","name":"PUTNAM","zip":"73659"}},{"arcs":[[665,666,-642,-629,-620]],"type":"Polygon","properties":{"state":"OK","name":"REYDON","zip":"73660"}},{"arcs":[[-657,667,-628,-162]],"type":"Polygon","properties":{"state":"OK","name":"ROCKY","zip":"73661"}},{"arcs":[[668,-648,669,-618,-643,-612]],"type":"Polygon","properties":{"state":"OK","name":"SAYRE","zip":"73662"}},{"arcs":[[670,-661,671,672,673,674,675,676,677]],"type":"Polygon","properties":{"state":"OK","name":"SEILING","zip":"73663"}},{"arcs":[[-615,-639,-625,-668,-656,-660]],"type":"Polygon","properties":{"state":"OK","name":"SENTINEL","zip":"73664"}},{"arcs":[[678,679,-666,-619,-670,-647]],"type":"Polygon","properties":{"state":"OK","name":"SWEETWATER","zip":"73666"}},{"arcs":[[[680,681,-673,682]],[[-633,-659,683,684,-635,-665]]],"type":"MultiPolygon","properties":{"state":"OK","name":"TALOGA","zip":"73667"}},{"arcs":[[685,-679,-646]],"type":"Polygon","properties":{"state":"OK","name":"TEXOLA","zip":"73668"}},{"arcs":[[[-289,-636,-685,686,-152]],[[687,688,-651]]],"type":"MultiPolygon","properties":{"state":"OK","name":"THOMAS","zip":"73669"}},{"arcs":[[-649,-669,-611,-550,-570,-563]],"type":"Polygon","properties":{"state":"OK","name":"WILLOW","zip":"73673"}},{"arcs":[[689,690,691,692,693]],"type":"Polygon","properties":{"state":"OK","name":"ENID","zip":"73701"}},{"arcs":[[694,695,696,-692,697,698]],"type":"Polygon","properties":{"state":"OK","name":"ENID","zip":"73703"}},{"arcs":[[699,700,701,702]],"type":"Polygon","properties":{"state":"OK","name":"ALINE","zip":"73716"}},{"arcs":[[703,704,705,706,707,708]],"type":"Polygon","properties":{"state":"OK","name":"ALVA","zip":"73717"}},{"arcs":[[709,710,711,712,713,714]],"type":"Polygon","properties":{"state":"OK","name":"AMES","zip":"73718"}},{"arcs":[[715,716,717]],"type":"Polygon","properties":{"state":"OK","name":"AMORITA","zip":"73719"}},{"arcs":[[718,719,720,721]],"type":"Polygon","properties":{"state":"OK","name":"BISON","zip":"73720"}},{"arcs":[[722,723,724,-709,725,-716]],"type":"Polygon","properties":{"state":"OK","name":"BURLINGTON","zip":"73722"}},{"arcs":[[726,-662,-671,727,728]],"type":"Polygon","properties":{"state":"OK","name":"CANTON","zip":"73724"}},{"arcs":[[729,-702,730,731,732]],"type":"Polygon","properties":{"state":"OK","name":"CARMEN","zip":"73726"}},{"arcs":[[733,734,735,736,737,-696]],"type":"Polygon","properties":{"state":"OK","name":"CARRIER","zip":"73727"}},{"arcs":[[738,-733,739,-704,-725,740]],"type":"Polygon","properties":{"state":"OK","name":"CHEROKEE","zip":"73728"}},{"arcs":[[741,742,-700,743]],"type":"Polygon","properties":{"state":"OK","name":"CLEO SPRINGS","zip":"73729"}},{"arcs":[[744,745,746,-264,-255,-208]],"type":"Polygon","properties":{"state":"OK","name":"COVINGTON","zip":"73730"}},{"arcs":[[747,-705,-740,-732]],"type":"Polygon","properties":{"state":"OK","name":"DACOMA","zip":"73731"}},{"arcs":[[748,-722,749,-690,750,-745,-207]],"type":"Polygon","properties":{"state":"OK","name":"DOUGLAS","zip":"73733"}},{"arcs":[[751,752]],"type":"Polygon","properties":{"state":"OK","name":"DOVER","zip":"73734"}},{"arcs":[[753,754,-699,755,-720,756,-714]],"type":"Polygon","properties":{"state":"OK","name":"DRUMMOND","zip":"73735"}},{"arcs":[[-694,757,758,-746,-751]],"type":"Polygon","properties":{"state":"OK","name":"FAIRMONT","zip":"73736"}},{"arcs":[[759,-677,760,761,-742,762,763,764]],"type":"Polygon","properties":{"state":"OK","name":"FAIRVIEW","zip":"73737"}},{"arcs":[[-759,765,766,-265,-747]],"type":"Polygon","properties":{"state":"OK","name":"GARBER","zip":"73738"}},{"arcs":[[767,768,769,770,-735]],"type":"Polygon","properties":{"state":"OK","name":"GOLTRY","zip":"73739"}},{"arcs":[[771,-703,-730,-739,772,-769]],"type":"Polygon","properties":{"state":"OK","name":"HELENA","zip":"73741"}},{"arcs":[[773,-753,774,775,-715,-757,-719,-749,-206,-128,-168,776]],"type":"Polygon","properties":{"state":"OK","name":"HENNESSEY","zip":"73742"}},{"arcs":[[777,778,779]],"type":"Polygon","properties":{"state":"OK","name":"HITCHCOCK","zip":"73744"}},{"arcs":[[780,-711,781,-764]],"type":"Polygon","properties":{"state":"OK","name":"ISABELLA","zip":"73747"}},{"arcs":[[782,-770,-773,-741,-724]],"type":"Polygon","properties":{"state":"OK","name":"JET","zip":"73749"}},{"arcs":[[-780,783,-775,-752,-774,784,785]],"type":"Polygon","properties":{"state":"OK","name":"KINGFISHER","zip":"73750"}},{"arcs":[[786,-693,-697,-738,787]],"type":"Polygon","properties":{"state":"OK","name":"KREMLIN","zip":"73753"}},{"arcs":[[-755,788,-734,-695]],"type":"Polygon","properties":{"state":"OK","name":"LAHOMA","zip":"73754"}},{"arcs":[[789,-728,-678,-760,790]],"type":"Polygon","properties":{"state":"OK","name":"LONGDALE","zip":"73755"}},{"arcs":[[791,-718,792,793]],"type":"Polygon","properties":{"state":"OK","name":"MANCHESTER","zip":"73758"}},{"arcs":[[794,795,-794,796,797,798,799,800,801]],"type":"Polygon","properties":{"state":"OK","name":"MEDFORD","zip":"73759"}},{"arcs":[[-713,802,-768,-789,-754]],"type":"Polygon","properties":{"state":"OK","name":"MENO","zip":"73760"}},{"arcs":[[-783,803,-795,804,-736,-771]],"type":"Polygon","properties":{"state":"OK","name":"NASH","zip":"73761"}},{"arcs":[[-143,-79,805,-785,-777,-167,-21,-270]],"type":"Polygon","properties":{"state":"OK","name":"OKARCHE","zip":"73762"}},{"arcs":[[806,-791,-765,-782,-710,-776,-784,-779,807]],"type":"Polygon","properties":{"state":"OK","name":"OKEENE","zip":"73763"}},{"arcs":[[808,-788,-737,-805,-802]],"type":"Polygon","properties":{"state":"OK","name":"POND CREEK","zip":"73766"}},{"arcs":[[-712,-781,-763,-744,-772,-803]],"type":"Polygon","properties":{"state":"OK","name":"RINGWOOD","zip":"73768"}},{"arcs":[[809,-729,-790,-807]],"type":"Polygon","properties":{"state":"OK","name":"SOUTHARD","zip":"73770"}},{"arcs":[[-804,-723,-792,-796]],"type":"Polygon","properties":{"state":"OK","name":"WAKITA","zip":"73771"}},{"arcs":[[-688,-650,-663,-727,-810,-808,-778,-786,-806,-78,-164,-155,810]],"type":"Polygon","properties":{"state":"OK","name":"WATONGA","zip":"73772"}},{"arcs":[[-721,-756,-698,-691,-750]],"type":"Polygon","properties":{"state":"OK","name":"WAUKOMIS","zip":"73773"}},{"arcs":[[811,812,813,814]],"type":"Polygon","properties":{"state":"OK","name":"WOODWARD","zip":"73801"}},{"arcs":[[815,816,817,818,819,820,821]],"type":"Polygon","properties":{"state":"OK","name":"ARNETT","zip":"73832"}},{"arcs":[[822,823,824,825,826,827,828]],"type":"Polygon","properties":{"state":"OK","name":"BUFFALO","zip":"73834"}},{"arcs":[[829,-681,830]],"type":"Polygon","properties":{"state":"OK","name":"CAMARGO","zip":"73835"}},{"arcs":[[831,832,833,-761,-676]],"type":"Polygon","properties":{"state":"OK","name":"CHESTER","zip":"73838"}},{"arcs":[[834,-819,835,836,837,838,839,-814]],"type":"Polygon","properties":{"state":"OK","name":"FARGO","zip":"73840"}},{"arcs":[[840,-824,841,-815,-840]],"type":"Polygon","properties":{"state":"OK","name":"FORT SUPPLY","zip":"73841"}},{"arcs":[[842,843,-829,844,-707]],"type":"Polygon","properties":{"state":"OK","name":"FREEDOM","zip":"73842"}},{"arcs":[[845,-836,-818]],"type":"Polygon","properties":{"state":"OK","name":"GAGE","zip":"73843"}},{"arcs":[[846,847,848,849,850]],"type":"Polygon","properties":{"state":"OK","name":"GATE","zip":"73844"}},{"arcs":[[851,852,-847]],"type":"Polygon","properties":{"state":"OK","name":"KNOWLES","zip":"73847"}},{"arcs":[[853,854,855,856,-852,-851,857,-826,858,-838]],"type":"Polygon","properties":{"state":"OK","name":"LAVERNE","zip":"73848"}},{"arcs":[[-839,-859,-825,-841]],"type":"Polygon","properties":{"state":"OK","name":"MAY","zip":"73851"}},{"arcs":[[859,-812,-842,-823,-844,860,-833,861]],"type":"Polygon","properties":{"state":"OK","name":"MOORELAND","zip":"73852"}},{"arcs":[[-675,862,863,-862,-832]],"type":"Polygon","properties":{"state":"OK","name":"MUTUAL","zip":"73853"}},{"arcs":[[864,-827,-858,-850]],"type":"Polygon","properties":{"state":"OK","name":"ROSSTON","zip":"73855"}},{"arcs":[[-835,-813,-860,-864,865,-820]],"type":"Polygon","properties":{"state":"OK","name":"SHARON","zip":"73857"}},{"arcs":[[866,-854,-837,-846,-817]],"type":"Polygon","properties":{"state":"OK","name":"SHATTUCK","zip":"73858"}},{"arcs":[[-821,-866,-863,-674,-682,-830,867]],"type":"Polygon","properties":{"state":"OK","name":"VICI","zip":"73859"}},{"arcs":[[-861,-843,-706,-748,-731,-701,-743,-762,-834]],"type":"Polygon","properties":{"state":"OK","name":"WAYNOKA","zip":"73860"}},{"arcs":[[868,869,870,-856,871]],"type":"Polygon","properties":{"state":"OK","name":"BALKO","zip":"73931"}},{"arcs":[[-871,872,873,-857]],"type":"Polygon","properties":{"state":"OK","name":"BEAVER","zip":"73932"}},{"arcs":[[874,875,876,877,878,879,880]],"type":"Polygon","properties":{"state":"OK","name":"BOISE CITY","zip":"73933"}},{"arcs":[[881,-877]],"type":"Polygon","properties":{"state":"OK","name":"FELT","zip":"73937"}},{"arcs":[[-874,882,883,-848,-853]],"type":"Polygon","properties":{"state":"OK","name":"FORGAN","zip":"73938"}},{"arcs":[[884,885,886,887,888]],"type":"Polygon","properties":{"state":"OK","name":"GOODWELL","zip":"73939"}},{"arcs":[[889,-888,890,891,892]],"type":"Polygon","properties":{"state":"OK","name":"GUYMON","zip":"73942"}},{"arcs":[[893,-869,894,-893]],"type":"Polygon","properties":{"state":"OK","name":"HARDESTY","zip":"73944"}},{"arcs":[[895,896,897,-894,-892]],"type":"Polygon","properties":{"state":"OK","name":"HOOKER","zip":"73945"}},{"arcs":[[898,-879]],"type":"Polygon","properties":{"state":"OK","name":"KENTON","zip":"73946"}},{"arcs":[[899,-881,900,-886]],"type":"Polygon","properties":{"state":"OK","name":"KEYES","zip":"73947"}},{"arcs":[[901,-875,-900,-885]],"type":"Polygon","properties":{"state":"OK","name":"TEXHOMA","zip":"73949"}},{"arcs":[[-870,-898,902,903,-883,-873]],"type":"Polygon","properties":{"state":"OK","name":"TURPIN","zip":"73950"}},{"arcs":[[904,-903,-897]],"type":"Polygon","properties":{"state":"OK","name":"TYRONE","zip":"73951"}},{"arcs":[[905,906,907,908,909,910,911,912]],"type":"Polygon","properties":{"state":"OK","name":"BARNSDALL","zip":"74002"}},{"arcs":[[913,914,915,916,-911]],"type":"Polygon","properties":{"state":"OK","name":"BARTLESVILLE","zip":"74003"}},{"arcs":[[917,-912,-917,918,919,920,921]],"type":"Polygon","properties":{"state":"OK","name":"BARTLESVILLE","zip":"74006"}},{"arcs":[[922,923,924,925,926,927,928,929,930,931,932]],"type":"Polygon","properties":{"state":"OK","name":"BIXBY","zip":"74008"}},{"arcs":[[933,934,935,936,937,938,939]],"type":"Polygon","properties":{"state":"OK","name":"BRISTOW","zip":"74010"}},{"arcs":[[940,-931,941,942]],"type":"Polygon","properties":{"state":"OK","name":"BROKEN ARROW","zip":"74011"}},{"arcs":[[943,944,945,946,-943]],"type":"Polygon","properties":{"state":"OK","name":"BROKEN ARROW","zip":"74012"}},{"arcs":[[-947,947,948,949,950,-932,-941]],"type":"Polygon","properties":{"state":"OK","name":"BROKEN ARROW","zip":"74014"}},{"arcs":[[951,952,953,954,955,956,-950]],"type":"Polygon","properties":{"state":"OK","name":"CATOOSA","zip":"74015"}},{"arcs":[[957,958,959,960,961,962]],"type":"Polygon","properties":{"state":"OK","name":"CHELSEA","zip":"74016"}},{"arcs":[[963,964,-955,965,966,-963,967,968]],"type":"Polygon","properties":{"state":"OK","name":"CLAREMORE","zip":"74017"}},{"arcs":[[969,970,971,972,973,974,975,976,977]],"type":"Polygon","properties":{"state":"OK","name":"CLEVELAND","zip":"74020"}},{"arcs":[[978,979,980,981,982,983]],"type":"Polygon","properties":{"state":"OK","name":"COLLINSVILLE","zip":"74021"}},{"arcs":[[984,985,986,987,-915]],"type":"Polygon","properties":{"state":"OK","name":"COPAN","zip":"74022"}},{"arcs":[[988,989,990,991,992,993]],"type":"Polygon","properties":{"state":"OK","name":"CUSHING","zip":"74023"}},{"arcs":[[994,995,996,997,998,999,-920]],"type":"Polygon","properties":{"state":"OK","name":"DELAWARE","zip":"74027"}},{"arcs":[[1000,1001,1002,1003,1004,-934]],"type":"Polygon","properties":{"state":"OK","name":"DEPEW","zip":"74028"}},{"arcs":[[-919,-916,-988,1005,-995]],"type":"Polygon","properties":{"state":"OK","name":"DEWEY","zip":"74029"}},{"arcs":[[1006,-935,-1005,1007,-992,1008,1009,1010,1011,1012]],"type":"Polygon","properties":{"state":"OK","name":"DRUMRIGHT","zip":"74030"}},{"arcs":[[1013,1014,1015,-221,1016]],"type":"Polygon","properties":{"state":"OK","name":"GLENCOE","zip":"74032"}},{"arcs":[[1017,1018,1019,-927]],"type":"Polygon","properties":{"state":"OK","name":"GLENPOOL","zip":"74033"}},{"arcs":[[1020,1021,-974,1022,1023,1024,-908,1025]],"type":"Polygon","properties":{"state":"OK","name":"HOMINY","zip":"74035"}},{"arcs":[[1026,1027,1028,-956,-965]],"type":"Polygon","properties":{"state":"OK","name":"INOLA","zip":"74036"}},{"arcs":[[-1020,1029,1030,1031,-928]],"type":"Polygon","properties":{"state":"OK","name":"JENKS","zip":"74037"}},{"arcs":[[1032,1033,-971,1034,-1010]],"type":"Polygon","properties":{"state":"OK","name":"JENNINGS","zip":"74038"}},{"arcs":[[1035,-936,-1007,1036]],"type":"Polygon","properties":{"state":"OK","name":"KELLYVILLE","zip":"74039"}},{"arcs":[[1037,1038,1039,-997]],"type":"Polygon","properties":{"state":"OK","name":"LENAPAH","zip":"74042"}},{"arcs":[[1040,-1012,1041,-978,1042]],"type":"Polygon","properties":{"state":"OK","name":"MANNFORD","zip":"74044"}},{"arcs":[[1043,1044,-972,-1034]],"type":"Polygon","properties":{"state":"OK","name":"MARAMEC","zip":"74045"}},{"arcs":[[-1036,1045,-1018,-926,1046,-937]],"type":"Polygon","properties":{"state":"OK","name":"MOUNDS","zip":"74047"}},{"arcs":[[1047,1048,-921,-1000,1049,-960]],"type":"Polygon","properties":{"state":"OK","name":"NOWATA","zip":"74048"}},{"arcs":[[1050,-913,-918]],"type":"Polygon","properties":{"state":"OK","name":"OCHELATA","zip":"74051"}},{"arcs":[[1051,-982,1052,-958,-967]],"type":"Polygon","properties":{"state":"OK","name":"OOLOGAH","zip":"74053"}},{"arcs":[[1053,-975,-1022]],"type":"Polygon","properties":{"state":"OK","name":"OSAGE","zip":"74054"}},{"arcs":[[1054,1055,-983,-1052,-966,-954,1056]],"type":"Polygon","properties":{"state":"OK","name":"OWASSO","zip":"74055"}},{"arcs":[[-910,1057,1058,1059,1060,1061,-985,-914]],"type":"Polygon","properties":{"state":"OK","name":"PAWHUSKA","zip":"74056"}},{"arcs":[[1062,1063,1064,1065,-1023,-973,-1045,1066,-1017,-225]],"type":"Polygon","properties":{"state":"OK","name":"PAWNEE","zip":"74058"}},{"arcs":[[1067,-124,1068,1069]],"type":"Polygon","properties":{"state":"OK","name":"PERKINS","zip":"74059"}},{"arcs":[[1070,1071,-976,-1054,-1021,1072,1073]],"type":"Polygon","properties":{"state":"OK","name":"PRUE","zip":"74060"}},{"arcs":[[1074,-906,-1051,-922,-1049,1075,-980]],"type":"Polygon","properties":{"state":"OK","name":"RAMONA","zip":"74061"}},{"arcs":[[1076,-1070,1077,-989]],"type":"Polygon","properties":{"state":"OK","name":"RIPLEY","zip":"74062"}},{"arcs":[[1078,1079,-1043,-977,-1072,1080]],"type":"Polygon","properties":{"state":"OK","name":"SAND SPRINGS","zip":"74063"}},{"arcs":[[-1046,-1037,-1013,-1041,-1080,1081,1082,-1030,-1019]],"type":"Polygon","properties":{"state":"OK","name":"SAPULPA","zip":"74066"}},{"arcs":[[1083,-1073,-1026,-907,-1075,-979]],"type":"Polygon","properties":{"state":"OK","name":"SKIATOOK","zip":"74070"}},{"arcs":[[1084,1085,1086,-1039]],"type":"Polygon","properties":{"state":"OK","name":"S COFFEYVILLE","zip":"74072"}},{"arcs":[[1087,1088,-1074,-1084,-984,-1056,1089,1090]],"type":"Polygon","properties":{"state":"OK","name":"SPERRY","zip":"74073"}},{"arcs":[[-1078,-1069,-123,-170,-228,-254,-269,1091,1092,1093,1094,-1015,1095,-990]],"type":"Polygon","properties":{"state":"OK","name":"STILLWATER","zip":"74074"}},{"arcs":[[1096,-1092,-268,-222,-1016,-1095,1097]],"type":"Polygon","properties":{"state":"OK","name":"STILLWATER","zip":"74075"}},{"arcs":[[1098,-1098,-1094]],"type":"Polygon","properties":{"state":"OK","name":"STILLWATER","zip":"74077"}},{"arcs":[[-1097,-1099,-1093]],"type":"Polygon","properties":{"state":"OK","name":"STILLWATER","zip":"74078"}},{"arcs":[[1099,1100,-993,-1008,-1004,1101]],"type":"Polygon","properties":{"state":"OK","name":"STROUD","zip":"74079"}},{"arcs":[[-1076,-1048,-959,-1053,-981]],"type":"Polygon","properties":{"state":"OK","name":"TALALA","zip":"74080"}},{"arcs":[[-1042,-1011,-1035,-970]],"type":"Polygon","properties":{"state":"OK","name":"TERLTON","zip":"74081"}},{"arcs":[[-987,1102,-1085,-1038,-996,-1006]],"type":"Polygon","properties":{"state":"OK","name":"WANN","zip":"74083"}},{"arcs":[[1103,-1058,-909,-1025]],"type":"Polygon","properties":{"state":"OK","name":"WYNONA","zip":"74084"}},{"arcs":[[-1014,-1067,-1044,-1033,-1009,-991,-1096]],"type":"Polygon","properties":{"state":"OK","name":"YALE","zip":"74085"}},{"arcs":[[1104,1105,1106,1107]],"type":"Polygon","properties":{"state":"OK","name":"TULSA","zip":"74103"}},{"arcs":[[1108,1109,1110,1111]],"type":"Polygon","properties":{"state":"OK","name":"TULSA","zip":"74104"}},{"arcs":[[1112,1113,1114,1115]],"type":"Polygon","properties":{"state":"OK","name":"TULSA","zip":"74105"}},{"arcs":[[1116,1117,1118,1119,1120,-1107]],"type":"Polygon","properties":{"state":"OK","name":"TULSA","zip":"74106"}},{"arcs":[[1121,-1079,1122,1123,1124,-1113,1125]],"type":"Polygon","properties":{"state":"OK","name":"TULSA","zip":"74107"}},{"arcs":[[1126,1127,1128,-952,-949]],"type":"Polygon","properties":{"state":"OK","name":"TULSA","zip":"74108"}},{"arcs":[[-1112,1129,-1120,1130,1131]],"type":"Polygon","properties":{"state":"OK","name":"TULSA","zip":"74110"}},{"arcs":[[1132,1133,-1109,1134,1135]],"type":"Polygon","properties":{"state":"OK","name":"TULSA","zip":"74112"}},{"arcs":[[1136,1137,-1114,-1125,1138,1139,-1110,-1134]],"type":"Polygon","properties":{"state":"OK","name":"TULSA","zip":"74114"}},{"arcs":[[1140,1141,1142,-1135,-1132]],"type":"Polygon","properties":{"state":"OK","name":"TULSA","zip":"74115"}},{"arcs":[[1143,-1057,-953,-1129,1144,-1143]],"type":"Polygon","properties":{"state":"OK","name":"TULSA","zip":"74116"}},{"arcs":[[-1144,-1142,1145,-1090,-1055]],"type":"Polygon","properties":{"state":"OK","name":"TULSA","zip":"74117"}},{"arcs":[[-1124,1146,-1105,1147,-1139]],"type":"Polygon","properties":{"state":"OK","name":"TULSA","zip":"74119"}},{"arcs":[[-1140,-1148,-1108,-1121,-1130,-1111]],"type":"Polygon","properties":{"state":"OK","name":"TULSA","zip":"74120"}},{"arcs":[[1148,-1088,1149,-1118]],"type":"Polygon","properties":{"state":"OK","name":"TULSA","zip":"74126"}},{"arcs":[[-1123,-1081,-1071,-1089,-1149,-1117,-1106,-1147]],"type":"Polygon","properties":{"state":"OK","name":"TULSA","zip":"74127"}},{"arcs":[[-1145,-1128,1150,-1136]],"type":"Polygon","properties":{"state":"OK","name":"TULSA","zip":"74128"}},{"arcs":[[1151,1152,-1137,-1133,-1151,1153]],"type":"Polygon","properties":{"state":"OK","name":"TULSA","zip":"74129"}},{"arcs":[[-1119,-1150,-1091,-1146,-1141,-1131]],"type":"Polygon","properties":{"state":"OK","name":"TULSA","zip":"74130"}},{"arcs":[[-1122,1154,-1082]],"type":"Polygon","properties":{"state":"OK","name":"TULSA","zip":"74131"}},{"arcs":[[-1126,1155,1156,-1031,-1083,-1155]],"type":"Polygon","properties":{"state":"OK","name":"TULSA","zip":"74132"}},{"arcs":[[1157,1158,1159,1160,-944,-942,-930]],"type":"Polygon","properties":{"state":"OK","name":"TULSA","zip":"74133"}},{"arcs":[[1161,-1154,-1127,-948,-946]],"type":"Polygon","properties":{"state":"OK","name":"TULSA","zip":"74134"}},{"arcs":[[-1138,1162,1163,-1115]],"type":"Polygon","properties":{"state":"OK","name":"TULSA","zip":"74135"}},{"arcs":[[-1156,-1116,-1164,-1159,1164]],"type":"Polygon","properties":{"state":"OK","name":"TULSA","zip":"74136"}},{"arcs":[[-1157,-1165,-1158,-929,-1032]],"type":"Polygon","properties":{"state":"OK","name":"TULSA","zip":"74137"}},{"arcs":[[1165,-1160,-1163,-1153]],"type":"Polygon","properties":{"state":"OK","name":"TULSA","zip":"74145"}},{"arcs":[[-1161,-1166,-1152,-1162,-945]],"type":"Polygon","properties":{"state":"OK","name":"TULSA","zip":"74146"}},{"arcs":[[1166,1167,1168,1169]],"type":"Polygon","properties":{"state":"OK","name":"VINITA","zip":"74301"}},{"arcs":[[-962,1170,1171,1172,1173,-968]],"type":"Polygon","properties":{"state":"OK","name":"ADAIR","zip":"74330"}},{"arcs":[[1174,1175,1176,1177,1178,1179,1180,-1167]],"type":"Polygon","properties":{"state":"OK","name":"AFTON","zip":"74331"}},{"arcs":[[-1171,-961,-1050,-999,1181,1182,-1169]],"type":"Polygon","properties":{"state":"OK","name":"BIG CABIN","zip":"74332"}},{"arcs":[[-1170,-1183,1183,1184,-1175]],"type":"Polygon","properties":{"state":"OK","name":"BLUEJACKET","zip":"74333"}},{"arcs":[[1185,1186,-1027,-964,1187]],"type":"Polygon","properties":{"state":"OK","name":"CHOUTEAU","zip":"74337"}},{"arcs":[[1188,1189,1190,1191,1192]],"type":"Polygon","properties":{"state":"OK","name":"COLCORD","zip":"74338"}},{"arcs":[[1193,1194,1195,1196,1197,-1180,1198,-1191]],"type":"Polygon","properties":{"state":"OK","name":"EUCHA","zip":"74342"}},{"arcs":[[1199,-1177,1200,1201]],"type":"Polygon","properties":{"state":"OK","name":"FAIRLAND","zip":"74343"}},{"arcs":[[1202,1203,-1178,-1200,1204]],"type":"Polygon","properties":{"state":"OK","name":"GROVE","zip":"74344"}},{"arcs":[[1205,-1192,-1199,-1179,-1204]],"type":"Polygon","properties":{"state":"OK","name":"JAY","zip":"74346"}},{"arcs":[[1206,1207,1208,1209,1210,-1194,-1190]],"type":"Polygon","properties":{"state":"OK","name":"KANSAS","zip":"74347"}},{"arcs":[[1211,1212,1213,1214,1215,1216,-1186]],"type":"Polygon","properties":{"state":"OK","name":"LOCUST GROVE","zip":"74352"}},{"arcs":[[1217,-1201,-1176,-1185,1218,1219,1220,1221]],"type":"Polygon","properties":{"state":"OK","name":"MIAMI","zip":"74354"}},{"arcs":[[1222,1223,1224,-1209]],"type":"Polygon","properties":{"state":"OK","name":"OAKS","zip":"74359"}},{"arcs":[[1225,1226,-1221]],"type":"Polygon","properties":{"state":"OK","name":"PICHER","zip":"74360"}},{"arcs":[[-1188,-969,-1174,1227,-1212]],"type":"Polygon","properties":{"state":"OK","name":"PRYOR","zip":"74361"}},{"arcs":[[-1227,1228,1229,-1222]],"type":"Polygon","properties":{"state":"OK","name":"QUAPAW","zip":"74363"}},{"arcs":[[1230,-1214,1231,-1195,-1211,1232,-1224]],"type":"Polygon","properties":{"state":"OK","name":"ROSE","zip":"74364"}},{"arcs":[[-1228,-1173,1233,1234,-1196,-1232,-1213]],"type":"Polygon","properties":{"state":"OK","name":"SALINA","zip":"74365"}},{"arcs":[[1235,-1197,-1235]],"type":"Polygon","properties":{"state":"OK","name":"SPAVINAW","zip":"74366"}},{"arcs":[[-1234,-1172,-1168,-1181,-1198,-1236]],"type":"Polygon","properties":{"state":"OK","name":"STRANG","zip":"74367"}},{"arcs":[[-1210,-1225,-1233]],"type":"Polygon","properties":{"state":"OK","name":"TWIN OAKS","zip":"74368"}},{"arcs":[[-1182,-998,-1040,-1087,1236,-1219,-1184]],"type":"Polygon","properties":{"state":"OK","name":"WELCH","zip":"74369"}},{"arcs":[[1237,-1205,-1202,-1218,-1230]],"type":"Polygon","properties":{"state":"OK","name":"WYANDOTTE","zip":"74370"}},{"arcs":[[1238,1239,1240,1241,1242]],"type":"Polygon","properties":{"state":"OK","name":"MUSKOGEE","zip":"74401"}},{"arcs":[[1243,-1243,1244,1245,1246,1247,1248,1249,1250,1251,1252,1253]],"type":"Polygon","properties":{"state":"OK","name":"MUSKOGEE","zip":"74403"}},{"arcs":[[1254,-938,-1047,1255]],"type":"Polygon","properties":{"state":"OK","name":"BEGGS","zip":"74421"}},{"arcs":[[1256,1257,1258,1259,1260]],"type":"Polygon","properties":{"state":"OK","name":"BOYNTON","zip":"74422"}},{"arcs":[[1261,-1249]],"type":"Polygon","properties":{"state":"OK","name":"BRAGGS","zip":"74423"}},{"arcs":[[1262,1263]],"type":"Polygon","properties":{"state":"OK","name":"CANADIAN","zip":"74425"}},{"arcs":[[[1264,1265,1266,1267,1268,-1239,-1244]],[[1269,1270,1271]]],"type":"MultiPolygon","properties":{"state":"OK","name":"CHECOTAH","zip":"74426"}},{"arcs":[[1272,1273,1274,1275,1276]],"type":"Polygon","properties":{"state":"OK","name":"COOKSON","zip":"74427"}},{"arcs":[[1277,1278,-1257,1279,-1268,1280]],"type":"Polygon","properties":{"state":"OK","name":"COUNCIL HILL","zip":"74428"}},{"arcs":[[-957,-1029,1281,1282,-933,-951]],"type":"Polygon","properties":{"state":"OK","name":"COWETA","zip":"74429"}},{"arcs":[[1283,1284,1285,-1270,1286,1287]],"type":"Polygon","properties":{"state":"OK","name":"EUFAULA","zip":"74432"}},{"arcs":[[1288,-1247,1289,1290,1291]],"type":"Polygon","properties":{"state":"OK","name":"FORT GIBSON","zip":"74434"}},{"arcs":[[1292,-1252,1293]],"type":"Polygon","properties":{"state":"OK","name":"GORE","zip":"74435"}},{"arcs":[[1294,-1259,1295,-924,1296]],"type":"Polygon","properties":{"state":"OK","name":"HASKELL","zip":"74436"}},{"arcs":[[-1286,1297,1298,1299,1300,-1278,1301,-1271]],"type":"Polygon","properties":{"state":"OK","name":"HENRYETTA","zip":"74437"}},{"arcs":[[1302,1303,1304]],"type":"Polygon","properties":{"state":"OK","name":"HOYT","zip":"74440"}},{"arcs":[[1305,-1291,1306,-1216,1307]],"type":"Polygon","properties":{"state":"OK","name":"HULBERT","zip":"74441"}},{"arcs":[[1308,1309,-1263,1310]],"type":"Polygon","properties":{"state":"OK","name":"INDIANOLA","zip":"74442"}},{"arcs":[[1311,-1256,-925,-1296,-1258,-1279,-1301]],"type":"Polygon","properties":{"state":"OK","name":"MORRIS","zip":"74445"}},{"arcs":[[-1300,1312,-939,-1255,-1312]],"type":"Polygon","properties":{"state":"OK","name":"OKMULGEE","zip":"74447"}},{"arcs":[[-1280,-1261,1313,-1240,-1269]],"type":"Polygon","properties":{"state":"OK","name":"OKTAHA","zip":"74450"}},{"arcs":[[-1262,-1248,-1289,1314,1315,-1274,1316,-1250]],"type":"Polygon","properties":{"state":"OK","name":"PARK HILL","zip":"74451"}},{"arcs":[[1317,1318,-1308,-1215,-1231,-1223,-1208,1319]],"type":"Polygon","properties":{"state":"OK","name":"PEGGS","zip":"74452"}},{"arcs":[[1320,-1297,-923,-1283,1321,-1245,-1242]],"type":"Polygon","properties":{"state":"OK","name":"PORTER","zip":"74454"}},{"arcs":[[[-1266,1322,1323,1324]],[[1325,1304,1326]]],"type":"MultiPolygon","properties":{"state":"OK","name":"PORUM","zip":"74455"}},{"arcs":[[1327,1328,1329]],"type":"Polygon","properties":{"state":"OK","name":"PROCTOR","zip":"74457"}},{"arcs":[[1330,1331,1332,1333,1334,1335,1336]],"type":"Polygon","properties":{"state":"OK","name":"STIGLER","zip":"74462"}},{"arcs":[[-1260,-1295,-1321,-1241,-1314]],"type":"Polygon","properties":{"state":"OK","name":"TAFT","zip":"74463"}},{"arcs":[[-1306,-1319,1337,-1315,-1292]],"type":"Polygon","properties":{"state":"OK","name":"TAHLEQUAH","zip":"74464"}},{"arcs":[[-1322,-1282,-1028,-1187,-1217,-1307,-1290,-1246]],"type":"Polygon","properties":{"state":"OK","name":"WAGONER","zip":"74467"}},{"arcs":[[-1265,-1254,1338,-1323]],"type":"Polygon","properties":{"state":"OK","name":"WARNER","zip":"74469"}},{"arcs":[[-1253,-1293,1339,-1334,1340,-1324,-1339]],"type":"Polygon","properties":{"state":"OK","name":"WEBBERS FALLS","zip":"74470"}},{"arcs":[[-1338,-1318,1341,1342,-1329,1343,1344,-1275,-1316]],"type":"Polygon","properties":{"state":"OK","name":"WELLING","zip":"74471"}},{"arcs":[[1345,1346,-1332]],"type":"Polygon","properties":{"state":"OK","name":"WHITEFIELD","zip":"74472"}},{"arcs":[[1347,1348,1349,1350,1351,1352,1353,-1309,1354]],"type":"Polygon","properties":{"state":"OK","name":"MCALESTER","zip":"74501"}},{"arcs":[[1355,1356,1357,1358,1359,1360,1361,1362,1363,1364,1365]],"type":"Polygon","properties":{"state":"OK","name":"ANTLERS","zip":"74523"}},{"arcs":[[1366,-414,-472,1367,1368,1369,1370,1371,1372,1373,1374]],"type":"Polygon","properties":{"state":"OK","name":"ATOKA","zip":"74525"}},{"arcs":[[1375,1376,1377,-1349]],"type":"Polygon","properties":{"state":"OK","name":"BLANCO","zip":"74528"}},{"arcs":[[1378,1379,1380,1381,1382,1383]],"type":"Polygon","properties":{"state":"OK","name":"CALVIN","zip":"74531"}},{"arcs":[[1384,1385,-415,-1367]],"type":"Polygon","properties":{"state":"OK","name":"CANEY","zip":"74533"}},{"arcs":[[1386,1387,1388,-1380]],"type":"Polygon","properties":{"state":"OK","name":"CENTRAHOMA","zip":"74534"}},{"arcs":[[1389,1390,-1362,1391,1392,1393,1394]],"type":"Polygon","properties":{"state":"OK","name":"CLAYTON","zip":"74536"}},{"arcs":[[-1379,1395,1396,-1369,1397,-1387]],"type":"Polygon","properties":{"state":"OK","name":"COALGATE","zip":"74538"}},{"arcs":[[1398,1399,1400,-1392,-1361]],"type":"Polygon","properties":{"state":"OK","name":"DAISY","zip":"74540"}},{"arcs":[[1401,-1365,1402,-1363,-1391,1403]],"type":"Polygon","properties":{"state":"OK","name":"FINLEY","zip":"74543"}},{"arcs":[[1404,-1376,-1348,1405,1406,1407,1408,-1393,-1401]],"type":"Polygon","properties":{"state":"OK","name":"HARTSHORNE","zip":"74547"}},{"arcs":[[1409,1410,1411,1412,1413,1414,1415]],"type":"Polygon","properties":{"state":"OK","name":"HONOBIA","zip":"74549"}},{"arcs":[[1416,1417,-1303,1326,1418,-1346,-1331,1419,1420,1421]],"type":"Polygon","properties":{"state":"OK","name":"KINTA","zip":"74552"}},{"arcs":[[1422,-1350,-1378,1423,1424,-1396]],"type":"Polygon","properties":{"state":"OK","name":"KIOWA","zip":"74553"}},{"arcs":[[1425,-1372,1426,-1359]],"type":"Polygon","properties":{"state":"OK","name":"LANE","zip":"74555"}},{"arcs":[[1363,1402]],"type":"Polygon","properties":{"state":"OK","name":"MOYERS","zip":"74557"}},{"arcs":[[1427,1428,1429,-1395,1430,-1412]],"type":"Polygon","properties":{"state":"OK","name":"NASHOBA","zip":"74558"}},{"arcs":[[1431,1432,-1424,-1377,-1405,-1400]],"type":"Polygon","properties":{"state":"OK","name":"PITTSBURG","zip":"74560"}},{"arcs":[[-1417,1433,-1407,1434]],"type":"Polygon","properties":{"state":"OK","name":"QUINTON","zip":"74561"}},{"arcs":[[1435,-1366,-1402,1436,-1429,1437,1438,1439,1440,1441,1442]],"type":"Polygon","properties":{"state":"OK","name":"RATTAN","zip":"74562"}},{"arcs":[[1443,-1421,1444,1445,1446,1447]],"type":"Polygon","properties":{"state":"OK","name":"RED OAK","zip":"74563"}},{"arcs":[[-1390,-1430,-1437,-1404]],"type":"Polygon","properties":{"state":"OK","name":"SNOW","zip":"74567"}},{"arcs":[[1448,-1432,-1399,-1360,-1427,-1371]],"type":"Polygon","properties":{"state":"OK","name":"STRINGTOWN","zip":"74569"}},{"arcs":[[-1384,1449,-1351,-1423]],"type":"Polygon","properties":{"state":"OK","name":"STUART","zip":"74570"}},{"arcs":[[1450,1451,-1416,1452,-1414,1453,1454,1455]],"type":"Polygon","properties":{"state":"OK","name":"TALIHINA","zip":"74571"}},{"arcs":[[-469,1456,1457,-1388,-1398,-1368,-473]],"type":"Polygon","properties":{"state":"OK","name":"TUPELO","zip":"74572"}},{"arcs":[[-1431,-1394,-1409,1458,-1448,1459,-1454,-1413]],"type":"Polygon","properties":{"state":"OK","name":"TUSKAHOMA","zip":"74574"}},{"arcs":[[-1370,-1397,-1425,-1433,-1449]],"type":"Polygon","properties":{"state":"OK","name":"WARDVILLE","zip":"74576"}},{"arcs":[[-1415,-1453]],"type":"Polygon","properties":{"state":"OK","name":"WHITESBORO","zip":"74577"}},{"arcs":[[-1434,-1422,-1444,-1459,-1408]],"type":"Polygon","properties":{"state":"OK","name":"WILBURTON","zip":"74578"}},{"arcs":[[1460,1461,1462,1463,1464,1465]],"type":"Polygon","properties":{"state":"OK","name":"PONCA CITY","zip":"74601"}},{"arcs":[[1466,-1464,1467,1468,1469,1470,1471]],"type":"Polygon","properties":{"state":"OK","name":"PONCA CITY","zip":"74604"}},{"arcs":[[-767,1472,1473,1474,-266]],"type":"Polygon","properties":{"state":"OK","name":"BILLINGS","zip":"74630"}},{"arcs":[[1475,1476,1477,-1462,1478]],"type":"Polygon","properties":{"state":"OK","name":"BLACKWELL","zip":"74631"}},{"arcs":[[1479,-1477,1480,-798,1481]],"type":"Polygon","properties":{"state":"OK","name":"BRAMAN","zip":"74632"}},{"arcs":[[1482,1483,-1060,1484,-1470]],"type":"Polygon","properties":{"state":"OK","name":"BURBANK","zip":"74633"}},{"arcs":[[1485,-800,1486]],"type":"Polygon","properties":{"state":"OK","name":"DEER CREEK","zip":"74636"}},{"arcs":[[1487,-1471,-1485,-1059,-1104,-1024,-1066]],"type":"Polygon","properties":{"state":"OK","name":"FAIRFAX","zip":"74637"}},{"arcs":[[-809,1488,1489,-1473,-766,-758,-787]],"type":"Polygon","properties":{"state":"OK","name":"HUNTER","zip":"74640"}},{"arcs":[[1490,1491,1492,-1483,-1469]],"type":"Polygon","properties":{"state":"OK","name":"KAW CITY","zip":"74641"}},{"arcs":[[1493,-1489,-801,-1486,1494]],"type":"Polygon","properties":{"state":"OK","name":"LAMONT","zip":"74643"}},{"arcs":[[1495,-1465,-1467,1496,-1064]],"type":"Polygon","properties":{"state":"OK","name":"MARLAND","zip":"74644"}},{"arcs":[[1497,-1495,-1487,-799,-1481,-1476]],"type":"Polygon","properties":{"state":"OK","name":"NARDIN","zip":"74646"}},{"arcs":[[-1478,-1480,1498,-1491,-1468,-1463]],"type":"Polygon","properties":{"state":"OK","name":"NEWKIRK","zip":"74647"}},{"arcs":[[-1065,-1497,-1472,-1488]],"type":"Polygon","properties":{"state":"OK","name":"RALSTON","zip":"74650"}},{"arcs":[[-1475,1499,-1466,-1496,-1063,-224,-267]],"type":"Polygon","properties":{"state":"OK","name":"RED ROCK","zip":"74651"}},{"arcs":[[1500,-1061,-1484,-1493]],"type":"Polygon","properties":{"state":"OK","name":"SHIDLER","zip":"74652"}},{"arcs":[[-1474,-1490,-1494,-1498,-1479,-1461,-1500]],"type":"Polygon","properties":{"state":"OK","name":"TONKAWA","zip":"74653"}},{"arcs":[[-455,1501,1502,1503,1504,-453,1505]],"type":"Polygon","properties":{"state":"OK","name":"DURANT","zip":"74701"}},{"arcs":[[1506,1507,-1374,1508,1509,1510]],"type":"Polygon","properties":{"state":"OK","name":"BENNINGTON","zip":"74723"}},{"arcs":[[1511,-1438,-1428,-1411,1512,1513,1514,1515,1516]],"type":"Polygon","properties":{"state":"OK","name":"BETHEL","zip":"74724"}},{"arcs":[[1517,1518,-1504,1519,-1507]],"type":"Polygon","properties":{"state":"OK","name":"BOKCHITO","zip":"74726"}},{"arcs":[[1520,1521,1522,-1509,-1373,-1426,-1358]],"type":"Polygon","properties":{"state":"OK","name":"BOSWELL","zip":"74727"}},{"arcs":[[1523,1524,1525,1526,1527,1528,-1517]],"type":"Polygon","properties":{"state":"OK","name":"BROKEN BOW","zip":"74728"}},{"arcs":[[-1520,-1503,1529,-1385,-1375,-1508]],"type":"Polygon","properties":{"state":"OK","name":"CADDO","zip":"74729"}},{"arcs":[[1530,1531,-454,-1505,-1519,1532]],"type":"Polygon","properties":{"state":"OK","name":"CALERA","zip":"74730"}},{"arcs":[[1533,1534,-451,-1532]],"type":"Polygon","properties":{"state":"OK","name":"CARTWRIGHT","zip":"74731"}},{"arcs":[[1535,1536,-1534,-1531]],"type":"Polygon","properties":{"state":"OK","name":"COLBERT","zip":"74733"}},{"arcs":[[1537,1538,-1524,-1516,1539]],"type":"Polygon","properties":{"state":"OK","name":"EAGLETOWN","zip":"74734"}},{"arcs":[[1540,1541,1542,-1442,1543,1544,1545,1546]],"type":"Polygon","properties":{"state":"OK","name":"FORT TOWSON","zip":"74735"}},{"arcs":[[1547,1548,-1527]],"type":"Polygon","properties":{"state":"OK","name":"GARVIN","zip":"74736"}},{"arcs":[[1549,1550,-1547]],"type":"Polygon","properties":{"state":"OK","name":"GRANT","zip":"74738"}},{"arcs":[[1551,-1525,-1539,1552]],"type":"Polygon","properties":{"state":"OK","name":"HAWORTH","zip":"74740"}},{"arcs":[[-1533,-1518,-1511,1553,-1536]],"type":"Polygon","properties":{"state":"OK","name":"HENDRIX","zip":"74741"}},{"arcs":[[1554,-1356,-1436,1555,1556,-1541,-1551,-1522]],"type":"Polygon","properties":{"state":"OK","name":"HUGO","zip":"74743"}},{"arcs":[[1557,1558,-1548,-1526,-1552]],"type":"Polygon","properties":{"state":"OK","name":"IDABEL","zip":"74745"}},{"arcs":[[-1502,-458,-416,-1386,-1530]],"type":"Polygon","properties":{"state":"OK","name":"KENEFIC","zip":"74748"}},{"arcs":[[1559,1560,-1440]],"type":"Polygon","properties":{"state":"OK","name":"RINGOLD","zip":"74754"}},{"arcs":[[-1441,-1561,1561,-1544]],"type":"Polygon","properties":{"state":"OK","name":"RUFE","zip":"74755"}},{"arcs":[[-1557,1562,-1542]],"type":"Polygon","properties":{"state":"OK","name":"SAWYER","zip":"74756"}},{"arcs":[[-1357,-1555,-1521]],"type":"Polygon","properties":{"state":"OK","name":"SOPER","zip":"74759"}},{"arcs":[[-1556,-1443,-1543,-1563]],"type":"Polygon","properties":{"state":"OK","name":"SPENCERVILLE","zip":"74760"}},{"arcs":[[-1559,1563,-1545,-1562,1564,-1528,-1549]],"type":"Polygon","properties":{"state":"OK","name":"VALLIANT","zip":"74764"}},{"arcs":[[-1565,-1560,-1439,-1512,-1529]],"type":"Polygon","properties":{"state":"OK","name":"WRIGHT CITY","zip":"74766"}},{"arcs":[[1565,1566,1567,1568,1569]],"type":"Polygon","properties":{"state":"OK","name":"SHAWNEE","zip":"74801"}},{"arcs":[[1570,1571,1572,1573,1574,-1569]],"type":"Polygon","properties":{"state":"OK","name":"SHAWNEE","zip":"74804"}},{"arcs":[[1575,1576,1577,1578,1579,1580,1581,1582]],"type":"Polygon","properties":{"state":"OK","name":"ADA","zip":"74820"}},{"arcs":[[1583,-1077,-994,-1101,1584]],"type":"Polygon","properties":{"state":"OK","name":"AGRA","zip":"74824"}},{"arcs":[[1585,-1579,1586,1587,-1381,-1389,-1458]],"type":"Polygon","properties":{"state":"OK","name":"ALLEN","zip":"74825"}},{"arcs":[[1588,1589,1590,1591]],"type":"Polygon","properties":{"state":"OK","name":"ASHER","zip":"74826"}},{"arcs":[[-1382,-1588,1592]],"type":"Polygon","properties":{"state":"OK","name":"ATWOOD","zip":"74827"}},{"arcs":[[1593,1594,1595,1596]],"type":"Polygon","properties":{"state":"OK","name":"BOLEY","zip":"74829"}},{"arcs":[[-258,-284,1597,-1577,1598,-261]],"type":"Polygon","properties":{"state":"OK","name":"BYARS","zip":"74831"}},{"arcs":[[1599,-1001,1600,-1595]],"type":"Polygon","properties":{"state":"OK","name":"CASTLE","zip":"74833"}},{"arcs":[[1601,1602,-1585,-1100,1603,1604,1605]],"type":"Polygon","properties":{"state":"OK","name":"CHANDLER","zip":"74834"}},{"arcs":[[1606,1607,1608,1609,-1284,1610,1611]],"type":"Polygon","properties":{"state":"OK","name":"DUSTIN","zip":"74839"}},{"arcs":[[1612,1613,1614,-1566]],"type":"Polygon","properties":{"state":"OK","name":"EARLSBORO","zip":"74840"}},{"arcs":[[1615,1616,1617,-1581]],"type":"Polygon","properties":{"state":"OK","name":"FITTSTOWN","zip":"74842"}},{"arcs":[[1618,-1582,-1618]],"type":"Polygon","properties":{"state":"OK","name":"FITZHUGH","zip":"74843"}},{"arcs":[[-1611,-1288,1619]],"type":"Polygon","properties":{"state":"OK","name":"HANNA","zip":"74845"}},{"arcs":[[1620,1621,1622,1623,1624,-1608]],"type":"Polygon","properties":{"state":"OK","name":"HOLDENVILLE","zip":"74848"}},{"arcs":[[1625,1626,1627,1628,-1589]],"type":"Polygon","properties":{"state":"OK","name":"KONAWA","zip":"74849"}},{"arcs":[[[-1621,-1607,1629]],[[-1353,1630]]],"type":"MultiPolygon","properties":{"state":"OK","name":"LAMAR","zip":"74850"}},{"arcs":[[1631,1632,-174,1633,-1571,-1568]],"type":"Polygon","properties":{"state":"OK","name":"MCLOUD","zip":"74851"}},{"arcs":[[-240,1634,1635,1636,-191]],"type":"Polygon","properties":{"state":"OK","name":"MACOMB","zip":"74852"}},{"arcs":[[1637,-1636,1638,-1614,1639,1640,-1626,-1592]],"type":"Polygon","properties":{"state":"OK","name":"MAUD","zip":"74854"}},{"arcs":[[-173,-197,1641,-1606,1642,1643,-1572,-1634]],"type":"Polygon","properties":{"state":"OK","name":"MEEKER","zip":"74855"}},{"arcs":[[-464,-278,1644,-466,-447,-402]],"type":"Polygon","properties":{"state":"OK","name":"MILL CREEK","zip":"74856"}},{"arcs":[[1645,-117,-390,-104,-175,-1633]],"type":"Polygon","properties":{"state":"OK","name":"NEWALLA","zip":"74857"}},{"arcs":[[1646,1647,1648,-1596,-1601,-940,-1313,-1299]],"type":"Polygon","properties":{"state":"OK","name":"OKEMAH","zip":"74859"}},{"arcs":[[1649,-1002,-1600,-1594,1650,1651,-1574]],"type":"Polygon","properties":{"state":"OK","name":"PADEN","zip":"74860"}},{"arcs":[[1652,-1604,-1102,-1003,-1650,-1573,-1644]],"type":"Polygon","properties":{"state":"OK","name":"PRAGUE","zip":"74864"}},{"arcs":[[-281,1653,-1583,-1619,-1617,1654,-467,-1645]],"type":"Polygon","properties":{"state":"OK","name":"ROFF","zip":"74865"}},{"arcs":[[1655,-1623,1656,-1628]],"type":"Polygon","properties":{"state":"OK","name":"SASAKWA","zip":"74867"}},{"arcs":[[-1570,-1575,-1652,1657,-1640,-1613]],"type":"Polygon","properties":{"state":"OK","name":"SEMINOLE","zip":"74868"}},{"arcs":[[-1605,-1653,-1643]],"type":"Polygon","properties":{"state":"OK","name":"SPARKS","zip":"74869"}},{"arcs":[[-1616,-1580,-1586,-1457,-468,-1655]],"type":"Polygon","properties":{"state":"OK","name":"STONEWALL","zip":"74871"}},{"arcs":[[-291,-262,-1599,-1576,-1654,-280,-137]],"type":"Polygon","properties":{"state":"OK","name":"STRATFORD","zip":"74872"}},{"arcs":[[-1635,-243,-118,-1646,-1632,-1567,-1615,-1639]],"type":"Polygon","properties":{"state":"OK","name":"TECUMSEH","zip":"74873"}},{"arcs":[[-1068,-1584,-1603,1658,-125]],"type":"Polygon","properties":{"state":"OK","name":"TRYON","zip":"74875"}},{"arcs":[[-1637,-1638,-1591,1659,-188]],"type":"Polygon","properties":{"state":"OK","name":"WANETTE","zip":"74878"}},{"arcs":[[-1610,1660,-1647,-1298,-1285]],"type":"Polygon","properties":{"state":"OK","name":"WELEETKA","zip":"74880"}},{"arcs":[[-126,-1659,-1602,-1642,-199]],"type":"Polygon","properties":{"state":"OK","name":"WELLSTON","zip":"74881"}},{"arcs":[[-1625,1661,-1648,-1661,-1609]],"type":"Polygon","properties":{"state":"OK","name":"WETUMKA","zip":"74883"}},{"arcs":[[-1656,-1627,-1641,-1658,-1651,-1597,-1649,-1662,-1624]],"type":"Polygon","properties":{"state":"OK","name":"WEWOKA","zip":"74884"}},{"arcs":[[1662,1663,1664,1665,1666]],"type":"Polygon","properties":{"state":"OK","name":"ARKOMA","zip":"74901"}},{"arcs":[[1667,1668,-1663,1669,1670]],"type":"Polygon","properties":{"state":"OK","name":"POCOLA","zip":"74902"}},{"arcs":[[1671,1672,1673,1674,1675,-1446]],"type":"Polygon","properties":{"state":"OK","name":"BOKOSHE","zip":"74930"}},{"arcs":[[1676,1677,-1276,-1345]],"type":"Polygon","properties":{"state":"OK","name":"BUNCH","zip":"74931"}},{"arcs":[[1678,-1671,1679]],"type":"Polygon","properties":{"state":"OK","name":"CAMERON","zip":"74932"}},{"arcs":[[1680,1681,-1513,-1410,-1452,1682,1683,1684,-1456,1685,1686,1687]],"type":"Polygon","properties":{"state":"OK","name":"HEAVENER","zip":"74937"}},{"arcs":[[1688,-1684]],"type":"Polygon","properties":{"state":"OK","name":"HODGEN","zip":"74939"}},{"arcs":[[1689,1690,-1687]],"type":"Polygon","properties":{"state":"OK","name":"HOWE","zip":"74940"}},{"arcs":[[1691,-1673,1692,-1336,1693,1694]],"type":"Polygon","properties":{"state":"OK","name":"KEOTA","zip":"74941"}},{"arcs":[[-1420,-1337,-1693,-1672,-1445]],"type":"Polygon","properties":{"state":"OK","name":"MCCURTAIN","zip":"74944"}},{"arcs":[[1695,-1695,1696,1697,1698,-1665]],"type":"Polygon","properties":{"state":"OK","name":"MULDROW","zip":"74948"}},{"arcs":[[-1451,-1685,-1689,-1683]],"type":"Polygon","properties":{"state":"OK","name":"MUSE","zip":"74949"}},{"arcs":[[1699,-1675,1700,-1668,-1679,1701,-1688,-1691]],"type":"Polygon","properties":{"state":"OK","name":"POTEAU","zip":"74953"}},{"arcs":[[-1699,1702,1703,1704,-1666]],"type":"Polygon","properties":{"state":"OK","name":"ROLAND","zip":"74954"}},{"arcs":[[-1698,1705,-1277,-1678,1706,-1703]],"type":"Polygon","properties":{"state":"OK","name":"SALLISAW","zip":"74955"}},{"arcs":[[-1682,1707,1708,-1514]],"type":"Polygon","properties":{"state":"OK","name":"SMITHVILLE","zip":"74957"}},{"arcs":[[-1701,-1674,-1692,-1696,-1664,-1669]],"type":"Polygon","properties":{"state":"OK","name":"SPIRO","zip":"74959"}},{"arcs":[[-1344,-1328,1709,1710,-1704,-1707,-1677]],"type":"Polygon","properties":{"state":"OK","name":"STILWELL","zip":"74960"}},{"arcs":[[-1340,-1294,-1251,-1317,-1273,-1706,-1697,-1694,-1335]],"type":"Polygon","properties":{"state":"OK","name":"VIAN","zip":"74962"}},{"arcs":[[1711,-1540,-1515,-1709]],"type":"Polygon","properties":{"state":"OK","name":"WATSON","zip":"74963"}},{"arcs":[[-1320,-1207,-1189,1712,1713,-1342]],"type":"Polygon","properties":{"state":"OK","name":"WATTS","zip":"74964"}},{"arcs":[[1714,-1710,-1330,-1343,-1714]],"type":"Polygon","properties":{"state":"OK","name":"WESTVILLE","zip":"74965"}},{"arcs":[[-1447,-1676,-1700,-1690,-1686,-1455,-1460]],"type":"Polygon","properties":{"state":"OK","name":"WISTER","zip":"74966"}}]}},"arcs":[[[20301,10296],[-112,46]],[[20189,10342],[0,59]],[[20189,10401],[31,119]],[[20220,10520],[131,0]],[[20351,10520],[9,0]],[[20360,10520],[9,-135],[243,46]],[[20612,10431],[0,-89]],[[20612,10342],[-54,-43]],[[20558,10299],[-68,-3]],[[20490,10296],[-81,0]],[[20409,10296],[-108,0]],[[20941,10520],[-5,120]],[[20936,10640],[72,73]],[[21008,10713],[81,0]],[[21089,10713],[0,-15]],[[21089,10698],[0,-104]],[[21089,10594],[-94,-74]],[[20995,10520],[-54,0]],[[21089,11324],[0,15]],[[21089,11339],[0,74]],[[21089,11413],[0,30]],[[21089,11443],[153,16]],[[21242,11459],[-4,-135]],[[21238,11324],[-149,0]],[[21008,10713],[-126,51]],[[20882,10764],[45,112]],[[20927,10876],[162,3]],[[21089,10879],[0,-166]],[[20760,10734],[0,-51]],[[20760,10683],[-108,-74]],[[20652,10609],[-27,0]],[[20625,10609],[-81,74]],[[20544,10683],[14,104]],[[20558,10787],[76,3],[18,163]],[[20652,10953],[108,27]],[[20760,10980],[0,-73]],[[20760,10907],[5,-120]],[[20765,10787],[-5,-53]],[[20625,10609],[0,-89]],[[20625,10520],[-216,0]],[[20409,10520],[36,117]],[[20445,10637],[99,46]],[[21323,11309],[0,22]],[[21323,11331],[0,84]],[[21323,11415],[68,18]],[[21391,11433],[0,-109]],[[21391,11324],[-68,-15]],[[21121,11220],[9,-36]],[[21130,11184],[-41,5]],[[21089,11189],[9,8]],[[21098,11197],[5,23]],[[21103,11220],[18,0]],[[20652,10953],[-112,-16]],[[20540,10937],[-59,0]],[[20481,10937],[-36,31]],[[20445,10968],[0,28]],[[20445,10996],[153,58]],[[20598,11054],[50,0]],[[20648,11054],[85,3]],[[20733,11057],[27,0]],[[20760,11057],[0,-77]],[[21089,10879],[86,-26]],[[21175,10853],[13,-106]],[[21188,10747],[-99,-49]],[[21094,10474],[-99,46]],[[21089,10594],[5,-120]],[[21229,11293],[-41,0]],[[21188,11293],[-40,16]],[[21148,11309],[-59,0]],[[21089,11309],[0,15]],[[21238,11324],[85,7]],[[21323,11309],[-13,-46]],[[21310,11263],[-27,0]],[[21283,11263],[-54,30]],[[20594,11225],[-5,10]],[[20589,11235],[0,163]],[[20589,11398],[0,7]],[[20589,11405],[81,8]],[[20670,11413],[72,0]],[[20742,11413],[-9,-295]],[[20733,11118],[-139,107]],[[20648,11054],[4,99]],[[20652,11153],[90,-50]],[[20742,11103],[-9,-46]],[[20409,10520],[-49,0]],[[20351,10520],[0,247]],[[20351,10767],[-5,201]],[[20346,10968],[99,0]],[[20481,10937],[-36,-300]],[[20760,10683],[0,-163]],[[20760,10520],[-81,0]],[[20679,10520],[-27,89]],[[20936,10640],[-149,-135]],[[20787,10505],[-22,-5]],[[20765,10500],[-5,20]],[[20760,10734],[72,25]],[[20832,10759],[50,5]],[[21404,11054],[-40,61]],[[21364,11115],[-14,51]],[[21350,11166],[0,8]],[[21350,11174],[27,46]],[[21377,11220],[59,-8]],[[21436,11212],[27,-89]],[[21463,11123],[-54,-81]],[[21409,11042],[-5,12]],[[20346,10968],[-81,58]],[[20265,11026],[81,28]],[[20346,11054],[0,-86]],[[20071,11042],[0,45]],[[20071,11087],[0,59]],[[20071,11146],[113,0]],[[20184,11146],[162,0]],[[20346,11146],[0,-92]],[[20265,11026],[-194,16]],[[21296,10836],[14,132]],[[21310,10968],[99,28]],[[21409,10996],[94,-59]],[[21503,10937],[0,-73]],[[21503,10864],[-202,-31]],[[21301,10833],[-5,3]],[[21449,11456],[-58,61]],[[21391,11517],[-23,188]],[[21368,11705],[9,0]],[[21377,11705],[126,-71]],[[21503,11634],[0,-163]],[[21503,11471],[0,-15]],[[21503,11456],[-54,0]],[[21089,11553],[-4,216]],[[21085,11769],[126,-31]],[[21211,11738],[22,-28]],[[21233,11710],[5,-117],[-149,-40]],[[20679,10520],[-54,0]],[[21364,10029],[-27,56]],[[21337,10085],[27,77]],[[21364,10162],[31,0]],[[21395,10162],[104,2],[-41,117],[86,15]],[[21544,10296],[14,0]],[[21558,10296],[27,-269]],[[21585,10027],[-221,2]],[[21242,11459],[81,-44]],[[20882,11054],[-40,-15]],[[20842,11039],[-109,79]],[[20742,11413],[235,0]],[[20977,11413],[0,-150]],[[20977,11263],[-9,-178]],[[20968,11085],[0,-71]],[[20968,11014],[-81,28],[-9,15],[4,-3]],[[20814,11057],[-54,0]],[[20742,11103],[72,-46]],[[20540,10937],[18,-150]],[[20346,11235],[-4,89]],[[20342,11324],[0,107]],[[20342,11431],[139,-196]],[[20481,11235],[-135,0]],[[20355,11413],[117,0]],[[20472,11413],[117,-15]],[[20589,11235],[-22,0]],[[20567,11235],[-122,10],[-90,168]],[[20198,10787],[-14,-178]],[[20184,10609],[-81,0]],[[20103,10609],[-14,178]],[[20089,10787],[0,46]],[[20089,10833],[109,43],[0,-89]],[[20472,11413],[117,-8]],[[21391,11517],[0,-79]],[[21391,11438],[0,-5]],[[21089,11443],[0,31],[0,28],[0,48]],[[21089,11550],[0,3]],[[21233,11710],[104,-30]],[[21337,11680],[31,25]],[[21436,11212],[27,43]],[[21463,11255],[40,8]],[[21503,11263],[59,-79]],[[21562,11184],[-59,-84]],[[21503,11100],[-40,23]],[[20594,11225],[-27,10]],[[20598,11054],[-126,46]],[[20472,11100],[27,135]],[[20499,11235],[68,0]],[[20567,11235],[85,-82]],[[20472,11100],[-27,-104]],[[20346,11146],[0,89]],[[20481,11235],[14,0],[4,0]],[[21377,11220],[-54,0]],[[21323,11220],[-13,15]],[[21310,11235],[0,28]],[[21391,11324],[72,-69]],[[21503,10744],[0,-145]],[[21503,10599],[-144,23],[-36,135]],[[21323,10757],[180,30]],[[21503,10787],[0,-43]],[[21094,10342],[0,132]],[[21089,10594],[104,-23]],[[21193,10571],[63,-186]],[[21256,10385],[-135,-43]],[[21121,10342],[-27,0]],[[21531,11283],[-28,-20]],[[21391,11438],[58,18]],[[21503,11456],[28,-173]],[[20724,10251],[0,30]],[[20724,10281],[0,61]],[[20724,10342],[41,0]],[[20765,10342],[329,0]],[[21121,10342],[-9,-135]],[[21112,10207],[-388,44]],[[21085,11769],[0,94]],[[21085,11863],[72,25]],[[21157,11888],[67,-25]],[[21224,11863],[-22,-64]],[[21202,11799],[9,-61]],[[21193,10571],[85,-28]],[[21278,10543],[72,-23]],[[21350,10520],[-4,-51]],[[21346,10469],[4,-86]],[[21350,10383],[-85,2]],[[21265,10385],[-9,0]],[[20814,11057],[28,-18]],[[20882,11054],[63,-30]],[[20945,11024],[-18,-148]],[[20927,10876],[-167,31]],[[21670,11947],[-27,0]],[[21643,11947],[-112,0]],[[21531,11947],[-68,150]],[[21463,12097],[126,-36]],[[21589,12061],[81,-114]],[[20220,10520],[-36,89]],[[20198,10787],[153,-20]],[[21337,11799],[0,-119]],[[21202,11799],[135,0]],[[20968,11085],[108,30]],[[21076,11115],[13,-30]],[[21089,11085],[0,-43]],[[21089,11042],[0,-34]],[[21089,11008],[-121,6]],[[21202,10886],[0,-30]],[[21202,10856],[-27,-3]],[[21089,10879],[0,129]],[[21089,11008],[113,-122]],[[20941,10520],[-154,-15]],[[21503,10818],[0,-31]],[[21323,10757],[-31,61]],[[21292,10818],[9,15]],[[21503,10864],[0,-46]],[[21278,10879],[-45,89]],[[21233,10968],[36,5]],[[21269,10973],[9,-94]],[[21296,10836],[-18,43]],[[21269,10973],[41,-5]],[[21184,10968],[31,0]],[[21215,10968],[18,0]],[[21292,10818],[-108,150]],[[21256,10841],[-54,15]],[[21202,10886],[54,-45]],[[21337,11858],[0,-59]],[[21224,11863],[32,0]],[[21256,11863],[81,-5]],[[21350,10520],[54,0]],[[21404,10520],[59,0]],[[21463,10520],[-117,-51]],[[21364,10342],[-14,41]],[[21463,10520],[108,0]],[[21571,10520],[-27,-193]],[[21544,10327],[-180,15]],[[21256,11863],[0,69],[0,73],[0,89]],[[21256,12094],[0,46]],[[21256,12140],[135,0]],[[21391,12140],[72,-43]],[[21531,11947],[-55,-89]],[[21476,11858],[-139,0]],[[20977,11413],[112,0]],[[21089,11339],[-112,-76]],[[20832,10759],[-67,28]],[[21188,10747],[122,5]],[[21310,10752],[49,-128]],[[21359,10624],[-81,-81]],[[20765,10342],[0,158]],[[21350,11174],[-27,46]],[[21724,10162],[-58,-178]],[[21666,9984],[-81,43]],[[21558,10296],[108,0]],[[21666,10296],[58,-134]],[[20945,11024],[81,-10],[63,-6]],[[21256,10841],[54,-89]],[[21391,10627],[13,-107]],[[21359,10624],[32,3]],[[20184,11146],[-9,104]],[[20175,11250],[-27,74]],[[20148,11324],[41,0]],[[20189,11324],[153,0]],[[21395,10162],[-31,180]],[[21544,10327],[0,-31]],[[21089,11189],[-27,-43]],[[21062,11146],[14,-31]],[[21089,11309],[0,-31]],[[21089,11278],[0,-28]],[[21089,11250],[9,-30]],[[21098,11220],[0,-23]],[[21215,11158],[0,-15]],[[21215,11143],[-13,0]],[[21202,11143],[0,15]],[[21202,11158],[13,0]],[[21215,11166],[0,-8]],[[21202,11158],[0,23]],[[21202,11181],[13,0]],[[21215,11181],[0,-15]],[[21224,11146],[-9,-3]],[[21215,11166],[14,0]],[[21229,11166],[-5,-20]],[[21229,11235],[0,-69]],[[21215,11181],[0,39]],[[21215,11220],[-4,15]],[[21211,11235],[18,0]],[[21202,11143],[-14,0]],[[21188,11143],[0,38]],[[21188,11181],[14,0]],[[21188,11143],[-45,0]],[[21143,11143],[0,38]],[[21143,11181],[45,0]],[[21143,11115],[0,28]],[[21202,11143],[-9,-28]],[[21193,11115],[-50,0]],[[21193,11085],[0,30]],[[21215,11143],[0,-58]],[[21215,11085],[-22,0]],[[21283,11115],[0,28]],[[21283,11143],[0,23]],[[21283,11166],[40,0]],[[21323,11166],[0,-51]],[[21323,11115],[0,-7]],[[21323,11108],[-40,7]],[[21256,11235],[0,-69]],[[21256,11166],[-27,0]],[[21229,11235],[27,0]],[[21143,11181],[0,39]],[[21143,11220],[45,0]],[[21188,11220],[0,-39]],[[21211,11235],[-18,0]],[[21193,11235],[-5,58]],[[21229,11293],[0,-58]],[[21283,11115],[0,-15]],[[21283,11100],[-27,0]],[[21256,11100],[0,43]],[[21256,11143],[27,0]],[[21215,11220],[-27,0]],[[21143,11220],[0,12]],[[21143,11232],[50,3]],[[21256,11143],[-32,3]],[[21256,11166],[27,8]],[[21283,11174],[0,-8]],[[21193,11085],[-50,5]],[[21143,11090],[0,25]],[[21143,11232],[-9,18]],[[21134,11250],[9,28]],[[21143,11278],[0,18]],[[21143,11296],[45,-3]],[[21256,11235],[27,0]],[[21283,11235],[0,-61]],[[21098,11220],[5,0]],[[21143,11181],[-13,3]],[[21121,11220],[22,0]],[[21143,11143],[-81,3]],[[21143,11115],[-67,0]],[[21256,11100],[0,-15]],[[21256,11085],[-41,0]],[[21364,11115],[-41,0]],[[21323,11166],[27,0]],[[21283,11263],[0,-28]],[[21089,11250],[45,0]],[[21143,11296],[5,13]],[[21256,11054],[0,31]],[[21283,11100],[31,-25]],[[21314,11075],[-4,-21]],[[21310,11054],[-41,0]],[[21269,11054],[-13,0]],[[21215,11042],[-22,0]],[[21193,11042],[0,43]],[[21215,11085],[0,-31]],[[21215,11054],[0,-12]],[[21283,11235],[27,0]],[[21143,11278],[-54,0]],[[21323,11108],[-9,-33]],[[21256,11054],[-41,0]],[[21404,11054],[-94,0]],[[21193,11042],[-32,0]],[[21161,11042],[-31,0]],[[21130,11042],[0,43]],[[21130,11085],[13,5]],[[21215,10968],[0,74]],[[21269,11054],[0,-81]],[[21409,11042],[0,-46]],[[21130,11042],[-41,0]],[[21089,11085],[41,0]],[[21148,10983],[13,59]],[[21184,10968],[-36,15]],[[21148,10983],[-59,25]],[[21427,9714],[-63,188]],[[21364,9902],[-95,23]],[[21269,9925],[0,84]],[[21269,10009],[-9,64]],[[21260,10073],[77,12]],[[21364,10029],[49,-104],[253,5]],[[21666,9930],[0,-68]],[[21666,9862],[0,-44]],[[21666,9818],[-27,-104]],[[21639,9714],[-54,0],[-127,0],[-31,0]],[[21359,9516],[-76,198]],[[21283,9714],[99,0]],[[21382,9714],[27,0]],[[21409,9714],[31,-160]],[[21440,9554],[-85,-61],[4,23]],[[22071,9803],[-104,89]],[[21967,9892],[-31,122]],[[21936,10014],[139,-18]],[[22075,9996],[0,-73]],[[22075,9923],[0,-120]],[[22075,9803],[-4,0]],[[21364,10162],[-149,0]],[[21215,10162],[-40,0]],[[21175,10162],[0,61]],[[21175,10223],[85,0],[5,162]],[[21175,10223],[-63,-16]],[[21269,9925],[-94,0]],[[21175,9925],[0,13]],[[21175,9938],[0,23]],[[21175,9961],[0,73]],[[21175,10034],[94,-25]],[[21175,9821],[0,104]],[[21269,9925],[-94,-104]],[[21769,9572],[95,89]],[[21864,9661],[67,-99],[-108,22],[-9,-104],[-45,92]],[[21359,9516],[-63,-64],[-58,104],[-63,-17]],[[21175,9539],[0,175]],[[21175,9714],[108,0]],[[21175,9938],[-149,2]],[[21026,9940],[0,89]],[[21026,10029],[149,-68]],[[21427,9714],[-18,0]],[[21382,9714],[-18,188]],[[21260,10073],[-45,45]],[[21215,10118],[0,44]],[[21666,9620],[-27,94]],[[21666,9818],[139,0]],[[21805,9818],[86,-5]],[[21891,9813],[45,-53],[22,-43],[-94,-56]],[[21769,9572],[-40,-74],[-5,81],[-36,44],[-22,-3]],[[21823,9854],[-18,-36]],[[21666,9862],[157,-8]],[[21666,9620],[-50,-46],[0,-61]],[[21616,9513],[-167,41]],[[21449,9554],[-9,0]],[[22003,9610],[-22,-18]],[[21981,9592],[-72,51],[58,20]],[[21967,9663],[63,-53]],[[22030,9610],[-27,0]],[[22012,9760],[-54,0]],[[21958,9760],[-36,84]],[[21922,9844],[45,48]],[[22071,9803],[-59,-43]],[[21089,9633],[0,2]],[[21089,9635],[-76,171]],[[21013,9806],[13,134]],[[21175,9821],[0,-107]],[[21175,9539],[-14,2],[-72,92]],[[21666,9984],[0,-54]],[[21616,9513],[-99,-160],[-68,201]],[[21823,9854],[-13,303],[-63,5]],[[21747,10162],[153,0]],[[21900,10162],[90,0]],[[21990,10162],[0,-89]],[[21990,10073],[-54,-59]],[[21922,9844],[-31,-31]],[[22075,10073],[0,-77]],[[21990,10073],[85,0]],[[21175,10034],[0,84]],[[21175,10118],[40,0]],[[21175,10118],[0,44]],[[20724,10251],[0,-89]],[[20724,10162],[-153,-59]],[[20571,10103],[-67,61]],[[20504,10164],[-41,59]],[[20463,10223],[41,43]],[[20504,10266],[220,15]],[[20558,10299],[-54,-3]],[[20504,10296],[-14,0]],[[20463,10223],[-54,73]],[[20504,10296],[0,-30]],[[20612,10342],[112,0]],[[19806,10416],[58,-150]],[[19864,10266],[-130,30]],[[19734,10296],[-9,89]],[[19725,10385],[0,46]],[[19725,10431],[81,-15]],[[19725,10431],[67,46]],[[19792,10477],[14,-61]],[[20468,10164],[-108,-2]],[[20360,10162],[-41,0]],[[20319,10162],[-18,0]],[[20301,10162],[0,134]],[[20504,10164],[-36,0]],[[20360,10075],[-41,-15]],[[20319,10060],[0,102]],[[20360,10162],[0,-87]],[[21026,9940],[-302,0]],[[20724,9940],[0,44]],[[20724,9984],[0,89]],[[20724,10073],[302,-44]],[[20184,9986],[0,-61]],[[20184,9925],[0,-122]],[[20184,9803],[-95,56],[-126,-10],[-72,140]],[[19891,9989],[9,5]],[[19900,9994],[189,-8]],[[20089,9986],[95,0]],[[20427,9940],[-13,-188]],[[20414,9752],[-54,51]],[[20360,9803],[0,153]],[[20360,9956],[67,-16]],[[19743,10274],[-207,-8]],[[19536,10266],[0,119]],[[19536,10385],[189,0]],[[19734,10296],[9,-22]],[[20724,10073],[0,89]],[[19752,10162],[27,-59]],[[19779,10103],[-95,-53],[-99,-23],[-189,135]],[[19396,10162],[140,0]],[[19536,10162],[216,0]],[[20625,10520],[-13,-89]],[[19896,10022],[4,-28]],[[19891,9989],[-112,114]],[[19752,10162],[-9,112]],[[19864,10266],[32,-81]],[[19896,10185],[0,-163]],[[20468,10164],[0,-61]],[[20468,10103],[-108,-28]],[[19896,10022],[157,229]],[[20053,10251],[136,0]],[[20189,10251],[0,-89]],[[20189,10162],[9,-117]],[[20198,10045],[-109,-59]],[[20571,10103],[-103,0]],[[19536,10266],[0,-104]],[[19396,10162],[-86,71]],[[19310,10233],[59,18],[-14,262]],[[19355,10513],[136,10]],[[19491,10523],[45,-138]],[[20184,9925],[135,59]],[[20319,9984],[41,-28]],[[20360,9803],[-50,-8],[-63,-25],[-63,33]],[[19734,10785],[72,-250]],[[19806,10535],[-144,56]],[[19662,10591],[49,196]],[[19711,10787],[23,-2]],[[20724,9836],[0,59]],[[20724,9895],[54,-16],[-54,-43]],[[19792,10477],[72,10]],[[19864,10487],[77,5]],[[19941,10492],[-14,-46]],[[19927,10446],[99,-96]],[[20026,10350],[-54,-54]],[[19972,10296],[-76,-111]],[[19364,10622],[-9,-109]],[[19310,10233],[-31,-15],[-5,124],[0,135],[0,221]],[[19274,10698],[90,0]],[[19364,10698],[0,-13]],[[19364,10685],[0,-63]],[[20198,10045],[-14,-59]],[[20301,10162],[-112,0]],[[20189,10251],[0,91]],[[20319,10060],[0,-76]],[[19491,10523],[-5,89],[-122,10]],[[19364,10685],[298,-94]],[[19806,10535],[58,-48]],[[20189,10342],[-163,8]],[[19927,10446],[262,-45]],[[21026,9577],[-54,40],[117,18]],[[21089,9633],[-63,-56]],[[20427,9940],[104,-15]],[[20531,9925],[94,-147]],[[20625,9778],[-121,-51],[-77,5],[-13,20]],[[19941,10492],[27,89]],[[19968,10581],[135,28]],[[21026,9577],[-139,-59]],[[20887,9518],[-18,56]],[[20869,9574],[-109,89],[-13,71]],[[20747,9734],[266,72]],[[20053,10251],[-81,45]],[[20724,9836],[0,-48]],[[20724,9788],[-22,-28],[-77,18]],[[20531,9925],[193,59]],[[20724,9940],[0,-45]],[[20887,9518],[-36,10],[-5,11],[23,35]],[[20747,9734],[-23,54]],[[20071,11146],[-148,0]],[[19923,11146],[31,208]],[[19954,11354],[90,0]],[[20044,11354],[0,-104],[131,0]],[[20044,11354],[104,-30]],[[20071,11042],[-31,0]],[[20040,11042],[31,45]],[[19936,10998],[-40,-15]],[[19896,10983],[0,74]],[[19896,11057],[40,-59]],[[19923,11146],[-14,0]],[[19909,11146],[-139,0]],[[19770,11146],[-9,119]],[[19761,11265],[0,222]],[[19761,11487],[180,15]],[[19941,11502],[13,-148]],[[19896,10983],[-126,0]],[[19770,10983],[0,163]],[[19909,11146],[-13,-89]],[[19711,10787],[-85,46]],[[19626,10833],[-23,135]],[[19603,10968],[167,0]],[[19770,10968],[0,-74]],[[19770,10894],[4,-107]],[[19774,10787],[-40,-2]],[[19635,11235],[-27,-43]],[[19608,11192],[-113,28],[-54,-117]],[[19441,11103],[-72,127]],[[19369,11230],[90,109],[-36,89]],[[19423,11428],[63,132]],[[19486,11560],[95,-25]],[[19581,11535],[31,-18]],[[19612,11517],[23,-282]],[[20035,10833],[-58,61]],[[19977,10894],[-5,104]],[[19972,10998],[68,44]],[[20089,10833],[-54,0]],[[19423,11428],[-36,0]],[[19387,11428],[22,272]],[[19409,11700],[77,-140]],[[19941,11502],[27,0]],[[19968,11502],[81,0]],[[20049,11502],[99,0]],[[20148,11502],[27,0]],[[20175,11502],[14,-178]],[[19770,10968],[0,15]],[[19936,10998],[36,0]],[[19977,10894],[-207,0]],[[19274,11433],[0,140]],[[19274,11573],[113,122],[13,5],[9,0]],[[19387,11428],[-113,5]],[[19603,10968],[5,224]],[[19635,11235],[126,30]],[[19274,10698],[0,117]],[[19274,10815],[36,165]],[[19310,10980],[144,74]],[[19454,11054],[46,-267]],[[19500,10787],[-136,-89]],[[20342,11548],[0,-46]],[[20342,11502],[-54,0]],[[20288,11502],[-27,30]],[[20261,11532],[81,16]],[[19612,11517],[149,-30]],[[19968,10581],[-59,206]],[[19909,10787],[72,0]],[[19981,10787],[108,0]],[[19581,11535],[157,175],[230,-157]],[[19968,11553],[0,-51]],[[19774,10787],[135,0]],[[20189,11649],[148,16]],[[20337,11665],[0,-59]],[[20337,11606],[5,-58]],[[20261,11532],[-72,117]],[[20049,11502],[13,74],[86,-74]],[[19369,11230],[-95,0]],[[19274,11230],[0,73],[0,130]],[[19981,10787],[54,46]],[[19626,10833],[-126,-46]],[[19454,11054],[-13,49]],[[20337,11761],[0,-96]],[[20189,11649],[-109,102]],[[20080,11751],[-72,33]],[[20008,11784],[0,76]],[[20008,11860],[81,0]],[[20089,11860],[140,0]],[[20229,11860],[108,3]],[[20337,11863],[0,-102]],[[19310,10980],[-36,-5]],[[19274,10975],[0,135],[0,120]],[[19828,11695],[54,0]],[[19882,11695],[126,89]],[[20080,11751],[-103,-196],[-149,140]],[[19968,11553],[135,198],[185,-249]],[[20288,11502],[-113,0]],[[19274,10815],[0,41],[0,119]],[[20288,11502],[54,-71]],[[20342,11502],[0,-69]],[[20342,11433],[-54,69]],[[21031,11993],[-27,0]],[[21004,11993],[-86,28]],[[20918,12021],[0,193]],[[20918,12214],[113,-43]],[[21031,12171],[0,-178]],[[20832,12021],[5,150]],[[20837,12171],[54,58]],[[20891,12229],[27,-15]],[[20918,12021],[-67,-6]],[[20851,12015],[-19,6]],[[20544,12171],[-166,0]],[[20378,12171],[-32,89]],[[20346,12260],[198,-16]],[[20544,12244],[0,-73]],[[20432,12542],[-18,-104]],[[20414,12438],[-126,-16]],[[20288,12422],[-212,31]],[[20076,12453],[-32,267]],[[20044,12720],[9,0],[149,0],[149,0],[85,0]],[[20436,12720],[-4,-178]],[[20670,11863],[-27,33]],[[20643,11896],[-58,86]],[[20585,11982],[85,11]],[[20670,11993],[81,0]],[[20751,11993],[0,-130]],[[20751,11863],[-81,0]],[[20747,12616],[-198,104]],[[20549,12720],[13,0],[171,0],[14,0]],[[20747,12720],[0,-104]],[[21004,11863],[-135,0]],[[20869,11863],[-23,56]],[[20846,11919],[158,-3]],[[21004,11916],[0,-53]],[[20747,12616],[0,-89]],[[20747,12527],[-99,-5]],[[20648,12522],[-95,96],[-121,-76]],[[20436,12720],[113,0]],[[20459,11754],[-9,-148],[-113,0]],[[20337,11761],[122,0]],[[20459,11761],[0,-7]],[[20567,12379],[-23,-135]],[[20346,12260],[0,43]],[[20346,12303],[95,61]],[[20441,12364],[126,15]],[[20837,12171],[-86,0]],[[20751,12171],[0,132]],[[20751,12303],[109,0]],[[20860,12303],[31,0]],[[20891,12303],[0,-74]],[[20657,12379],[-90,0]],[[20441,12364],[-27,74]],[[20648,12522],[9,-143]],[[20481,12076],[-81,31]],[[20400,12107],[-22,64]],[[20544,12171],[-4,-117],[-59,22]],[[21157,11888],[-54,105]],[[21103,11993],[0,101]],[[21103,12094],[153,0]],[[20346,12303],[-58,119]],[[21085,11863],[-81,0]],[[21004,11916],[0,77]],[[21031,11993],[72,0]],[[20900,11644],[-36,28]],[[20864,11672],[86,38],[-50,-66]],[[20751,11993],[0,28]],[[20751,12021],[81,0]],[[20851,12015],[-5,-96]],[[20869,11863],[-118,0]],[[21031,12171],[67,-3]],[[21098,12168],[5,-74]],[[20463,11863],[-126,0]],[[20229,11860],[9,293]],[[20238,12153],[162,-46]],[[20481,12076],[27,-53]],[[20508,12023],[9,-137]],[[20517,11886],[-54,-23]],[[21098,12168],[158,61]],[[21256,12229],[0,-89]],[[20751,12171],[-81,0]],[[20670,12171],[-4,147]],[[20666,12318],[81,0]],[[20747,12318],[4,-15]],[[20670,12171],[-126,0]],[[20657,12379],[9,-61]],[[21044,11578],[-144,66]],[[20864,11672],[-194,173]],[[20670,11845],[0,18]],[[21089,11550],[-45,28]],[[20670,11634],[-117,0],[-45,120]],[[20508,11754],[162,-59]],[[20670,11695],[0,-61]],[[20508,12023],[77,-41]],[[20643,11896],[-126,-10]],[[20747,12527],[0,-209]],[[20670,11695],[0,150]],[[21044,11578],[-374,-91]],[[20670,11487],[0,30],[0,43],[0,74]],[[21031,12303],[0,-132]],[[20891,12303],[140,0]],[[20751,12021],[0,150]],[[20463,11792],[-4,-31]],[[20463,11863],[0,-71]],[[20932,12661],[-185,-45]],[[20747,12720],[113,0],[72,0]],[[20932,12720],[0,-59]],[[20932,12443],[0,84]],[[20932,12527],[0,134]],[[20932,12720],[58,0],[257,0],[4,0]],[[21251,12720],[0,-104]],[[21251,12616],[0,-59]],[[21251,12557],[-67,-76]],[[21184,12481],[-72,0],[0,-120]],[[21112,12361],[-180,82]],[[20670,11993],[0,178]],[[20747,12527],[185,0]],[[20932,12443],[-72,-140]],[[20670,11413],[0,74]],[[20504,11754],[-41,38]],[[20508,11754],[-4,0]],[[21112,12361],[-81,-58]],[[20504,11754],[-45,0]],[[20355,11413],[-13,20]],[[19837,12229],[86,-198]],[[19923,12031],[-342,20]],[[19581,12051],[4,150]],[[19585,12201],[252,28]],[[19274,11573],[0,178],[0,150]],[[19274,11901],[176,46]],[[19450,11947],[63,30]],[[19513,11977],[72,0]],[[19585,11977],[5,-114],[166,0]],[[19756,11863],[0,-155]],[[19756,11708],[-184,-176],[-172,173],[-126,-132]],[[19824,12534],[-5,-229]],[[19819,12305],[-225,-2]],[[19594,12303],[-63,107]],[[19531,12410],[-72,119]],[[19459,12529],[-9,193]],[[19450,12722],[185,-2],[63,0]],[[19698,12720],[126,-186]],[[19806,11698],[76,-3]],[[19828,11695],[-22,3]],[[20089,11860],[0,28]],[[20089,11888],[-4,326]],[[20085,12214],[153,-61]],[[19581,12051],[4,-74]],[[19513,11977],[-86,150]],[[19427,12127],[-27,176]],[[19400,12303],[50,0]],[[19450,12303],[135,0]],[[19585,12303],[0,-102]],[[19585,12303],[9,0]],[[19819,12305],[18,-76]],[[20076,12453],[-41,-79]],[[20035,12374],[-211,160]],[[19698,12720],[49,0],[297,0]],[[19450,11947],[-23,180]],[[19175,12486],[-18,140],[-112,-15]],[[19045,12611],[-14,111]],[[19031,12722],[32,0],[144,0],[67,0]],[[19274,12722],[0,-208]],[[19274,12514],[-99,-28]],[[19175,12486],[-180,18]],[[18995,12504],[50,107]],[[19400,12303],[-126,0],[0,-97]],[[19274,12206],[-252,0]],[[19022,12206],[-13,122]],[[19009,12328],[-14,176]],[[19274,12514],[185,15]],[[19531,12410],[-81,-107]],[[19959,12005],[-36,26]],[[20035,12374],[50,-160]],[[20089,11888],[-130,117]],[[20008,11860],[-126,3]],[[19882,11863],[77,142]],[[19274,12722],[77,0],[99,0]],[[19882,11863],[-126,0]],[[19274,11901],[0,61],[0,244]],[[19806,11698],[-50,10]],[[18531,12206],[0,178]],[[18531,12384],[32,23]],[[18563,12407],[446,-79]],[[19022,12206],[-13,0],[-158,0],[-320,0]],[[18563,12407],[166,135]],[[18729,12542],[266,-38]],[[17523,12280],[4,-71]],[[17527,12209],[-311,0]],[[17216,12209],[-31,132],[-248,33]],[[16937,12374],[0,59]],[[16937,12433],[153,0],[-49,287]],[[17041,12720],[18,0],[446,-5],[13,0]],[[17518,12715],[-108,-69],[113,-366]],[[17216,12209],[-112,0],[-167,0],[0,63],[0,102]],[[18729,12542],[5,178]],[[18734,12720],[49,0],[154,2],[94,0]],[[17973,12206],[0,92],[-252,0],[-27,178]],[[17694,12476],[0,239]],[[17694,12715],[157,0],[153,0]],[[18004,12715],[-4,-364],[99,-145]],[[18099,12206],[-90,0],[-36,0]],[[18216,12206],[-117,0]],[[18004,12715],[59,0],[153,2]],[[18216,12717],[-9,-188],[180,-155]],[[18387,12374],[-171,-168]],[[18387,12374],[144,10]],[[18531,12206],[-103,0],[-212,0]],[[18216,12717],[198,0]],[[18414,12717],[-4,-91],[130,0]],[[18540,12626],[-9,-242]],[[16937,12433],[0,185],[0,102],[104,0]],[[17694,12476],[-144,2],[-27,-198]],[[17518,12715],[167,0],[9,0]],[[17973,12206],[-81,3],[-32,-3],[-270,3],[-63,0]],[[18540,12626],[0,94]],[[18540,12720],[72,0],[122,0]],[[18414,12717],[32,3],[94,0]],[[22391,12262],[0,-107]],[[22391,12155],[-180,-33]],[[22211,12122],[-68,46]],[[22143,12168],[36,135]],[[22179,12303],[90,0]],[[22269,12303],[122,81]],[[22391,12384],[0,-30]],[[22391,12354],[0,-92]],[[22269,12303],[-9,226],[131,64]],[[22391,12593],[0,-18]],[[22391,12575],[36,-74]],[[22427,12501],[-36,-117]],[[22445,12351],[-54,3]],[[22427,12501],[112,0]],[[22539,12501],[0,-30]],[[22539,12471],[0,-133]],[[22539,12338],[-94,13]],[[22674,11593],[-9,-45]],[[22665,11548],[-90,0]],[[22575,11548],[-99,0]],[[22476,11548],[-63,61]],[[22413,11609],[0,58]],[[22413,11667],[14,46]],[[22427,11713],[40,-15]],[[22467,11698],[27,0]],[[22494,11698],[86,-84]],[[22580,11614],[27,-18]],[[22607,11596],[67,-3]],[[22089,11324],[-54,193]],[[22035,11517],[130,89]],[[22165,11606],[-13,-74],[117,33]],[[22269,11565],[0,-17]],[[22269,11548],[-27,-135]],[[22242,11413],[0,-89]],[[22242,11324],[-153,0]],[[22580,11713],[0,-99]],[[22494,11698],[14,15]],[[22508,11713],[72,0]],[[22508,11713],[0,58]],[[22508,11771],[13,0]],[[22521,11771],[59,16]],[[22580,11787],[0,-74]],[[22580,11787],[0,45]],[[22580,11832],[27,0]],[[22607,11832],[67,-45]],[[22674,11787],[-67,-191]],[[22607,11832],[-41,28]],[[22566,11860],[-31,46]],[[22535,11906],[63,46]],[[22598,11952],[103,-26]],[[22701,11926],[23,-152]],[[22724,11774],[-50,13]],[[22710,12209],[-13,23]],[[22697,12232],[22,76]],[[22719,12308],[117,58]],[[22836,12366],[82,-147]],[[22918,12219],[-86,-46]],[[22832,12173],[-122,36]],[[22832,11949],[-5,-12]],[[22827,11937],[-126,-11]],[[22598,11952],[13,99]],[[22611,12051],[99,158]],[[22832,12173],[0,-135]],[[22832,12038],[0,-89]],[[22044,11863],[-63,56]],[[21981,11919],[-90,7]],[[21891,11926],[4,51]],[[21895,11977],[50,41]],[[21945,12018],[94,15]],[[22039,12033],[72,-81]],[[22111,11952],[86,-31]],[[22197,11921],[-36,-61]],[[22161,11860],[-117,3]],[[22454,12031],[0,127]],[[22454,12158],[72,61]],[[22526,12219],[13,-46]],[[22539,12173],[54,-91]],[[22593,12082],[-112,-56]],[[22481,12026],[-27,5]],[[22391,12593],[0,127]],[[22391,12720],[31,0],[108,0]],[[22530,12720],[-31,-99]],[[22499,12621],[-108,-46]],[[21711,11634],[40,69]],[[21751,11703],[32,48]],[[21783,11751],[126,-8]],[[21909,11743],[0,-109]],[[21909,11634],[-158,3]],[[21751,11637],[-40,-3]],[[22539,12501],[0,74]],[[22539,12575],[86,0]],[[22625,12575],[211,30]],[[22836,12605],[0,-63]],[[22836,12542],[0,-115]],[[22836,12427],[-297,44]],[[22089,11324],[-68,0]],[[22021,11324],[-112,0]],[[21909,11324],[0,18]],[[21909,11342],[0,117]],[[21909,11459],[126,58]],[[22499,12621],[40,-46]],[[22220,11659],[-55,-53]],[[21909,11459],[0,175]],[[21909,11743],[0,115]],[[21909,11858],[54,5]],[[21963,11863],[49,0]],[[22012,11863],[27,-165],[145,-16]],[[22184,11682],[36,-23]],[[21756,11881],[-14,-8]],[[21742,11873],[-99,0]],[[21643,11873],[0,74]],[[21670,11947],[86,-66]],[[22413,11609],[-45,28]],[[22368,11637],[14,38]],[[22382,11675],[31,-8]],[[22247,12038],[-127,-15]],[[22120,12023],[-81,10]],[[21945,12018],[27,86]],[[21972,12104],[36,54]],[[22008,12158],[135,10]],[[22211,12122],[36,-84]],[[22827,11937],[0,-166]],[[22827,11771],[-99,0]],[[22728,11771],[-4,3]],[[22382,11675],[-14,35]],[[22368,11710],[45,33]],[[22413,11743],[14,-30]],[[21909,11858],[-18,0]],[[21891,11858],[0,68]],[[21981,11919],[-18,-56]],[[22269,11586],[0,-21]],[[22220,11659],[49,-73]],[[22625,12575],[0,74]],[[22625,12649],[216,12]],[[22841,12661],[-5,-56]],[[22188,11759],[-4,-77]],[[22012,11863],[32,0]],[[22161,11860],[27,-101]],[[21891,11858],[-54,0]],[[21837,11858],[58,119]],[[22269,11586],[99,51]],[[22476,11548],[-207,0]],[[22719,12308],[-180,0]],[[22539,12308],[0,30]],[[22836,12427],[0,-61]],[[22445,12351],[-54,-89]],[[22611,12051],[-18,31]],[[22539,12173],[158,59]],[[22120,12023],[-9,-71]],[[22503,11921],[-49,44]],[[22454,11965],[27,61]],[[22535,11906],[-32,15]],[[22179,12303],[-171,38]],[[22008,12341],[0,33]],[[22008,12374],[-54,109]],[[21954,12483],[117,237]],[[22071,12720],[72,0],[68,0],[108,0],[72,0]],[[21589,12061],[0,138]],[[21589,12199],[18,15]],[[21607,12214],[225,-61]],[[21832,12153],[140,-49]],[[21837,11858],[-81,23]],[[21657,11634],[-154,0]],[[21377,11705],[302,5]],[[21679,11710],[-22,-76]],[[22382,11990],[-45,-43]],[[22337,11947],[-140,-26]],[[22247,12038],[135,-17]],[[22382,12021],[0,-31]],[[22454,12158],[-63,-3]],[[22539,12308],[-13,-89]],[[21711,11634],[-54,0]],[[21679,11710],[72,-7]],[[22337,11835],[-23,-64]],[[22314,11771],[-126,-12]],[[22337,11947],[0,-112]],[[22314,11771],[41,-53]],[[22355,11718],[13,-8]],[[22454,12031],[-72,-10]],[[22625,12649],[31,71]],[[22656,12720],[199,0]],[[22855,12720],[-14,-59]],[[22422,11965],[-31,0]],[[22391,11965],[-9,25]],[[22454,11965],[-18,-13]],[[22436,11952],[-14,13]],[[21476,11858],[68,-36]],[[21544,11822],[14,-5]],[[21558,11817],[4,5]],[[21562,11822],[81,51]],[[21742,11873],[41,-122]],[[21558,11822],[-14,0]],[[21562,11822],[-4,0]],[[21558,11817],[0,5]],[[21864,11352],[-45,30],[-5,28],[-63,92]],[[21751,11502],[0,135]],[[21909,11342],[-45,10]],[[22530,12720],[9,0],[117,0]],[[22008,12158],[0,183]],[[22404,11850],[-9,-5]],[[22395,11845],[-4,15]],[[22391,11860],[9,0]],[[22400,11860],[4,-10]],[[22440,11858],[0,-28]],[[22440,11830],[-22,2]],[[22418,11832],[0,26]],[[22418,11858],[22,0]],[[22404,11771],[0,46]],[[22404,11817],[36,0]],[[22440,11817],[0,-46]],[[22440,11771],[-36,0]],[[22391,11860],[0,59]],[[22391,11919],[27,2]],[[22418,11921],[9,0]],[[22427,11921],[-9,-58]],[[22418,11863],[-18,-3]],[[22355,11771],[-41,0]],[[22337,11835],[54,5]],[[22391,11840],[9,-10]],[[22400,11830],[4,-13]],[[22404,11771],[-49,0]],[[22580,11832],[-59,0]],[[22521,11832],[0,28]],[[22521,11860],[45,0]],[[22418,11858],[0,5]],[[22427,11921],[9,0]],[[22436,11921],[4,-63]],[[22494,11832],[-27,0]],[[22467,11832],[-27,-2]],[[22440,11858],[54,2]],[[22494,11860],[0,-28]],[[22467,11832],[0,-15]],[[22467,11817],[-27,0]],[[22400,11830],[9,0]],[[22409,11830],[9,2]],[[22436,11921],[0,5]],[[22436,11926],[58,-5]],[[22494,11921],[0,-61]],[[22494,11921],[9,0]],[[22521,11860],[-27,0]],[[22436,11926],[0,26]],[[22391,11840],[4,5]],[[22404,11850],[5,-20]],[[22391,11919],[0,46]],[[22422,11965],[-4,-44]],[[22521,11832],[-27,0]],[[22521,11817],[-27,0]],[[22494,11817],[-27,0]],[[22521,11832],[0,-15]],[[22355,11771],[0,-53]],[[22404,11771],[9,-25]],[[22413,11746],[0,-3]],[[22467,11698],[0,43]],[[22467,11741],[0,30]],[[22467,11771],[27,0]],[[22494,11771],[14,0]],[[22521,11771],[0,46]],[[22467,11817],[0,-46]],[[22467,11771],[-27,0]],[[22467,11741],[-31,0],[-9,0],[-14,5]],[[22494,11817],[0,-46]],[[23174,12458],[-4,-239]],[[23170,12219],[-113,0]],[[23057,12219],[-130,163],[76,89]],[[23003,12471],[171,-13]],[[22918,12219],[139,0]],[[23057,12219],[18,-137]],[[23075,12082],[-31,-72]],[[23044,12010],[-212,28]],[[23174,12458],[14,15]],[[23188,12473],[54,0]],[[23242,12473],[4,-117],[68,26]],[[23314,12382],[-18,-122]],[[23296,12260],[-90,-33]],[[23206,12227],[-36,-28]],[[23170,12199],[0,20]],[[22836,12542],[68,18]],[[22904,12560],[99,-89]],[[22904,12560],[257,15]],[[23161,12575],[27,-102]],[[22958,11876],[14,-105]],[[22972,11771],[-145,0]],[[22832,11949],[126,-73]],[[23512,11860],[-135,0]],[[23377,11860],[-32,135]],[[23345,11995],[-36,59]],[[23309,12054],[180,-18]],[[23489,12036],[14,-94],[9,-82]],[[23345,11995],[-90,-10]],[[23255,11985],[-90,-20]],[[23165,11965],[5,139]],[[23170,12104],[0,79]],[[23170,12183],[0,16]],[[23206,12227],[103,-173]],[[23350,12379],[-36,3]],[[23242,12473],[121,41]],[[23363,12514],[-13,-135]],[[23471,12364],[0,-28],[0,-130],[0,-23],[5,-7]],[[23476,12176],[-180,84]],[[23350,12379],[121,-15]],[[23476,12176],[4,-49],[9,-91]],[[23377,11860],[-45,0]],[[23332,11860],[-41,0]],[[23291,11860],[14,16]],[[23305,11876],[-59,35]],[[23246,11911],[9,74]],[[22958,11876],[95,89]],[[23053,11965],[40,7]],[[23093,11972],[27,-112]],[[23120,11860],[-54,-89]],[[23066,11771],[-90,0]],[[22976,11771],[-4,0]],[[23408,12588],[-45,-74]],[[23161,12575],[4,145]],[[23165,12720],[54,0],[41,0]],[[23260,12720],[4,-56],[23,0],[27,0]],[[23314,12664],[94,-76]],[[23291,11860],[-40,0]],[[23251,11860],[0,11]],[[23251,11871],[54,5]],[[23260,12720],[27,0],[18,0],[18,0]],[[23323,12720],[-9,-56]],[[23044,12010],[9,-45]],[[23323,12720],[108,0],[40,0],[0,-20],[0,-72]],[[23471,12628],[-63,-40]],[[23251,11860],[-131,0]],[[23093,11972],[72,-7]],[[23246,11911],[5,-40]],[[23075,12082],[36,25]],[[23111,12107],[59,-3]],[[23111,12107],[59,76]],[[22855,12720],[22,0],[86,0],[85,0],[117,0]],[[23471,12628],[0,-147],[0,-99],[0,-11],[0,-7]],[[22895,11235],[-31,0]],[[22864,11235],[-82,163]],[[22782,11398],[-13,86]],[[22769,11484],[144,20]],[[22913,11504],[-18,-269]],[[22904,11232],[-9,3]],[[22913,11504],[5,0]],[[22918,11504],[31,-2]],[[22949,11502],[122,-49]],[[23071,11453],[0,-53]],[[23071,11400],[-77,-28],[77,-41]],[[23071,11331],[0,-7]],[[23071,11324],[0,-84]],[[23071,11240],[0,-31]],[[23071,11209],[-68,74],[-18,-89]],[[22985,11194],[-81,38]],[[22490,11428],[-248,-15]],[[22476,11548],[14,-120]],[[22683,11293],[-67,0]],[[22616,11293],[0,120]],[[22616,11413],[67,-3]],[[22683,11410],[-4,-12]],[[22679,11398],[4,-105]],[[23071,11400],[0,-69]],[[22629,10777],[-27,79]],[[22602,10856],[104,38],[-77,-117]],[[22904,11232],[0,-117]],[[22904,11115],[-49,-48]],[[22855,11067],[-86,-104],[-95,226]],[[22674,11189],[9,46]],[[22683,11235],[181,0]],[[22580,11075],[-90,-8]],[[22490,11067],[40,76]],[[22530,11143],[185,-53],[-135,-15]],[[23305,11324],[-149,0]],[[23156,11324],[99,129]],[[23255,11453],[68,-28]],[[23323,11425],[0,-101]],[[23323,11324],[-18,0]],[[22530,11169],[0,66]],[[22530,11235],[86,58]],[[22683,11293],[0,-58]],[[22674,11189],[-144,-20]],[[22728,11771],[59,-122]],[[22787,11649],[-113,-56]],[[22409,10935],[0,30]],[[22409,10965],[0,89]],[[22409,11054],[81,13]],[[22580,11075],[85,-11],[90,-122],[-180,-76]],[[22575,10866],[-166,69]],[[23071,11487],[0,-34]],[[22949,11502],[18,0]],[[22967,11502],[104,0]],[[23071,11502],[0,-15]],[[23098,11169],[-27,40]],[[23071,11240],[27,-71]],[[22710,11453],[-27,-43]],[[22616,11413],[-41,135]],[[22665,11548],[45,-95]],[[22409,11054],[-86,5],[0,143]],[[22323,11202],[-40,33]],[[22283,11235],[207,0]],[[22490,11235],[40,0]],[[22530,11169],[0,-26]],[[22963,10955],[-27,13]],[[22936,10968],[13,0]],[[22949,10968],[14,-13]],[[23107,11652],[-36,-150]],[[22967,11502],[9,269]],[[23066,11771],[41,-119]],[[22620,10713],[-112,-73],[-36,178]],[[22472,10818],[130,38]],[[22629,10777],[-9,-64]],[[22490,11235],[0,193]],[[22283,11235],[-41,89]],[[22679,11398],[103,0]],[[23071,11487],[157,76]],[[23228,11563],[27,-110]],[[23156,11324],[-85,0]],[[23332,11802],[-95,-130]],[[23237,11672],[-130,-20]],[[23332,11860],[0,-58]],[[22769,11484],[-59,-31]],[[22787,11649],[131,-145]],[[22904,11115],[81,0]],[[22985,11115],[126,0]],[[23111,11115],[-9,-33],[-18,-18],[-18,-5],[-13,-20],[0,-13],[-23,-15],[-13,-31],[-5,-15],[-67,8],[-36,0],[-54,94]],[[22976,10940],[-27,28]],[[22963,10955],[13,-15]],[[23413,11642],[-81,-49]],[[23332,11593],[0,148]],[[23332,11741],[81,-99]],[[23057,10823],[-45,84]],[[23012,10907],[-13,33]],[[22999,10940],[22,40],[14,23],[40,51],[9,8],[18,23],[5,15],[13,31]],[[23120,11131],[14,7]],[[23134,11138],[85,-63]],[[23219,11075],[-22,-140]],[[23197,10935],[-140,-112]],[[23237,11672],[-9,-109]],[[22985,11194],[0,-79]],[[23098,11169],[36,-31]],[[23120,11131],[-9,-16]],[[23332,11802],[0,-3]],[[23332,11799],[0,-58]],[[23332,11593],[-9,-91]],[[23323,11502],[0,-77]],[[23012,10907],[-36,25]],[[22976,10932],[23,8]],[[22728,10591],[-135,-117]],[[22593,10474],[-81,-58]],[[22512,10416],[-193,58]],[[22319,10474],[4,245]],[[22323,10719],[18,30]],[[22341,10749],[5,5]],[[22346,10754],[126,64]],[[22620,10713],[108,-122]],[[22791,9803],[-108,0]],[[22683,9803],[-81,0]],[[22602,9803],[-112,0]],[[22490,9803],[-5,170]],[[22485,9973],[81,3],[18,186]],[[22584,10162],[59,0]],[[22643,10162],[67,-105]],[[22710,10057],[-31,-66]],[[22679,9991],[0,74],[13,-140]],[[22692,9925],[27,13]],[[22719,9938],[72,-135]],[[22355,9803],[-280,120]],[[22075,10073],[50,-3]],[[22125,10070],[153,5],[41,117]],[[22319,10192],[58,-5]],[[22377,10187],[14,-183]],[[22391,10004],[22,-201]],[[22413,9803],[-13,0]],[[22400,9803],[-36,0]],[[22364,9803],[-9,0]],[[22593,10474],[-9,-89]],[[22584,10385],[-72,0]],[[22512,10385],[0,31]],[[22319,10429],[-126,0]],[[22193,10429],[-46,0]],[[22147,10429],[-72,91]],[[22075,10520],[86,115]],[[22161,10635],[45,7]],[[22206,10642],[-9,-145],[122,-68]],[[22355,9803],[-212,0]],[[22143,9803],[-68,0]],[[22193,10429],[-77,-262]],[[22116,10167],[-14,173]],[[22102,10340],[45,89]],[[22904,10207],[-185,-111]],[[22719,10096],[-9,-39]],[[22643,10162],[4,89]],[[22647,10251],[122,0],[0,91]],[[22769,10342],[212,-2],[-50,-87]],[[22931,10253],[-27,-46]],[[22319,10429],[0,-89]],[[22319,10340],[0,-148]],[[22125,10070],[-9,97]],[[22584,10162],[-18,89]],[[22566,10251],[14,0]],[[22580,10251],[67,0]],[[22814,9976],[-95,-38]],[[22692,9925],[-13,66]],[[22719,10096],[95,-120]],[[22580,10251],[4,134]],[[22728,10591],[5,21]],[[22733,10612],[45,5]],[[22778,10617],[-9,-122]],[[22769,10495],[0,-153]],[[23341,10276],[27,-114]],[[23368,10162],[-216,0]],[[23152,10162],[-18,96]],[[23134,10258],[27,84]],[[23161,10342],[54,0]],[[23215,10342],[4,-15]],[[23219,10327],[122,-51]],[[22900,10729],[-82,241]],[[22818,10970],[77,0],[14,0],[27,-2]],[[22976,10940],[0,-8]],[[23057,10823],[-27,-94]],[[23030,10729],[-108,0]],[[22922,10729],[-22,0]],[[22319,10429],[0,45]],[[22512,10385],[-54,-45]],[[22458,10340],[-139,0]],[[22490,9803],[-77,0]],[[22391,10004],[36,69],[58,-100]],[[23152,10162],[-18,-23]],[[23134,10139],[-234,-33]],[[22900,10106],[4,101]],[[22931,10253],[203,5]],[[22566,10251],[-81,0]],[[22485,10251],[-27,89]],[[22900,10729],[-122,-112]],[[22733,10612],[-68,150],[153,208]],[[22827,9803],[-36,0]],[[22814,9976],[144,89],[-58,41]],[[23134,10139],[0,-191]],[[23134,9948],[0,-25]],[[23134,9923],[-68,-31]],[[23066,9892],[-13,-58]],[[23053,9834],[-153,-31]],[[22900,9803],[-73,0]],[[23003,10563],[-81,166]],[[23030,10729],[198,0]],[[23228,10729],[0,-61]],[[23228,10668],[-103,-166]],[[23125,10502],[-122,61]],[[22377,10187],[108,64]],[[22206,10642],[117,77]],[[23327,10411],[113,-117]],[[23440,10294],[-99,-18]],[[23219,10327],[90,28],[-94,-13]],[[23161,10342],[-36,117]],[[23125,10459],[144,-25]],[[23269,10434],[58,-23]],[[21990,10162],[4,175],[81,3]],[[22075,10340],[27,0]],[[22769,10495],[171,-28],[63,96]],[[23125,10502],[0,-43]],[[21463,12303],[-32,165]],[[21431,12468],[5,104],[54,-30]],[[21490,12542],[72,0]],[[21562,12542],[5,-239]],[[21567,12303],[-100,0]],[[21467,12303],[-4,0]],[[21684,12305],[-117,-2]],[[21562,12542],[81,-15]],[[21643,12527],[59,-61]],[[21702,12466],[67,-102]],[[21769,12364],[-40,-74]],[[21729,12290],[-45,15]],[[21256,12229],[0,74]],[[21256,12303],[135,0]],[[21391,12303],[0,-163]],[[21310,12468],[0,148]],[[21310,12616],[180,-16]],[[21490,12600],[0,-58]],[[21431,12468],[-121,0]],[[21436,12720],[54,-120]],[[21310,12616],[-59,0]],[[21251,12720],[162,0],[23,0]],[[21702,12466],[76,17]],[[21778,12483],[176,0]],[[22008,12374],[-239,-10]],[[21251,12481],[-67,0]],[[21251,12557],[0,-76]],[[21832,12153],[-103,137]],[[21112,12361],[139,-5]],[[21251,12356],[5,-53]],[[21643,12527],[27,193]],[[21670,12720],[81,0],[59,0]],[[21810,12720],[-32,-237]],[[21251,12453],[0,-97]],[[21251,12481],[0,-28]],[[21589,12199],[-122,104]],[[21684,12305],[-77,-91]],[[21310,12468],[-59,-15]],[[21436,12720],[63,0],[171,0]],[[21391,12303],[72,0]],[[21810,12720],[49,0],[68,0],[144,0]],[[22012,9760],[95,-26]],[[22107,9734],[113,-50]],[[22220,9684],[-36,-120]],[[22184,9564],[-154,46]],[[21967,9663],[-9,97]],[[22265,9493],[54,231]],[[22319,9724],[45,79]],[[22400,9803],[45,-226],[135,-66]],[[22580,9511],[-68,-33],[-234,-18]],[[22278,9460],[-13,33]],[[23237,9818],[5,110],[-108,20]],[[23368,10162],[40,0]],[[23408,10162],[32,-64]],[[23440,10098],[-9,-257]],[[23431,9841],[-14,-48]],[[23417,9793],[-180,25]],[[22265,9493],[-68,-23]],[[22197,9470],[-13,94]],[[22220,9684],[99,40]],[[22602,9803],[-27,-224],[95,10]],[[22670,9589],[36,-7]],[[22706,9582],[-126,-71]],[[23417,9793],[86,-201]],[[23503,9592],[-32,-13]],[[23471,9579],[-243,38]],[[23228,9617],[-4,6]],[[23224,9623],[-5,40]],[[23219,9663],[18,155]],[[22107,9734],[36,69]],[[22071,9521],[-54,58]],[[22017,9579],[-14,31]],[[22197,9470],[-126,51]],[[22017,9579],[-41,-119]],[[21976,9460],[-27,-3],[32,135]],[[22071,9521],[-27,-104]],[[22044,9417],[-68,43]],[[23584,9806],[-4,-224]],[[23580,9582],[-77,10]],[[23431,9841],[153,-35]],[[22877,9549],[-4,81]],[[22873,9630],[85,-15],[-72,130]],[[22886,9745],[14,58]],[[23053,9834],[-5,-87]],[[23048,9747],[5,-170]],[[23053,9577],[-122,-59],[-18,0]],[[22913,9518],[-36,31]],[[23228,9617],[-13,-104]],[[23215,9513],[9,110]],[[22913,9518],[-149,10],[-58,54]],[[22706,9582],[171,-33]],[[23408,9320],[63,259]],[[23580,9582],[-5,-107],[-4,-203],[-163,48]],[[22278,9460],[-31,-69],[-95,-41],[-54,11],[-54,56]],[[22670,9589],[13,214]],[[22827,9803],[28,-94]],[[22855,9709],[18,-79]],[[23408,9320],[-40,18],[-135,91],[-36,69]],[[23197,9498],[18,15]],[[23134,9923],[-23,-166]],[[23111,9757],[-45,135]],[[23111,9757],[-63,-10]],[[22855,9709],[31,36]],[[23197,9498],[-144,79]],[[23111,9757],[108,-94]],[[21787,10965],[-36,-58]],[[21751,10907],[-207,58]],[[21544,10965],[18,74]],[[21562,11039],[225,-15]],[[21787,11024],[0,-59]],[[21562,11039],[50,104]],[[21612,11143],[126,0]],[[21738,11143],[166,0]],[[21904,11143],[0,-63]],[[21904,11080],[-117,-56]],[[21666,10340],[0,178]],[[21666,10518],[0,114]],[[21666,10632],[189,-91]],[[21855,10541],[85,-128]],[[21940,10413],[-40,-58]],[[21900,10355],[-99,-8]],[[21801,10347],[-27,-7]],[[21774,10340],[-108,0]],[[21657,11487],[0,147]],[[21751,11502],[-94,-15]],[[22075,10340],[-135,73]],[[21855,10541],[220,50]],[[22075,10591],[0,-71]],[[21787,10683],[0,-117]],[[21787,10566],[-117,66]],[[21670,10632],[-4,51]],[[21666,10683],[121,0]],[[22075,10591],[86,44]],[[21967,11133],[54,132]],[[22021,11265],[41,-96]],[[22062,11169],[-14,-21]],[[22048,11148],[-81,-15]],[[21391,10627],[275,5]],[[21666,10518],[-95,2]],[[22021,11265],[0,59]],[[22089,11324],[40,-166],[-67,11]],[[21643,11278],[14,163]],[[21657,11441],[0,46]],[[21864,11352],[-63,-49]],[[21801,11303],[-63,-25]],[[21738,11278],[-95,0]],[[22386,10833],[-99,10]],[[22287,10843],[-40,18]],[[22247,10861],[49,104]],[[22296,10965],[113,0]],[[22409,10935],[-5,-110]],[[22404,10825],[-18,8]],[[21787,10965],[0,-74]],[[21787,10891],[-40,3]],[[21747,10894],[4,13]],[[21900,10355],[54,-120],[-54,-30]],[[21900,10205],[-90,91]],[[21810,10296],[-9,51]],[[21810,10296],[-36,44]],[[22575,10866],[-171,-41]],[[22287,10843],[5,-160]],[[22292,10683],[-284,-104]],[[22008,10579],[0,104]],[[22008,10683],[40,224]],[[22048,10907],[199,-46]],[[21787,10683],[126,8]],[[21913,10691],[14,-23]],[[21927,10668],[0,-97]],[[21927,10571],[-140,-5]],[[22386,10833],[-94,-150]],[[22341,10749],[5,8],[0,-3]],[[21544,10965],[-41,-15]],[[21503,10950],[0,150]],[[21562,11184],[50,-41]],[[21503,10818],[163,28]],[[21666,10846],[0,-89]],[[21666,10757],[-163,-13]],[[21666,10683],[0,74]],[[21666,10846],[81,48]],[[21787,10891],[113,-30]],[[21900,10861],[13,-170]],[[21531,11283],[112,-5]],[[21738,11278],[13,-15]],[[21751,11263],[-13,-120]],[[21724,10162],[23,0]],[[21503,10950],[0,-13]],[[22323,11202],[-149,-237]],[[22174,10965],[-126,0]],[[22048,10965],[0,183]],[[21904,11143],[5,181]],[[21967,11133],[9,-64]],[[21976,11069],[-72,11]],[[21751,11263],[50,40]],[[21666,10296],[0,44]],[[21900,10205],[0,-43]],[[21927,10668],[81,15]],[[22008,10579],[-81,-8]],[[21976,11069],[-13,-205],[-63,-3]],[[21657,11441],[-45,30],[-27,0],[-82,0]],[[21670,10632],[-167,-33]],[[22296,10965],[-122,0]],[[22048,10907],[0,58]],[[23611,10993],[-22,0]],[[23589,10993],[-23,15]],[[23566,11008],[9,39]],[[23575,11047],[41,12]],[[23616,11059],[0,-15],[0,-38],[-5,-13]],[[23521,10848],[0,33]],[[23521,10881],[68,112]],[[23611,10993],[0,-20],[0,-76],[0,-39]],[[23611,10858],[-90,-10]],[[23228,10729],[0,147]],[[23228,10876],[90,13]],[[23318,10889],[131,-36]],[[23449,10853],[-14,-35],[-9,-36],[18,-25]],[[23444,10757],[-216,-89]],[[23323,11502],[126,-77],[-27,-101]],[[23422,11324],[-99,0]],[[23607,10782],[-86,66]],[[23611,10858],[-4,-76]],[[23602,10637],[0,-35],[0,-46],[0,-61],[-9,-288],[0,-45]],[[23593,10162],[-185,0]],[[23440,10294],[4,79]],[[23444,10373],[100,104],[-140,-92]],[[23404,10385],[-77,26]],[[23269,10434],[72,152]],[[23341,10586],[121,-38],[0,84]],[[23462,10632],[140,5]],[[23444,10373],[-40,12]],[[23341,10586],[99,54]],[[23440,10640],[22,-8]],[[23318,11001],[0,-112]],[[23228,10876],[-31,59]],[[23219,11075],[68,-33]],[[23287,11042],[31,-41]],[[23566,11008],[-248,-7]],[[23287,11042],[18,50]],[[23305,11092],[135,49]],[[23440,11141],[135,-94]],[[23440,10640],[4,117]],[[23449,10853],[72,28]],[[23607,10782],[0,-48],[-5,-97]],[[23440,11141],[22,183]],[[23462,11324],[122,0]],[[23584,11324],[0,-5],[9,-87],[23,-147],[0,-13],[0,-8],[0,-5]],[[23305,11092],[0,232]],[[23422,11324],[40,0]],[[23593,10162],[0,-44]],[[23593,10118],[-153,-20]],[[23413,11642],[135,-44]],[[23548,11598],[9,-63],[9,-84],[18,-127]],[[23593,10118],[-4,-134],[0,-49],[-5,-99],[0,-25],[0,-5]],[[23512,11860],[9,-61],[5,-43]],[[23526,11756],[-194,43]],[[23526,11756],[18,-127],[4,-31]]]}