{"type":"Topology","transform":{"scale":[0.0012831345112129487,0.0009745357309423489],"translate":[-124.73273099999999,24.60334863324381]},"objects":{"area":{"type":"GeometryCollection","geometries":[{"arcs":[[0,1,2,3,4]],"type":"Polygon","properties":{"state":"OR","name":"SIUSLAW NTL FOREST","zip":"00068"}},{"arcs":[[[5,6,7,8,9,10,11,12,13]],[[14,15,16,17,18,19,20]]],"type":"MultiPolygon","properties":{"state":"OR","name":"WILLAMETTE NATIONAL FOR","zip":"00069"}},{"arcs":[[21,22,23,24,25,26,27,28,29,30]],"type":"Polygon","properties":{"state":"OR","name":"MT HOOD NATIONAL FOREST","zip":"00070"}},{"arcs":[[31,32,-11,33,34,35,36,37,38,39,40,41,42,43,44]],"type":"Polygon","properties":{"state":"OR","name":"WILLAMETTE NATL FOREST","zip":"00077"}},{"arcs":[[45,46,47,48,49]],"type":"Polygon","properties":{"state":"OR","name":"ANTELOPE","zip":"97001"}},{"arcs":[[50,51,52,53,54,55]],"type":"Polygon","properties":{"state":"OR","name":"AURORA","zip":"97002"}},{"arcs":[[56,57,58,59]],"type":"Polygon","properties":{"state":"OR","name":"BEAVERCREEK","zip":"97004"}},{"arcs":[[60,61,62,63,64,65]],"type":"Polygon","properties":{"state":"OR","name":"BEAVERTON","zip":"97005"}},{"arcs":[[66,67,68,69,-65]],"type":"Polygon","properties":{"state":"OR","name":"BEAVERTON","zip":"97006"}},{"arcs":[[70,71,72,-67,-64,73,74]],"type":"Polygon","properties":{"state":"OR","name":"BEAVERTON","zip":"97007"}},{"arcs":[[-63,75,-74]],"type":"Polygon","properties":{"state":"OR","name":"BEAVERTON","zip":"97008"}},{"arcs":[[76,77,78,79,80,81,82]],"type":"Polygon","properties":{"state":"OR","name":"BORING","zip":"97009"}},{"arcs":[[83,84,85]],"type":"Polygon","properties":{"state":"OR","name":"BRIGHTWOOD","zip":"97011"}},{"arcs":[[86,-51,87,88,89,90,91,92]],"type":"Polygon","properties":{"state":"OR","name":"CANBY","zip":"97013"}},{"arcs":[[93,94,95]],"type":"Polygon","properties":{"state":"OR","name":"CASCADE LOCKS","zip":"97014"}},{"arcs":[[96,97,98,99,100,101,-78]],"type":"Polygon","properties":{"state":"OR","name":"CLACKAMAS","zip":"97015"}},{"arcs":[[102,103,104,105,106]],"type":"Polygon","properties":{"state":"OR","name":"CLATSKANIE","zip":"97016"}},{"arcs":[[107,108,-60,109,-22]],"type":"Polygon","properties":{"state":"OR","name":"COLTON","zip":"97017"}},{"arcs":[[110,111,112]],"type":"Polygon","properties":{"state":"OR","name":"COLUMBIA CITY","zip":"97018"}},{"arcs":[[113,114,115,-81,116,117,118,-94]],"type":"Polygon","properties":{"state":"OR","name":"CORBETT","zip":"97019"}},{"arcs":[[119,120,121,122,123,124,125]],"type":"Polygon","properties":{"state":"OR","name":"DUFUR","zip":"97021"}},{"arcs":[[126,127,128,-83]],"type":"Polygon","properties":{"state":"OR","name":"EAGLE CREEK","zip":"97022"}},{"arcs":[[129,-128,130,-23,-110,-59]],"type":"Polygon","properties":{"state":"OR","name":"ESTACADA","zip":"97023"}},{"arcs":[[131,132,133,134]],"type":"Polygon","properties":{"state":"OR","name":"FAIRVIEW","zip":"97024"}},{"arcs":[[135,136,137,138,139,140,141]],"type":"Polygon","properties":{"state":"OR","name":"GERVAIS","zip":"97026"}},{"arcs":[[142,143,144,-98]],"type":"Polygon","properties":{"state":"OR","name":"GLADSTONE","zip":"97027"}},{"arcs":[[145,146,-27]],"type":"Polygon","properties":{"state":"OR","name":"GOVERNMENT CAMP","zip":"97028"}},{"arcs":[[147,148,-126,149,150]],"type":"Polygon","properties":{"state":"OR","name":"GRASS VALLEY","zip":"97029"}},{"arcs":[[151,152,153,154,155,-132]],"type":"Polygon","properties":{"state":"OR","name":"GRESHAM","zip":"97030"}},{"arcs":[[-96,156,157,158,159,160,-114]],"type":"Polygon","properties":{"state":"OR","name":"HOOD RIVER","zip":"97031"}},{"arcs":[[161,-52,-87]],"type":"Polygon","properties":{"state":"OR","name":"HUBBARD","zip":"97032"}},{"arcs":[[162,163,-148,164]],"type":"Polygon","properties":{"state":"OR","name":"KENT","zip":"97033"}},{"arcs":[[165,166,167,168,169,170]],"type":"Polygon","properties":{"state":"OR","name":"LAKE OSWEGO","zip":"97034"}},{"arcs":[[171,172,173,174,-166]],"type":"Polygon","properties":{"state":"OR","name":"LAKE OSWEGO","zip":"97035"}},{"arcs":[[175,-29,176,177,-121,178,-49,179]],"type":"Polygon","properties":{"state":"OR","name":"MAUPIN","zip":"97037"}},{"arcs":[[180,181,182,183,-92,184,-108,-31]],"type":"Polygon","properties":{"state":"OR","name":"MOLALLA","zip":"97038"}},{"arcs":[[-151,185,186,187,-165]],"type":"Polygon","properties":{"state":"OR","name":"MORO","zip":"97039"}},{"arcs":[[188,189,-158,190]],"type":"Polygon","properties":{"state":"OR","name":"MOSIER","zip":"97040"}},{"arcs":[[-147,191,-160,192,193,-123,194,-177,-28]],"type":"Polygon","properties":{"state":"OR","name":"MOUNT HOOD PARKDALE","zip":"97041"}},{"arcs":[[-185,-91,195,-57,-109]],"type":"Polygon","properties":{"state":"OR","name":"MULINO","zip":"97042"}},{"arcs":[[196,-193,-159,-190]],"type":"Polygon","properties":{"state":"OR","name":"ODELL","zip":"97044"}},{"arcs":[[-196,-90,197,-143,-97,-77,-129,-130,-58]],"type":"Polygon","properties":{"state":"OR","name":"OREGON CITY","zip":"97045"}},{"arcs":[[198,199,-107,200]],"type":"Polygon","properties":{"state":"OR","name":"RAINIER","zip":"97048"}},{"arcs":[[201,-85,202,-115,-161,-192,-146,-26]],"type":"Polygon","properties":{"state":"OR","name":"RHODODENDRON","zip":"97049"}},{"arcs":[[203,204,-111,205,206]],"type":"Polygon","properties":{"state":"OR","name":"SAINT HELENS","zip":"97051"}},{"arcs":[[207,-199,208,-112,-205]],"type":"Polygon","properties":{"state":"OR","name":"DEER ISLAND","zip":"97054"}},{"arcs":[[209,-24,-131,-127,-82,-116,-203,-84]],"type":"Polygon","properties":{"state":"OR","name":"SANDY","zip":"97055"}},{"arcs":[[210,211,212,-207,213]],"type":"Polygon","properties":{"state":"OR","name":"SCAPPOOSE","zip":"97056"}},{"arcs":[[-120,-149,-164,214,215,-50,-179]],"type":"Polygon","properties":{"state":"OR","name":"SHANIKO","zip":"97057"}},{"arcs":[[-189,216,217,-124,-194,-197]],"type":"Polygon","properties":{"state":"OR","name":"THE DALLES","zip":"97058"}},{"arcs":[[-135,218,-118,219,-152]],"type":"Polygon","properties":{"state":"OR","name":"TROUTDALE","zip":"97060"}},{"arcs":[[220,221,222,223,-172,-171]],"type":"Polygon","properties":{"state":"OR","name":"TUALATIN","zip":"97062"}},{"arcs":[[-195,-122,-178]],"type":"Polygon","properties":{"state":"OR","name":"TYGH VALLEY","zip":"97063"}},{"arcs":[[224,225,226,227,-103,-200,-208,-204,-213]],"type":"Polygon","properties":{"state":"OR","name":"VERNONIA","zip":"97064"}},{"arcs":[[-218,228,229,-186,-150,-125]],"type":"Polygon","properties":{"state":"OR","name":"WASCO","zip":"97065"}},{"arcs":[[-210,-86,-202,-25]],"type":"Polygon","properties":{"state":"OR","name":"WELCHES","zip":"97067"}},{"arcs":[[230,-221,-170,231,-144,-198,-89]],"type":"Polygon","properties":{"state":"OR","name":"WEST LINN","zip":"97068"}},{"arcs":[[232,-222,-231,-88,-56,233]],"type":"Polygon","properties":{"state":"OR","name":"WILSONVILLE","zip":"97070"}},{"arcs":[[234,235,-142,236,-53,-162,-93,-184]],"type":"Polygon","properties":{"state":"OR","name":"WOODBURN","zip":"97071"}},{"arcs":[[237,-153,-220,-117,-80]],"type":"Polygon","properties":{"state":"OR","name":"GRESHAM","zip":"97080"}},{"arcs":[[238,239,240,241,242,243]],"type":"Polygon","properties":{"state":"OR","name":"AMITY","zip":"97101"}},{"arcs":[[244,245,246,-105]],"type":"Polygon","properties":{"state":"OR","name":"ASTORIA","zip":"97103"}},{"arcs":[[247,248,249,250,251]],"type":"Polygon","properties":{"state":"OR","name":"BANKS","zip":"97106"}},{"arcs":[[252,253,254]],"type":"Polygon","properties":{"state":"OR","name":"BEAVER","zip":"97108"}},{"arcs":[[255,-226,256,-252]],"type":"Polygon","properties":{"state":"OR","name":"BUXTON","zip":"97109"}},{"arcs":[[257,258,259,260,261]],"type":"Polygon","properties":{"state":"OR","name":"CARLTON","zip":"97111"}},{"arcs":[[262,263,264,265,266,267,268,269,-254]],"type":"Polygon","properties":{"state":"OR","name":"CLOVERDALE","zip":"97112"}},{"arcs":[[270,-249,271,272,273,274]],"type":"Polygon","properties":{"state":"OR","name":"CORNELIUS","zip":"97113"}},{"arcs":[[275,276,-262,277,278,279,-140,280,-243]],"type":"Polygon","properties":{"state":"OR","name":"DAYTON","zip":"97114"}},{"arcs":[[281,282,-279]],"type":"Polygon","properties":{"state":"OR","name":"DUNDEE","zip":"97115"}},{"arcs":[[-271,283,284,285,286,287,288,-250]],"type":"Polygon","properties":{"state":"OR","name":"FOREST GROVE","zip":"97116"}},{"arcs":[[289,290,-285]],"type":"Polygon","properties":{"state":"OR","name":"GALES CREEK","zip":"97117"}},{"arcs":[[291,292,293,294,-290,-284,-275]],"type":"Polygon","properties":{"state":"OR","name":"GASTON","zip":"97119"}},{"arcs":[[295,296]],"type":"Polygon","properties":{"state":"OR","name":"HAMMOND","zip":"97121"}},{"arcs":[[-253,297,-263]],"type":"Polygon","properties":{"state":"OR","name":"HEBO","zip":"97122"}},{"arcs":[[-274,298,-68,-73,299,300,-292]],"type":"Polygon","properties":{"state":"OR","name":"HILLSBORO","zip":"97123"}},{"arcs":[[301,302,303,-69,-299,-273]],"type":"Polygon","properties":{"state":"OR","name":"HILLSBORO","zip":"97124"}},{"arcs":[[304,-258,-277]],"type":"Polygon","properties":{"state":"OR","name":"LAFAYETTE","zip":"97127"}},{"arcs":[[-242,305,306,-259,-305,-276]],"type":"Polygon","properties":{"state":"OR","name":"MCMINNVILLE","zip":"97128"}},{"arcs":[[307,308,-288,309,310]],"type":"Polygon","properties":{"state":"OR","name":"NEHALEM","zip":"97131"}},{"arcs":[[-278,-261,311,-293,-301,312,-234,-55,313,-282]],"type":"Polygon","properties":{"state":"OR","name":"NEWBERG","zip":"97132"}},{"arcs":[[-257,-225,-212,314,-302,-272,-248]],"type":"Polygon","properties":{"state":"OR","name":"NORTH PLAINS","zip":"97133"}},{"arcs":[[-310,-287,315,316]],"type":"Polygon","properties":{"state":"OR","name":"ROCKAWAY BEACH","zip":"97136"}},{"arcs":[[-141,-280,-283,-314,-54,-237]],"type":"Polygon","properties":{"state":"OR","name":"SAINT PAUL","zip":"97137"}},{"arcs":[[317,-308,318,319,-245,-104,-228]],"type":"Polygon","properties":{"state":"OR","name":"SEASIDE","zip":"97138"}},{"arcs":[[-233,-313,-300,-72,320,-223]],"type":"Polygon","properties":{"state":"OR","name":"SHERWOOD","zip":"97140"}},{"arcs":[[321,-267,322,-316,-286,-291,-295]],"type":"Polygon","properties":{"state":"OR","name":"TILLAMOOK","zip":"97141"}},{"arcs":[[-318,-227,-256,-251,-289,-309]],"type":"Polygon","properties":{"state":"OR","name":"TIMBER","zip":"97144"}},{"arcs":[[-296,323,-246,-320,324]],"type":"Polygon","properties":{"state":"OR","name":"WARRENTON","zip":"97146"}},{"arcs":[[-322,-294,-312,-260,-307,325,-268]],"type":"Polygon","properties":{"state":"OR","name":"YAMHILL","zip":"97148"}},{"arcs":[[326,327,328,329,-265]],"type":"Polygon","properties":{"state":"OR","name":"NESKOWIN","zip":"97149"}},{"arcs":[[330,331,332,333,334,335,336]],"type":"Polygon","properties":{"state":"OR","name":"PORTLAND","zip":"97201"}},{"arcs":[[337,338,339,-336,340]],"type":"Polygon","properties":{"state":"OR","name":"PORTLAND","zip":"97202"}},{"arcs":[[341,342,343,344]],"type":"Polygon","properties":{"state":"OR","name":"PORTLAND","zip":"97203"}},{"arcs":[[345,-334,346,347]],"type":"Polygon","properties":{"state":"OR","name":"PORTLAND","zip":"97204"}},{"arcs":[[-333,348,349,-347]],"type":"Polygon","properties":{"state":"OR","name":"PORTLAND","zip":"97205"}},{"arcs":[[350,351,-338,352]],"type":"Polygon","properties":{"state":"OR","name":"PORTLAND","zip":"97206"}},{"arcs":[[353,-348,-350,354,355]],"type":"Polygon","properties":{"state":"OR","name":"PORTLAND","zip":"97209"}},{"arcs":[[356,357,-343,358,-355,-349,-332,359,360]],"type":"Polygon","properties":{"state":"OR","name":"PORTLAND","zip":"97210"}},{"arcs":[[361,362,363,364,365]],"type":"Polygon","properties":{"state":"OR","name":"PORTLAND","zip":"97211"}},{"arcs":[[366,-363,367,368]],"type":"Polygon","properties":{"state":"OR","name":"PORTLAND","zip":"97212"}},{"arcs":[[369,370,-368,-362,371,372,373]],"type":"Polygon","properties":{"state":"OR","name":"PORTLAND","zip":"97213"}},{"arcs":[[374,-341,-335,-346,375,376,-370]],"type":"Polygon","properties":{"state":"OR","name":"PORTLAND","zip":"97214"}},{"arcs":[[377,-353,-375,-374]],"type":"Polygon","properties":{"state":"OR","name":"PORTLAND","zip":"97215"}},{"arcs":[[378,379,-378,380]],"type":"Polygon","properties":{"state":"OR","name":"PORTLAND","zip":"97216"}},{"arcs":[[-342,381,-364,382,-356,-359]],"type":"Polygon","properties":{"state":"OR","name":"PORTLAND","zip":"97217"}},{"arcs":[[383,-372,-366,384]],"type":"Polygon","properties":{"state":"OR","name":"PORTLAND","zip":"97218"}},{"arcs":[[385,386,-337,-340,387,-167,-175]],"type":"Polygon","properties":{"state":"OR","name":"PORTLAND","zip":"97219"}},{"arcs":[[388,-381,-373,-384,389]],"type":"Polygon","properties":{"state":"OR","name":"PORTLAND","zip":"97220"}},{"arcs":[[-387,390,-360,-331]],"type":"Polygon","properties":{"state":"OR","name":"PORTLAND","zip":"97221"}},{"arcs":[[391,-168,-388,-339,-352,392,-100]],"type":"Polygon","properties":{"state":"OR","name":"PORTLAND","zip":"97222"}},{"arcs":[[-76,-62,393,-386,-174,394,-75]],"type":"Polygon","properties":{"state":"OR","name":"PORTLAND","zip":"97223"}},{"arcs":[[-224,-321,-71,-395,-173]],"type":"Polygon","properties":{"state":"OR","name":"PORTLAND","zip":"97224"}},{"arcs":[[395,-361,-391,-394,-61]],"type":"Polygon","properties":{"state":"OR","name":"PORTLAND","zip":"97225"}},{"arcs":[[396,-376,-354,-383,-367]],"type":"Polygon","properties":{"state":"OR","name":"PORTLAND","zip":"97227"}},{"arcs":[[-396,-66,-70,-304,397,-357]],"type":"Polygon","properties":{"state":"OR","name":"PORTLAND","zip":"97229"}},{"arcs":[[398,-389,399,-133,-156]],"type":"Polygon","properties":{"state":"OR","name":"PORTLAND","zip":"97230"}},{"arcs":[[-398,-303,-315,-211,400,-344,-358]],"type":"Polygon","properties":{"state":"OR","name":"PORTLAND","zip":"97231"}},{"arcs":[[-377,-397,-369,-371]],"type":"Polygon","properties":{"state":"OR","name":"PORTLAND","zip":"97232"}},{"arcs":[[-399,-155,401,-379]],"type":"Polygon","properties":{"state":"OR","name":"PORTLAND","zip":"97233"}},{"arcs":[[402,-402,-154,-238,-79,-102]],"type":"Polygon","properties":{"state":"OR","name":"PORTLAND","zip":"97236"}},{"arcs":[[-393,-351,-380,-403,-101]],"type":"Polygon","properties":{"state":"OR","name":"PORTLAND","zip":"97266"}},{"arcs":[[-169,-392,-99,-145,-232]],"type":"Polygon","properties":{"state":"OR","name":"PORTLAND","zip":"97267"}},{"arcs":[[403,404,405,406,407,408,409,410,411]],"type":"Polygon","properties":{"state":"OR","name":"SALEM","zip":"97301"}},{"arcs":[[412,413,-407,414]],"type":"Polygon","properties":{"state":"OR","name":"SALEM","zip":"97302"}},{"arcs":[[415,-409,416,-138]],"type":"Polygon","properties":{"state":"OR","name":"SALEM","zip":"97303"}},{"arcs":[[417,-244,-281,-139,-417,-408,-414,418]],"type":"Polygon","properties":{"state":"OR","name":"SALEM","zip":"97304"}},{"arcs":[[-137,419,420,-410,-416]],"type":"Polygon","properties":{"state":"OR","name":"SALEM","zip":"97305"}},{"arcs":[[421,-415,-406,422,423]],"type":"Polygon","properties":{"state":"OR","name":"SALEM","zip":"97306"}},{"arcs":[[424,425,426,427,428,429,430,431,432]],"type":"Polygon","properties":{"state":"OR","name":"ALBANY","zip":"97321"}},{"arcs":[[433,434,435,436,437,438,439]],"type":"Polygon","properties":{"state":"OR","name":"ALSEA","zip":"97324"}},{"arcs":[[440,-404,441,442,443]],"type":"Polygon","properties":{"state":"OR","name":"AUMSVILLE","zip":"97325"}},{"arcs":[[444,445,446,447]],"type":"Polygon","properties":{"state":"OR","name":"BLODGETT","zip":"97326"}},{"arcs":[[448,449,450,451,452,453,454]],"type":"Polygon","properties":{"state":"OR","name":"BROWNSVILLE","zip":"97327"}},{"arcs":[[455,456,-426,457]],"type":"Polygon","properties":{"state":"OR","name":"CORVALLIS","zip":"97330"}},{"arcs":[[458,-458,-425,459,460,461,-440]],"type":"Polygon","properties":{"state":"OR","name":"CORVALLIS","zip":"97333"}},{"arcs":[[462,463,464,465,-240,466]],"type":"Polygon","properties":{"state":"OR","name":"DALLAS","zip":"97338"}},{"arcs":[[467,468,469,470]],"type":"Polygon","properties":{"state":"OR","name":"DEPOE BAY","zip":"97341"}},{"arcs":[[471,472,473,474,475,476,-181,-30,-176]],"type":"Polygon","properties":{"state":"OR","name":"DETROIT","zip":"97342"}},{"arcs":[[477,-438,478,479,480,481,-446]],"type":"Polygon","properties":{"state":"OR","name":"EDDYVILLE","zip":"97343"}},{"arcs":[[482,483,484,485,486,487,-465,488,489,-448]],"type":"Polygon","properties":{"state":"OR","name":"FALLS CITY","zip":"97344"}},{"arcs":[[490,491,-38]],"type":"Polygon","properties":{"state":"OR","name":"FOSTER","zip":"97345"}},{"arcs":[[492,-474,493,-42]],"type":"Polygon","properties":{"state":"OR","name":"GATES","zip":"97346"}},{"arcs":[[494,-486,495,-327,-264,-298,-255]],"type":"Polygon","properties":{"state":"OR","name":"GRAND RONDE","zip":"97347"}},{"arcs":[[496,497,-461,498,-452]],"type":"Polygon","properties":{"state":"OR","name":"HALSEY","zip":"97348"}},{"arcs":[[-494,-473,499,-43]],"type":"Polygon","properties":{"state":"OR","name":"IDANHA","zip":"97350"}},{"arcs":[[500,-428,501,-463,502,-419,-413,-422]],"type":"Polygon","properties":{"state":"OR","name":"INDEPENDENCE","zip":"97351"}},{"arcs":[[503,-429,-501,-424,504]],"type":"Polygon","properties":{"state":"OR","name":"JEFFERSON","zip":"97352"}},{"arcs":[[505,-454,506,507,-431,508,-39,-492]],"type":"Polygon","properties":{"state":"OR","name":"LEBANON","zip":"97355"}},{"arcs":[[509,510,-483,-447,-482]],"type":"Polygon","properties":{"state":"OR","name":"LOGSDEN","zip":"97357"}},{"arcs":[[511,512,513,-476,514]],"type":"Polygon","properties":{"state":"OR","name":"LYONS","zip":"97358"}},{"arcs":[[515,-515,-475,-493,-41]],"type":"Polygon","properties":{"state":"OR","name":"MILL CITY","zip":"97360"}},{"arcs":[[516,-489,-464,-502,-427,-457]],"type":"Polygon","properties":{"state":"OR","name":"MONMOUTH","zip":"97361"}},{"arcs":[[517,518,-420,-136,-236]],"type":"Polygon","properties":{"state":"OR","name":"MOUNT ANGEL","zip":"97362"}},{"arcs":[[519,520,-470,521]],"type":"Polygon","properties":{"state":"OR","name":"NEWPORT","zip":"97365"}},{"arcs":[[522,523,524]],"type":"Polygon","properties":{"state":"OR","name":"SOUTH BEACH","zip":"97366"}},{"arcs":[[525,-468,526,527,-328,-496,-485]],"type":"Polygon","properties":{"state":"OR","name":"LINCOLN CITY","zip":"97367"}},{"arcs":[[528,-329,-528]],"type":"Polygon","properties":{"state":"OR","name":"OTIS","zip":"97368"}},{"arcs":[[-439,-478,-445,-490,-517,-456,-459]],"type":"Polygon","properties":{"state":"OR","name":"PHILOMATH","zip":"97370"}},{"arcs":[[-467,-239,-418,-503]],"type":"Polygon","properties":{"state":"OR","name":"RICKREALL","zip":"97371"}},{"arcs":[[-504,529,-444,530,-512,-516,-40,-509,-430]],"type":"Polygon","properties":{"state":"OR","name":"SCIO","zip":"97374"}},{"arcs":[[531,-518,-235,-183]],"type":"Polygon","properties":{"state":"OR","name":"SCOTTS MILLS","zip":"97375"}},{"arcs":[[532,533,-524,534,-480,535]],"type":"Polygon","properties":{"state":"OR","name":"SEAL ROCK","zip":"97376"}},{"arcs":[[-453,-499,-460,-433,536,-507]],"type":"Polygon","properties":{"state":"OR","name":"SHEDD","zip":"97377"}},{"arcs":[[537,-269,-326,-306,-241,-466,-488]],"type":"Polygon","properties":{"state":"OR","name":"SHERIDAN","zip":"97378"}},{"arcs":[[538,-522,-469,-526,-484,-511]],"type":"Polygon","properties":{"state":"OR","name":"SILETZ","zip":"97380"}},{"arcs":[[539,-411,-421,-519,-532,-182,-477,-514,540]],"type":"Polygon","properties":{"state":"OR","name":"SILVERTON","zip":"97381"}},{"arcs":[[541,-541,-513,-531,-443]],"type":"Polygon","properties":{"state":"OR","name":"STAYTON","zip":"97383"}},{"arcs":[[-412,-540,-542,-442]],"type":"Polygon","properties":{"state":"OR","name":"SUBLIMITY","zip":"97385"}},{"arcs":[[542,-455,-506,-491,-37]],"type":"Polygon","properties":{"state":"OR","name":"SWEET HOME","zip":"97386"}},{"arcs":[[-432,-508,-537]],"type":"Polygon","properties":{"state":"OR","name":"TANGENT","zip":"97389"}},{"arcs":[[543,-3,544,545,-536,-479,-437]],"type":"Polygon","properties":{"state":"OR","name":"TIDEWATER","zip":"97390"}},{"arcs":[[-520,-539,-510,-481,-535,-523,546]],"type":"Polygon","properties":{"state":"OR","name":"TOLEDO","zip":"97391"}},{"arcs":[[-505,-423,-405,-441,-530]],"type":"Polygon","properties":{"state":"OR","name":"TURNER","zip":"97392"}},{"arcs":[[547,548,-533,-546]],"type":"Polygon","properties":{"state":"OR","name":"WALDPORT","zip":"97394"}},{"arcs":[[-270,-538,-487,-495]],"type":"Polygon","properties":{"state":"OR","name":"WILLAMINA","zip":"97396"}},{"arcs":[[549,550,551,552,553,554]],"type":"Polygon","properties":{"state":"OR","name":"EUGENE","zip":"97401"}},{"arcs":[[555,556,557,-550,558]],"type":"Polygon","properties":{"state":"OR","name":"EUGENE","zip":"97402"}},{"arcs":[[559,-554,560]],"type":"Polygon","properties":{"state":"OR","name":"EUGENE","zip":"97403"}},{"arcs":[[-558,561,562,-551]],"type":"Polygon","properties":{"state":"OR","name":"EUGENE","zip":"97404"}},{"arcs":[[-555,-560,563,564,565,566,567,568,-559]],"type":"Polygon","properties":{"state":"OR","name":"EUGENE","zip":"97405"}},{"arcs":[[569,570,571,572,573,574,575]],"type":"Polygon","properties":{"state":"OR","name":"AGNESS","zip":"97406"}},{"arcs":[[-563,576,577,578,579,-552]],"type":"Polygon","properties":{"state":"OR","name":"EUGENE","zip":"97408"}},{"arcs":[[580,581,582,583,584,585,586,587]],"type":"Polygon","properties":{"state":"OR","name":"AZALEA","zip":"97410"}},{"arcs":[[588,589,590,591]],"type":"Polygon","properties":{"state":"OR","name":"BANDON","zip":"97411"}},{"arcs":[[592,593,-435,594]],"type":"Polygon","properties":{"state":"OR","name":"BLACHLY","zip":"97412"}},{"arcs":[[595,-34,-10]],"type":"Polygon","properties":{"state":"OR","name":"BLUE RIVER","zip":"97413"}},{"arcs":[[596,597,598,599,-571,600]],"type":"Polygon","properties":{"state":"OR","name":"BROOKINGS","zip":"97415"}},{"arcs":[[601,602,603,604,605]],"type":"Polygon","properties":{"state":"OR","name":"CAMAS VALLEY","zip":"97416"}},{"arcs":[[606,607,608,-583]],"type":"Polygon","properties":{"state":"OR","name":"CANYONVILLE","zip":"97417"}},{"arcs":[[609,610,611]],"type":"Polygon","properties":{"state":"OR","name":"CHESHIRE","zip":"97419"}},{"arcs":[[[612,613]],[[614,615,616,617]]],"type":"MultiPolygon","properties":{"state":"OR","name":"COOS BAY","zip":"97420"}},{"arcs":[[-617,618,-592,619]],"type":"Polygon","properties":{"state":"OR","name":"COQUILLE","zip":"97423"}},{"arcs":[[620,621,622,623,624,625,626,627,-19,628,629]],"type":"Polygon","properties":{"state":"OR","name":"COTTAGE GROVE","zip":"97424"}},{"arcs":[[630,-624,631,-567,632]],"type":"Polygon","properties":{"state":"OR","name":"CRESWELL","zip":"97426"}},{"arcs":[[633,-20,-628,634,-626,635,636]],"type":"Polygon","properties":{"state":"OR","name":"CULP CREEK","zip":"97427"}},{"arcs":[[637,-584,-609,638,639]],"type":"Polygon","properties":{"state":"OR","name":"DAYS CREEK","zip":"97429"}},{"arcs":[[640,641,642,-4,-544,-436,-594,643]],"type":"Polygon","properties":{"state":"OR","name":"DEADWOOD","zip":"97430"}},{"arcs":[[644,-636,-625,-631,645,646]],"type":"Polygon","properties":{"state":"OR","name":"DEXTER","zip":"97431"}},{"arcs":[[-627,-635]],"type":"Polygon","properties":{"state":"OR","name":"DORENA","zip":"97434"}},{"arcs":[[647,648,649,650,651,-622,652,653]],"type":"Polygon","properties":{"state":"OR","name":"DRAIN","zip":"97435"}},{"arcs":[[654,655,656,-648,657]],"type":"Polygon","properties":{"state":"OR","name":"ELKTON","zip":"97436"}},{"arcs":[[658,-610,659,660]],"type":"Polygon","properties":{"state":"OR","name":"ELMIRA","zip":"97437"}},{"arcs":[[661,662,-647,663,664,-6]],"type":"Polygon","properties":{"state":"OR","name":"FALL CREEK","zip":"97438"}},{"arcs":[[665,-2,666,667,668,669,670]],"type":"Polygon","properties":{"state":"OR","name":"FLORENCE","zip":"97439"}},{"arcs":[[-670,671,672]],"type":"Polygon","properties":{"state":"OR","name":"GARDINER","zip":"97441"}},{"arcs":[[673,674,-576,675,-606,676,677,-581]],"type":"Polygon","properties":{"state":"OR","name":"GLENDALE","zip":"97442"}},{"arcs":[[678,679,680,-640,681,682,683,-17,684]],"type":"Polygon","properties":{"state":"OR","name":"GLIDE","zip":"97443"}},{"arcs":[[685,-572,-600,686]],"type":"Polygon","properties":{"state":"OR","name":"GOLD BEACH","zip":"97444"}},{"arcs":[[687,-578,688,689,-497,-451]],"type":"Polygon","properties":{"state":"OR","name":"HARRISBURG","zip":"97446"}},{"arcs":[[690,691,-629,-18,-684]],"type":"Polygon","properties":{"state":"OR","name":"IDLEYLD PARK","zip":"97447"}},{"arcs":[[-557,-660,-612,692,-595,693,-689,-577,-562]],"type":"Polygon","properties":{"state":"OR","name":"JUNCTION CITY","zip":"97448"}},{"arcs":[[694,695]],"type":"Polygon","properties":{"state":"OR","name":"LAKESIDE","zip":"97449"}},{"arcs":[[-590,696,697,698]],"type":"Polygon","properties":{"state":"OR","name":"LANGLOIS","zip":"97450"}},{"arcs":[[699,-568,-632,-623,-652]],"type":"Polygon","properties":{"state":"OR","name":"LORANE","zip":"97451"}},{"arcs":[[700,-637,-645,-663]],"type":"Polygon","properties":{"state":"OR","name":"LOWELL","zip":"97452"}},{"arcs":[[701,702,703,-667,-1,704,-642]],"type":"Polygon","properties":{"state":"OR","name":"MAPLETON","zip":"97453"}},{"arcs":[[705,706,707,-449,-543,-36]],"type":"Polygon","properties":{"state":"OR","name":"MARCOLA","zip":"97454"}},{"arcs":[[-633,-566,708,-664,-646]],"type":"Polygon","properties":{"state":"OR","name":"PLEASANT HILL","zip":"97455"}},{"arcs":[[-462,-498,-690,-694,-434]],"type":"Polygon","properties":{"state":"OR","name":"MONROE","zip":"97456"}},{"arcs":[[-608,709,710,711,-682,-639]],"type":"Polygon","properties":{"state":"OR","name":"MYRTLE CREEK","zip":"97457"}},{"arcs":[[712,713,-697,-589,-619,-616,714,715,-603]],"type":"Polygon","properties":{"state":"OR","name":"MYRTLE POINT","zip":"97458"}},{"arcs":[[716,-715,-615,717,-613,718,719,-695,720,721]],"type":"Polygon","properties":{"state":"OR","name":"NORTH BEND","zip":"97459"}},{"arcs":[[-593,-693,-611,-659,722,723,-644]],"type":"Polygon","properties":{"state":"OR","name":"NOTI","zip":"97461"}},{"arcs":[[724,725,726,727,-658,-654,728]],"type":"Polygon","properties":{"state":"OR","name":"OAKLAND","zip":"97462"}},{"arcs":[[729,-15,730,-13,731]],"type":"Polygon","properties":{"state":"OR","name":"OAKRIDGE","zip":"97463"}},{"arcs":[[732,-573,-686,733]],"type":"Polygon","properties":{"state":"OR","name":"PORT ORFORD","zip":"97465"}},{"arcs":[[-575,734,-713,-602,-676]],"type":"Polygon","properties":{"state":"OR","name":"POWERS","zip":"97466"}},{"arcs":[[-720,735,-672,-669,736,-703,737,-649,-657,738,-655,-728,739,-721,-696]],"type":"Polygon","properties":{"state":"OR","name":"REEDSPORT","zip":"97467"}},{"arcs":[[-678,740,-710,-607,-582]],"type":"Polygon","properties":{"state":"OR","name":"RIDDLE","zip":"97469"}},{"arcs":[[741,-604,-716,-717,742,-726,743,-691,-683,-712]],"type":"Polygon","properties":{"state":"OR","name":"ROSEBURG","zip":"97470"}},{"arcs":[[-656,-739]],"type":"Polygon","properties":{"state":"OR","name":"SCOTTSBURG","zip":"97473"}},{"arcs":[[-574,-733,744,-698,-714,-735]],"type":"Polygon","properties":{"state":"OR","name":"SIXES","zip":"97476"}},{"arcs":[[745,-564,-561,-553,-580]],"type":"Polygon","properties":{"state":"OR","name":"SPRINGFIELD","zip":"97477"}},{"arcs":[[-579,-688,-450,-708,746,-7,-665,-709,-565,-746]],"type":"Polygon","properties":{"state":"OR","name":"SPRINGFIELD","zip":"97478"}},{"arcs":[[-744,-725,747,-630,-692]],"type":"Polygon","properties":{"state":"OR","name":"SUTHERLIN","zip":"97479"}},{"arcs":[[-5,-643,-705]],"type":"Polygon","properties":{"state":"OR","name":"SWISSHOME","zip":"97480"}},{"arcs":[[-681,748,749,750,-585,-638]],"type":"Polygon","properties":{"state":"OR","name":"TILLER","zip":"97484"}},{"arcs":[[-740,-727,-743,-722]],"type":"Polygon","properties":{"state":"OR","name":"UMPQUA","zip":"97486"}},{"arcs":[[751,-723,-661,-556,-569,-700,-651]],"type":"Polygon","properties":{"state":"OR","name":"VENETA","zip":"97487"}},{"arcs":[[752,-706,-35,-596,-9]],"type":"Polygon","properties":{"state":"OR","name":"VIDA","zip":"97488"}},{"arcs":[[-747,-707,-753,-8]],"type":"Polygon","properties":{"state":"OR","name":"WALTERVILLE","zip":"97489"}},{"arcs":[[-702,-641,-724,-752,-650,-738]],"type":"Polygon","properties":{"state":"OR","name":"WALTON","zip":"97490"}},{"arcs":[[-21,-634,-701,-662,-14,-731]],"type":"Polygon","properties":{"state":"OR","name":"WESTFIR","zip":"97492"}},{"arcs":[[-668,-704,-737]],"type":"Polygon","properties":{"state":"OR","name":"WESTLAKE","zip":"97493"}},{"arcs":[[-742,-711,-741,-677,-605]],"type":"Polygon","properties":{"state":"OR","name":"WINSTON","zip":"97496"}},{"arcs":[[753,754,-674,-588]],"type":"Polygon","properties":{"state":"OR","name":"WOLF CREEK","zip":"97497"}},{"arcs":[[-548,-545,-666,755]],"type":"Polygon","properties":{"state":"OR","name":"YACHATS","zip":"97498"}},{"arcs":[[-729,-653,-621,-748]],"type":"Polygon","properties":{"state":"OR","name":"YONCALLA","zip":"97499"}},{"arcs":[[756,757,758,759,760]],"type":"Polygon","properties":{"state":"OR","name":"MEDFORD","zip":"97501"}},{"arcs":[[761,762,763,764,-759,765]],"type":"Polygon","properties":{"state":"OR","name":"CENTRAL POINT","zip":"97502"}},{"arcs":[[766,-763,767,768,769]],"type":"Polygon","properties":{"state":"OR","name":"WHITE CITY","zip":"97503"}},{"arcs":[[770,-760,-765,771,772,773]],"type":"Polygon","properties":{"state":"OR","name":"MEDFORD","zip":"97504"}},{"arcs":[[774,775,776,777,-773,778,779]],"type":"Polygon","properties":{"state":"OR","name":"ASHLAND","zip":"97520"}},{"arcs":[[780,781,782,-780]],"type":"Polygon","properties":{"state":"OR","name":"BUTTE FALLS","zip":"97522"}},{"arcs":[[783,784,-598,785]],"type":"Polygon","properties":{"state":"OR","name":"CAVE JUNCTION","zip":"97523"}},{"arcs":[[-767,786,787,788,789,-781,-779,-772,-764]],"type":"Polygon","properties":{"state":"OR","name":"EAGLE POINT","zip":"97524"}},{"arcs":[[790,791,792,-768,-762]],"type":"Polygon","properties":{"state":"OR","name":"GOLD HILL","zip":"97525"}},{"arcs":[[793,-601,-570,-675,-755,794,795,796]],"type":"Polygon","properties":{"state":"OR","name":"GRANTS PASS","zip":"97526"}},{"arcs":[[797,798,799,800,801,802,-796,803,-792]],"type":"Polygon","properties":{"state":"OR","name":"GRANTS PASS","zip":"97527"}},{"arcs":[[804,-798,-791,-766,-758,805,-777,806]],"type":"Polygon","properties":{"state":"OR","name":"JACKSONVILLE","zip":"97530"}},{"arcs":[[-803,807,-797]],"type":"Polygon","properties":{"state":"OR","name":"MERLIN","zip":"97532"}},{"arcs":[[808,-761,-771]],"type":"Polygon","properties":{"state":"OR","name":"PHOENIX","zip":"97535"}},{"arcs":[[809,-750,810,811,-782,-790]],"type":"Polygon","properties":{"state":"OR","name":"PROSPECT","zip":"97536"}},{"arcs":[[-804,-795,-754,-587,812,-769,-793]],"type":"Polygon","properties":{"state":"OR","name":"ROGUE RIVER","zip":"97537"}},{"arcs":[[-597,-794,-808,-802,813,-800,814,-786]],"type":"Polygon","properties":{"state":"OR","name":"SELMA","zip":"97538"}},{"arcs":[[815,-788]],"type":"Polygon","properties":{"state":"OR","name":"SHADY COVE","zip":"97539"}},{"arcs":[[-757,-809,-774,-778,-806]],"type":"Polygon","properties":{"state":"OR","name":"TALENT","zip":"97540"}},{"arcs":[[-813,-586,-751,-810,-789,-816,-787,-770]],"type":"Polygon","properties":{"state":"OR","name":"TRAIL","zip":"97541"}},{"arcs":[[-801,-814]],"type":"Polygon","properties":{"state":"OR","name":"WILDERVILLE","zip":"97543"}},{"arcs":[[816,-784,-815,-799,-805]],"type":"Polygon","properties":{"state":"OR","name":"WILLIAMS","zip":"97544"}},{"arcs":[[817,818,819,820,821,822]],"type":"Polygon","properties":{"state":"OR","name":"KLAMATH FALLS","zip":"97601"}},{"arcs":[[823,-821,824,825,826,827,828]],"type":"Polygon","properties":{"state":"OR","name":"KLAMATH FALLS","zip":"97603"}},{"arcs":[[829,830,831,832,833]],"type":"Polygon","properties":{"state":"OR","name":"ADEL","zip":"97620"}},{"arcs":[[834,835]],"type":"Polygon","properties":{"state":"OR","name":"BEATTY","zip":"97621"}},{"arcs":[[836,-819,837,-835,838,839,840,841,842,843,-826]],"type":"Polygon","properties":{"state":"OR","name":"BONANZA","zip":"97623"}},{"arcs":[[844,845,846,847,-839,-836,-838,-818,848]],"type":"Polygon","properties":{"state":"OR","name":"CHILOQUIN","zip":"97624"}},{"arcs":[[-820,-837,-825]],"type":"Polygon","properties":{"state":"OR","name":"DAIRY","zip":"97625"}},{"arcs":[[-783,-812,849,-845,850,-822,-824,851,-775]],"type":"Polygon","properties":{"state":"OR","name":"KENO","zip":"97627"}},{"arcs":[[852,853,-833,854,855,-842]],"type":"Polygon","properties":{"state":"OR","name":"LAKEVIEW","zip":"97630"}},{"arcs":[[856,857,-827,-844]],"type":"Polygon","properties":{"state":"OR","name":"MALIN","zip":"97632"}},{"arcs":[[858,-828,-858]],"type":"Polygon","properties":{"state":"OR","name":"MERRILL","zip":"97633"}},{"arcs":[[-832,859,-855]],"type":"Polygon","properties":{"state":"OR","name":"NEW PINE CREEK","zip":"97635"}},{"arcs":[[860,-853,-841,861,862]],"type":"Polygon","properties":{"state":"OR","name":"PAISLEY","zip":"97636"}},{"arcs":[[863,864,865,866,-834,-854,-861],[867]],"type":"Polygon","properties":{"state":"OR","name":"PLUSH","zip":"97637"}},{"arcs":[[868,-864,-863,869,-847,870,871,872,873]],"type":"Polygon","properties":{"state":"OR","name":"SILVER LAKE","zip":"97638"}},{"arcs":[[-840,-848,-870,-862]],"type":"Polygon","properties":{"state":"OR","name":"SUMMER LAKE","zip":"97640"}},{"arcs":[[874,875,876,877,878,879,880]],"type":"Polygon","properties":{"state":"OR","name":"BEND","zip":"97701"}},{"arcs":[[881,882,-877,883]],"type":"Polygon","properties":{"state":"OR","name":"BEND","zip":"97702"}},{"arcs":[[884,-882]],"type":"Polygon","properties":{"state":"OR","name":"BEND","zip":"97707"}},{"arcs":[[885,886,-830,-867,887,888]],"type":"Polygon","properties":{"state":"OR","name":"FIELDS","zip":"97710"}},{"arcs":[[889,890,-47,891,892]],"type":"Polygon","properties":{"state":"OR","name":"ASHWOOD","zip":"97711"}},{"arcs":[[893,894,895,896,-874]],"type":"Polygon","properties":{"state":"OR","name":"BROTHERS","zip":"97712"}},{"arcs":[[897,898,899,900,901,902]],"type":"Polygon","properties":{"state":"OR","name":"BURNS","zip":"97720"}},{"arcs":[[903,-889,904,905,-902]],"type":"Polygon","properties":{"state":"OR","name":"PRINCETON","zip":"97721"}},{"arcs":[[906,-45,907,908,909]],"type":"Polygon","properties":{"state":"OR","name":"CAMP SHERMAN","zip":"97730"}},{"arcs":[[-749,-680,910,-871,-846,-850,-811]],"type":"Polygon","properties":{"state":"OR","name":"CHEMULT","zip":"97731"}},{"arcs":[[911,912,-685,-16,-730,913]],"type":"Polygon","properties":{"state":"OR","name":"CRESCENT","zip":"97733"}},{"arcs":[[914,-909,915,916,917]],"type":"Polygon","properties":{"state":"OR","name":"CULVER","zip":"97734"}},{"arcs":[[918,-912,919,-894,-873]],"type":"Polygon","properties":{"state":"OR","name":"FORT ROCK","zip":"97735"}},{"arcs":[[-913,-919,-872,-911,-679]],"type":"Polygon","properties":{"state":"OR","name":"GILCHRIST","zip":"97737"}},{"arcs":[[-888,-866,920,921,922,923,-898,-905]],"type":"Polygon","properties":{"state":"OR","name":"HINES","zip":"97738"}},{"arcs":[[-884,-876,924,925,-895,-920,-914,-732,-12,-33,926,-878,-883,-885]],"type":"Polygon","properties":{"state":"OR","name":"LA PINE","zip":"97739"}},{"arcs":[[927,-917,928,-48,-891]],"type":"Polygon","properties":{"state":"OR","name":"MADRAS","zip":"97741"}},{"arcs":[[929,930,931,932,-893,933,934]],"type":"Polygon","properties":{"state":"OR","name":"MITCHELL","zip":"97750"}},{"arcs":[[935,936,-932,937,-923]],"type":"Polygon","properties":{"state":"OR","name":"PAULINA","zip":"97751"}},{"arcs":[[938,-896,-926,939,-936,-922]],"type":"Polygon","properties":{"state":"OR","name":"POST","zip":"97752"}},{"arcs":[[940,941,-881]],"type":"Polygon","properties":{"state":"OR","name":"POWELL BUTTE","zip":"97753"}},{"arcs":[[942,943,-918,-928,-890,-933,-937,-940,-925,-875,-942]],"type":"Polygon","properties":{"state":"OR","name":"PRINEVILLE","zip":"97754"}},{"arcs":[[-880,944,945,-943,-941]],"type":"Polygon","properties":{"state":"OR","name":"REDMOND","zip":"97756"}},{"arcs":[[-865,-869,-897,-939,-921]],"type":"Polygon","properties":{"state":"OR","name":"RILEY","zip":"97758"}},{"arcs":[[-907,946,-945,-879,-927,-32]],"type":"Polygon","properties":{"state":"OR","name":"SISTERS","zip":"97759"}},{"arcs":[[-946,-947,-910,-915,-944]],"type":"Polygon","properties":{"state":"OR","name":"TERREBONNE","zip":"97760"}},{"arcs":[[-916,-908,-44,-500,-472,-180,-929]],"type":"Polygon","properties":{"state":"OR","name":"WARM SPRINGS","zip":"97761"}},{"arcs":[[947,948,949,950,951,952,953,954,955,956,957,958,959,960]],"type":"Polygon","properties":{"state":"OR","name":"PENDLETON","zip":"97801"}},{"arcs":[[961,-955,962,963]],"type":"Polygon","properties":{"state":"OR","name":"ADAMS","zip":"97810"}},{"arcs":[[-230,964,965,966,967,968,-187]],"type":"Polygon","properties":{"state":"OR","name":"ARLINGTON","zip":"97812"}},{"arcs":[[969,-964,970,971,972]],"type":"Polygon","properties":{"state":"OR","name":"ATHENA","zip":"97813"}},{"arcs":[[973,974,975,976,977,978,979]],"type":"Polygon","properties":{"state":"OR","name":"BAKER CITY","zip":"97814"}},{"arcs":[[980,981,-966,982]],"type":"Polygon","properties":{"state":"OR","name":"BOARDMAN","zip":"97818"}},{"arcs":[[-163,-188,-969,983,984,985,-215]],"type":"Polygon","properties":{"state":"OR","name":"CONDON","zip":"97823"}},{"arcs":[[986,987,988]],"type":"Polygon","properties":{"state":"OR","name":"COVE","zip":"97824"}},{"arcs":[[989,-951]],"type":"Polygon","properties":{"state":"OR","name":"ECHO","zip":"97826"}},{"arcs":[[990,-957,991,992,993,994,995,996]],"type":"Polygon","properties":{"state":"OR","name":"ELGIN","zip":"97827"}},{"arcs":[[997,998,999,-994,1000,1001,1002,1003,1004]],"type":"Polygon","properties":{"state":"OR","name":"ENTERPRISE","zip":"97828"}},{"arcs":[[1005,-934,-892,-46,-216,-986,1006,1007]],"type":"Polygon","properties":{"state":"OR","name":"FOSSIL","zip":"97830"}},{"arcs":[[1008,1009,1010,1011]],"type":"Polygon","properties":{"state":"OR","name":"FOX","zip":"97831"}},{"arcs":[[1012,1013,1014,1015,1016,-975]],"type":"Polygon","properties":{"state":"OR","name":"HAINES","zip":"97833"}},{"arcs":[[1017,1018,1019,-977,1020,1021,1022]],"type":"Polygon","properties":{"state":"OR","name":"HALFWAY","zip":"97834"}},{"arcs":[[-963,-954,1023,1024,1025,-971]],"type":"Polygon","properties":{"state":"OR","name":"HELIX","zip":"97835"}},{"arcs":[[-985,1026,1027,-961,1028,1029,1030,1031,-1007]],"type":"Polygon","properties":{"state":"OR","name":"HEPPNER","zip":"97836"}},{"arcs":[[1032,1033,1034,1035,1036,-980,1037]],"type":"Polygon","properties":{"state":"OR","name":"HEREFORD","zip":"97837"}},{"arcs":[[1038,-949,1039,1040,1041,-1024,-953]],"type":"Polygon","properties":{"state":"OR","name":"HERMISTON","zip":"97838"}},{"arcs":[[-968,1042,-1027,-984]],"type":"Polygon","properties":{"state":"OR","name":"LEXINGTON","zip":"97839"}},{"arcs":[[1043,1044,-1018]],"type":"Polygon","properties":{"state":"OR","name":"OXBOW","zip":"97840"}},{"arcs":[[1045,-989,1046,1047,-997]],"type":"Polygon","properties":{"state":"OR","name":"IMBLER","zip":"97841"}},{"arcs":[[1048,-1044,-1023,1049,-1003]],"type":"Polygon","properties":{"state":"OR","name":"IMNAHA","zip":"97842"}},{"arcs":[[-982,1050,-1040,-948,-1028,-1043,-967]],"type":"Polygon","properties":{"state":"OR","name":"IONE","zip":"97843"}},{"arcs":[[1051,-1041,-1051,-981,1052]],"type":"Polygon","properties":{"state":"OR","name":"IRRIGON","zip":"97844"}},{"arcs":[[1053,-930,1054,-1010,1055,1056]],"type":"Polygon","properties":{"state":"OR","name":"JOHN DAY","zip":"97845"}},{"arcs":[[-1022,1057,-1004,-1050]],"type":"Polygon","properties":{"state":"OR","name":"JOSEPH","zip":"97846"}},{"arcs":[[-1055,-935,1058,-1011]],"type":"Polygon","properties":{"state":"OR","name":"KIMBERLY","zip":"97848"}},{"arcs":[[1059,-959,1060,-1047,-988,1061,1062,-1015,1063]],"type":"Polygon","properties":{"state":"OR","name":"LA GRANDE","zip":"97850"}},{"arcs":[[1064,-1056,-1009,1065,-1030,1066,1067]],"type":"Polygon","properties":{"state":"OR","name":"LONG CREEK","zip":"97856"}},{"arcs":[[1068,-999]],"type":"Polygon","properties":{"state":"OR","name":"LOSTINE","zip":"97857"}},{"arcs":[[1069,-973,1070,-1001,-993]],"type":"Polygon","properties":{"state":"OR","name":"MILTON FREEWATER","zip":"97862"}},{"arcs":[[-1006,1071,-1031,-1066,-1012,-1059]],"type":"Polygon","properties":{"state":"OR","name":"MONUMENT","zip":"97864"}},{"arcs":[[-1063,1072,-1016]],"type":"Polygon","properties":{"state":"OR","name":"NORTH POWDER","zip":"97867"}},{"arcs":[[1073,1074,-1067,-1029,-960,-1060]],"type":"Polygon","properties":{"state":"OR","name":"PILOT ROCK","zip":"97868"}},{"arcs":[[-1065,1075,-1074,-1064,-1014,1076,-1036,1077,1078,1079,1080,-1057]],"type":"Polygon","properties":{"state":"OR","name":"PRAIRIE CITY","zip":"97869"}},{"arcs":[[1081,-978,-1020,1082]],"type":"Polygon","properties":{"state":"OR","name":"RICHLAND","zip":"97870"}},{"arcs":[[-1075,-1076,-1068]],"type":"Polygon","properties":{"state":"OR","name":"RITTER","zip":"97872"}},{"arcs":[[1083,-899,-924,-938,-931,-1054,-1081]],"type":"Polygon","properties":{"state":"OR","name":"SENECA","zip":"97873"}},{"arcs":[[-1032,-1072,-1008]],"type":"Polygon","properties":{"state":"OR","name":"SPRAY","zip":"97874"}},{"arcs":[[-990,-950,-1039,-952]],"type":"Polygon","properties":{"state":"OR","name":"STANFIELD","zip":"97875"}},{"arcs":[[-991,-1048,-1061,-958]],"type":"Polygon","properties":{"state":"OR","name":"SUMMERVILLE","zip":"97876"}},{"arcs":[[-1077,-1013,-974,-1037]],"type":"Polygon","properties":{"state":"OR","name":"SUMPTER","zip":"97877"}},{"arcs":[[1084,-1025,-1042,-1052,1085]],"type":"Polygon","properties":{"state":"OR","name":"UMATILLA","zip":"97882"}},{"arcs":[[-976,-1017,-1073,-1062,-987,-1046,-996,1086,-1005,-1058,-1021]],"type":"Polygon","properties":{"state":"OR","name":"UNION","zip":"97883"}},{"arcs":[[1087,-1078,-1035]],"type":"Polygon","properties":{"state":"OR","name":"UNITY","zip":"97884"}},{"arcs":[[-1087,-995,-1000,-1069,-998]],"type":"Polygon","properties":{"state":"OR","name":"WALLOWA","zip":"97885"}},{"arcs":[[-956,-962,-970,-1070,-992]],"type":"Polygon","properties":{"state":"OR","name":"WESTON","zip":"97886"}},{"arcs":[[1088,1089,1090,1091,1092]],"type":"Polygon","properties":{"state":"OR","name":"ADRIAN","zip":"97901"}},{"arcs":[[1093,1094,-1033,1095,1096,1097]],"type":"Polygon","properties":{"state":"OR","name":"BROGAN","zip":"97903"}},{"arcs":[[1098,1099,-900,-1084,-1080,1100]],"type":"Polygon","properties":{"state":"OR","name":"DREWSEY","zip":"97904"}},{"arcs":[[1101,-1090,1102,1103,1104,-1098,1105]],"type":"Polygon","properties":{"state":"OR","name":"HARPER","zip":"97906"}},{"arcs":[[-1038,-979,-1082,1106,1107,-1096]],"type":"Polygon","properties":{"state":"OR","name":"HUNTINGTON","zip":"97907"}},{"arcs":[[1108,1109,-1101,-1079,-1088,-1034,-1095]],"type":"Polygon","properties":{"state":"OR","name":"IRONSIDE","zip":"97908"}},{"arcs":[[1110,-886,-904,1111,-1093]],"type":"Polygon","properties":{"state":"OR","name":"JORDAN VALLEY","zip":"97910"}},{"arcs":[[1112,-1099,-1110,1113,-1104]],"type":"Polygon","properties":{"state":"OR","name":"JUNTURA","zip":"97911"}},{"arcs":[[1114,1115,1116,-1091,-1102]],"type":"Polygon","properties":{"state":"OR","name":"NYSSA","zip":"97913"}},{"arcs":[[1117,1118,-1116]],"type":"Polygon","properties":{"state":"OR","name":"ONTARIO","zip":"97914"}},{"arcs":[[-1112,-901,-1100,-1113,-1103,-1089]],"type":"Polygon","properties":{"state":"OR","name":"RIVERSIDE","zip":"97917"}},{"arcs":[[-1115,-1106,-1097,-1108,1119,-1118]],"type":"Polygon","properties":{"state":"OR","name":"VALE","zip":"97918"}},{"arcs":[[-1114,-1109,-1094,-1105]],"type":"Polygon","properties":{"state":"OR","name":"WESTFALL","zip":"97920"}}]}},"arcs":[[[644,19977],[-41,0]],[[603,19977],[0,212]],[[603,20189],[122,5]],[[725,20194],[-117,-100],[49,-61]],[[657,20033],[-13,-56]],[[1752,19736],[-104,66],[-4,163]],[[1644,19965],[9,43]],[[1653,20008],[18,0]],[[1671,20008],[189,53]],[[1860,20061],[234,-91],[-49,114],[229,84]],[[2274,20168],[14,0]],[[2288,20168],[27,-173],[-167,-239]],[[2148,19756],[-76,18],[9,-193],[-221,170],[-90,-63]],[[1770,19688],[-18,48]],[[1788,19583],[234,-229]],[[2022,19354],[5,-25]],[[2027,19329],[-473,33]],[[1554,19362],[0,53]],[[1554,19415],[-5,64]],[[1549,19479],[140,99]],[[1689,19578],[99,5]],[[1932,21000],[0,140]],[[1932,21140],[113,96]],[[2045,21236],[126,15]],[[2171,21251],[4,31]],[[2175,21282],[23,-18]],[[2198,21264],[175,-41]],[[2373,21223],[-9,-30]],[[2364,21193],[41,-175],[-113,-74],[45,-130]],[[2337,20814],[-423,0]],[[1914,20814],[18,186]],[[2252,20305],[27,-134]],[[2279,20171],[9,-3]],[[2274,20168],[-401,-28]],[[1873,20140],[-193,-2]],[[1680,20138],[-54,40]],[[1626,20178],[117,87]],[[1743,20265],[13,46],[-4,38],[-108,25]],[[1644,20374],[-86,102],[81,25]],[[1639,20501],[81,69]],[[1720,20570],[144,5]],[[1864,20575],[212,0]],[[2076,20575],[216,31]],[[2292,20606],[-4,-39]],[[2288,20567],[-36,-262]],[[3323,20842],[77,-97]],[[3400,20745],[-423,3]],[[2977,20748],[-140,0]],[[2837,20748],[77,186]],[[2914,20934],[409,-92]],[[1572,21239],[-9,-112]],[[1563,21127],[-104,-5]],[[1459,21122],[-22,15]],[[1437,21137],[4,56]],[[1441,21193],[27,3]],[[1468,21196],[104,43]],[[1765,21122],[-40,61]],[[1725,21183],[76,53]],[[1801,21236],[41,-74]],[[1842,21162],[-77,-40]],[[1504,21460],[23,-41]],[[1527,21419],[0,-5]],[[1527,21414],[-41,5]],[[1486,21419],[0,13]],[[1486,21432],[9,31]],[[1495,21463],[9,-3]],[[1486,21432],[-67,8]],[[1419,21440],[9,17]],[[1428,21457],[27,28]],[[1455,21485],[40,-22]],[[1468,21363],[-4,3]],[[1464,21366],[-50,-10]],[[1414,21356],[5,84]],[[1486,21419],[9,-38]],[[1495,21381],[-27,-18]],[[1527,21414],[-32,-33]],[[1819,21320],[-27,10]],[[1792,21330],[-49,46]],[[1743,21376],[31,15]],[[1774,21391],[144,13]],[[1918,21404],[23,-10]],[[1941,21394],[-54,-79]],[[1887,21315],[-68,5]],[[2148,21277],[-31,46]],[[2117,21323],[36,-33]],[[2153,21290],[-5,-13]],[[1567,21079],[-4,48]],[[1572,21239],[18,0]],[[1590,21239],[27,-5]],[[1617,21234],[67,-38]],[[1684,21196],[-9,-62]],[[1675,21134],[-94,-66]],[[1581,21068],[-14,11]],[[2225,21457],[-126,97]],[[2099,21554],[76,36],[234,58]],[[2409,21648],[-184,-191]],[[1792,21330],[-108,-2]],[[1684,21328],[0,10]],[[1684,21338],[-4,28]],[[1680,21366],[0,8]],[[1680,21374],[31,12]],[[1711,21386],[32,-10]],[[1279,21900],[-207,-59]],[[1072,21841],[-135,156]],[[937,21997],[58,175]],[[995,22172],[279,-46]],[[1274,22126],[5,-226]],[[1932,21000],[-180,104]],[[1752,21104],[13,18]],[[1842,21162],[90,-22]],[[1500,21839],[-9,8]],[[1491,21847],[4,15]],[[1495,21862],[5,-23]],[[2225,21457],[45,-53]],[[2270,21404],[-158,0]],[[2112,21404],[-171,-10]],[[1918,21404],[-31,38]],[[1887,21442],[13,43]],[[1900,21485],[127,39],[22,2],[50,28]],[[2891,21201],[-9,-3]],[[2882,21198],[-90,-23]],[[2792,21175],[-257,41]],[[2535,21216],[0,127]],[[2535,21343],[460,142]],[[2995,21485],[49,-25]],[[3044,21460],[-153,-259]],[[1887,21315],[58,-56]],[[1945,21259],[-112,8]],[[1833,21267],[-14,53]],[[1801,21236],[32,31]],[[1945,21259],[100,-23]],[[1792,21470],[-18,0]],[[1774,21470],[5,33]],[[1779,21503],[13,0]],[[1792,21503],[0,-33]],[[1477,21020],[-9,-10]],[[1468,21010],[-99,-5]],[[1369,21005],[-54,18]],[[1315,21023],[22,12]],[[1337,21035],[5,26]],[[1342,21061],[5,7]],[[1347,21068],[130,-48]],[[1684,21328],[-27,-16]],[[1657,21312],[-9,6]],[[1648,21318],[36,20]],[[2198,21264],[166,38]],[[2364,21302],[9,-79]],[[3170,21119],[63,-104]],[[3233,21015],[-342,186]],[[3044,21460],[72,-28]],[[3116,21432],[-36,-125],[144,-78],[-54,-110]],[[1792,21470],[45,-30]],[[1837,21440],[-85,-5]],[[1752,21435],[9,12]],[[1761,21447],[13,18]],[[1774,21465],[0,5]],[[2409,21648],[158,-7]],[[2567,21641],[0,-56]],[[2567,21585],[-63,-100]],[[2504,21485],[-86,33],[-99,-178]],[[2319,21340],[-49,64]],[[1567,21079],[-108,43]],[[3256,21188],[40,-173]],[[3296,21015],[-63,0]],[[3170,21119],[86,69]],[[1567,21323],[18,53]],[[1585,21376],[41,-2]],[[1626,21374],[-5,-11]],[[1621,21363],[14,-25]],[[1635,21338],[-59,-15]],[[1576,21323],[-9,0]],[[1567,21323],[-22,5]],[[1545,21328],[4,28]],[[1549,21356],[0,12]],[[1549,21368],[36,8]],[[2319,20751],[18,63]],[[2364,21193],[23,0]],[[2387,21193],[193,-137],[212,119]],[[2882,21198],[32,-264]],[[2837,20748],[-518,3]],[[1914,20814],[-86,-2]],[[1828,20812],[-94,35]],[[1734,20847],[-140,158]],[[1594,21005],[-13,63]],[[1675,21134],[77,-30]],[[3116,21432],[-13,140],[180,-43],[9,81]],[[3292,21610],[113,-135],[-82,-56]],[[3323,21419],[-67,-231]],[[2625,21648],[14,-127],[-72,-3]],[[2567,21518],[0,67]],[[2567,21641],[58,7]],[[2364,21302],[-45,38]],[[2504,21485],[31,-38]],[[2535,21447],[0,-104]],[[2535,21216],[-148,-23]],[[1684,21196],[41,-13]],[[2567,21518],[-32,-71]],[[1617,21234],[40,78]],[[1464,21941],[-145,-39]],[[1319,21902],[-40,-2]],[[1274,22126],[190,-185]],[[2175,21282],[-22,8]],[[2117,21323],[-5,81]],[[1360,21813],[-9,31]],[[1351,21844],[140,3]],[[1500,21839],[13,-31]],[[1513,21808],[-22,-23],[-90,0],[-41,28]],[[1351,21844],[-32,58]],[[1464,21941],[31,-79]],[[2148,21277],[23,-26]],[[1531,21676],[-117,-33]],[[1414,21643],[-158,87]],[[1256,21730],[104,83]],[[1513,21808],[18,-132]],[[3296,21015],[5,-15]],[[3301,21000],[22,-158]],[[2625,21648],[149,-102],[203,36]],[[2977,21582],[18,-97]],[[1792,21503],[108,-18]],[[1887,21442],[-50,-2]],[[1576,21323],[-9,-26]],[[1567,21297],[-40,-18]],[[1527,21279],[-32,51]],[[1495,21330],[50,-2]],[[1256,21730],[-45,0]],[[1211,21730],[-27,-6]],[[1184,21724],[-117,6]],[[1067,21730],[5,111]],[[2977,21582],[207,99]],[[3184,21681],[108,-71]],[[1590,21239],[-23,58]],[[1635,21338],[13,-20]],[[1455,21254],[72,25]],[[1468,21196],[-13,58]],[[1594,21005],[0,-3]],[[1594,21002],[-117,18]],[[1347,21068],[90,69]],[[1774,21391],[-22,44]],[[1207,21007],[-36,-40]],[[1171,20967],[-86,0]],[[1085,20967],[14,56]],[[1099,21023],[139,61]],[[1238,21084],[18,-46]],[[1256,21038],[-49,-31]],[[937,21997],[-248,-54],[-13,171]],[[676,22114],[4,5]],[[680,22119],[315,53]],[[1238,21691],[86,-145]],[[1324,21546],[-27,-22]],[[1297,21524],[-117,66],[9,43],[-32,23]],[[1157,21656],[5,15]],[[1162,21671],[76,20]],[[757,21152],[-72,13]],[[685,21165],[139,132],[45,-145]],[[869,21152],[-112,0]],[[1162,21671],[22,53]],[[1211,21730],[27,-39]],[[1261,21190],[-5,-5]],[[1256,21185],[-193,33]],[[1063,21218],[184,21]],[[1247,21239],[32,10]],[[1279,21249],[-18,-59]],[[685,21165],[54,-117]],[[739,21048],[0,-33]],[[739,21015],[-149,61]],[[590,21076],[-5,211]],[[585,21287],[406,20]],[[991,21307],[0,-89]],[[991,21218],[0,-58]],[[991,21160],[-122,-8]],[[1252,21417],[45,107]],[[1324,21546],[27,-10]],[[1351,21536],[-23,-73]],[[1328,21463],[28,-79],[-64,-8]],[[1292,21376],[-40,41]],[[1238,21084],[18,94]],[[1256,21178],[5,12]],[[1279,21249],[18,-20]],[[1297,21229],[59,-59]],[[1356,21170],[-14,-109]],[[1337,21035],[-81,3]],[[1297,21229],[72,-13]],[[1369,21216],[-13,-46]],[[1252,21417],[-72,101]],[[1180,21518],[-63,34]],[[1117,21552],[-63,15]],[[1054,21567],[-68,51]],[[986,21618],[36,38]],[[1022,21656],[135,0]],[[1180,21518],[-77,6]],[[1103,21524],[14,28]],[[1292,21376],[0,-48]],[[1292,21328],[-31,-21]],[[1261,21307],[-275,67]],[[986,21374],[117,150]],[[621,22157],[-18,-54]],[[603,22103],[-49,89],[67,-35]],[[757,21152],[-18,-104]],[[1328,21463],[100,-6]],[[1414,21356],[-22,-31]],[[1392,21325],[-100,3]],[[1351,21536],[63,89]],[[1414,21625],[41,-112]],[[1455,21513],[0,-28]],[[1256,21178],[0,7]],[[1099,21023],[-41,190]],[[1058,21213],[5,5]],[[594,21735],[419,-5]],[[1013,21730],[9,-74]],[[986,21618],[-324,-59],[-23,79]],[[639,21638],[-45,97]],[[1247,21239],[14,68]],[[1392,21325],[63,-71]],[[1441,21193],[-72,23]],[[1414,21643],[0,-18]],[[1054,21567],[-406,-69]],[[648,21498],[-9,140]],[[1067,21730],[-54,0]],[[594,21735],[5,76],[0,38],[27,158]],[[626,22007],[50,107]],[[1464,21366],[31,-36]],[[986,21374],[5,-67]],[[585,21287],[27,221],[45,-53],[-9,20],[0,23]],[[621,22157],[59,-38]],[[626,22007],[-23,96]],[[1058,21213],[-67,5]],[[739,21015],[45,-41]],[[784,20974],[-59,3]],[[725,20977],[-144,56]],[[581,21033],[9,43]],[[1576,21419],[-9,44]],[[1567,21463],[18,5]],[[1585,21468],[14,-11]],[[1599,21457],[4,0]],[[1603,21457],[5,-10]],[[1608,21447],[0,-28]],[[1608,21419],[-32,0]],[[1648,21447],[0,-43]],[[1648,21404],[-31,-5]],[[1617,21399],[-9,20]],[[1608,21447],[40,0]],[[1581,21559],[-18,-51]],[[1563,21508],[-27,23]],[[1536,21531],[0,69]],[[1536,21600],[45,-41]],[[1608,21468],[-5,-11]],[[1599,21457],[4,11]],[[1603,21468],[5,0]],[[1585,21468],[5,0]],[[1590,21468],[13,0]],[[1680,21447],[0,-51]],[[1680,21396],[-32,8]],[[1648,21447],[32,0]],[[1599,21483],[9,-15]],[[1590,21468],[0,20]],[[1590,21488],[9,-5]],[[1549,21463],[-31,66]],[[1518,21529],[18,2]],[[1563,21508],[27,-20]],[[1567,21463],[-18,-3]],[[1549,21460],[0,3]],[[1648,21498],[0,-2]],[[1648,21496],[-36,2]],[[1612,21498],[0,51]],[[1612,21549],[36,-3]],[[1648,21546],[0,-48]],[[1612,21478],[0,20]],[[1648,21496],[0,-18]],[[1648,21478],[-36,0]],[[1648,21468],[0,-3]],[[1648,21465],[0,13]],[[1648,21498],[32,-2]],[[1680,21496],[0,-31]],[[1680,21465],[-32,3]],[[1648,21468],[0,-21]],[[1608,21468],[4,-3]],[[1612,21465],[36,0]],[[1680,21465],[0,-18]],[[1711,21465],[0,-18]],[[1711,21447],[-31,0]],[[1680,21465],[31,0]],[[1581,21559],[31,-10]],[[1612,21498],[-13,-15]],[[1698,21524],[-18,-28]],[[1648,21546],[50,-22]],[[1549,21368],[0,51]],[[1549,21419],[27,0]],[[1617,21399],[9,-25]],[[1716,21513],[-5,-48]],[[1698,21524],[18,-11]],[[1549,21419],[0,41]],[[1680,21366],[-59,-3]],[[1680,21396],[0,-22]],[[1527,21419],[22,0]],[[1549,21356],[-81,7]],[[1504,21460],[45,3]],[[1612,21478],[0,-13]],[[1455,21513],[63,16]],[[1774,21465],[-63,0]],[[1716,21513],[63,-10]],[[1531,21676],[5,-76]],[[1761,21447],[-50,0]],[[1711,21386],[0,61]],[[1477,20817],[-54,-49]],[[1423,20768],[-67,-2]],[[1356,20766],[-5,43]],[[1351,20809],[-36,64]],[[1315,20873],[4,12]],[[1319,20885],[41,-7]],[[1360,20878],[108,20]],[[1468,20898],[41,-56]],[[1509,20842],[-32,-25]],[[1234,20789],[27,68]],[[1261,20857],[54,16]],[[1351,20809],[-117,-20]],[[1369,21005],[-9,-127]],[[1319,20885],[-4,138]],[[1211,20862],[-4,145]],[[1261,20857],[-50,5]],[[1468,21010],[14,-15]],[[1482,20995],[-14,-97]],[[1279,20730],[-45,59]],[[1356,20766],[-14,-8]],[[1342,20758],[-63,-28]],[[1184,20430],[23,79]],[[1207,20509],[-9,112]],[[1198,20621],[13,20]],[[1211,20641],[36,21]],[[1247,20662],[127,-64]],[[1374,20598],[36,-48]],[[1410,20550],[-63,-97]],[[1347,20453],[-104,64],[-14,-102]],[[1229,20415],[-45,15]],[[1004,20331],[-9,-140]],[[995,20191],[-162,-91]],[[833,20100],[-85,94]],[[748,20194],[-41,86],[81,66]],[[788,20346],[90,3]],[[878,20349],[108,18]],[[986,20367],[18,-36]],[[1441,20674],[-18,94]],[[1477,20817],[9,-66]],[[1486,20751],[-31,-69]],[[1455,20682],[-14,-8]],[[950,20644],[-63,-224]],[[887,20420],[-90,107],[77,30],[-162,79]],[[712,20636],[72,33]],[[784,20669],[166,-25]],[[1455,20189],[-32,-72]],[[1423,20117],[-54,-7]],[[1369,20110],[-32,155]],[[1337,20265],[-31,40]],[[1306,20305],[54,84]],[[1360,20389],[131,-89]],[[1491,20300],[-36,-111]],[[1108,20483],[-23,158]],[[1085,20641],[113,-20]],[[1207,20509],[-68,-23],[-13,0],[-18,-3]],[[986,20367],[122,116]],[[1184,20430],[-4,-28]],[[1180,20402],[-14,-76]],[[1166,20326],[-162,5]],[[1171,20847],[0,-10]],[[1171,20837],[-203,-79]],[[968,20758],[18,137]],[[986,20895],[99,72]],[[1171,20967],[0,-120]],[[558,20822],[36,-84]],[[594,20738],[-27,-46]],[[567,20692],[-45,-13]],[[522,20679],[36,143]],[[2319,20751],[-22,-54]],[[2297,20697],[-248,-66]],[[2049,20631],[-243,71]],[[1806,20702],[4,31]],[[1810,20733],[5,56]],[[1815,20789],[13,23]],[[887,20420],[-9,-71]],[[788,20346],[-90,10]],[[698,20356],[-9,72]],[[689,20428],[9,208]],[[698,20636],[14,0]],[[784,20669],[0,61]],[[784,20730],[0,82]],[[784,20812],[0,101]],[[784,20913],[76,8]],[[860,20921],[45,8]],[[905,20929],[81,-34]],[[968,20758],[-13,-102]],[[955,20656],[-5,-12]],[[1743,20265],[-99,76]],[[1644,20341],[0,33]],[[1864,20575],[-58,127]],[[2049,20631],[27,-56]],[[869,21152],[-9,-231]],[[784,20913],[0,61]],[[1337,20265],[-157,7]],[[1180,20272],[-14,54]],[[1180,20402],[126,-97]],[[2297,20697],[-5,-91]],[[1279,20730],[-32,-68]],[[1211,20641],[-40,196]],[[1171,20847],[40,15]],[[1405,20651],[-31,-53]],[[1342,20758],[63,-107]],[[1644,20341],[-122,43],[-31,-84]],[[1360,20389],[-18,26]],[[1342,20415],[5,38]],[[1410,20550],[229,-49]],[[698,20636],[-22,10]],[[676,20646],[108,84]],[[1707,20654],[-113,33]],[[1594,20687],[54,69]],[[1648,20756],[167,33]],[[1810,20733],[-103,-79]],[[1720,20570],[-13,84]],[[1085,20641],[-130,15]],[[1594,21002],[-13,-10]],[[1581,20992],[-99,3]],[[612,20621],[-49,-92]],[[563,20529],[-41,150]],[[567,20692],[45,-71]],[[545,20511],[4,-30]],[[549,20481],[-36,-31]],[[513,20450],[5,82],[18,5],[9,-26]],[[784,20812],[-190,-74]],[[558,20822],[9,155]],[[567,20977],[18,-41],[5,-5],[140,-43],[-5,89]],[[567,20977],[14,56]],[[1405,20651],[36,23]],[[1455,20682],[139,5]],[[1734,20847],[-153,145]],[[644,20374],[-135,3]],[[509,20377],[4,73]],[[549,20481],[140,-53]],[[698,20356],[-54,18]],[[1229,20415],[113,0]],[[905,20929],[86,231]],[[676,20646],[-64,-25]],[[1612,20778],[-103,64]],[[1648,20756],[-36,22]],[[1486,20751],[126,27]],[[1626,20178],[-171,11]],[[748,20194],[-23,0]],[[603,20189],[-18,86]],[[585,20275],[59,99]],[[545,20511],[18,18]],[[585,20275],[-85,10]],[[500,20285],[63,46],[-54,46]],[[1270,19944],[-9,31]],[[1261,19975],[4,25]],[[1265,20000],[50,-10]],[[1315,19990],[-5,-41]],[[1310,19949],[-22,-5]],[[1288,19944],[-18,0]],[[1112,19812],[0,204]],[[1112,20016],[108,17]],[[1220,20033],[41,-58]],[[1270,19944],[-158,-132]],[[1333,19937],[-45,7]],[[1310,19949],[23,-12]],[[1220,20033],[32,18]],[[1252,20051],[13,-51]],[[1333,19937],[23,-5]],[[1356,19932],[22,-5]],[[1378,19927],[0,-44]],[[1378,19883],[-158,-73]],[[1220,19810],[-94,-11]],[[1126,19799],[-14,13]],[[793,18655],[-145,-295],[-85,-7]],[[563,18353],[-225,-44]],[[338,18309],[0,227]],[[338,18536],[54,48]],[[392,18584],[67,25]],[[459,18609],[9,-76],[248,127]],[[716,18660],[77,-5]],[[1252,20051],[-32,59]],[[1220,20110],[131,0]],[[1351,20110],[-14,-122]],[[1337,19988],[-22,2]],[[1112,18602],[36,96]],[[1148,18698],[-4,92]],[[1144,18790],[76,51]],[[1220,18841],[108,-125],[59,54]],[[1387,18770],[23,-125]],[[1410,18645],[-23,-5]],[[1387,18640],[-216,-69]],[[1171,18571],[-59,31]],[[297,19014],[63,-183]],[[360,18831],[-162,0]],[[198,18831],[41,175]],[[239,19006],[58,8]],[[995,20163],[-72,-130]],[[923,20033],[-90,67]],[[995,20191],[0,-28]],[[1860,20061],[67,56],[-54,23]],[[572,18317],[-27,-92],[117,-12],[59,-140]],[[721,18073],[-9,-227]],[[712,17846],[-176,0],[-131,3],[-153,290]],[[252,18139],[86,-5],[0,175]],[[563,18353],[9,-36]],[[712,18759],[0,82]],[[712,18841],[90,180]],[[802,19021],[81,-71]],[[883,18950],[18,-107]],[[901,18843],[-189,-84]],[[1144,18790],[-32,33]],[[1112,18823],[50,5]],[[1162,18828],[58,13]],[[1054,20038],[-36,0]],[[1018,20038],[0,100]],[[1018,20138],[112,-23],[-76,-77]],[[356,19344],[31,-25]],[[387,19319],[-85,-71],[54,96]],[[437,19250],[193,43],[50,-145]],[[680,19148],[-131,-68]],[[549,19080],[-288,15]],[[261,19095],[108,206],[32,-25],[36,-26]],[[549,19080],[-252,-66]],[[239,19006],[22,89]],[[1265,19433],[-22,110]],[[1243,19543],[-108,134]],[[1135,19677],[94,0],[-22,89]],[[1207,19766],[230,-23]],[[1437,19743],[72,-55]],[[1509,19688],[-14,-23]],[[1495,19665],[-139,-3],[112,-63]],[[1468,19599],[81,-120]],[[1554,19415],[-153,21]],[[1401,19436],[-136,-3]],[[1432,19764],[5,-21]],[[1207,19766],[13,44]],[[1378,19883],[54,-119]],[[1662,19718],[27,-140]],[[1468,19599],[27,66]],[[1509,19688],[135,35]],[[1644,19723],[18,-5]],[[1396,19034],[68,-155],[-77,-109]],[[1162,18828],[198,206]],[[1360,19034],[36,0]],[[869,19975],[-63,-15]],[[806,19960],[-54,-5]],[[752,19955],[-95,78]],[[923,20033],[-54,-58]],[[1509,19822],[135,-99]],[[1432,19764],[36,89]],[[1468,19853],[41,-31]],[[1004,19482],[-58,142],[-149,8]],[[797,19632],[50,190]],[[847,19822],[22,-30]],[[869,19792],[144,-84]],[[1013,19708],[122,-31]],[[1243,19543],[-203,-74]],[[1040,19469],[-36,13]],[[842,19464],[-67,86]],[[775,19550],[22,71]],[[797,19621],[0,11]],[[1004,19482],[-162,-18]],[[1013,19985],[5,53]],[[1054,20038],[58,-22]],[[1112,20016],[-99,-31]],[[1752,19736],[-86,-18]],[[1666,19718],[-157,104]],[[1468,19853],[-45,48]],[[1423,19901],[221,64]],[[482,20186],[121,3]],[[603,19977],[-49,-86]],[[554,19891],[-50,-127]],[[504,19764],[-18,0]],[[486,19764],[-40,0]],[[446,19764],[36,422]],[[486,19764],[-76,-196]],[[410,19568],[36,196]],[[1112,18602],[-180,-23]],[[932,18579],[-139,76]],[[716,18660],[-4,99]],[[901,18843],[36,-23]],[[937,18820],[211,-122]],[[2103,19255],[45,-107],[-85,-172]],[[2063,18976],[-154,-41]],[[1909,18935],[-153,191],[-360,-92]],[[1360,19034],[-99,31]],[[1261,19065],[31,132]],[[1292,19197],[266,38],[-4,127]],[[2027,19329],[76,-74]],[[221,18556],[117,-20]],[[252,18139],[-31,417]],[[1369,20110],[-18,0]],[[1220,20110],[-22,106]],[[1198,20216],[-18,56]],[[1292,19197],[-4,53]],[[1288,19250],[99,18],[14,168]],[[1018,20138],[-23,25]],[[995,20191],[203,25]],[[585,19502],[-63,-79],[-90,81]],[[432,19504],[153,-2]],[[360,18831],[45,-51]],[[405,18780],[-252,-46]],[[153,18734],[45,97]],[[1013,19708],[113,91]],[[1666,19718],[-4,0]],[[806,19960],[-27,-112]],[[779,19848],[-140,-49]],[[639,19799],[-85,92]],[[644,19977],[108,-22]],[[1680,20138],[-54,-56]],[[1626,20082],[-50,-18]],[[1576,20064],[-90,-43],[-63,96]],[[1378,19927],[45,-26]],[[1112,18823],[-76,56]],[[1036,18879],[4,84]],[[1040,18963],[221,102]],[[712,18841],[-230,5],[-27,13],[-45,-79]],[[410,18780],[-5,0]],[[680,19148],[77,0]],[[757,19148],[45,-127]],[[757,19215],[0,-67]],[[437,19250],[-50,69]],[[356,19344],[45,160]],[[401,19504],[31,0]],[[585,19502],[127,-153]],[[712,19349],[45,-134]],[[1013,19985],[-36,-58]],[[977,19927],[-108,48]],[[1247,19365],[-175,-92]],[[1072,19273],[-81,-20]],[[991,19253],[-117,81]],[[874,19334],[-32,130]],[[1040,19469],[162,20],[45,-124]],[[2126,19510],[-104,-156]],[[1788,19583],[-18,105]],[[2148,19756],[-22,-246]],[[158,18678],[234,-94]],[[221,18556],[-63,122]],[[459,18609],[-49,171]],[[401,19504],[9,64]],[[504,19764],[135,35]],[[779,19848],[68,-26]],[[797,19621],[-90,-71],[68,0]],[[874,19334],[-162,15]],[[937,18820],[99,59]],[[1040,18963],[-85,30],[-50,-23],[-22,-20]],[[757,19215],[234,38]],[[1072,19273],[85,-99],[131,76]],[[158,18678],[-5,56]],[[1337,19988],[19,-56]],[[1576,20064],[77,-56]],[[1247,19365],[18,68]],[[1909,18935],[0,-61]],[[1909,18874],[-265,-102]],[[1644,18772],[-234,-127]],[[869,19792],[108,135]],[[1671,20008],[-45,74]],[[1171,18571],[0,-132]],[[1171,18439],[-239,140]],[[482,20186],[18,99]],[[1491,18119],[-45,-115]],[[1446,18004],[-68,20],[9,156]],[[1387,18180],[54,50]],[[1441,18230],[50,-91]],[[1491,18139],[0,-20]],[[1306,18195],[77,183]],[[1383,18378],[126,-92]],[[1509,18286],[-14,-48]],[[1495,18238],[-54,-8]],[[1387,18180],[-81,15]],[[1432,18492],[77,-206]],[[1383,18378],[-41,74]],[[1342,18452],[50,51]],[[1392,18503],[40,-11]],[[1509,18124],[-18,15]],[[1495,18238],[81,-41]],[[1576,18197],[-49,-73]],[[1527,18124],[-18,0]],[[1905,18256],[0,-397]],[[1905,17859],[-63,3],[-275,-5],[-31,0],[-153,-3]],[[1383,17854],[72,125]],[[1455,17979],[72,145]],[[1576,18197],[-9,128],[284,-117],[-90,43]],[[1761,18251],[144,5]],[[1761,18251],[-117,241]],[[1644,18492],[265,102]],[[1909,18594],[-4,-338]],[[1031,18045],[81,-66],[-36,-127]],[[1076,17852],[-130,0],[-234,-6]],[[721,18073],[63,-15],[67,20],[180,-33]],[[1432,18492],[50,-7]],[[1482,18485],[54,-79],[49,109]],[[1585,18515],[9,10]],[[1594,18525],[50,-33]],[[1306,18195],[-113,-33]],[[1193,18162],[23,132]],[[1216,18294],[126,158]],[[883,18431],[-311,-114]],[[1171,18439],[0,-158]],[[1171,18281],[-203,79]],[[968,18360],[63,84],[-148,-13]],[[1193,18162],[-22,-23]],[[1171,18139],[-108,20]],[[1063,18159],[-126,26]],[[937,18185],[40,81],[-99,38]],[[878,18304],[90,84]],[[968,18388],[0,-28]],[[1171,18281],[45,13]],[[1171,17854],[0,285]],[[1446,18004],[9,-25]],[[1383,17854],[-212,0]],[[968,18388],[-85,43]],[[1509,18124],[-18,-5]],[[1594,18525],[50,247]],[[1909,18874],[0,-97]],[[1909,18777],[0,-183]],[[1387,18640],[5,-137]],[[878,18304],[-108,-107],[167,-12]],[[1063,18159],[-32,-114]],[[1482,18485],[103,30]],[[1171,17854],[-95,-2]],[[2274,18246],[9,17]],[[2283,18263],[113,-132]],[[2396,18131],[0,-40]],[[2396,18091],[-212,-107]],[[2184,17984],[-221,211],[104,155]],[[2067,18350],[216,-259],[-9,155]],[[2265,17854],[-81,130]],[[2396,18091],[45,-26]],[[2441,18065],[108,-147]],[[2549,17918],[-41,0]],[[2508,17918],[-99,-66]],[[2409,17852],[-144,2]],[[4184,18368],[4,-522]],[[4188,17846],[-500,0],[-126,0]],[[3562,17846],[-54,143]],[[3508,17989],[-18,81]],[[3490,18070],[694,298]],[[2833,18350],[-122,-127]],[[2711,18223],[14,124],[108,3]],[[2441,18065],[-45,66]],[[2283,18263],[428,-40]],[[2833,18350],[-27,267]],[[2806,18617],[162,-3]],[[2968,18614],[36,-323]],[[3004,18291],[0,-447]],[[3004,17844],[-288,5],[-55,0]],[[2661,17849],[-112,69]],[[2175,18464],[-54,140]],[[2121,18604],[162,361],[356,26]],[[2639,18991],[0,-21]],[[2639,18970],[0,-353],[167,0]],[[2274,18246],[-148,109],[49,109]],[[1909,18777],[212,-173]],[[2175,18464],[-108,-114]],[[2265,17854],[-49,0],[-235,5],[-76,0]],[[3004,18291],[446,-45]],[[3450,18246],[-41,-120],[81,-56]],[[3508,17989],[-76,-28],[18,-117]],[[3450,17844],[-18,0],[-82,102],[-40,-102],[-306,0]],[[2661,17849],[-157,0]],[[2504,17849],[4,69]],[[2504,17849],[-32,0],[-31,3],[-32,0]],[[3562,17846],[-4,0],[-108,-2]],[[3400,18831],[41,-89],[-118,-143],[149,-211],[-22,-142]],[[2968,18614],[-41,290]],[[2927,18904],[315,66],[158,-139]],[[3400,18831],[122,83],[220,-61]],[[3742,18853],[-9,-223],[266,-10]],[[3999,18620],[185,-72]],[[4184,18548],[0,-180]],[[3499,18383],[77,214],[-104,-33],[27,-181]],[[3769,19131],[-27,-278]],[[2927,18904],[-288,66]],[[2639,18991],[0,147]],[[2639,19138],[0,71]],[[2639,19209],[275,79],[148,222]],[[3062,19510],[707,-6],[0,-373]],[[2887,20044],[31,-166]],[[2918,19878],[-58,-28]],[[2860,19850],[-104,107],[-189,-41]],[[2567,19916],[-126,49],[45,135]],[[2486,20100],[144,106]],[[2630,20206],[90,-117],[104,51]],[[2824,20140],[63,-96]],[[2634,19810],[-67,40]],[[2567,19850],[0,66]],[[2860,19850],[-226,-40]],[[2634,19810],[-85,-161],[-95,13],[113,188]],[[5080,18205],[13,-356]],[[5093,17849],[-220,-3],[-658,0],[-27,0]],[[4184,18548],[202,41]],[[4386,18589],[410,-580],[284,196]],[[3387,20481],[-343,0]],[[3044,20481],[-85,53],[18,214]],[[3400,20745],[-13,-61]],[[3387,20684],[0,-203]],[[3062,19510],[-40,0]],[[3022,19510],[-36,139],[130,122]],[[3116,19771],[275,-2],[104,-176],[342,0]],[[3837,19593],[108,-45],[-18,-117],[144,-3],[-302,-297]],[[4494,19166],[-40,298],[-86,-5],[-126,404]],[[4242,19863],[279,0]],[[4521,19863],[36,-193],[108,73],[140,-170],[261,-15]],[[5066,19558],[5,-582]],[[5071,18976],[-428,160]],[[4643,19136],[99,117],[-248,-87]],[[5071,18976],[9,-771]],[[4386,18589],[95,264],[-77,161],[90,152]],[[4494,19166],[149,-30]],[[2684,20305],[-432,0]],[[2288,20567],[121,-81],[72,114],[86,-94]],[[2567,20506],[90,-91]],[[2657,20415],[27,-110]],[[2063,18976],[207,-8],[-95,180],[464,-10]],[[2648,19510],[0,-189]],[[2648,19321],[-545,-66]],[[2126,19510],[306,0],[99,-97],[-5,97],[122,0]],[[2896,20303],[-239,112]],[[2567,20506],[126,21]],[[2693,20527],[234,-135]],[[2927,20392],[-31,-89]],[[2639,19209],[9,112]],[[2648,19510],[374,0]],[[3999,18620],[131,221],[175,25],[5,178],[-108,346],[-153,66],[27,165],[-212,-22]],[[3864,19599],[0,246]],[[3864,19845],[90,15]],[[3954,19860],[288,3]],[[2918,19878],[189,-48]],[[3107,19830],[9,-59]],[[2279,20171],[90,51],[22,-122],[95,0]],[[3044,20481],[0,-89],[-117,0]],[[2693,20527],[144,221]],[[3958,20593],[0,-336]],[[3958,20257],[0,-38]],[[3958,20219],[-346,135]],[[3612,20354],[-225,-3],[0,130]],[[3387,20684],[144,-7],[85,150],[68,-107],[274,-33]],[[3958,20687],[0,-94]],[[3864,19845],[-225,-63],[72,292],[-131,176]],[[3580,20250],[32,104]],[[3958,20219],[-4,-359]],[[3864,19599],[-27,-6]],[[3107,19830],[140,13],[22,236],[-81,54],[392,117]],[[2824,20140],[0,51]],[[2824,20191],[171,3],[-108,-150]],[[2824,20191],[18,53]],[[2842,20244],[54,59]],[[2630,20206],[40,56]],[[2670,20262],[172,-18]],[[2684,20305],[-14,-43]],[[4130,21567],[0,140]],[[4130,21707],[76,7]],[[4206,21714],[41,-2]],[[4247,21712],[274,-74],[-139,58]],[[4382,21696],[-9,89]],[[4373,21785],[45,49]],[[4418,21834],[229,-74]],[[4647,21760],[23,-130],[230,84]],[[4900,21714],[297,-28]],[[5197,21686],[-41,-114]],[[5156,21572],[0,-160]],[[5156,21412],[-450,-127]],[[4706,21285],[68,152],[-113,56],[-306,-125]],[[4355,21368],[-81,173],[-144,26]],[[4882,21740],[18,-26]],[[4647,21760],[149,10]],[[4796,21770],[86,-30]],[[3184,21681],[504,74]],[[3688,21755],[0,-122]],[[3688,21633],[-4,-188]],[[3684,21445],[0,-199]],[[3684,21246],[-212,-17],[-149,190]],[[4931,21826],[-49,-86]],[[4796,21770],[-167,186]],[[4629,21956],[158,0]],[[4787,21956],[144,-130]],[[5066,20550],[68,68],[-59,183]],[[5075,20801],[428,41]],[[5503,20842],[86,163],[193,7]],[[5782,21012],[-31,-111]],[[5751,20901],[67,-77],[-162,-81],[72,-94],[-54,-23]],[[5674,20626],[-198,-104]],[[5476,20522],[-410,28]],[[3949,21806],[32,-110]],[[3981,21696],[-5,-116],[-288,53]],[[3688,21755],[261,51]],[[3684,21246],[94,-53]],[[3778,21193],[72,-193]],[[3850,21000],[-549,0]],[[5472,21335],[22,-122],[-112,21]],[[5382,21234],[-131,68],[22,82]],[[5273,21384],[199,-49]],[[4247,21712],[135,-16]],[[5296,21442],[-140,130]],[[5197,21686],[0,33]],[[5197,21719],[72,94]],[[5269,21813],[176,-28]],[[5445,21785],[13,-328]],[[5458,21457],[0,-81]],[[5458,21376],[-162,66]],[[5778,21099],[-86,249]],[[5692,21348],[5,18]],[[5697,21366],[94,66],[-117,407],[-229,-54]],[[5269,21813],[-5,143]],[[5264,21956],[293,0],[95,-3],[229,0],[77,0]],[[5958,21953],[-126,-140],[-14,-231]],[[5818,21582],[0,-496]],[[5818,21086],[-40,13]],[[3945,20763],[13,-76]],[[3850,21000],[9,-77]],[[3859,20923],[-112,-50],[126,10],[72,-120]],[[4274,20656],[99,-167]],[[4373,20489],[-302,58]],[[4071,20547],[-31,132]],[[4040,20679],[234,-23]],[[5075,20801],[-4,0]],[[5071,20801],[-14,87]],[[5057,20888],[86,86]],[[5143,20974],[144,-101],[85,12],[-4,105]],[[5368,20990],[135,-148]],[[5985,21012],[108,-73],[-31,-105],[76,69]],[[6138,20903],[-149,-239]],[[5989,20664],[-238,237]],[[5782,21012],[36,0]],[[5818,21012],[162,0]],[[5980,21012],[5,0]],[[4418,21834],[-59,33]],[[4359,21867],[0,7]],[[4359,21874],[126,82],[144,0]],[[3778,21193],[216,236]],[[3994,21429],[136,138]],[[4355,21368],[-14,-442]],[[4341,20926],[-108,0]],[[4233,20926],[-288,-3]],[[3945,20923],[-86,0]],[[5562,20359],[-117,0]],[[5445,20359],[-266,-104]],[[5179,20255],[-18,165],[-162,63]],[[4999,20483],[4,13]],[[5003,20496],[63,54]],[[5476,20522],[72,-46],[-85,-61],[99,-56]],[[4373,21785],[-167,-71]],[[4130,21707],[0,12]],[[4130,21719],[0,128]],[[4130,21847],[229,20]],[[3684,21445],[310,-16]],[[5985,21012],[212,-2]],[[6197,21010],[-59,-107]],[[5458,21376],[14,-41]],[[5273,21384],[-22,35]],[[5251,21419],[45,23]],[[5958,21953],[135,-2],[122,-183],[229,-216],[-247,-542]],[[5980,21012],[104,31],[-95,76],[167,384],[-243,-150],[4,232],[-99,-3]],[[3981,21696],[149,23]],[[4130,21867],[0,-20]],[[3949,21806],[181,61]],[[4499,20196],[-126,-61],[-415,122]],[[3958,20593],[113,-46]],[[4373,20489],[157,40]],[[4530,20529],[113,-157],[-108,-97],[-27,-13],[-9,-66]],[[5818,21012],[0,74]],[[3958,20687],[82,-8]],[[4841,20926],[-135,359]],[[5156,21412],[41,-74],[54,81]],[[5382,21234],[-154,-84]],[[5228,21150],[-99,-71],[14,-105]],[[5057,20888],[-216,38]],[[4548,20812],[-18,-283]],[[4274,20656],[117,61],[-158,209]],[[4341,20926],[140,0]],[[4481,20926],[-54,-46],[121,-68]],[[5692,21348],[-54,102],[59,-84]],[[5197,21719],[-266,107]],[[4787,21956],[122,0],[279,0],[63,0],[13,0]],[[3945,20763],[0,160]],[[5228,21150],[81,-196],[59,36]],[[4841,20926],[-324,0]],[[4517,20926],[-36,0]],[[4548,20812],[-31,114]],[[5071,20801],[-50,-127],[-126,66],[-54,-117],[162,-127]],[[4999,20483],[-140,-312],[207,-5]],[[5066,20166],[5,-222]],[[5071,19944],[-446,8]],[[4625,19952],[31,125],[-157,119]],[[5877,20417],[-131,28],[72,105],[-67,50],[-86,-89],[9,115]],[[5989,20664],[-112,-247]],[[4625,19952],[-104,-89]],[[4233,21890],[5,0],[121,-16]],[[4130,21867],[103,23]],[[5458,21457],[198,-350],[122,-8]],[[5179,20255],[-113,-89]],[[5638,19098],[36,111],[95,-15],[-14,262]],[[5755,19456],[122,158]],[[5877,19614],[130,46]],[[6007,19660],[0,-6],[0,-76],[0,-2],[0,-110],[0,-244]],[[6007,19222],[-121,-140],[-248,16]],[[5575,19924],[-166,5]],[[5409,19929],[-91,89],[127,341]],[[5562,20359],[121,-145]],[[5683,20214],[-13,-97],[-5,-12],[140,-178],[-63,-28]],[[5742,19899],[-167,25]],[[5071,19899],[-5,-313]],[[5066,19586],[0,-28]],[[5071,19944],[0,-45]],[[5931,19761],[-131,26],[77,-173]],[[5755,19456],[-355,-20],[40,236]],[[5440,19672],[-31,163]],[[5409,19835],[166,89]],[[5742,19899],[-95,-39],[198,13],[86,-112]],[[5877,20417],[-23,-203]],[[5854,20214],[-171,0]],[[5409,19929],[-122,15]],[[5287,19944],[-216,-45]],[[6007,19222],[0,-803],[0,-567],[-396,0],[-518,-3]],[[5071,18976],[383,-242],[27,280],[157,84]],[[5440,19672],[-374,-86]],[[5287,19944],[-27,-106],[149,-3]],[[5931,19761],[9,59]],[[5940,19820],[122,63]],[[6062,19883],[-55,-178],[0,-7],[0,-10],[0,-16],[0,-12]],[[5940,19820],[49,320]],[[5989,20140],[122,-66],[-49,-191]],[[5854,20214],[135,-74]]]}