{"type":"Topology","transform":{"scale":[0.0012831345112129487,0.0009745357309423489],"translate":[-124.73273099999999,24.60334863324381]},"objects":{"area":{"type":"GeometryCollection","geometries":[{"arcs":[[0,1,2,3,4]],"type":"Polygon","properties":{"state":"RI","name":"ASHAWAY","zip":"02804"}},{"arcs":[[5,6]],"type":"Polygon","properties":{"state":"RI","name":"BARRINGTON","zip":"02806"}},{"arcs":[[7]],"type":"Polygon","properties":{"state":"RI","name":"BLOCK ISLAND","zip":"02807"}},{"arcs":[[8,9,-4,10]],"type":"Polygon","properties":{"state":"RI","name":"BRADFORD","zip":"02808"}},{"arcs":[[11,12]],"type":"Polygon","properties":{"state":"RI","name":"BRISTOL","zip":"02809"}},{"arcs":[[13,14,15,16]],"type":"Polygon","properties":{"state":"RI","name":"CAROLINA","zip":"02812"}},{"arcs":[[17,18,19,-9,20,-15,21]],"type":"Polygon","properties":{"state":"RI","name":"CHARLESTOWN","zip":"02813"}},{"arcs":[[22,23,24,25,26,27,28,29]],"type":"Polygon","properties":{"state":"RI","name":"CHEPACHET","zip":"02814"}},{"arcs":[[30,31,32,33,34,35]],"type":"Polygon","properties":{"state":"RI","name":"COVENTRY","zip":"02816"}},{"arcs":[[36,37,38,-32,39]],"type":"Polygon","properties":{"state":"RI","name":"WEST GREENWICH","zip":"02817"}},{"arcs":[[40,41,-40,-31,42,43,44]],"type":"Polygon","properties":{"state":"RI","name":"EAST GREENWICH","zip":"02818"}},{"arcs":[[45,46,47,48,49,-37,-42,50]],"type":"Polygon","properties":{"state":"RI","name":"EXETER","zip":"02822"}},{"arcs":[[51,52,-23,53,54,-34]],"type":"Polygon","properties":{"state":"RI","name":"FOSTER","zip":"02825"}},{"arcs":[[55,-52,-33,-39]],"type":"Polygon","properties":{"state":"RI","name":"GREENE","zip":"02827"}},{"arcs":[[56,-29,57,58]],"type":"Polygon","properties":{"state":"RI","name":"GREENVILLE","zip":"02828"}},{"arcs":[[59,-27,60,61,62,63,64]],"type":"Polygon","properties":{"state":"RI","name":"HARRISVILLE","zip":"02830"}},{"arcs":[[65,66,-35,-55]],"type":"Polygon","properties":{"state":"RI","name":"HOPE","zip":"02831"}},{"arcs":[[67,68,-49,69,70,-3]],"type":"Polygon","properties":{"state":"RI","name":"HOPE VALLEY","zip":"02832"}},{"arcs":[[71,-68,-2]],"type":"Polygon","properties":{"state":"RI","name":"HOPKINTON","zip":"02833"}},{"arcs":[[72,73]],"type":"Polygon","properties":{"state":"RI","name":"LITTLE COMPTON","zip":"02837"}},{"arcs":[[74,75,76,77]],"type":"Polygon","properties":{"state":"RI","name":"MANVILLE","zip":"02838"}},{"arcs":[[-26,78,-61]],"type":"Polygon","properties":{"state":"RI","name":"MAPLEVILLE","zip":"02839"}},{"arcs":[[79,80,81]],"type":"Polygon","properties":{"state":"RI","name":"NEWPORT","zip":"02840"}},{"arcs":[[82,-80,83]],"type":"Polygon","properties":{"state":"RI","name":"NEWPORT","zip":"02841"}},{"arcs":[[-83,84,85,86,-81]],"type":"Polygon","properties":{"state":"RI","name":"MIDDLETOWN","zip":"02842"}},{"arcs":[[-41,87,88,-51]],"type":"Polygon","properties":{"state":"RI","name":"NORTH KINGSTOWN","zip":"02852"}},{"arcs":[[89,-66,-54,-30,-57,90]],"type":"Polygon","properties":{"state":"RI","name":"NORTH SCITUATE","zip":"02857"}},{"type":null,"properties":{"state":"RI","name":"OAKLAND","zip":"02858"}},{"arcs":[[91,-79,-25,92,-63]],"type":"Polygon","properties":{"state":"RI","name":"PASCOAG","zip":"02859"}},{"arcs":[[93,94,95,96,97,98,99,100]],"type":"Polygon","properties":{"state":"RI","name":"PAWTUCKET","zip":"02860"}},{"arcs":[[101,102,-101]],"type":"Polygon","properties":{"state":"RI","name":"PAWTUCKET","zip":"02861"}},{"arcs":[[103,104,-99]],"type":"Polygon","properties":{"state":"RI","name":"CENTRAL FALLS","zip":"02863"}},{"arcs":[[105,-105,106,-75,107]],"type":"Polygon","properties":{"state":"RI","name":"CUMBERLAND","zip":"02864"}},{"arcs":[[108,109,110,-76,-107,-104,-98]],"type":"Polygon","properties":{"state":"RI","name":"LINCOLN","zip":"02865"}},{"arcs":[[-86,111]],"type":"Polygon","properties":{"state":"RI","name":"PORTSMOUTH","zip":"02871"}},{"arcs":[[112,113,114,115,-46,-89,116]],"type":"Polygon","properties":{"state":"RI","name":"SAUNDERSTOWN","zip":"02874"}},{"arcs":[[117,-74,118]],"type":"Polygon","properties":{"state":"RI","name":"TIVERTON","zip":"02878"}},{"arcs":[[119,120,-18,121,122,-114]],"type":"Polygon","properties":{"state":"RI","name":"WAKEFIELD","zip":"02879"}},{"arcs":[[123,-115,-123]],"type":"Polygon","properties":{"state":"RI","name":"KINGSTON","zip":"02881"}},{"arcs":[[-120,-113,124]],"type":"Polygon","properties":{"state":"RI","name":"NARRAGANSETT","zip":"02882"}},{"arcs":[[125,-12,126]],"type":"Polygon","properties":{"state":"RI","name":"WARREN","zip":"02885"}},{"arcs":[[-44,127,128,129,130,131]],"type":"Polygon","properties":{"state":"RI","name":"WARWICK","zip":"02886"}},{"arcs":[[132,-130,133,134,135,136]],"type":"Polygon","properties":{"state":"RI","name":"WARWICK","zip":"02888"}},{"arcs":[[-131,-133,137]],"type":"Polygon","properties":{"state":"RI","name":"WARWICK","zip":"02889"}},{"arcs":[[138,-5,-10,-20,139]],"type":"Polygon","properties":{"state":"RI","name":"WESTERLY","zip":"02891"}},{"arcs":[[-14,140,-47,-116,-124,-122,-22]],"type":"Polygon","properties":{"state":"RI","name":"WEST KINGSTON","zip":"02892"}},{"arcs":[[-43,-36,141,142,-128]],"type":"Polygon","properties":{"state":"RI","name":"WEST WARWICK","zip":"02893"}},{"arcs":[[-71,143,-16,-21,-11]],"type":"Polygon","properties":{"state":"RI","name":"WOOD RIVER JUNCTION","zip":"02894"}},{"arcs":[[144,145,-108,-78]],"type":"Polygon","properties":{"state":"RI","name":"WOONSOCKET","zip":"02895"}},{"arcs":[[146,-65,147,-145,-77,-111]],"type":"Polygon","properties":{"state":"RI","name":"NORTH SMITHFIELD","zip":"02896"}},{"arcs":[[-144,-70,-48,-141,-17]],"type":"Polygon","properties":{"state":"RI","name":"WYOMING","zip":"02898"}},{"arcs":[[148,149,150,151,152,153]],"type":"Polygon","properties":{"state":"RI","name":"PROVIDENCE","zip":"02903"}},{"arcs":[[154,155,156,-109,-97,157]],"type":"Polygon","properties":{"state":"RI","name":"PROVIDENCE","zip":"02904"}},{"arcs":[[158,159,-154,160,-136]],"type":"Polygon","properties":{"state":"RI","name":"PROVIDENCE","zip":"02905"}},{"arcs":[[-152,-158,-96,161]],"type":"Polygon","properties":{"state":"RI","name":"PROVIDENCE","zip":"02906"}},{"arcs":[[162,163,164,-149,-160]],"type":"Polygon","properties":{"state":"RI","name":"PROVIDENCE","zip":"02907"}},{"arcs":[[165,166,-155,-151]],"type":"Polygon","properties":{"state":"RI","name":"PROVIDENCE","zip":"02908"}},{"arcs":[[167,168,-166,-150,-165,169]],"type":"Polygon","properties":{"state":"RI","name":"PROVIDENCE","zip":"02909"}},{"arcs":[[170,-163,-159,-135]],"type":"Polygon","properties":{"state":"RI","name":"CRANSTON","zip":"02910"}},{"arcs":[[171,172,-156,-167,-169]],"type":"Polygon","properties":{"state":"RI","name":"NORTH PROVIDENCE","zip":"02911"}},{"arcs":[[173,174,175,176]],"type":"Polygon","properties":{"state":"RI","name":"EAST PROVIDENCE","zip":"02914"}},{"arcs":[[-6,177,-175,178]],"type":"Polygon","properties":{"state":"RI","name":"RIVERSIDE","zip":"02915"}},{"arcs":[[179,-177,180,-94,-103]],"type":"Polygon","properties":{"state":"RI","name":"RUMFORD","zip":"02916"}},{"arcs":[[181,-58,-28,-60,-147,-110,-157,-173]],"type":"Polygon","properties":{"state":"RI","name":"SMITHFIELD","zip":"02917"}},{"arcs":[[182,183,-91,-59,-182,-172,-168]],"type":"Polygon","properties":{"state":"RI","name":"JOHNSTON","zip":"02919"}},{"arcs":[[184,-183,-170,-164,-171,-134,-129,-143]],"type":"Polygon","properties":{"state":"RI","name":"CRANSTON","zip":"02920"}},{"arcs":[[-90,-184,-185,-142,-67]],"type":"Polygon","properties":{"state":"RI","name":"CRANSTON","zip":"02921"}}]}},"arcs":[[[41255,17254],[0,61]],[[41255,17315],[32,-18]],[[41287,17297],[27,-23]],[[41314,17274],[-36,-38]],[[41278,17236],[-23,18]],[[41602,17597],[22,21]],[[41624,17618],[18,-69],[-40,48]],[[41413,16974],[13,89],[27,-71],[-40,-18]],[[41309,17256],[-4,-35]],[[41305,17221],[-27,15]],[[41314,17274],[-5,-18]],[[41651,17554],[23,5]],[[41674,17559],[0,-74],[-23,69]],[[41372,17338],[9,-54]],[[41381,17284],[-31,13]],[[41350,17297],[13,33]],[[41363,17330],[9,8]],[[41413,17282],[-23,-87]],[[41390,17195],[-76,-30]],[[41314,17165],[-9,56]],[[41309,17256],[41,41]],[[41381,17284],[9,0],[5,3],[18,-5]],[[41305,17704],[-50,-2]],[[41255,17702],[0,50],[0,26],[0,30]],[[41255,17808],[117,-10]],[[41372,17798],[18,-15]],[[41390,17783],[27,0]],[[41417,17783],[9,-26]],[[41426,17757],[0,-35]],[[41426,17722],[-121,-18]],[[41462,17506],[-13,-3]],[[41449,17503],[-149,-2]],[[41300,17501],[54,71]],[[41354,17572],[23,0]],[[41377,17572],[81,2]],[[41458,17574],[4,-68]],[[41449,17442],[-189,-5]],[[41260,17437],[4,46],[0,15]],[[41264,17498],[36,3]],[[41449,17503],[0,-61]],[[41530,17485],[-59,-40]],[[41471,17445],[-22,-3]],[[41462,17506],[23,17]],[[41485,17523],[40,6]],[[41525,17529],[5,-44]],[[41471,17384],[0,-16],[0,-15]],[[41471,17353],[-99,48]],[[41372,17401],[-18,-2]],[[41354,17399],[-94,-15]],[[41260,17384],[0,53]],[[41471,17445],[0,-61]],[[41354,17572],[-94,-3]],[[41260,17569],[0,51],[0,31],[-5,38],[0,7],[0,6]],[[41305,17704],[112,-109]],[[41417,17595],[-40,-23]],[[41264,17498],[0,10],[-4,61]],[[41426,17707],[0,15]],[[41426,17757],[36,-45]],[[41462,17712],[-36,-5]],[[41422,17783],[-5,0]],[[41390,17783],[-18,20]],[[41372,17803],[-4,5]],[[41368,17808],[-50,54]],[[41318,17862],[27,2],[59,0]],[[41404,17864],[18,-81]],[[41417,17595],[27,23]],[[41444,17618],[14,-44]],[[41287,17297],[-27,36]],[[41260,17333],[0,10],[0,41]],[[41354,17399],[-31,-61]],[[41323,17338],[-9,-64]],[[41255,17315],[5,18]],[[41778,17404],[4,-69],[-58,-43],[-9,92]],[[41715,17384],[63,20]],[[41498,17829],[27,-26]],[[41525,17803],[-31,10]],[[41494,17813],[0,16]],[[41494,17829],[4,0]],[[41372,17798],[0,5]],[[41624,17351],[9,7]],[[41633,17358],[18,-30]],[[41651,17328],[-49,-41],[22,64]],[[41638,17394],[-5,-36]],[[41624,17351],[14,43]],[[41638,17394],[4,10]],[[41642,17404],[55,-51]],[[41697,17353],[-46,-25]],[[41530,17485],[9,-101]],[[41539,17384],[-68,0]],[[41440,17635],[4,-17]],[[41426,17707],[14,-72]],[[41368,17808],[4,-5]],[[41255,17808],[0,51],[63,3]],[[41593,17707],[-9,-3]],[[41584,17704],[-5,0]],[[41579,17704],[-13,0]],[[41566,17704],[-18,23]],[[41548,17727],[13,8]],[[41561,17735],[18,7]],[[41579,17742],[5,0]],[[41584,17742],[9,-35]],[[41584,17742],[27,5],[4,-38]],[[41615,17709],[-22,-2]],[[41561,17735],[9,12]],[[41570,17747],[9,-5]],[[41521,17869],[58,0],[0,-33],[0,-71],[0,-23]],[[41570,17747],[-45,56]],[[41498,17829],[23,40]],[[41548,17727],[-36,-5]],[[41512,17722],[-18,71]],[[41494,17793],[0,20]],[[41642,17404],[64,94],[-9,-145]],[[41548,17330],[-18,-2]],[[41530,17328],[-36,7]],[[41494,17335],[-18,5]],[[41476,17340],[-5,13]],[[41539,17384],[9,-54]],[[41724,17518],[13,-5],[32,-43],[9,-66]],[[41715,17384],[9,134]],[[41530,17328],[-54,-120]],[[41476,17208],[-86,-13]],[[41413,17282],[36,18]],[[41449,17300],[45,35]],[[41449,17300],[27,40]],[[41548,17330],[-72,-122]],[[41656,17607],[45,-50],[-27,2]],[[41651,17554],[5,53]],[[41485,17523],[13,54]],[[41498,17577],[32,8]],[[41530,17585],[22,-8]],[[41552,17577],[-4,-36]],[[41548,17541],[-23,-12]],[[41570,17577],[-18,0]],[[41530,17585],[4,17]],[[41534,17602],[23,8]],[[41557,17610],[13,0]],[[41570,17610],[0,-33]],[[41570,17577],[14,-61],[-36,25]],[[41206,17155],[13,89],[36,10]],[[41314,17165],[-108,-10]],[[41372,17338],[0,63]],[[41458,17574],[31,0]],[[41489,17574],[9,3]],[[41323,17338],[40,-8]],[[41494,17829],[-32,38]],[[41462,17867],[27,2],[32,0]],[[41494,17793],[-72,-10]],[[41404,17864],[13,0],[23,3],[22,0]],[[41552,17661],[-4,2]],[[41548,17663],[-9,11]],[[41539,17674],[18,5]],[[41557,17679],[18,-13]],[[41575,17666],[-9,-15]],[[41566,17651],[-14,10]],[[41557,17679],[-32,20]],[[41525,17699],[-18,20]],[[41507,17719],[5,3]],[[41566,17704],[-9,-25]],[[41557,17610],[-5,8]],[[41552,17618],[0,43]],[[41566,17651],[4,-41]],[[41579,17704],[-4,-38]],[[41552,17618],[-18,20]],[[41534,17638],[0,13]],[[41534,17651],[14,12]],[[41539,17674],[-27,15]],[[41512,17689],[13,10]],[[41516,17651],[-9,33]],[[41507,17684],[5,5]],[[41534,17651],[-18,0]],[[41534,17602],[0,36]],[[41507,17684],[-18,33]],[[41489,17717],[18,2]],[[41606,17671],[14,-36]],[[41620,17635],[-41,8]],[[41579,17643],[5,33]],[[41584,17676],[22,-5]],[[41602,17597],[-23,46]],[[41620,17635],[9,-12],[0,-3],[-5,-2]],[[41615,17709],[-9,-38]],[[41584,17676],[0,28]],[[41489,17717],[-27,-5]],[[41516,17651],[-22,-13]],[[41494,17638],[-54,-3]],[[41489,17574],[5,64]]]}