{"type":"Topology","transform":{"scale":[0.0012831345112129487,0.0009745357309423489],"translate":[-124.73273099999999,24.60334863324381]},"objects":{"area":{"type":"GeometryCollection","geometries":[{"arcs":[[0,1,2,3]],"type":"Polygon","properties":{"state":"SD","name":"ALCESTER","zip":"57001"}},{"arcs":[[4,5,6,7]],"type":"Polygon","properties":{"state":"SD","name":"AURORA","zip":"57002"}},{"arcs":[[8,9,10,11,12,13]],"type":"Polygon","properties":{"state":"SD","name":"BALTIC","zip":"57003"}},{"arcs":[[14,15,16,17,18,19,20,21,-3]],"type":"Polygon","properties":{"state":"SD","name":"BERESFORD","zip":"57004"}},{"arcs":[[22,23,24,25,26]],"type":"Polygon","properties":{"state":"SD","name":"BRANDON","zip":"57005"}},{"arcs":[[27,28,29,-5,30]],"type":"Polygon","properties":{"state":"SD","name":"BROOKINGS","zip":"57006"}},{"arcs":[[31,32,33,-16]],"type":"Polygon","properties":{"state":"SD","name":"BURBANK","zip":"57010"}},{"arcs":[[34,35,36,37,38,39,40]],"type":"Polygon","properties":{"state":"SD","name":"CANISTOTA","zip":"57012"}},{"arcs":[[41,42,43,44,45,-21]],"type":"Polygon","properties":{"state":"SD","name":"CANTON","zip":"57013"}},{"arcs":[[46,47,48,49,50,-18,51]],"type":"Polygon","properties":{"state":"SD","name":"CENTERVILLE","zip":"57014"}},{"arcs":[[52,53,54,55,56,57]],"type":"Polygon","properties":{"state":"SD","name":"CHANCELLOR","zip":"57015"}},{"arcs":[[58,59,60,61,62]],"type":"Polygon","properties":{"state":"SD","name":"CHESTER","zip":"57016"}},{"arcs":[[63,64,-61,65,66,67]],"type":"Polygon","properties":{"state":"SD","name":"COLMAN","zip":"57017"}},{"arcs":[[68,69,70,-63,71,-11,72]],"type":"Polygon","properties":{"state":"SD","name":"COLTON","zip":"57018"}},{"arcs":[[73,74,-9,75]],"type":"Polygon","properties":{"state":"SD","name":"CROOKS","zip":"57020"}},{"arcs":[[76,77,-54,78,-50]],"type":"Polygon","properties":{"state":"SD","name":"DAVIS","zip":"57021"}},{"arcs":[[-62,-65,79,80,-12,-72]],"type":"Polygon","properties":{"state":"SD","name":"DELL RAPIDS","zip":"57022"}},{"arcs":[[81,-68,82]],"type":"Polygon","properties":{"state":"SD","name":"EGAN","zip":"57024"}},{"arcs":[[83,84,85,-32,-15,-2]],"type":"Polygon","properties":{"state":"SD","name":"ELK POINT","zip":"57025"}},{"arcs":[[86,-7,87,88]],"type":"Polygon","properties":{"state":"SD","name":"ELKTON","zip":"57026"}},{"arcs":[[89,90,-45]],"type":"Polygon","properties":{"state":"SD","name":"FAIRVIEW","zip":"57027"}},{"arcs":[[91,92,93,-31,-8,-87,94,95,-83,-67]],"type":"Polygon","properties":{"state":"SD","name":"FLANDREAU","zip":"57028"}},{"arcs":[[96,97,98,99,100,101,102]],"type":"Polygon","properties":{"state":"SD","name":"FREEMAN","zip":"57029"}},{"arcs":[[103,104,-27,105,106,-13,-81,107]],"type":"Polygon","properties":{"state":"SD","name":"GARRETSON","zip":"57030"}},{"arcs":[[108,109,110,111,112,113]],"type":"Polygon","properties":{"state":"SD","name":"GAYVILLE","zip":"57031"}},{"arcs":[[114,115,116,117,-43,118]],"type":"Polygon","properties":{"state":"SD","name":"HARRISBURG","zip":"57032"}},{"arcs":[[119,-57,120,121,-73,-10,-75,122,123]],"type":"Polygon","properties":{"state":"SD","name":"HARTFORD","zip":"57033"}},{"arcs":[[124,-4,-22,-46,-91]],"type":"Polygon","properties":{"state":"SD","name":"HUDSON","zip":"57034"}},{"arcs":[[125,-69,-122,126,-38]],"type":"Polygon","properties":{"state":"SD","name":"HUMBOLDT","zip":"57035"}},{"arcs":[[127,-97,128,129,-55,-78]],"type":"Polygon","properties":{"state":"SD","name":"HURLEY","zip":"57036"}},{"arcs":[[130,131,132,133,-48,134,135]],"type":"Polygon","properties":{"state":"SD","name":"IRENE","zip":"57037"}},{"arcs":[[136,137,-85,138]],"type":"Polygon","properties":{"state":"SD","name":"JEFFERSON","zip":"57038"}},{"arcs":[[139,-19,-51,-79,-53,140,-115]],"type":"Polygon","properties":{"state":"SD","name":"LENNOX","zip":"57039"}},{"arcs":[[141,142,143,144]],"type":"Polygon","properties":{"state":"SD","name":"LESTERVILLE","zip":"57040"}},{"arcs":[[-71,145,146,147,148,149,150,-59]],"type":"Polygon","properties":{"state":"SD","name":"MADISON","zip":"57042"}},{"arcs":[[151,-129,-103,152,-41,153]],"type":"Polygon","properties":{"state":"SD","name":"MARION","zip":"57043"}},{"arcs":[[154,155,156,-109]],"type":"Polygon","properties":{"state":"SD","name":"MECKLING","zip":"57044"}},{"arcs":[[157,-99,158,-133,159,-145]],"type":"Polygon","properties":{"state":"SD","name":"MENNO","zip":"57045"}},{"arcs":[[160,161,-131,162,-113]],"type":"Polygon","properties":{"state":"SD","name":"MISSION HILL","zip":"57046"}},{"arcs":[[-40,163,-154]],"type":"Polygon","properties":{"state":"SD","name":"MONROE","zip":"57047"}},{"arcs":[[-37,164,-146,-70,-126]],"type":"Polygon","properties":{"state":"SD","name":"MONTROSE","zip":"57048"}},{"arcs":[[165,-137]],"type":"Polygon","properties":{"state":"SD","name":"NORTH SIOUX CITY","zip":"57049"}},{"arcs":[[166,-149,167,168,169,-93]],"type":"Polygon","properties":{"state":"SD","name":"NUNDA","zip":"57050"}},{"arcs":[[170,171,172,173,174]],"type":"Polygon","properties":{"state":"SD","name":"OLDHAM","zip":"57051"}},{"arcs":[[175,176,177,178,-100,-158,179]],"type":"Polygon","properties":{"state":"SD","name":"OLIVET","zip":"57052"}},{"arcs":[[-130,-152,-164,-39,-127,-121,-56]],"type":"Polygon","properties":{"state":"SD","name":"PARKER","zip":"57053"}},{"arcs":[[180,181,-171,182,-168,-148]],"type":"Polygon","properties":{"state":"SD","name":"RAMONA","zip":"57054"}},{"arcs":[[183,-76,-14,-107,184]],"type":"Polygon","properties":{"state":"SD","name":"RENNER","zip":"57055"}},{"arcs":[[185,-150,-167,-92]],"type":"Polygon","properties":{"state":"SD","name":"RUTLAND","zip":"57057"}},{"arcs":[[-36,186,187,188,-165]],"type":"Polygon","properties":{"state":"SD","name":"SALEM","zip":"57058"}},{"arcs":[[189,190,191,192,193,-180,-144]],"type":"Polygon","properties":{"state":"SD","name":"SCOTLAND","zip":"57059"}},{"arcs":[[194,195,196,197,198]],"type":"Polygon","properties":{"state":"SD","name":"SPRINGFIELD","zip":"57062"}},{"arcs":[[199,-190,-143,200,201,202,-198]],"type":"Polygon","properties":{"state":"SD","name":"TABOR","zip":"57063"}},{"arcs":[[-120,203,204,-116,-141,-58]],"type":"Polygon","properties":{"state":"SD","name":"TEA","zip":"57064"}},{"arcs":[[-82,-96,205,-108,-80,-64]],"type":"Polygon","properties":{"state":"SD","name":"TRENT","zip":"57065"}},{"arcs":[[-197,206,-191,-200]],"type":"Polygon","properties":{"state":"SD","name":"TYNDALL","zip":"57066"}},{"arcs":[[-160,-132,-162,207,-201,-142]],"type":"Polygon","properties":{"state":"SD","name":"UTICA","zip":"57067"}},{"arcs":[[208,-23,-105]],"type":"Polygon","properties":{"state":"SD","name":"VALLEY SPRINGS","zip":"57068"}},{"arcs":[[209,-52,-17,-34,210,-110,-157]],"type":"Polygon","properties":{"state":"SD","name":"VERMILLION","zip":"57069"}},{"arcs":[[-98,-128,-77,-49,-134,-159]],"type":"Polygon","properties":{"state":"SD","name":"VIBORG","zip":"57070"}},{"arcs":[[-170,211,212,-28,-94]],"type":"Polygon","properties":{"state":"SD","name":"VOLGA","zip":"57071"}},{"arcs":[[-136,213,-155,-114,-163]],"type":"Polygon","properties":{"state":"SD","name":"VOLIN","zip":"57072"}},{"arcs":[[-156,-214,-135,-47,-210]],"type":"Polygon","properties":{"state":"SD","name":"WAKONDA","zip":"57073"}},{"arcs":[[-151,-186,-66,-60]],"type":"Polygon","properties":{"state":"SD","name":"WENTWORTH","zip":"57075"}},{"arcs":[[-189,214,215,-181,-147]],"type":"Polygon","properties":{"state":"SD","name":"WINFRED","zip":"57076"}},{"arcs":[[-20,-140,-119,-42]],"type":"Polygon","properties":{"state":"SD","name":"WORTHING","zip":"57077"}},{"arcs":[[-202,-208,-161,-112,216]],"type":"Polygon","properties":{"state":"SD","name":"YANKTON","zip":"57078"}},{"arcs":[[217,218,219,220]],"type":"Polygon","properties":{"state":"SD","name":"SIOUX FALLS","zip":"57103"}},{"arcs":[[221,-185,-106,-26,222,-221,223]],"type":"Polygon","properties":{"state":"SD","name":"SIOUX FALLS","zip":"57104"}},{"arcs":[[224,225,-224,-220]],"type":"Polygon","properties":{"state":"SD","name":"SIOUX FALLS","zip":"57105"}},{"arcs":[[226,-204,-124,227,-226]],"type":"Polygon","properties":{"state":"SD","name":"SIOUX FALLS","zip":"57106"}},{"arcs":[[-123,-74,-184,-222,-228]],"type":"Polygon","properties":{"state":"SD","name":"SIOUX FALLS","zip":"57107"}},{"arcs":[[228,-117,-205,-227,-225,-219,229]],"type":"Polygon","properties":{"state":"SD","name":"SIOUX FALLS","zip":"57108"}},{"arcs":[[-223,-25,-230,-218]],"type":"Polygon","properties":{"state":"SD","name":"SIOUX FALLS","zip":"57110"}},{"arcs":[[230,231,232,233,234,235,236]],"type":"Polygon","properties":{"state":"SD","name":"WATERTOWN","zip":"57201"}},{"arcs":[[237,238,239,240,241,242,-212,-169,-183,-175]],"type":"Polygon","properties":{"state":"SD","name":"ARLINGTON","zip":"57212"}},{"arcs":[[243,244,245,246]],"type":"Polygon","properties":{"state":"SD","name":"ASTORIA","zip":"57213"}},{"arcs":[[247,248,249]],"type":"Polygon","properties":{"state":"SD","name":"BIG STONE CITY","zip":"57216"}},{"arcs":[[250,251,252,253,254,255,256]],"type":"Polygon","properties":{"state":"SD","name":"BRADLEY","zip":"57217"}},{"arcs":[[257,258,259,260,-247,261]],"type":"Polygon","properties":{"state":"SD","name":"BRANDT","zip":"57218"}},{"arcs":[[262,-253,263,264,265]],"type":"Polygon","properties":{"state":"SD","name":"BRISTOL","zip":"57219"}},{"arcs":[[-213,-243,266,267,268,-29]],"type":"Polygon","properties":{"state":"SD","name":"BRUCE","zip":"57220"}},{"arcs":[[269,270,271,272,273,274,275]],"type":"Polygon","properties":{"state":"SD","name":"BRYANT","zip":"57221"}},{"arcs":[[276,277,278,279,-236,280,281]],"type":"Polygon","properties":{"state":"SD","name":"CASTLEWOOD","zip":"57223"}},{"arcs":[[282,283,284,285]],"type":"Polygon","properties":{"state":"SD","name":"CLAIRE CITY","zip":"57224"}},{"arcs":[[286,287,-251,288,289,290,291]],"type":"Polygon","properties":{"state":"SD","name":"CLARK","zip":"57225"}},{"arcs":[[-282,292,293,-259]],"type":"Polygon","properties":{"state":"SD","name":"CLEAR LAKE","zip":"57226"}},{"arcs":[[294,295,-249,296,297]],"type":"Polygon","properties":{"state":"SD","name":"CORONA","zip":"57227"}},{"arcs":[[298,299,300,301,-272,302,303,-173]],"type":"Polygon","properties":{"state":"SD","name":"DE SMET","zip":"57231"}},{"arcs":[[304,305,306,307,308]],"type":"Polygon","properties":{"state":"SD","name":"EDEN","zip":"57232"}},{"arcs":[[309,310,-303,-271,311,-240]],"type":"Polygon","properties":{"state":"SD","name":"ERWIN","zip":"57233"}},{"arcs":[[312,-277,-258,313,-267,-242]],"type":"Polygon","properties":{"state":"SD","name":"ESTELLINE","zip":"57234"}},{"arcs":[[314,315,316,317,-232]],"type":"Polygon","properties":{"state":"SD","name":"FLORENCE","zip":"57235"}},{"arcs":[[-257,318,-289]],"type":"Polygon","properties":{"state":"SD","name":"GARDEN CITY","zip":"57236"}},{"arcs":[[-294,319,320,321,-260]],"type":"Polygon","properties":{"state":"SD","name":"GARY","zip":"57237"}},{"arcs":[[322,323,324,-320,-293,-281,-235]],"type":"Polygon","properties":{"state":"SD","name":"GOODWIN","zip":"57238"}},{"arcs":[[325,326,327,-307,328]],"type":"Polygon","properties":{"state":"SD","name":"GRENVILLE","zip":"57239"}},{"arcs":[[329,-276,330,-279]],"type":"Polygon","properties":{"state":"SD","name":"HAYTI","zip":"57241"}},{"arcs":[[331,332,-237,-280,-331,-275]],"type":"Polygon","properties":{"state":"SD","name":"HAZEL","zip":"57242"}},{"arcs":[[-333,-290,-319,-256,333,-315,-231]],"type":"Polygon","properties":{"state":"SD","name":"HENRY","zip":"57243"}},{"arcs":[[334,-310,-239]],"type":"Polygon","properties":{"state":"SD","name":"HETLAND","zip":"57244"}},{"arcs":[[335,336,337,338,-324]],"type":"Polygon","properties":{"state":"SD","name":"LABOLT","zip":"57246"}},{"arcs":[[339,-309,340,341]],"type":"Polygon","properties":{"state":"SD","name":"LAKE CITY","zip":"57247"}},{"arcs":[[-241,-312,-270,-330,-278,-313]],"type":"Polygon","properties":{"state":"SD","name":"LAKE NORDEN","zip":"57248"}},{"arcs":[[-311,-335,-238,-174,-304]],"type":"Polygon","properties":{"state":"SD","name":"LAKE PRESTON","zip":"57249"}},{"arcs":[[342,343,344]],"type":"Polygon","properties":{"state":"SD","name":"MARVIN","zip":"57251"}},{"arcs":[[345,-338,346,347,-297,-248,348]],"type":"Polygon","properties":{"state":"SD","name":"MILBANK","zip":"57252"}},{"arcs":[[349,-286,350,351]],"type":"Polygon","properties":{"state":"SD","name":"NEW EFFINGTON","zip":"57255"}},{"arcs":[[352,353,354,355,356,357]],"type":"Polygon","properties":{"state":"SD","name":"ORTLEY","zip":"57256"}},{"arcs":[[358,359,360,361,362,-355]],"type":"Polygon","properties":{"state":"SD","name":"PEEVER","zip":"57257"}},{"arcs":[[363,364,365,366,-287]],"type":"Polygon","properties":{"state":"SD","name":"RAYMOND","zip":"57258"}},{"arcs":[[-325,-339,-346,367,-321]],"type":"Polygon","properties":{"state":"SD","name":"REVILLO","zip":"57259"}},{"arcs":[[368,-352,369]],"type":"Polygon","properties":{"state":"SD","name":"ROSHOLT","zip":"57260"}},{"arcs":[[370,371,372,-327]],"type":"Polygon","properties":{"state":"SD","name":"ROSLYN","zip":"57261"}},{"arcs":[[373,-360,-305,-340,374,-283,-350,-369]],"type":"Polygon","properties":{"state":"SD","name":"SISSETON","zip":"57262"}},{"arcs":[[375,376,-233,-318,-358,377]],"type":"Polygon","properties":{"state":"SD","name":"SOUTH SHORE","zip":"57263"}},{"arcs":[[378,-376,379,-347,-337]],"type":"Polygon","properties":{"state":"SD","name":"STOCKHOLM","zip":"57264"}},{"arcs":[[-323,-234,-377,-379,-336]],"type":"Polygon","properties":{"state":"SD","name":"STRANDBURG","zip":"57265"}},{"arcs":[[380,-356,-363,381,-344]],"type":"Polygon","properties":{"state":"SD","name":"SUMMIT","zip":"57266"}},{"arcs":[[-314,-262,-246,382,-268]],"type":"Polygon","properties":{"state":"SD","name":"TORONTO","zip":"57268"}},{"arcs":[[-357,-381,-343,383,-298,-348,-380,-378]],"type":"Polygon","properties":{"state":"SD","name":"TWIN BROOKS","zip":"57269"}},{"arcs":[[-342,384,385,-284,-375]],"type":"Polygon","properties":{"state":"SD","name":"VEBLEN","zip":"57270"}},{"arcs":[[386,-291,-332,-274]],"type":"Polygon","properties":{"state":"SD","name":"VIENNA","zip":"57271"}},{"arcs":[[-334,-255,387,-316]],"type":"Polygon","properties":{"state":"SD","name":"WALLACE","zip":"57272"}},{"arcs":[[388,-329,-306,-359,-354]],"type":"Polygon","properties":{"state":"SD","name":"WAUBAY","zip":"57273"}},{"arcs":[[389,-371,-326,-389,-353,-317,-388,-254,-263]],"type":"Polygon","properties":{"state":"SD","name":"WEBSTER","zip":"57274"}},{"arcs":[[390,-88,-6,-30,-269,-383,-245]],"type":"Polygon","properties":{"state":"SD","name":"WHITE","zip":"57276"}},{"arcs":[[-302,391,392,-292,-387,-273]],"type":"Polygon","properties":{"state":"SD","name":"WILLOW LAKE","zip":"57278"}},{"arcs":[[-382,-362,393,-295,-384,-345]],"type":"Polygon","properties":{"state":"SD","name":"WILMOT","zip":"57279"}},{"arcs":[[394,395,396,397,398,399]],"type":"Polygon","properties":{"state":"SD","name":"MITCHELL","zip":"57301"}},{"arcs":[[400,-395,401,402,403,404,405,406]],"type":"Polygon","properties":{"state":"SD","name":"ALEXANDRIA","zip":"57311"}},{"arcs":[[407,408,409,410]],"type":"Polygon","properties":{"state":"SD","name":"ALPENA","zip":"57312"}},{"arcs":[[411,412,413,414,415,416]],"type":"Polygon","properties":{"state":"SD","name":"ARMOUR","zip":"57313"}},{"arcs":[[417,418,419,420,421,422,423,424,-399]],"type":"Polygon","properties":{"state":"SD","name":"ARTESIAN","zip":"57314"}},{"arcs":[[-196,425,426,427,428,429,-192,-207]],"type":"Polygon","properties":{"state":"SD","name":"AVON","zip":"57315"}},{"arcs":[[430,431,432,433,434]],"type":"Polygon","properties":{"state":"SD","name":"BONESTEEL","zip":"57317"}},{"arcs":[[435,436,-35,-153,-102]],"type":"Polygon","properties":{"state":"SD","name":"BRIDGEWATER","zip":"57319"}},{"arcs":[[437,-404,438,439,-215,-188]],"type":"Polygon","properties":{"state":"SD","name":"CANOVA","zip":"57321"}},{"arcs":[[440,441,442,443,444,-364,-393]],"type":"Polygon","properties":{"state":"SD","name":"CARPENTER","zip":"57322"}},{"arcs":[[445,-423,446,-300,447]],"type":"Polygon","properties":{"state":"SD","name":"CARTHAGE","zip":"57323"}},{"arcs":[[448,-421,449,450]],"type":"Polygon","properties":{"state":"SD","name":"CAVOUR","zip":"57324"}},{"arcs":[[451,452,453,454,455,456,457]],"type":"Polygon","properties":{"state":"SD","name":"CHAMBERLAIN","zip":"57325"}},{"arcs":[[458,459,460,461,462,-416,463]],"type":"Polygon","properties":{"state":"SD","name":"CORSICA","zip":"57328"}},{"arcs":[[464,-427]],"type":"Polygon","properties":{"state":"SD","name":"DANTE","zip":"57329"}},{"arcs":[[465,-412,466,467,-429]],"type":"Polygon","properties":{"state":"SD","name":"DELMONT","zip":"57330"}},{"arcs":[[468,469,-462,470]],"type":"Polygon","properties":{"state":"SD","name":"DIMOCK","zip":"57331"}},{"arcs":[[471,-406,472,-436,-101,-179]],"type":"Polygon","properties":{"state":"SD","name":"EMERY","zip":"57332"}},{"arcs":[[473,-396,-401,474,-469]],"type":"Polygon","properties":{"state":"SD","name":"ETHAN","zip":"57334"}},{"arcs":[[475,476,477,478,-431]],"type":"Polygon","properties":{"state":"SD","name":"FAIRFAX","zip":"57335"}},{"arcs":[[-446,479,-439,-403,480,-424]],"type":"Polygon","properties":{"state":"SD","name":"FEDORA","zip":"57337"}},{"arcs":[[481,-452,482,483,484,485,486]],"type":"Polygon","properties":{"state":"SD","name":"FORT THOMPSON","zip":"57339"}},{"arcs":[[-425,-481,-402,-400]],"type":"Polygon","properties":{"state":"SD","name":"FULTON","zip":"57340"}},{"arcs":[[487,-453,-482,488,489,490]],"type":"Polygon","properties":{"state":"SD","name":"GANN VALLEY","zip":"57341"}},{"arcs":[[491,492,-464,-415,493,494]],"type":"Polygon","properties":{"state":"SD","name":"GEDDES","zip":"57342"}},{"arcs":[[495,496,-459,-493]],"type":"Polygon","properties":{"state":"SD","name":"HARRISON","zip":"57344"}},{"arcs":[[497,498,499,500,501,502,503,504,505,506,-486,507]],"type":"Polygon","properties":{"state":"SD","name":"HIGHMORE","zip":"57345"}},{"arcs":[[508,509,510,511,-444,512,513]],"type":"Polygon","properties":{"state":"SD","name":"HITCHCOCK","zip":"57348"}},{"arcs":[[-440,-480,-448,-299,-172,-182,-216]],"type":"Polygon","properties":{"state":"SD","name":"HOWARD","zip":"57349"}},{"arcs":[[-420,514,-410,515,516,-513,-443,517,-450]],"type":"Polygon","properties":{"state":"SD","name":"HURON","zip":"57350"}},{"arcs":[[518,-441,-392,-301,-447,-422,-449]],"type":"Polygon","properties":{"state":"SD","name":"IROQUOIS","zip":"57353"}},{"arcs":[[519,-176,-194]],"type":"Polygon","properties":{"state":"SD","name":"KAYLOR","zip":"57354"}},{"arcs":[[520,-454,-488,521,522,523,-456]],"type":"Polygon","properties":{"state":"SD","name":"KIMBALL","zip":"57355"}},{"arcs":[[524,525,-478,526,-494,-414]],"type":"Polygon","properties":{"state":"SD","name":"LAKE ANDES","zip":"57356"}},{"arcs":[[527,528,-418,-398,529]],"type":"Polygon","properties":{"state":"SD","name":"LETCHER","zip":"57359"}},{"arcs":[[530,531,-490,532,-506,533,534,535,536,537]],"type":"Polygon","properties":{"state":"SD","name":"MILLER","zip":"57362"}},{"arcs":[[-471,-461,538,539,-530,-397,-474]],"type":"Polygon","properties":{"state":"SD","name":"MOUNT VERNON","zip":"57363"}},{"arcs":[[540,-467,-417,-463,-470,-475,-407,-472,-178]],"type":"Polygon","properties":{"state":"SD","name":"PARKSTON","zip":"57366"}},{"arcs":[[541,542,543,544,-528,-540]],"type":"Polygon","properties":{"state":"SD","name":"PLANKINTON","zip":"57368"}},{"arcs":[[-492,545,-457,-524,546,547,-496]],"type":"Polygon","properties":{"state":"SD","name":"PLATTE","zip":"57369"}},{"arcs":[[-521,-455]],"type":"Polygon","properties":{"state":"SD","name":"PUKWANA","zip":"57370"}},{"arcs":[[-487,-507,-533,-489]],"type":"Polygon","properties":{"state":"SD","name":"REE HEIGHTS","zip":"57371"}},{"arcs":[[548,-538,549]],"type":"Polygon","properties":{"state":"SD","name":"SAINT LAWRENCE","zip":"57373"}},{"arcs":[[-405,-438,-187,-437,-473]],"type":"Polygon","properties":{"state":"SD","name":"SPENCER","zip":"57374"}},{"arcs":[[-548,550,-542,-539,-460,-497]],"type":"Polygon","properties":{"state":"SD","name":"STICKNEY","zip":"57375"}},{"arcs":[[-541,-177,-520,-193,-430,-468]],"type":"Polygon","properties":{"state":"SD","name":"TRIPP","zip":"57376"}},{"arcs":[[551,552,553,-516,-409]],"type":"Polygon","properties":{"state":"SD","name":"VIRGIL","zip":"57379"}},{"arcs":[[-426,-195,554,-525,-413,-466,-428,-465]],"type":"Polygon","properties":{"state":"SD","name":"WAGNER","zip":"57380"}},{"arcs":[[555,-509,556,-553,557,-531,-549]],"type":"Polygon","properties":{"state":"SD","name":"WESSINGTON","zip":"57381"}},{"arcs":[[558,-522,-491,-532,-558,-552,-408,559,-544]],"type":"Polygon","properties":{"state":"SD","name":"WESSINGTON SPRINGS","zip":"57382"}},{"arcs":[[-547,-523,-559,-543,-551]],"type":"Polygon","properties":{"state":"SD","name":"WHITE LAKE","zip":"57383"}},{"arcs":[[-554,-557,-514,-517]],"type":"Polygon","properties":{"state":"SD","name":"WOLSEY","zip":"57384"}},{"arcs":[[-411,-515,-419,-529,-545,-560]],"type":"Polygon","properties":{"state":"SD","name":"WOONSOCKET","zip":"57385"}},{"arcs":[[-451,-518,-442,-519]],"type":"Polygon","properties":{"state":"SD","name":"YALE","zip":"57386"}},{"arcs":[[560,561,562,563,564,565,566,567]],"type":"Polygon","properties":{"state":"SD","name":"ABERDEEN","zip":"57401"}},{"arcs":[[568,569,570]],"type":"Polygon","properties":{"state":"SD","name":"AMHERST","zip":"57421"}},{"arcs":[[571,572,573,574,-265,575]],"type":"Polygon","properties":{"state":"SD","name":"ANDOVER","zip":"57422"}},{"arcs":[[576,577,578,579,580,581]],"type":"Polygon","properties":{"state":"SD","name":"ASHTON","zip":"57424"}},{"arcs":[[582,583,-567]],"type":"Polygon","properties":{"state":"SD","name":"BATH","zip":"57427"}},{"arcs":[[584,585,586,587,588,589,590]],"type":"Polygon","properties":{"state":"SD","name":"BOWDLE","zip":"57428"}},{"arcs":[[591,-580,592,593]],"type":"Polygon","properties":{"state":"SD","name":"BRENTFORD","zip":"57429"}},{"arcs":[[594,595,596,-385,-341,597,-571]],"type":"Polygon","properties":{"state":"SD","name":"BRITTON","zip":"57430"}},{"arcs":[[598,-573,599,600,601,602,-595,-570]],"type":"Polygon","properties":{"state":"SD","name":"CLAREMONT","zip":"57432"}},{"arcs":[[603,604,605,-601,606,-583,-566]],"type":"Polygon","properties":{"state":"SD","name":"COLUMBIA","zip":"57433"}},{"arcs":[[607,-592,608,609,-576,-264,-252,-288,-367]],"type":"Polygon","properties":{"state":"SD","name":"CONDE","zip":"57434"}},{"arcs":[[610,611,612,613,614]],"type":"Polygon","properties":{"state":"SD","name":"CRESBARD","zip":"57435"}},{"arcs":[[615,616,617,-365,-445,-512]],"type":"Polygon","properties":{"state":"SD","name":"DOLAND","zip":"57436"}},{"arcs":[[618,619,620,621,622,623,624,-588]],"type":"Polygon","properties":{"state":"SD","name":"EUREKA","zip":"57437"}},{"arcs":[[625,626,627,628,-612,629,630]],"type":"Polygon","properties":{"state":"SD","name":"FAULKTON","zip":"57438"}},{"arcs":[[631,-616,-511]],"type":"Polygon","properties":{"state":"SD","name":"FRANKFORT","zip":"57440"}},{"arcs":[[632,633,634,635,-605,636]],"type":"Polygon","properties":{"state":"SD","name":"FREDERICK","zip":"57441"}},{"arcs":[[637,638,639,640,641,642,643]],"type":"Polygon","properties":{"state":"SD","name":"GETTYSBURG","zip":"57442"}},{"arcs":[[644,-568,-584,-607,-600,-572,-610]],"type":"Polygon","properties":{"state":"SD","name":"GROTON","zip":"57445"}},{"arcs":[[645,-635,646,-596,-603]],"type":"Polygon","properties":{"state":"SD","name":"HECLA","zip":"57446"}},{"arcs":[[647,-589,-625,648]],"type":"Polygon","properties":{"state":"SD","name":"HOSMER","zip":"57448"}},{"arcs":[[-606,-636,-646,-602]],"type":"Polygon","properties":{"state":"SD","name":"HOUGHTON","zip":"57449"}},{"arcs":[[649,650,-586,651,652,-639]],"type":"Polygon","properties":{"state":"SD","name":"HOVEN","zip":"57450"}},{"arcs":[[653,654,655,656,657,-613,-629]],"type":"Polygon","properties":{"state":"SD","name":"IPSWICH","zip":"57451"}},{"arcs":[[658,659,-619,-587,-651]],"type":"Polygon","properties":{"state":"SD","name":"JAVA","zip":"57452"}},{"arcs":[[660,-574,-599,-569,-598,-308,-328,-373]],"type":"Polygon","properties":{"state":"SD","name":"LANGFORD","zip":"57454"}},{"arcs":[[661,-640,-653,662,663,-503]],"type":"Polygon","properties":{"state":"SD","name":"LEBANON","zip":"57455"}},{"arcs":[[664,-649,-624,665,666,-633,667,-655]],"type":"Polygon","properties":{"state":"SD","name":"LEOLA","zip":"57456"}},{"arcs":[[668,-666,-623]],"type":"Polygon","properties":{"state":"SD","name":"LONGLAKE","zip":"57457"}},{"arcs":[[-658,669,-563,670,671,672,-614]],"type":"Polygon","properties":{"state":"SD","name":"MANSFIELD","zip":"57460"}},{"arcs":[[673,-672,674,675,-593,-579]],"type":"Polygon","properties":{"state":"SD","name":"MELLETTE","zip":"57461"}},{"arcs":[[676,-564,-670,-657]],"type":"Polygon","properties":{"state":"SD","name":"MINA","zip":"57462"}},{"arcs":[[677,-615,-673,-674,-578]],"type":"Polygon","properties":{"state":"SD","name":"NORTHVILLE","zip":"57465"}},{"arcs":[[678,-591,679,-627,680]],"type":"Polygon","properties":{"state":"SD","name":"ONAKA","zip":"57466"}},{"arcs":[[-505,681,-631,682,-534]],"type":"Polygon","properties":{"state":"SD","name":"ORIENT","zip":"57467"}},{"arcs":[[-266,-575,-661,-372,-390]],"type":"Polygon","properties":{"state":"SD","name":"PIERPONT","zip":"57468"}},{"arcs":[[683,-582,-617,-632,684,-536]],"type":"Polygon","properties":{"state":"SD","name":"REDFIELD","zip":"57469"}},{"arcs":[[-535,-683,-630,-611,-678,-577,-684]],"type":"Polygon","properties":{"state":"SD","name":"ROCKHAM","zip":"57470"}},{"arcs":[[-590,-648,-665,-654,-628,-680]],"type":"Polygon","properties":{"state":"SD","name":"ROSCOE","zip":"57471"}},{"arcs":[[685,686,687,-659,-650,-638,688]],"type":"Polygon","properties":{"state":"SD","name":"SELBY","zip":"57472"}},{"arcs":[[689,-681,-626,-682,-504,-664]],"type":"Polygon","properties":{"state":"SD","name":"SENECA","zip":"57473"}},{"arcs":[[690,-561,-645,-609,-594,-676]],"type":"Polygon","properties":{"state":"SD","name":"STRATFORD","zip":"57474"}},{"arcs":[[-663,-652,-585,-679,-690]],"type":"Polygon","properties":{"state":"SD","name":"TOLSTOY","zip":"57475"}},{"arcs":[[-550,-537,-685,-510,-556]],"type":"Polygon","properties":{"state":"SD","name":"TULARE","zip":"57476"}},{"arcs":[[-618,-581,-608,-366]],"type":"Polygon","properties":{"state":"SD","name":"TURTON","zip":"57477"}},{"arcs":[[-675,-671,-562,-691]],"type":"Polygon","properties":{"state":"SD","name":"WARNER","zip":"57479"}},{"arcs":[[-668,-637,-604,-565,-677,-656]],"type":"Polygon","properties":{"state":"SD","name":"WESTPORT","zip":"57481"}},{"arcs":[[691,-498,692,693,694,695,696,697]],"type":"Polygon","properties":{"state":"SD","name":"PIERRE","zip":"57501"}},{"arcs":[[698,-642]],"type":"Polygon","properties":{"state":"SD","name":"AGAR","zip":"57520"}},{"arcs":[[699,700,701,702,703]],"type":"Polygon","properties":{"state":"SD","name":"BELVIDERE","zip":"57521"}},{"arcs":[[-692,704,705,-499]],"type":"Polygon","properties":{"state":"SD","name":"BLUNT","zip":"57522"}},{"arcs":[[706,707,708,709,710,-476,-435]],"type":"Polygon","properties":{"state":"SD","name":"BURKE","zip":"57523"}},{"arcs":[[711,712,713,714,715]],"type":"Polygon","properties":{"state":"SD","name":"CARTER","zip":"57526"}},{"arcs":[[716,717,718]],"type":"Polygon","properties":{"state":"SD","name":"COLOME","zip":"57528"}},{"arcs":[[719,720,721,722,723]],"type":"Polygon","properties":{"state":"SD","name":"DRAPER","zip":"57531"}},{"arcs":[[724,725,726,727,728,729,-723,730,731]],"type":"Polygon","properties":{"state":"SD","name":"FORT PIERRE","zip":"57532"}},{"arcs":[[732,733,734,-719,735,736,-709]],"type":"Polygon","properties":{"state":"SD","name":"GREGORY","zip":"57533"}},{"arcs":[[737,738,739,740,741]],"type":"Polygon","properties":{"state":"SD","name":"HAMILL","zip":"57534"}},{"arcs":[[-706,742,743,-500]],"type":"Polygon","properties":{"state":"SD","name":"HARROLD","zip":"57536"}},{"arcs":[[-726,744,745,746,-694,747]],"type":"Polygon","properties":{"state":"SD","name":"HAYES","zip":"57537"}},{"arcs":[[748,-733,-708,749,-433]],"type":"Polygon","properties":{"state":"SD","name":"HERRICK","zip":"57538"}},{"arcs":[[-744,750,-501]],"type":"Polygon","properties":{"state":"SD","name":"HOLABIRD","zip":"57540"}},{"arcs":[[751,752,753,-715,754,755,-739]],"type":"Polygon","properties":{"state":"SD","name":"IDEAL","zip":"57541"}},{"arcs":[[-737,756,-752,-738,757,758,-710]],"type":"Polygon","properties":{"state":"SD","name":"IONA","zip":"57542"}},{"arcs":[[759,760,761,762,763,764,765,-702]],"type":"Polygon","properties":{"state":"SD","name":"KADOKA","zip":"57543"}},{"arcs":[[766,767,768,-741]],"type":"Polygon","properties":{"state":"SD","name":"KENNEBEC","zip":"57544"}},{"arcs":[[769,770,771,-760,-701,772]],"type":"Polygon","properties":{"state":"SD","name":"LONG VALLEY","zip":"57547"}},{"arcs":[[773,-728,774,-484,775,776,-768]],"type":"Polygon","properties":{"state":"SD","name":"LOWER BRULE","zip":"57548"}},{"arcs":[[777,778,779,-771,780,781,782,783]],"type":"Polygon","properties":{"state":"SD","name":"MARTIN","zip":"57551"}},{"arcs":[[784,785,786,787,788,-745,-725,789,-703,-766]],"type":"Polygon","properties":{"state":"SD","name":"MIDLAND","zip":"57552"}},{"arcs":[[790,791,792,-786]],"type":"Polygon","properties":{"state":"SD","name":"MILESVILLE","zip":"57553"}},{"arcs":[[793,794,795,796,797,798,-713]],"type":"Polygon","properties":{"state":"SD","name":"MISSION","zip":"57555"}},{"arcs":[[-789,799,-746]],"type":"Polygon","properties":{"state":"SD","name":"MISSION RIDGE","zip":"57557"}},{"arcs":[[800,-731,-722,801,802]],"type":"Polygon","properties":{"state":"SD","name":"MURDO","zip":"57559"}},{"arcs":[[803,804,-770]],"type":"Polygon","properties":{"state":"SD","name":"NORRIS","zip":"57560"}},{"arcs":[[805,-704,-790,-732,-801]],"type":"Polygon","properties":{"state":"SD","name":"OKATON","zip":"57562"}},{"arcs":[[[-743,-705,-698,806,-643,-699,-641,-662,-502,-751]],[[-696,807]]],"type":"MultiPolygon","properties":{"state":"SD","name":"ONIDA","zip":"57564"}},{"arcs":[[808,-781,-805,809,-797]],"type":"Polygon","properties":{"state":"SD","name":"PARMELEE","zip":"57566"}},{"arcs":[[810,811,-791,-785,-765]],"type":"Polygon","properties":{"state":"SD","name":"PHILIP","zip":"57567"}},{"arcs":[[812,-720,813,-729,-774,-767,-740,-756]],"type":"Polygon","properties":{"state":"SD","name":"PRESHO","zip":"57568"}},{"arcs":[[-769,-777,814,-758,-742]],"type":"Polygon","properties":{"state":"SD","name":"RELIANCE","zip":"57569"}},{"arcs":[[-707,-434,-750]],"type":"Polygon","properties":{"state":"SD","name":"SAINT CHARLES","zip":"57571"}},{"arcs":[[815,816,-782,-809,-796]],"type":"Polygon","properties":{"state":"SD","name":"SAINT FRANCIS","zip":"57572"}},{"arcs":[[-817,817,-783]],"type":"Polygon","properties":{"state":"SD","name":"TUTHILL","zip":"57574"}},{"arcs":[[-730,-814,-724]],"type":"Polygon","properties":{"state":"SD","name":"VIVIAN","zip":"57576"}},{"arcs":[[-780,818,819,820,821,-761,-772]],"type":"Polygon","properties":{"state":"SD","name":"WANBLEE","zip":"57577"}},{"arcs":[[822,823,-717,-735]],"type":"Polygon","properties":{"state":"SD","name":"WEWELA","zip":"57578"}},{"arcs":[[-810,-804,-773,-700,-806,-803,824,-798]],"type":"Polygon","properties":{"state":"SD","name":"WHITE RIVER","zip":"57579"}},{"arcs":[[-712,825,-753,-757,-736,-718,-824,826,-794]],"type":"Polygon","properties":{"state":"SD","name":"WINNER","zip":"57580"}},{"arcs":[[-754,-826,-716]],"type":"Polygon","properties":{"state":"SD","name":"WITTEN","zip":"57584"}},{"arcs":[[-799,-825,-802,-721,-813,-755,-714]],"type":"Polygon","properties":{"state":"SD","name":"WOOD","zip":"57585"}},{"arcs":[[827,828,-686,829]],"type":"Polygon","properties":{"state":"SD","name":"MOBRIDGE","zip":"57601"}},{"arcs":[[830,831,832,833]],"type":"Polygon","properties":{"state":"SD","name":"BISON","zip":"57620"}},{"arcs":[[-793,834,835,836,-787]],"type":"Polygon","properties":{"state":"SD","name":"CHERRY CREEK","zip":"57622"}},{"arcs":[[837,838,839,840,841,842,-837]],"type":"Polygon","properties":{"state":"SD","name":"DUPREE","zip":"57623"}},{"arcs":[[843,844,845,846,-838,-836]],"type":"Polygon","properties":{"state":"SD","name":"FAITH","zip":"57626"}},{"arcs":[[847,848,849]],"type":"Polygon","properties":{"state":"SD","name":"FIRESTEEL","zip":"57628"}},{"arcs":[[850,851,852,-840]],"type":"Polygon","properties":{"state":"SD","name":"GLAD VALLEY","zip":"57629"}},{"arcs":[[853,854,855]],"type":"Polygon","properties":{"state":"SD","name":"GLENCROSS","zip":"57630"}},{"arcs":[[856,-687,-829]],"type":"Polygon","properties":{"state":"SD","name":"GLENHAM","zip":"57631"}},{"arcs":[[857,858,859,-621]],"type":"Polygon","properties":{"state":"SD","name":"HERREID","zip":"57632"}},{"arcs":[[860,861,-841,-853,862,863,-848]],"type":"Polygon","properties":{"state":"SD","name":"ISABEL","zip":"57633"}},{"arcs":[[864,865,866,867]],"type":"Polygon","properties":{"state":"SD","name":"KELDRON","zip":"57634"}},{"arcs":[[868,869,870,-867,871,872,-832]],"type":"Polygon","properties":{"state":"SD","name":"LEMMON","zip":"57638"}},{"arcs":[[873,874,875,-870]],"type":"Polygon","properties":{"state":"SD","name":"LODGEPOLE","zip":"57640"}},{"arcs":[[876,-863,-852,877,878,-872,-866,879,880,881]],"type":"Polygon","properties":{"state":"SD","name":"MC INTOSH","zip":"57641"}},{"arcs":[[-877,882,883,884,885,886,-855,887,-849,-864]],"type":"Polygon","properties":{"state":"SD","name":"MC LAUGHLIN","zip":"57642"}},{"arcs":[[888,889,-834,890,-878,-851,-839,-847,891]],"type":"Polygon","properties":{"state":"SD","name":"MEADOW","zip":"57644"}},{"arcs":[[-865,892,893,-880]],"type":"Polygon","properties":{"state":"SD","name":"MORRISTOWN","zip":"57645"}},{"arcs":[[-857,-828,894,895,-858,-620,-660,-688]],"type":"Polygon","properties":{"state":"SD","name":"MOUND CITY","zip":"57646"}},{"arcs":[[[896,897,898]],[[-862,899,900,901,-842]]],"type":"MultiPolygon","properties":{"state":"SD","name":"PARADE","zip":"57647"}},{"arcs":[[902,-859,-896,903]],"type":"Polygon","properties":{"state":"SD","name":"POLLOCK","zip":"57648"}},{"arcs":[[904,905,906,-874,-869,-831,-890]],"type":"Polygon","properties":{"state":"SD","name":"PRAIRIE CITY","zip":"57649"}},{"arcs":[[-907,907,908,909,-875]],"type":"Polygon","properties":{"state":"SD","name":"RALPH","zip":"57650"}},{"arcs":[[910,911,912,-908,-906]],"type":"Polygon","properties":{"state":"SD","name":"REVA","zip":"57651"}},{"arcs":[[-833,-873,-879,-891]],"type":"Polygon","properties":{"state":"SD","name":"SHADEHILL","zip":"57653"}},{"arcs":[[913,-900,-861,-850,-888,-854]],"type":"Polygon","properties":{"state":"SD","name":"TIMBER LAKE","zip":"57656"}},{"arcs":[[-901,-914,-856,-887,914,-897,915]],"type":"Polygon","properties":{"state":"SD","name":"TRAIL CITY","zip":"57657"}},{"arcs":[[[916,-884]],[[-915,-886,917,-898]]],"type":"MultiPolygon","properties":{"state":"SD","name":"WAKPALA","zip":"57658"}},{"arcs":[[918,-881,-894]],"type":"Polygon","properties":{"state":"SD","name":"WATAUGA","zip":"57660"}},{"arcs":[[919,920,921,922,923,924,925]],"type":"Polygon","properties":{"state":"SD","name":"RAPID CITY","zip":"57701"}},{"arcs":[[926,927,928,929,930,-922,931,932,933]],"type":"Polygon","properties":{"state":"SD","name":"RAPID CITY","zip":"57702"}},{"arcs":[[934,935,-932,-921,936]],"type":"Polygon","properties":{"state":"SD","name":"RAPID CITY","zip":"57703"}},{"arcs":[[937,-926,938]],"type":"Polygon","properties":{"state":"SD","name":"ELLSWORTH AFB","zip":"57706"}},{"arcs":[[939,940,941,-819,-779]],"type":"Polygon","properties":{"state":"SD","name":"ALLEN","zip":"57714"}},{"arcs":[[942,943,944,-940,-778,945]],"type":"Polygon","properties":{"state":"SD","name":"BATESLAND","zip":"57716"}},{"arcs":[[946,947,948,949,950,951,952]],"type":"Polygon","properties":{"state":"SD","name":"BELLE FOURCHE","zip":"57717"}},{"arcs":[[[953,954,-923,-931]],[[955,956,-939,-925,957]]],"type":"MultiPolygon","properties":{"state":"SD","name":"BLACK HAWK","zip":"57718"}},{"arcs":[[-920,-938,-957,958,959,960,-937]],"type":"Polygon","properties":{"state":"SD","name":"BOX ELDER","zip":"57719"}},{"arcs":[[961,962,963,964,-912,965,966,-950]],"type":"Polygon","properties":{"state":"SD","name":"BUFFALO","zip":"57720"}},{"arcs":[[967,968,969,970,971]],"type":"Polygon","properties":{"state":"SD","name":"BUFFALO GAP","zip":"57722"}},{"arcs":[[972,-963]],"type":"Polygon","properties":{"state":"SD","name":"CAMP CROOK","zip":"57724"}},{"arcs":[[973,-935,-961,974,975]],"type":"Polygon","properties":{"state":"SD","name":"CAPUTA","zip":"57725"}},{"arcs":[[976,977,978,-792,-812,979,980]],"type":"Polygon","properties":{"state":"SD","name":"CREIGHTON","zip":"57729"}},{"arcs":[[981,982,983,984,-969,985,986]],"type":"Polygon","properties":{"state":"SD","name":"CUSTER","zip":"57730"}},{"arcs":[[987,-929,988,989,990,991,992,993]],"type":"Polygon","properties":{"state":"SD","name":"DEADWOOD","zip":"57732"}},{"arcs":[[994,995,-987,996]],"type":"Polygon","properties":{"state":"SD","name":"EDGEMONT","zip":"57735"}},{"arcs":[[-956,997,998,999,1000,-978,1001,1002,1003,-959]],"type":"Polygon","properties":{"state":"SD","name":"ELM SPRINGS","zip":"57736"}},{"arcs":[[1004,-1000,1005,1006,1007,1008,1009]],"type":"Polygon","properties":{"state":"SD","name":"ENNING","zip":"57737"}},{"arcs":[[1010,-970,-985,1011]],"type":"Polygon","properties":{"state":"SD","name":"FAIRBURN","zip":"57738"}},{"arcs":[[1012,1013,1014,-953]],"type":"Polygon","properties":{"state":"SD","name":"FRUITDALE","zip":"57742"}},{"arcs":[[1015,1016,-1012,-984,1017,-933,-936,-974]],"type":"Polygon","properties":{"state":"SD","name":"HERMOSA","zip":"57744"}},{"arcs":[[1018,1019,-927,1020,-983]],"type":"Polygon","properties":{"state":"SD","name":"HILL CITY","zip":"57745"}},{"arcs":[[-986,-968,1021,1022,1023,-997]],"type":"Polygon","properties":{"state":"SD","name":"HOT SPRINGS","zip":"57747"}},{"arcs":[[-1001,-1005,1024,-844,-835,-979]],"type":"Polygon","properties":{"state":"SD","name":"HOWES","zip":"57748"}},{"arcs":[[1025,-762,-822]],"type":"Polygon","properties":{"state":"SD","name":"INTERIOR","zip":"57750"}},{"arcs":[[-1021,-934,-1018]],"type":"Polygon","properties":{"state":"SD","name":"KEYSTONE","zip":"57751"}},{"arcs":[[1026,1027,-820,-942,1028,1029]],"type":"Polygon","properties":{"state":"SD","name":"KYLE","zip":"57752"}},{"arcs":[[1030,1031,1032,-990]],"type":"Polygon","properties":{"state":"SD","name":"LEAD","zip":"57754"}},{"arcs":[[-965,1033,-909,-913]],"type":"Polygon","properties":{"state":"SD","name":"LUDLOW","zip":"57755"}},{"arcs":[[1034,-1030,1035,1036]],"type":"Polygon","properties":{"state":"SD","name":"MANDERSON","zip":"57756"}},{"arcs":[[1037,1038,1039,-966,-911,-905,-889]],"type":"Polygon","properties":{"state":"SD","name":"MUD BUTTE","zip":"57758"}},{"arcs":[[1040,-954,-930,-988]],"type":"Polygon","properties":{"state":"SD","name":"NEMO","zip":"57759"}},{"arcs":[[1041,1042,-951,-967,-1040,1043,1044]],"type":"Polygon","properties":{"state":"SD","name":"NEWELL","zip":"57760"}},{"arcs":[[1045,1046,-975,-960,-1004,1047]],"type":"Polygon","properties":{"state":"SD","name":"NEW UNDERWOOD","zip":"57761"}},{"arcs":[[-952,-1043,1048,1049,1050,-1013]],"type":"Polygon","properties":{"state":"SD","name":"NISLAND","zip":"57762"}},{"arcs":[[-1024,1051,1052,1053,1054,-995]],"type":"Polygon","properties":{"state":"SD","name":"OELRICHS","zip":"57763"}},{"arcs":[[1055,1056,-1038,-892,-846,1057,-1009]],"type":"Polygon","properties":{"state":"SD","name":"OPAL","zip":"57765"}},{"arcs":[[1058,-1022,-972,1059,-1053]],"type":"Polygon","properties":{"state":"SD","name":"ORAL","zip":"57766"}},{"arcs":[[1060,-1048,-1003,1061]],"type":"Polygon","properties":{"state":"SD","name":"OWANKA","zip":"57767"}},{"arcs":[[-994,1062,-998,-958,-924,-955,-1041]],"type":"Polygon","properties":{"state":"SD","name":"PIEDMONT","zip":"57769"}},{"arcs":[[1063,-943,1064,-1054,-1060,-971,-1011,-1017,1065,-1027,-1035]],"type":"Polygon","properties":{"state":"SD","name":"PINE RIDGE","zip":"57770"}},{"arcs":[[1066,-1036,-1029,-941,-945]],"type":"Polygon","properties":{"state":"SD","name":"PORCUPINE","zip":"57772"}},{"arcs":[[1067,-980,-811,-764]],"type":"Polygon","properties":{"state":"SD","name":"QUINN","zip":"57775"}},{"arcs":[[1068,-1056,-1008]],"type":"Polygon","properties":{"state":"SD","name":"RED OWL","zip":"57777"}},{"arcs":[[1069,-1031,-989,-928,-1020]],"type":"Polygon","properties":{"state":"SD","name":"ROCHFORD","zip":"57778"}},{"arcs":[[1070,1071,-947,-1015]],"type":"Polygon","properties":{"state":"SD","name":"SAINT ONGE","zip":"57779"}},{"arcs":[[-976,-1047,1072,-1028,-1066,-1016]],"type":"Polygon","properties":{"state":"SD","name":"SCENIC","zip":"57780"}},{"arcs":[[-1059,-1052,-1023]],"type":"Polygon","properties":{"state":"SD","name":"SMITHWICK","zip":"57782"}},{"arcs":[[-1033,1073,-948,-1072,1074,-991]],"type":"Polygon","properties":{"state":"SD","name":"SPEARFISH","zip":"57783"}},{"arcs":[[-999,-1063,-993,1075,-1050,1076,-1045,1077,-1006]],"type":"Polygon","properties":{"state":"SD","name":"STURGIS","zip":"57785"}},{"arcs":[[-1039,-1057,-1069,-1007,-1078,-1044]],"type":"Polygon","properties":{"state":"SD","name":"UNION CENTER","zip":"57787"}},{"arcs":[[-1042,-1077,-1049]],"type":"Polygon","properties":{"state":"SD","name":"VALE","zip":"57788"}},{"arcs":[[-821,-1073,-1046,-1061,1078,-981,-1068,-763,-1026]],"type":"Polygon","properties":{"state":"SD","name":"WALL","zip":"57790"}},{"arcs":[[-1002,-977,-1079,-1062]],"type":"Polygon","properties":{"state":"SD","name":"WASTA","zip":"57791"}},{"arcs":[[-1058,-845,-1025,-1010]],"type":"Polygon","properties":{"state":"SD","name":"WHITE OWL","zip":"57792"}},{"arcs":[[-992,-1075,-1071,-1014,-1051,-1076]],"type":"Polygon","properties":{"state":"SD","name":"WHITEWOOD","zip":"57793"}},{"arcs":[[-1037,-1067,-944,-1064]],"type":"Polygon","properties":{"state":"SD","name":"WOUNDED KNEE","zip":"57794"}}]}},"arcs":[[[22039,18963],[-67,-178]],[[21972,18785],[-176,0]],[[21796,18785],[63,193]],[[21859,18978],[180,-15]],[[21841,20105],[-13,221]],[[21828,20326],[76,-117]],[[21904,20209],[-13,-104]],[[21891,20105],[-50,0]],[[21778,19599],[-63,15]],[[21715,19614],[0,15]],[[21715,19629],[32,43]],[[21747,19672],[108,-28]],[[21855,19644],[0,-61]],[[21855,19583],[-77,16]],[[21796,18785],[-18,-31]],[[21778,18754],[-13,61]],[[21765,18815],[-77,16]],[[21688,18831],[45,267]],[[21733,19098],[32,28]],[[21765,19126],[76,-44]],[[21841,19082],[18,-30]],[[21859,19052],[0,-74]],[[21976,19540],[0,-150]],[[21976,19390],[-49,0]],[[21927,19390],[-41,102]],[[21886,19492],[14,63]],[[21900,19555],[76,-15]],[[21720,20105],[-36,178]],[[21684,20283],[112,147]],[[21796,20430],[32,-104]],[[21841,20105],[-121,0]],[[21778,18754],[-13,-178]],[[21765,18576],[-63,28]],[[21702,18604],[63,211]],[[21332,19390],[-99,178]],[[21233,19568],[185,0]],[[21418,19568],[95,-89]],[[21513,19479],[0,-74]],[[21513,19405],[-41,-15]],[[21472,19390],[-45,0]],[[21427,19390],[-95,0]],[[21841,19082],[0,150]],[[21841,19232],[90,89]],[[21931,19321],[54,-53],[-49,-114],[72,-49]],[[22008,19105],[-27,-53]],[[21981,19052],[-122,0]],[[21643,18831],[-94,147]],[[21549,18978],[-5,15]],[[21544,18993],[81,102]],[[21625,19095],[45,33]],[[21670,19128],[63,-30]],[[21688,18831],[-45,0]],[[21670,19321],[-27,-104]],[[21643,19217],[-18,0]],[[21625,19217],[-31,13]],[[21594,19230],[-5,160]],[[21589,19390],[68,0]],[[21657,19390],[13,-69]],[[21513,19749],[0,89],[94,0]],[[21607,19838],[95,0]],[[21702,19838],[0,-89]],[[21702,19749],[-18,0]],[[21684,19749],[-171,0]],[[21792,19838],[0,-89]],[[21792,19749],[-90,0]],[[21702,19838],[0,89]],[[21702,19927],[90,0]],[[21792,19927],[0,-89]],[[21589,19660],[-45,12]],[[21544,19672],[-31,61]],[[21513,19733],[0,16]],[[21684,19749],[63,-77]],[[21715,19629],[-126,31]],[[21801,19540],[-86,0]],[[21715,19540],[0,74]],[[21778,19599],[23,-59]],[[21625,19095],[-31,18]],[[21594,19113],[31,104]],[[21643,19217],[27,-89]],[[21792,19749],[171,0]],[[21963,19749],[-108,-105]],[[21981,19835],[-189,3]],[[21792,19927],[189,0],[0,-92]],[[21972,18785],[-41,-104],[41,-163]],[[21972,18518],[-126,-46]],[[21846,18472],[-81,104]],[[22039,20105],[-148,0]],[[21904,20209],[135,89]],[[22039,20298],[0,-13],[0,-89],[0,-91]],[[22008,19105],[4,3],[18,-56]],[[22030,19052],[-49,0]],[[21702,19927],[0,89]],[[21702,20016],[0,89]],[[21702,20105],[18,0]],[[22039,20105],[0,-267]],[[22039,19838],[-58,-3]],[[21382,19141],[0,-31]],[[21382,19110],[-81,-15]],[[21301,19095],[-149,135]],[[21152,19230],[-36,18]],[[21116,19248],[14,114]],[[21130,19362],[171,-20]],[[21301,19342],[81,-201]],[[22039,19749],[0,-89],[0,-89],[0,-31]],[[22039,19540],[-63,0]],[[21900,19555],[-45,0]],[[21855,19555],[0,28]],[[21963,19749],[76,0]],[[21503,18785],[0,-89]],[[21503,18696],[-13,-21]],[[21490,18675],[-95,64]],[[21395,18739],[0,41]],[[21395,18780],[59,5]],[[21454,18785],[49,0]],[[21774,19248],[-9,73]],[[21765,19321],[45,28]],[[21810,19349],[121,0]],[[21931,19349],[0,-28]],[[21841,19232],[-67,16]],[[21684,19390],[-27,0]],[[21589,19390],[0,15]],[[21589,19405],[0,255]],[[21715,19540],[-18,-104]],[[21697,19436],[-13,-46]],[[22030,19052],[9,-89]],[[21513,19479],[31,193]],[[21589,19405],[-76,0]],[[21594,19113],[-212,-3]],[[21382,19141],[27,43]],[[21409,19184],[185,46]],[[21382,18963],[-81,-15]],[[21301,18948],[-14,58]],[[21287,19006],[32,46]],[[21319,19052],[225,-59]],[[21549,18978],[-59,-61]],[[21490,18917],[-108,46]],[[21990,18495],[-23,-109]],[[21967,18386],[-121,86]],[[21972,18518],[18,-23]],[[21774,19248],[-9,-122]],[[21670,19321],[95,0]],[[21211,19021],[-63,-178]],[[21148,18843],[-32,31]],[[21116,18874],[0,178]],[[21116,19052],[95,-31]],[[21513,19733],[-95,16]],[[21418,19749],[0,223]],[[21418,19972],[95,44]],[[21513,20016],[94,0]],[[21607,20016],[0,-89]],[[21607,19927],[0,-89]],[[21440,19349],[-31,-165]],[[21301,19342],[31,48]],[[21427,19390],[13,-41]],[[21503,18785],[64,0]],[[21567,18785],[13,0]],[[21580,18785],[14,-89],[-91,0]],[[21116,19052],[36,178]],[[21301,19095],[18,-43]],[[21287,19006],[-76,15]],[[21395,18780],[-94,119]],[[21301,18899],[0,49]],[[21382,18963],[72,-178]],[[21472,19390],[-32,-41]],[[21418,19568],[0,181]],[[21990,18495],[49,-140],[-72,31]],[[21702,20016],[-95,0]],[[21513,20016],[0,89]],[[21513,20105],[45,0]],[[21558,20105],[144,0]],[[21481,20105],[-158,-28]],[[21323,20077],[-94,28]],[[21229,20105],[22,43]],[[21251,20148],[153,46]],[[21404,20194],[77,-89]],[[21022,19095],[-90,46]],[[20932,19141],[0,86]],[[20932,19227],[103,64]],[[21035,19291],[81,-43]],[[21116,19052],[-94,43]],[[21418,19972],[-95,0]],[[21323,19972],[0,105]],[[21481,20105],[32,0]],[[21805,19540],[-4,0]],[[21855,19555],[-50,-15]],[[21702,19927],[-95,0]],[[21233,19568],[0,181]],[[21233,19749],[90,0]],[[21323,19749],[95,0]],[[21116,18874],[-58,0]],[[21058,18874],[-171,74]],[[20887,18948],[0,43]],[[20887,18991],[76,61]],[[20963,19052],[59,43]],[[20715,18716],[9,18]],[[20724,18734],[86,51]],[[20810,18785],[126,0]],[[20936,18785],[81,-41]],[[21017,18744],[-180,-107],[-122,79]],[[20936,18785],[122,89]],[[21148,18843],[18,-15]],[[21166,18828],[-23,-84]],[[21143,18744],[-126,0]],[[21684,19390],[85,-41]],[[21769,19349],[41,0]],[[22039,19838],[0,-89]],[[20810,18785],[77,163]],[[21301,18899],[-135,-71]],[[22039,19540],[0,-58],[0,-92],[-63,0]],[[21580,18785],[63,46]],[[21702,18604],[-212,71]],[[21558,20105],[36,178]],[[21594,20283],[90,0]],[[21490,18917],[77,-132]],[[21323,19749],[0,89]],[[21323,19838],[0,134]],[[21395,18739],[-252,5]],[[21873,19479],[-5,-89]],[[21868,19390],[-27,0]],[[21841,19390],[0,38]],[[21841,19428],[32,51]],[[21792,19436],[13,104]],[[21886,19492],[-13,-13]],[[21841,19428],[-49,8]],[[21841,19390],[-40,0]],[[21801,19390],[-9,46]],[[21801,19390],[-32,-41]],[[21697,19436],[95,0]],[[21927,19390],[4,-41]],[[21868,19390],[59,0]],[[21323,20773],[63,105]],[[21386,20878],[113,147]],[[21499,21025],[207,-46]],[[21706,20979],[0,-73]],[[21706,20906],[-31,-74],[0,-15],[-5,-89]],[[21670,20728],[-157,-16]],[[21513,20712],[-190,61]],[[21404,20194],[27,89]],[[21431,20283],[5,119]],[[21436,20402],[31,59]],[[21467,20461],[95,0]],[[21562,20461],[14,-16]],[[21576,20445],[18,-162]],[[22039,20550],[0,-89]],[[22039,20461],[-148,0]],[[21891,20461],[0,89]],[[21891,20550],[148,0]],[[22039,21099],[-126,165]],[[21913,21264],[113,0]],[[22026,21264],[13,-58],[0,-107]],[[21134,20908],[-94,0],[-5,89]],[[21035,20997],[5,89]],[[21040,21086],[94,0]],[[21134,21086],[95,0]],[[21229,21086],[0,-119]],[[21229,20967],[0,-59]],[[21229,20908],[-95,0]],[[21702,20550],[0,89]],[[21702,20639],[220,2]],[[21922,20641],[117,0]],[[22039,20641],[0,-89],[0,-2]],[[21891,20550],[-189,0]],[[21040,21353],[0,-89],[94,0],[0,-178]],[[21040,21086],[-99,0],[0,89]],[[20941,21175],[4,178]],[[20945,21353],[95,0]],[[21576,20445],[189,16]],[[21765,20461],[31,-16]],[[21796,20445],[0,-15]],[[21355,20550],[-32,-89]],[[21323,20461],[-94,-16]],[[21229,20445],[-108,16]],[[21121,20461],[13,15]],[[21134,20476],[95,15],[0,150]],[[21229,20641],[94,-2]],[[21323,20639],[32,-89]],[[21702,20639],[-140,-89]],[[21562,20550],[-49,0]],[[21513,20550],[0,89]],[[21513,20639],[0,73]],[[21670,20728],[32,-28]],[[21702,20700],[0,-61]],[[21630,21770],[-194,0]],[[21436,21770],[0,120]],[[21436,21890],[131,0],[63,0]],[[21630,21890],[0,-120]],[[20945,20641],[-4,356]],[[20941,20997],[94,0]],[[21134,20908],[0,-89],[95,0]],[[21229,20819],[0,-91]],[[21229,20728],[-95,2],[0,-89]],[[21134,20641],[-189,0]],[[21702,20700],[193,117]],[[21895,20817],[27,-176]],[[21738,21264],[121,89]],[[21859,21353],[167,-89]],[[21913,21264],[-99,0]],[[21814,21264],[-76,0]],[[21229,20105],[-90,0]],[[21139,20105],[-81,0]],[[21058,20105],[45,356]],[[21103,20461],[18,0]],[[21229,20445],[31,-89]],[[21260,20356],[-63,-89],[54,-119]],[[21436,21592],[0,-89]],[[21436,21503],[-108,0]],[[21328,21503],[-90,31]],[[21238,21534],[0,89]],[[21238,21623],[198,-31]],[[21436,20402],[-32,-2]],[[21404,20400],[-144,-44]],[[21323,20461],[144,0]],[[21562,20461],[0,89]],[[21702,20550],[63,-89]],[[21386,20878],[-112,73]],[[21274,20951],[36,135]],[[21310,21086],[126,0]],[[21436,21086],[63,-61]],[[21229,20908],[0,-89]],[[21895,20817],[0,89]],[[21895,20906],[144,0]],[[22039,20906],[0,-176],[0,-89]],[[21706,20906],[95,0]],[[21801,20906],[76,0]],[[21877,20906],[18,0]],[[21328,21353],[-95,0]],[[21233,21353],[0,181]],[[21233,21534],[5,0]],[[21328,21503],[0,-150]],[[21513,20550],[-158,0]],[[21323,20639],[190,0]],[[21229,20641],[0,87]],[[21229,20728],[94,45]],[[21229,20967],[45,-16]],[[21431,20283],[-27,117]],[[21801,20906],[13,89]],[[21814,20995],[32,0]],[[21846,20995],[81,45]],[[21927,21040],[-50,-134]],[[21436,21681],[0,-89]],[[21238,21623],[0,89]],[[21238,21712],[198,-31]],[[21720,21264],[0,-89],[-113,59]],[[21607,21234],[14,30]],[[21621,21264],[99,0]],[[22039,21012],[-112,28]],[[21846,20995],[-14,73]],[[21832,21068],[-18,196]],[[22039,21099],[0,-10],[0,-77]],[[21724,21770],[-94,0]],[[21630,21890],[99,0]],[[21729,21890],[-5,-120]],[[21436,21086],[0,89]],[[21436,21175],[0,148]],[[21436,21323],[95,0]],[[21531,21323],[4,-89]],[[21535,21234],[-4,-148]],[[21531,21086],[-95,0]],[[21436,21323],[0,180]],[[21436,21503],[288,49]],[[21724,21552],[18,-21],[63,-86],[0,-3]],[[21805,21442],[-175,-28]],[[21630,21414],[-99,0],[0,-91]],[[20945,20641],[-94,0]],[[20851,20641],[-5,267]],[[20846,20908],[0,89]],[[20846,20997],[95,0]],[[22039,21012],[0,-106]],[[21936,21770],[-212,0]],[[21729,21890],[67,0],[158,0],[-18,-120]],[[21233,21353],[-193,92]],[[21040,21445],[4,89]],[[21044,21534],[189,0]],[[21936,21770],[-45,-61],[-167,-157]],[[21436,21681],[0,89]],[[21706,21084],[0,-89]],[[21706,20995],[0,-16]],[[21531,21086],[175,-2]],[[21814,20995],[-108,0]],[[21706,21084],[126,-16]],[[21607,21234],[-72,0]],[[21630,21414],[-9,-150]],[[21891,20461],[-95,-16]],[[21720,21264],[18,0]],[[21238,21712],[0,178]],[[21238,21890],[67,0],[63,0],[68,0]],[[21134,20476],[0,165]],[[21229,21086],[81,0]],[[21436,21175],[-108,0],[0,178]],[[21040,21353],[0,92]],[[22039,20461],[0,-163]],[[21103,20461],[-153,0]],[[20950,20461],[-5,180]],[[21805,21442],[54,-89]],[[20954,19568],[0,-89]],[[20954,19479],[-279,0]],[[20675,19479],[0,272]],[[20675,19751],[180,0]],[[20855,19751],[18,0]],[[20873,19751],[81,-183]],[[20990,19390],[-36,89]],[[20954,19568],[45,181]],[[20999,19749],[27,0]],[[21026,19749],[18,0]],[[21044,19749],[95,-181]],[[21139,19568],[-90,0],[-27,-191]],[[21022,19377],[-32,13]],[[20481,19988],[-90,30],[59,87]],[[20450,20105],[76,89]],[[20526,20194],[140,-16],[-14,-73]],[[20652,20105],[-126,-87],[0,-15],[-45,-15]],[[20684,19271],[-45,-148]],[[20639,19123],[-108,-36]],[[20531,19087],[-122,84]],[[20409,19171],[-27,59]],[[20382,19230],[288,41]],[[20670,19271],[14,0]],[[20855,19751],[0,115],[-95,-26]],[[20760,19840],[-13,252]],[[20747,20092],[0,13]],[[20747,20105],[76,0]],[[20823,20105],[127,0]],[[20950,20105],[0,-87]],[[20950,20018],[0,-269]],[[20950,19749],[-77,2]],[[20724,18734],[14,51]],[[20738,18785],[13,163]],[[20751,18948],[9,73]],[[20760,19021],[5,16]],[[20765,19037],[122,-46]],[[20098,19037],[0,-161]],[[20098,18876],[-184,0]],[[19914,18876],[0,87]],[[19914,18963],[139,0],[0,89]],[[20053,19052],[45,-15]],[[21130,19362],[9,191]],[[21139,19553],[94,15]],[[21233,19749],[-189,0]],[[21026,19749],[0,30]],[[21026,19779],[297,59]],[[20950,20461],[0,-46]],[[20950,20415],[-194,76]],[[20756,20491],[-32,15]],[[20724,20506],[95,74]],[[20819,20580],[32,61]],[[21044,19927],[0,91],[-94,0]],[[20950,20105],[108,0]],[[21139,20105],[31,-89],[-126,-89]],[[20887,20341],[-64,-236]],[[20747,20105],[76,251]],[[20823,20356],[64,-15]],[[19783,19835],[189,0]],[[19972,19835],[45,3]],[[20017,19838],[0,-89]],[[20017,19749],[-175,-3],[0,-178],[94,0]],[[19936,19568],[95,-89]],[[20031,19479],[-234,0]],[[19797,19479],[-99,92],[126,190],[-41,74]],[[20333,19258],[13,43],[32,0],[13,89]],[[20391,19390],[194,0]],[[20585,19390],[81,-3]],[[20666,19387],[4,-27]],[[20670,19360],[0,-89]],[[20382,19230],[-49,28]],[[20738,18785],[-86,129],[99,34]],[[20760,19021],[-121,102]],[[20684,19271],[63,-44]],[[20747,19227],[18,-190]],[[20675,19387],[252,-55]],[[20927,19332],[-257,28]],[[20666,19387],[9,0]],[[21035,19291],[-13,86]],[[21139,19568],[0,-15]],[[20675,19387],[0,92]],[[20990,19390],[-63,-58]],[[20098,19037],[54,0]],[[20152,19037],[244,-97]],[[20396,18940],[9,-5]],[[20405,18935],[36,-59],[-32,0],[-94,0],[-77,0],[-77,0],[-63,0]],[[21044,19927],[-18,-148]],[[20999,19749],[-49,0]],[[19828,20105],[36,-122],[108,0],[0,-148]],[[19783,19835],[-76,117]],[[19707,19952],[-5,3]],[[19702,19955],[-81,147]],[[19621,20102],[198,3]],[[19819,20105],[9,0]],[[20112,19927],[-95,-89]],[[19828,20105],[68,0]],[[19896,20105],[216,0]],[[20112,20105],[0,-178]],[[20189,19052],[4,175],[113,31]],[[20306,19258],[27,0]],[[20409,19171],[-135,-170]],[[20274,19001],[-85,51]],[[20306,19258],[-23,132]],[[20283,19390],[108,0]],[[19536,20133],[0,147]],[[19536,20280],[0,120]],[[19536,20400],[18,0]],[[19554,20400],[94,-105],[-9,405],[-108,-11]],[[19531,20689],[0,135]],[[19531,20824],[77,0]],[[19608,20824],[202,0]],[[19810,20824],[0,-165]],[[19810,20659],[0,-104]],[[19810,20555],[9,-450]],[[19621,20102],[-85,31]],[[20382,20466],[-49,89]],[[20333,20555],[234,117]],[[20567,20672],[189,-77]],[[20756,20595],[63,-15]],[[20724,20506],[-184,-89]],[[20540,20417],[-158,49]],[[20747,20092],[-95,13]],[[20526,20194],[0,30]],[[20526,20224],[63,74],[-49,119]],[[20756,20491],[113,-76],[-46,-59]],[[20887,20341],[63,74]],[[20963,19052],[-31,89]],[[19936,19568],[81,181]],[[20112,19927],[90,-89]],[[20202,19838],[14,-433]],[[20216,19405],[-185,-15],[0,89]],[[20531,19087],[-14,-216],[-13,0],[-86,56]],[[20418,18927],[-13,8]],[[20396,18940],[-122,61]],[[20576,19751],[-63,74]],[[20513,19825],[247,15]],[[20675,19751],[-99,0]],[[20161,20178],[-18,-73]],[[20143,20105],[-31,0]],[[19896,20105],[63,307],[-54,188],[-95,-45]],[[19810,20659],[284,15]],[[20094,20674],[95,31]],[[20189,20705],[0,-31]],[[20189,20674],[-14,-46]],[[20175,20628],[-90,-167],[76,-283]],[[20585,19390],[-5,178]],[[20580,19568],[-4,183]],[[20932,19227],[-185,0]],[[20580,19568],[-180,0]],[[20400,19568],[-9,270]],[[20391,19838],[90,0]],[[20481,19838],[32,-13]],[[20189,19052],[-392,427]],[[20216,19405],[58,-15]],[[20274,19390],[9,0]],[[20252,20555],[-91,-377]],[[20175,20628],[77,-73]],[[20274,19390],[126,178]],[[20450,20105],[-144,76]],[[20306,20181],[76,43]],[[20382,20224],[144,0]],[[20715,18716],[-297,211]],[[20252,20555],[81,0]],[[20382,20466],[-63,-181],[63,-61]],[[20306,20181],[31,-76],[-194,0]],[[20391,19838],[-189,0]],[[20481,19988],[0,-150]],[[20576,21282],[-45,0]],[[20531,21282],[-68,58],[-31,-86]],[[20432,21254],[-113,28]],[[20319,21282],[-49,165]],[[20270,21447],[0,120],[225,-3]],[[20495,21564],[49,-61]],[[20544,21503],[32,-178]],[[20576,21325],[0,-43]],[[20945,21623],[-63,0]],[[20882,21623],[0,89]],[[20882,21712],[63,-89]],[[20832,21241],[19,293]],[[20851,21534],[13,0]],[[20864,21534],[81,0]],[[20945,21534],[0,-181]],[[20941,21175],[-109,66]],[[20274,20913],[0,89]],[[20274,21002],[135,0]],[[20409,21002],[198,-2]],[[20607,21000],[50,0]],[[20657,21000],[0,-89]],[[20657,20911],[-383,2]],[[20544,21503],[99,-58]],[[20643,21445],[-67,-120]],[[19630,21241],[-126,46]],[[19504,21287],[-50,28]],[[19454,21315],[50,224]],[[19504,21539],[50,0]],[[19554,21539],[-5,-89],[144,0]],[[19693,21450],[0,-135],[-81,0],[81,-135]],[[19693,21180],[-63,61]],[[20657,21178],[0,-178]],[[20607,21000],[0,178]],[[20607,21178],[50,0]],[[20882,21712],[-31,58]],[[20851,21770],[0,120]],[[20851,21890],[202,0],[68,0],[117,0]],[[21238,21623],[-293,0]],[[20882,21623],[-18,-89]],[[20851,21534],[-145,38]],[[20706,21572],[23,35]],[[20729,21607],[58,105]],[[20787,21712],[64,58]],[[20495,21564],[-18,105]],[[20477,21669],[148,43]],[[20625,21712],[-18,-89],[122,-16]],[[20706,21572],[-63,-127]],[[20846,20997],[-189,3]],[[20657,21178],[63,89]],[[20720,21267],[112,-26]],[[20193,21091],[-13,-89]],[[20180,21002],[-190,89],[0,89]],[[19990,21180],[185,61]],[[20175,21241],[9,-76]],[[20184,21165],[9,-74]],[[20756,20595],[-95,46],[-4,181]],[[20657,20822],[0,89]],[[20657,20911],[189,-3]],[[19504,21539],[-9,0]],[[19495,21539],[-176,178]],[[19319,21717],[95,178]],[[19414,21895],[117,0],[131,0],[45,0]],[[19707,21895],[193,-178]],[[19900,21717],[-36,-46]],[[19864,21671],[-310,-132]],[[19896,20913],[-95,0],[-4,181]],[[19797,21094],[4,86]],[[19801,21180],[86,0]],[[19887,21180],[103,0]],[[20180,21002],[-100,-178]],[[20080,20824],[-184,89]],[[20567,20672],[4,150],[86,0]],[[20270,21717],[0,175]],[[20270,21892],[9,0],[256,-2],[23,0]],[[20558,21890],[99,-163]],[[20657,21727],[-32,-15]],[[20477,21669],[-144,0],[-63,30],[0,18]],[[19085,21183],[207,0]],[[19292,21183],[108,0],[0,-181]],[[19400,21002],[-13,-178]],[[19387,20824],[-126,0]],[[19261,20824],[-162,0]],[[19099,20824],[-122,0]],[[18977,20824],[-4,112],[121,56],[-58,13],[49,178]],[[20720,21267],[-144,15]],[[20787,21712],[-99,89],[-31,-74]],[[20558,21890],[270,0],[23,0]],[[19882,21539],[-189,-89]],[[19864,21671],[18,-132]],[[19292,21183],[32,74]],[[19324,21257],[130,58]],[[19504,21287],[23,-285]],[[19527,21002],[-127,0]],[[19887,21180],[0,283],[94,76]],[[19981,21539],[199,-3]],[[20180,21536],[45,-89]],[[20225,21447],[-82,-12],[32,-166]],[[20175,21269],[0,-28]],[[19324,21257],[0,282]],[[19324,21539],[171,0]],[[21044,21534],[-99,0]],[[19531,20824],[-144,0]],[[19527,21002],[81,-89]],[[19608,20913],[0,-89]],[[19981,21539],[-99,0]],[[19900,21717],[176,91],[-68,87]],[[20008,21895],[41,0],[221,-3]],[[20270,21717],[-90,-181]],[[19707,21895],[301,0]],[[20175,21269],[144,13]],[[20432,21254],[49,-76]],[[20481,21178],[-72,-41]],[[20409,21137],[-225,28]],[[20409,21002],[0,135]],[[20481,21178],[77,0]],[[20558,21178],[49,0]],[[20225,21447],[45,0]],[[20274,21002],[-81,89]],[[19608,21091],[22,150]],[[19693,21180],[108,0]],[[19797,21094],[-189,-3]],[[19810,20824],[86,89]],[[20080,20824],[14,-150]],[[20189,20705],[85,208]],[[20567,20672],[-378,2]],[[19040,21432],[54,3]],[[19094,21435],[41,104]],[[19135,21539],[189,0]],[[19085,21183],[-45,249]],[[19608,20913],[0,178]],[[20558,21178],[-27,104]],[[19256,20466],[95,-186],[185,0]],[[19536,20133],[18,-125],[-181,36],[-13,134],[-360,84],[-32,102]],[[18968,20364],[-4,5]],[[18964,20369],[-126,36],[90,140],[-122,-31],[0,117]],[[18806,20631],[45,23]],[[18851,20654],[81,76]],[[18932,20730],[86,-102],[-23,-162],[261,0]],[[19261,20824],[-158,-107],[-4,107]],[[18446,19741],[-126,-51]],[[18320,19690],[-122,0]],[[18198,19690],[-31,209]],[[18167,19899],[279,0]],[[18446,19899],[0,-158]],[[19256,20466],[185,0]],[[19441,20466],[95,-66]],[[20053,19052],[-139,0]],[[19914,19052],[-90,0]],[[19824,19052],[-95,178],[54,160]],[[19783,19390],[32,0]],[[19815,19390],[337,-353]],[[19175,19319],[0,-265],[-67,-2]],[[19108,19052],[0,226]],[[19108,19278],[-14,112]],[[19094,19390],[81,0]],[[19175,19390],[0,-71]],[[19639,18960],[-185,0],[0,92]],[[19454,19052],[0,127],[185,51]],[[19639,19230],[0,-89],[0,-46],[0,-135]],[[19009,19746],[4,-132]],[[19013,19614],[-193,53]],[[18820,19667],[-64,232],[77,0],[0,178]],[[18833,20077],[158,0]],[[18991,20077],[18,-331]],[[18459,20077],[-94,0],[9,208]],[[18374,20285],[608,10]],[[18982,20295],[355,-122],[-18,-68]],[[19319,20105],[-49,0]],[[19270,20105],[-189,0]],[[19081,20105],[-90,-28]],[[18833,20077],[-167,0]],[[18666,20077],[-207,0]],[[19824,19052],[0,-176]],[[19824,18876],[-185,0]],[[19639,18876],[0,84]],[[19639,19230],[0,160]],[[19639,19390],[144,0]],[[19567,19639],[0,-160]],[[19567,19479],[-185,97]],[[19382,19576],[50,33]],[[19432,19609],[45,35]],[[19477,19644],[90,-5]],[[19441,20466],[86,0]],[[19527,20466],[27,-66]],[[18374,20285],[0,193]],[[18374,20478],[220,-58],[131,145]],[[18725,20565],[135,-107],[-122,-20],[86,-82],[140,13]],[[18968,20364],[14,-69]],[[19914,18876],[-59,0],[-31,0]],[[19914,19052],[0,-89]],[[19527,20466],[4,223]],[[19567,19479],[0,-89]],[[19567,19390],[-297,0]],[[19270,19390],[-95,0]],[[19094,19390],[0,219]],[[19094,19609],[288,-33]],[[19639,19390],[-72,0]],[[19567,19639],[90,15]],[[19657,19654],[158,-264]],[[18198,19690],[-113,-41]],[[18085,19649],[-198,-48]],[[17887,19601],[-4,120],[-180,0]],[[17703,19721],[63,12],[-63,166]],[[17703,19899],[9,0]],[[17712,19899],[414,0]],[[18126,19899],[41,0]],[[19432,19609],[-144,53],[0,254]],[[19288,19916],[257,3],[4,-84]],[[19549,19835],[-72,-191]],[[18320,19456],[0,-180]],[[18320,19276],[-217,0]],[[18103,19276],[-18,373]],[[18320,19690],[0,-234]],[[19288,19916],[-59,3],[41,186]],[[19319,20105],[167,-117],[99,30],[-18,89],[135,-152]],[[19707,19952],[54,-137]],[[19761,19815],[-212,20]],[[17653,18876],[-22,224]],[[17631,19100],[283,-20],[9,196]],[[17923,19276],[180,0]],[[18320,19276],[0,-163]],[[18320,19113],[0,-15]],[[18320,19098],[-284,-5],[13,-110],[-117,-2],[189,-107]],[[18121,18874],[-468,2]],[[18126,19899],[-149,147],[-4,150]],[[17973,20196],[-5,120],[104,45],[-113,128]],[[17959,20489],[307,122]],[[18266,20611],[121,56]],[[18387,20667],[-13,-189]],[[18459,20077],[-13,-178]],[[17973,20196],[-261,26]],[[17712,20222],[4,206]],[[17716,20428],[243,61]],[[19108,19052],[13,-176]],[[19121,18876],[-369,0],[-59,0]],[[18693,18876],[27,336]],[[18720,19212],[-9,66]],[[18711,19278],[118,0]],[[18829,19278],[279,0]],[[18387,20667],[329,20],[9,-122]],[[18648,19660],[18,417]],[[18820,19667],[-5,0]],[[18815,19667],[-167,-7]],[[18320,19456],[216,0],[18,-180]],[[18554,19276],[-234,0]],[[18648,19660],[-202,81]],[[18932,20730],[45,94]],[[18806,20631],[-77,102],[122,-79]],[[18720,19212],[-400,-99]],[[18554,19276],[157,2]],[[17712,19899],[0,178]],[[17712,20077],[0,145]],[[19094,19609],[-81,5]],[[19009,19746],[76,0],[-4,359]],[[19761,19815],[-23,-199],[-81,38]],[[18693,18876],[-126,0],[-180,0],[-67,0]],[[18320,18876],[0,222]],[[18320,18876],[-162,-2],[-37,0]],[[17923,19276],[-292,2]],[[17631,19278],[-23,318]],[[17608,19596],[95,8]],[[17703,19604],[184,-3]],[[19639,18876],[-108,0],[-171,0]],[[19360,18876],[0,171],[94,5]],[[18815,19667],[14,-389]],[[19175,19319],[95,71]],[[19360,18876],[-239,0]],[[18946,21539],[90,0]],[[19036,21539],[58,-104]],[[19040,21432],[-94,107]],[[17194,21190],[-27,402]],[[17167,21592],[193,0]],[[17360,21592],[95,0],[0,-89]],[[17455,21503],[-104,-262],[-157,-51]],[[17716,20428],[0,183]],[[17716,20611],[0,23]],[[17716,20634],[550,-23]],[[17716,20634],[0,335]],[[17716,20969],[0,415]],[[17716,21384],[401,-59]],[[18117,21325],[-5,-402],[244,0]],[[18356,20923],[31,-244]],[[18387,20679],[-121,-68]],[[17716,20611],[-189,-28]],[[17527,20583],[-36,43]],[[17491,20626],[36,343]],[[17527,20969],[189,0]],[[18320,21325],[-45,89]],[[18275,21414],[76,0]],[[18351,21414],[-31,-89]],[[17716,21384],[0,30]],[[17716,21414],[414,0]],[[18130,21414],[-13,-89]],[[18626,21361],[-81,53]],[[18545,21414],[81,0]],[[18626,21414],[0,-53]],[[19036,21539],[72,89],[27,-89]],[[19319,21717],[-220,0]],[[19099,21717],[9,180]],[[19108,21897],[162,-2],[99,0],[45,0]],[[18320,21325],[13,-193]],[[18333,21132],[23,-209]],[[18130,21414],[95,0]],[[18225,21414],[50,0]],[[17856,21900],[-5,-130]],[[17851,21770],[-135,0]],[[17716,21770],[0,130]],[[17716,21900],[140,0]],[[17167,21592],[0,89]],[[17167,21681],[103,0],[5,219]],[[17275,21900],[441,0]],[[17716,21770],[0,-89]],[[17716,21681],[-252,71],[-104,-160]],[[17167,21681],[-185,31]],[[16982,21712],[0,188]],[[16982,21900],[54,0],[239,0]],[[18338,21897],[-176,-384],[63,-99]],[[17716,21414],[0,178]],[[17716,21592],[0,89]],[[17851,21770],[194,0],[0,89]],[[18045,21859],[99,38]],[[18144,21897],[194,0]],[[18338,21897],[306,0],[81,0]],[[18725,21897],[76,-272]],[[18801,21625],[-112,-20],[112,2]],[[18801,21607],[-94,-193]],[[18707,21414],[-81,0]],[[18545,21414],[-194,0]],[[17221,20969],[-59,84],[95,94],[-95,46]],[[17162,21193],[32,-3]],[[17455,21503],[261,89]],[[17527,20969],[-306,0]],[[17856,21900],[189,0]],[[18045,21900],[0,-41]],[[18946,21539],[90,147]],[[19036,21686],[63,31]],[[18797,21297],[9,117]],[[18806,21414],[180,0]],[[18986,21414],[5,0],[4,0],[27,-142],[-225,25]],[[18333,21132],[387,140]],[[18720,21272],[45,7]],[[18765,21279],[203,23],[95,-109],[-95,-132],[81,-105],[-148,18],[49,-188],[-103,28],[-9,-119],[-149,122],[-5,-110],[-153,64],[-54,-120],[-90,28]],[[18914,21897],[194,0]],[[19036,21686],[13,173],[-135,38]],[[17162,21193],[-144,43]],[[17018,21236],[68,178],[-108,0],[-27,298]],[[16951,21712],[31,0]],[[16951,21712],[-113,15]],[[16838,21727],[0,173]],[[16838,21900],[104,0],[40,0]],[[17018,21236],[-49,-18]],[[16969,21218],[-226,69],[-67,379]],[[16676,21666],[162,61]],[[18626,21361],[94,-89]],[[18707,21414],[99,0]],[[18797,21297],[-32,-18]],[[18725,21897],[140,0],[166,-256],[-171,-46],[59,-79],[-118,109]],[[18801,21607],[185,-193]],[[18045,21900],[99,-3]],[[16852,20038],[-14,-22]],[[16838,20016],[-50,-79]],[[16788,19937],[-67,124]],[[16721,20061],[-5,44]],[[16716,20105],[104,17]],[[16820,20122],[27,-38]],[[16847,20084],[5,-46]],[[16541,19822],[-81,166]],[[16460,19988],[18,61]],[[16478,20049],[18,0]],[[16496,20049],[90,23]],[[16586,20072],[135,-11]],[[16788,19937],[5,-79]],[[16793,19858],[-68,-102]],[[16725,19756],[-184,66]],[[16928,19957],[18,-94],[-121,-20]],[[16825,19843],[-32,15]],[[16838,20016],[90,-59]],[[16897,20049],[-45,-11]],[[16847,20084],[50,-35]],[[17631,19100],[0,15]],[[17631,19115],[0,143]],[[17631,19258],[0,20]],[[17437,18876],[-59,64]],[[17378,18940],[163,130]],[[17541,19070],[90,45]],[[17653,18876],[-216,0]],[[16329,20524],[-22,0]],[[16307,20524],[-194,-35]],[[16113,20489],[0,73],[0,364],[13,221]],[[16126,21147],[478,0]],[[16604,21147],[4,-465],[-67,-69]],[[16541,20613],[-63,-7]],[[16478,20606],[-140,7],[-9,-89]],[[16586,20072],[0,48]],[[16586,20120],[130,-15]],[[16991,20122],[-4,-73]],[[16987,20049],[-90,0]],[[16820,20122],[171,0]],[[16987,20049],[4,0]],[[16991,20049],[81,-64],[-63,-43]],[[17009,19942],[-81,15]],[[16126,21147],[0,127],[0,130]],[[16126,21404],[167,-25],[41,295],[-140,58],[-22,168]],[[16172,21900],[283,0],[32,0]],[[16487,21900],[-23,-173],[212,-61]],[[16969,21218],[0,-71]],[[16969,21147],[-365,0]],[[16644,19319],[-67,48]],[[16577,19367],[0,165]],[[16577,19532],[360,-53]],[[16937,19479],[0,-112]],[[16937,19367],[-293,-48]],[[16126,21404],[0,107],[-4,323],[0,66],[50,0]],[[17180,19756],[-355,87]],[[17009,19942],[252,-132]],[[17261,19810],[32,-87],[-113,33]],[[17432,20074],[-18,3]],[[17414,20077],[64,272]],[[17478,20349],[238,79]],[[17712,20077],[-95,-61]],[[17617,20016],[-31,119],[-154,-61]],[[16113,19367],[0,26],[0,361]],[[16113,19754],[284,0],[-32,86],[122,-84]],[[16487,19756],[90,-96]],[[16577,19660],[0,-128]],[[16577,19367],[-180,0]],[[16397,19367],[-284,0]],[[16491,20166],[5,-117]],[[16478,20049],[-117,0]],[[16361,20049],[4,251]],[[16365,20300],[14,11]],[[16379,20311],[117,10]],[[16496,20321],[-5,-92]],[[16491,20229],[0,-63]],[[16667,19100],[0,-221]],[[16667,18879],[-122,0],[-428,0],[-4,488]],[[16397,19367],[-36,-155],[306,-112]],[[16991,20122],[-171,82]],[[16820,20204],[396,71]],[[17216,20275],[90,13]],[[17306,20288],[172,61]],[[17414,20077],[-76,-28]],[[17338,20049],[-113,0]],[[17225,20049],[-234,0]],[[17342,20435],[-36,-147]],[[17216,20275],[-85,36]],[[17131,20311],[76,300]],[[17207,20611],[95,30]],[[17302,20641],[31,0]],[[17333,20641],[9,-206]],[[17009,19568],[-72,-89]],[[16577,19660],[432,-92]],[[16478,20606],[0,-82]],[[16478,20524],[-77,0]],[[16401,20524],[-72,0]],[[17180,19756],[-94,-173]],[[17086,19583],[-77,-15]],[[16487,19756],[238,0]],[[16113,19754],[0,119]],[[16113,19873],[347,115]],[[16541,19822],[-54,-66]],[[16644,19319],[122,-130]],[[16766,19189],[-9,-89]],[[16757,19100],[-90,0]],[[17342,20435],[185,148]],[[17703,19604],[0,117]],[[17324,19265],[-18,318]],[[17306,19583],[302,13]],[[17631,19258],[-144,23]],[[17487,19281],[-163,-16]],[[16361,20049],[-244,0]],[[16117,20049],[0,33],[0,7],[-4,189]],[[16113,20278],[162,-79],[90,101]],[[16487,21900],[261,0],[90,0]],[[17351,19118],[-27,147]],[[17487,19281],[-19,-161]],[[17468,19120],[-117,-2]],[[17221,20969],[-14,-135]],[[17207,20834],[-238,-48]],[[16969,20786],[0,361]],[[16491,20166],[95,-46]],[[16752,20524],[-175,43]],[[16577,20567],[-36,46]],[[16969,20786],[-36,-262]],[[16933,20524],[-181,0]],[[17329,19899],[0,-89]],[[17329,19810],[-68,0]],[[17225,20049],[18,-150],[86,0]],[[16577,20567],[-5,-43]],[[16572,20524],[-76,0]],[[16496,20524],[-18,0]],[[16757,19100],[95,0]],[[16852,19100],[85,3]],[[16937,19103],[0,-224]],[[16937,18879],[-252,0],[-18,0]],[[17302,20641],[-95,61]],[[17207,20702],[0,132]],[[17491,20626],[-158,15]],[[16852,19100],[-86,89]],[[16937,19367],[0,-264]],[[17338,19899],[-9,0]],[[17338,20049],[0,-150]],[[16491,20229],[329,-25]],[[17351,19118],[27,-178]],[[17437,18876],[-261,0],[-77,0],[-162,3]],[[17086,19583],[220,0]],[[17541,19070],[-73,50]],[[17703,19899],[-162,45],[76,72]],[[17207,20611],[0,91]],[[16113,19873],[4,176]],[[16401,20524],[-27,-89]],[[16374,20435],[-67,89]],[[17329,19810],[279,-3],[0,-211]],[[16113,20278],[0,12],[0,199]],[[16374,20435],[5,-124]],[[16496,20321],[0,203]],[[16572,20524],[180,0]],[[16933,20524],[198,-213]],[[17338,19899],[76,0],[18,175]]]}