{"type":"Topology","transform":{"scale":[0.0012831345112129487,0.0009745357309423489],"translate":[-124.73273099999999,24.60334863324381]},"objects":{"area":{"type":"GeometryCollection","geometries":[{"arcs":[[0,1,2]],"type":"Polygon","properties":{"state":"TN","name":"ADAMS","zip":"37010"}},{"arcs":[[3,4,5,6,7]],"type":"Polygon","properties":{"state":"TN","name":"ALEXANDRIA","zip":"37012"}},{"arcs":[[8,9,10,11,12,13]],"type":"Polygon","properties":{"state":"TN","name":"ANTIOCH","zip":"37013"}},{"arcs":[[14,15,16,17,18,19]],"type":"Polygon","properties":{"state":"TN","name":"ARRINGTON","zip":"37014"}},{"arcs":[[[20,21,22,23,24,25]],[[26,27,28,29,30,31]]],"type":"MultiPolygon","properties":{"state":"TN","name":"ASHLAND CITY","zip":"37015"}},{"arcs":[[32,33,34,-4,35]],"type":"Polygon","properties":{"state":"TN","name":"AUBURNTOWN","zip":"37016"}},{"arcs":[[36,37,38,39,40]],"type":"Polygon","properties":{"state":"TN","name":"BEECHGROVE","zip":"37018"}},{"arcs":[[41,42]],"type":"Polygon","properties":{"state":"TN","name":"BELFAST","zip":"37019"}},{"arcs":[[43,44,45,-38,46,47]],"type":"Polygon","properties":{"state":"TN","name":"BELL BUCKLE","zip":"37020"}},{"arcs":[[48,49,50,51,52]],"type":"Polygon","properties":{"state":"TN","name":"BETHPAGE","zip":"37022"}},{"arcs":[[53,54,55,56,57]],"type":"Polygon","properties":{"state":"TN","name":"BIG ROCK","zip":"37023"}},{"arcs":[[58,59,60,61,62,63]],"type":"Polygon","properties":{"state":"TN","name":"BON AQUA","zip":"37025"}},{"arcs":[[64,65,66,67,68,-40]],"type":"Polygon","properties":{"state":"TN","name":"BRADYVILLE","zip":"37026"}},{"arcs":[[69,70,71,72,73,-9,74,75]],"type":"Polygon","properties":{"state":"TN","name":"BRENTWOOD","zip":"37027"}},{"arcs":[[76,77,-56]],"type":"Polygon","properties":{"state":"TN","name":"BUMPUS MILLS","zip":"37028"}},{"arcs":[[78,79,80,-61]],"type":"Polygon","properties":{"state":"TN","name":"BURNS","zip":"37029"}},{"arcs":[[[81,82,83]],[[84,85,86]]],"type":"MultiPolygon","properties":{"state":"TN","name":"CARTHAGE","zip":"37030"}},{"arcs":[[87,-50,88,89]],"type":"Polygon","properties":{"state":"TN","name":"CASTALIAN SPRINGS","zip":"37031"}},{"arcs":[[90,91,92,93,-3,94]],"type":"Polygon","properties":{"state":"TN","name":"CEDAR HILL","zip":"37032"}},{"arcs":[[95,96,97,98,99,100,101,102,103]],"type":"Polygon","properties":{"state":"TN","name":"CENTERVILLE","zip":"37033"}},{"arcs":[[104,105,106,107,108]],"type":"Polygon","properties":{"state":"TN","name":"CHAPEL HILL","zip":"37034"}},{"arcs":[[109,-25,110,-93]],"type":"Polygon","properties":{"state":"TN","name":"CHAPMANSBORO","zip":"37035"}},{"arcs":[[111,112,113,-28,114,115]],"type":"Polygon","properties":{"state":"TN","name":"CHARLOTTE","zip":"37036"}},{"arcs":[[116,117,118,119,-65,-39,-46]],"type":"Polygon","properties":{"state":"TN","name":"CHRISTIANA","zip":"37037"}},{"arcs":[[[120,121,122,123]],[[124,125,126,127]]],"type":"MultiPolygon","properties":{"state":"TN","name":"CLARKSVILLE","zip":"37040"}},{"arcs":[[128,129,130,-123,131]],"type":"Polygon","properties":{"state":"TN","name":"CLARKSVILLE","zip":"37042"}},{"arcs":[[-24,132,-121,133,-1,-94,-111]],"type":"Polygon","properties":{"state":"TN","name":"CLARKSVILLE","zip":"37043"}},{"arcs":[[134,135,136,137,138,-16,139,140,-108]],"type":"Polygon","properties":{"state":"TN","name":"COLLEGE GROVE","zip":"37046"}},{"arcs":[[141,142,143,144,145]],"type":"Polygon","properties":{"state":"TN","name":"CORNERSVILLE","zip":"37047"}},{"arcs":[[146,147,148,149,150]],"type":"Polygon","properties":{"state":"TN","name":"COTTONTOWN","zip":"37048"}},{"arcs":[[151,152,153,154,-149]],"type":"Polygon","properties":{"state":"TN","name":"CROSS PLAINS","zip":"37049"}},{"arcs":[[155,156,157,158,159,160]],"type":"Polygon","properties":{"state":"TN","name":"CUMBERLAND CITY","zip":"37050"}},{"arcs":[[161,-160,162,163,164,-112,165]],"type":"Polygon","properties":{"state":"TN","name":"CUMBERLAND FURNACE","zip":"37051"}},{"arcs":[[166,-164,167,-126]],"type":"Polygon","properties":{"state":"TN","name":"CUNNINGHAM","zip":"37052"}},{"arcs":[[-60,168,169,170,-166,-116,171,-79]],"type":"Polygon","properties":{"state":"TN","name":"DICKSON","zip":"37055"}},{"arcs":[[172,173,174,175]],"type":"Polygon","properties":{"state":"TN","name":"DIXON SPRINGS","zip":"37057"}},{"arcs":[[[176,177,178,-157]],[[-77,-55,179,180]]],"type":"MultiPolygon","properties":{"state":"TN","name":"DOVER","zip":"37058"}},{"arcs":[[181,182]],"type":"Polygon","properties":{"state":"TN","name":"DOWELLTOWN","zip":"37059"}},{"arcs":[[183,-109,-141,184]],"type":"Polygon","properties":{"state":"TN","name":"EAGLEVILLE","zip":"37060"}},{"arcs":[[185,186,-161,187,188]],"type":"Polygon","properties":{"state":"TN","name":"ERIN","zip":"37061"}},{"arcs":[[-81,189,190,191,192,193,-62]],"type":"Polygon","properties":{"state":"TN","name":"FAIRVIEW","zip":"37062"}},{"arcs":[[194,195,196,197,-193,198,199,200,-138]],"type":"Polygon","properties":{"state":"TN","name":"FRANKLIN","zip":"37064"}},{"arcs":[[201,-151,202,-51,-88,203]],"type":"Polygon","properties":{"state":"TN","name":"GALLATIN","zip":"37066"}},{"arcs":[[204,-76,205,-17,-139,-201]],"type":"Polygon","properties":{"state":"TN","name":"FRANKLIN","zip":"37067"}},{"arcs":[[-200,206,-70,-205]],"type":"Polygon","properties":{"state":"TN","name":"FRANKLIN","zip":"37069"}},{"arcs":[[207,208,209,210,211,212,213]],"type":"Polygon","properties":{"state":"TN","name":"GOODLETTSVILLE","zip":"37072"}},{"arcs":[[214,215,216,-210]],"type":"Polygon","properties":{"state":"TN","name":"GREENBRIER","zip":"37073"}},{"arcs":[[-49,217,218,-173,219,220,-89]],"type":"Polygon","properties":{"state":"TN","name":"HARTSVILLE","zip":"37074"}},{"arcs":[[221,-147,-202,222,223,-212]],"type":"Polygon","properties":{"state":"TN","name":"HENDERSONVILLE","zip":"37075"}},{"arcs":[[224,225,-12,226,227,228,229]],"type":"Polygon","properties":{"state":"TN","name":"HERMITAGE","zip":"37076"}},{"arcs":[[230,231,232,233,234]],"type":"Polygon","properties":{"state":"TN","name":"HURRICANE MILLS","zip":"37078"}},{"arcs":[[235,236,-180,-54,237]],"type":"Polygon","properties":{"state":"TN","name":"INDIAN MOUND","zip":"37079"}},{"arcs":[[238,239,-21,240,241,-215,-209]],"type":"Polygon","properties":{"state":"TN","name":"JOELTON","zip":"37080"}},{"arcs":[[242,-32,243,244,-191]],"type":"Polygon","properties":{"state":"TN","name":"KINGSTON SPRINGS","zip":"37082"}},{"arcs":[[245,246,-174,-219,247,248]],"type":"Polygon","properties":{"state":"TN","name":"LAFAYETTE","zip":"37083"}},{"arcs":[[249,250,251,252,253]],"type":"Polygon","properties":{"state":"TN","name":"LASCASSAS","zip":"37085"}},{"arcs":[[254,-13,-226,255,256]],"type":"Polygon","properties":{"state":"TN","name":"LA VERGNE","zip":"37086"}},{"arcs":[[257,258,259,260]],"type":"Polygon","properties":{"state":"TN","name":"LEBANON","zip":"37087"}},{"arcs":[[261,262,-259,263,264,-252]],"type":"Polygon","properties":{"state":"TN","name":"LEBANON","zip":"37090"}},{"arcs":[[265,-145,266,267,-106,268,269,270,-42]],"type":"Polygon","properties":{"state":"TN","name":"LEWISBURG","zip":"37091"}},{"arcs":[[271,272,-36,-8,273,274,275,276,-183]],"type":"Polygon","properties":{"state":"TN","name":"LIBERTY","zip":"37095"}},{"arcs":[[277,278,279,280,281,282]],"type":"Polygon","properties":{"state":"TN","name":"LINDEN","zip":"37096"}},{"arcs":[[283,-232,284,-100,285,-282,286]],"type":"Polygon","properties":{"state":"TN","name":"LOBELVILLE","zip":"37097"}},{"arcs":[[287,-103,288,-64]],"type":"Polygon","properties":{"state":"TN","name":"LYLES","zip":"37098"}},{"arcs":[[289,-189,-170,290,-234]],"type":"Polygon","properties":{"state":"TN","name":"MC EWEN","zip":"37101"}},{"arcs":[[291,292,293,294,295,296]],"type":"Polygon","properties":{"state":"TN","name":"MC MINNVILLE","zip":"37110"}},{"arcs":[[297,298,-213,-224,299]],"type":"Polygon","properties":{"state":"TN","name":"MADISON","zip":"37115"}},{"arcs":[[300,-34,301,302,-253]],"type":"Polygon","properties":{"state":"TN","name":"MILTON","zip":"37118"}},{"arcs":[[303,-256,-225,304,305,-260,-263]],"type":"Polygon","properties":{"state":"TN","name":"MOUNT JULIET","zip":"37122"}},{"arcs":[[306,-119,307,308,309]],"type":"Polygon","properties":{"state":"TN","name":"MURFREESBORO","zip":"37127"}},{"arcs":[[310,-20,311,312,-308,-118]],"type":"Polygon","properties":{"state":"TN","name":"MURFREESBORO","zip":"37128"}},{"arcs":[[313,-309,-313,314,-262,-251]],"type":"Polygon","properties":{"state":"TN","name":"MURFREESBORO","zip":"37129"}},{"arcs":[[-250,315,-310,-314]],"type":"Polygon","properties":{"state":"TN","name":"MURFREESBORO","zip":"37130"}},{"arcs":[[316,317]],"type":"Polygon","properties":{"state":"TN","name":"NEW JOHNSONVILLE","zip":"37134"}},{"arcs":[[318,-18,-206,-75,-14,-255]],"type":"Polygon","properties":{"state":"TN","name":"NOLENSVILLE","zip":"37135"}},{"arcs":[[-102,319,-235,-291,-169,-59,-289]],"type":"Polygon","properties":{"state":"TN","name":"NUNNELLY","zip":"37137"}},{"arcs":[[-230,320,-305]],"type":"Polygon","properties":{"state":"TN","name":"OLD HICKORY","zip":"37138"}},{"arcs":[[-101,-285,-231,-320]],"type":"Polygon","properties":{"state":"TN","name":"ONLY","zip":"37140"}},{"arcs":[[321,322,323,-154]],"type":"Polygon","properties":{"state":"TN","name":"ORLINDA","zip":"37141"}},{"arcs":[[-163,-159,324,-127,-168]],"type":"Polygon","properties":{"state":"TN","name":"PALMYRA","zip":"37142"}},{"arcs":[[325,-244,-31,326]],"type":"Polygon","properties":{"state":"TN","name":"PEGRAM","zip":"37143"}},{"arcs":[[327,328,329,-146,-266,-43,-271,330,331]],"type":"Polygon","properties":{"state":"TN","name":"PETERSBURG","zip":"37144"}},{"arcs":[[332,333,-83,334,-175,-247,335,336]],"type":"Polygon","properties":{"state":"TN","name":"PLEASANT SHADE","zip":"37145"}},{"arcs":[[-26,-110,-92,337,-241]],"type":"Polygon","properties":{"state":"TN","name":"PLEASANT VIEW","zip":"37146"}},{"arcs":[[-286,-99,338,-283]],"type":"Polygon","properties":{"state":"TN","name":"PLEASANTVILLE","zip":"37147"}},{"arcs":[[-203,-150,-155,-324,339,340,-52]],"type":"Polygon","properties":{"state":"TN","name":"PORTLAND","zip":"37148"}},{"arcs":[[-316,-254,-303,341,-66,-120,-307]],"type":"Polygon","properties":{"state":"TN","name":"READYVILLE","zip":"37149"}},{"arcs":[[342,-336,-246,343,344]],"type":"Polygon","properties":{"state":"TN","name":"RED BOILING SPRINGS","zip":"37150"}},{"arcs":[[-220,-176,-335,-82,345]],"type":"Polygon","properties":{"state":"TN","name":"RIDDLETON","zip":"37151"}},{"arcs":[[346,-185,-140,-15,-311,-117,-45]],"type":"Polygon","properties":{"state":"TN","name":"ROCKVALE","zip":"37153"}},{"arcs":[[-270,347,-48,348,349,350,-331]],"type":"Polygon","properties":{"state":"TN","name":"SHELBYVILLE","zip":"37160"}},{"arcs":[[351,-272,-182,-277,352,353,354,355,356,-296]],"type":"Polygon","properties":{"state":"TN","name":"SMITHVILLE","zip":"37166"}},{"arcs":[[-312,-19,-319,-257,-304,-315]],"type":"Polygon","properties":{"state":"TN","name":"SMYRNA","zip":"37167"}},{"arcs":[[-125,357,-113,-165,-167]],"type":"Polygon","properties":{"state":"TN","name":"SOUTHSIDE","zip":"37171"}},{"arcs":[[-242,-338,-91,358,-322,-153,359,-216]],"type":"Polygon","properties":{"state":"TN","name":"SPRINGFIELD","zip":"37172"}},{"arcs":[[360,361,-136]],"type":"Polygon","properties":{"state":"TN","name":"SPRING HILL","zip":"37174"}},{"arcs":[[362,363,364,-178]],"type":"Polygon","properties":{"state":"TN","name":"STEWART","zip":"37175"}},{"arcs":[[365,-363,-177,-156,-187]],"type":"Polygon","properties":{"state":"TN","name":"TENNESSEE RIDGE","zip":"37178"}},{"arcs":[[-362,366,-195,-137]],"type":"Polygon","properties":{"state":"TN","name":"THOMPSONS STATION","zip":"37179"}},{"arcs":[[-184,-347,-44,-348,-269,-105]],"type":"Polygon","properties":{"state":"TN","name":"UNIONVILLE","zip":"37180"}},{"arcs":[[-188,-162,-171]],"type":"Polygon","properties":{"state":"TN","name":"VANLEER","zip":"37181"}},{"arcs":[[367,368,-349,-47,-37,369]],"type":"Polygon","properties":{"state":"TN","name":"WARTRACE","zip":"37183"}},{"arcs":[[-35,-301,-265,370,371,-5]],"type":"Polygon","properties":{"state":"TN","name":"WATERTOWN","zip":"37184"}},{"arcs":[[-284,372,-317,373,-364,-366,-186,-290,-233]],"type":"Polygon","properties":{"state":"TN","name":"WAVERLY","zip":"37185"}},{"arcs":[[-218,-53,-341,374,-248]],"type":"Polygon","properties":{"state":"TN","name":"WESTMORELAND","zip":"37186"}},{"arcs":[[-190,-80,-172,-115,-27,-243]],"type":"Polygon","properties":{"state":"TN","name":"WHITE BLUFF","zip":"37187"}},{"arcs":[[-360,-152,-148,-222,-211,-217]],"type":"Polygon","properties":{"state":"TN","name":"WHITE HOUSE","zip":"37188"}},{"arcs":[[375,-239,-208,376]],"type":"Polygon","properties":{"state":"TN","name":"WHITES CREEK","zip":"37189"}},{"arcs":[[377,-67,-342,-302,-33,-273,-352,-295]],"type":"Polygon","properties":{"state":"TN","name":"WOODBURY","zip":"37190"}},{"arcs":[[378,-129,379,-236]],"type":"Polygon","properties":{"state":"TN","name":"WOODLAWN","zip":"37191"}},{"arcs":[[380,381,382,383,384]],"type":"Polygon","properties":{"state":"TN","name":"NASHVILLE","zip":"37201"}},{"arcs":[[385,386,387,388,-382,389,390,391]],"type":"Polygon","properties":{"state":"TN","name":"NASHVILLE","zip":"37203"}},{"arcs":[[392,393,-391,394,395]],"type":"Polygon","properties":{"state":"TN","name":"NASHVILLE","zip":"37204"}},{"arcs":[[396,397,398,-386,399]],"type":"Polygon","properties":{"state":"TN","name":"NASHVILLE","zip":"37205"}},{"arcs":[[400,401,402,403]],"type":"Polygon","properties":{"state":"TN","name":"NASHVILLE","zip":"37206"}},{"arcs":[[404,-377,-214,-299,405,-402,406,407]],"type":"Polygon","properties":{"state":"TN","name":"NASHVILLE","zip":"37207"}},{"arcs":[[408,-388,409,410,-384]],"type":"Polygon","properties":{"state":"TN","name":"NASHVILLE","zip":"37208"}},{"arcs":[[-30,411,-410,-387,-399,412,-327]],"type":"Polygon","properties":{"state":"TN","name":"NASHVILLE","zip":"37209"}},{"arcs":[[-390,-381,413,414,415,416]],"type":"Polygon","properties":{"state":"TN","name":"NASHVILLE","zip":"37210"}},{"arcs":[[417,-395,-417,418,-10,-74]],"type":"Polygon","properties":{"state":"TN","name":"NASHVILLE","zip":"37211"}},{"arcs":[[-392,-394,419,-400]],"type":"Polygon","properties":{"state":"TN","name":"NASHVILLE","zip":"37212"}},{"arcs":[[420,400,406]],"type":"Polygon","properties":{"state":"TN","name":"NASHVILLE","zip":"37213"}},{"arcs":[[421,-415,422,-228]],"type":"Polygon","properties":{"state":"TN","name":"NASHVILLE","zip":"37214"}},{"arcs":[[423,-72,424,-397,-420,-393]],"type":"Polygon","properties":{"state":"TN","name":"NASHVILLE","zip":"37215"}},{"arcs":[[-403,-406,-298,425]],"type":"Polygon","properties":{"state":"TN","name":"NASHVILLE","zip":"37216"}},{"arcs":[[-11,-419,-416,-422,-227]],"type":"Polygon","properties":{"state":"TN","name":"NASHVILLE","zip":"37217"}},{"arcs":[[-22,-240,-376,-405,426]],"type":"Polygon","properties":{"state":"TN","name":"NASHVILLE","zip":"37218"}},{"arcs":[[-409,-383,-389]],"type":"Polygon","properties":{"state":"TN","name":"NASHVILLE","zip":"37219"}},{"arcs":[[-73,-424,-396,-418]],"type":"Polygon","properties":{"state":"TN","name":"NASHVILLE","zip":"37220"}},{"arcs":[[-199,-192,-245,-326,-413,-398,-425,-71,-207]],"type":"Polygon","properties":{"state":"TN","name":"NASHVILLE","zip":"37221"}},{"arcs":[[427,428,429,430,431,432]],"type":"Polygon","properties":{"state":"TN","name":"ALTAMONT","zip":"37301"}},{"arcs":[[433,434,435,436]],"type":"Polygon","properties":{"state":"TN","name":"APISON","zip":"37302"}},{"arcs":[[437,438,439,440,441,442,443,444,445]],"type":"Polygon","properties":{"state":"TN","name":"ATHENS","zip":"37303"}},{"arcs":[[446,447,-430,448,-293,449]],"type":"Polygon","properties":{"state":"TN","name":"BEERSHEBA SPRINGS","zip":"37305"}},{"arcs":[[450,451,452,453,454,455]],"type":"Polygon","properties":{"state":"TN","name":"BELVIDERE","zip":"37306"}},{"arcs":[[456,457,458,459,460]],"type":"Polygon","properties":{"state":"TN","name":"BENTON","zip":"37307"}},{"arcs":[[461,462,463,464,465,-442,466]],"type":"Polygon","properties":{"state":"TN","name":"BIRCHWOOD","zip":"37308"}},{"arcs":[[467,468,469,470,-467,-441]],"type":"Polygon","properties":{"state":"TN","name":"CALHOUN","zip":"37309"}},{"arcs":[[471,472,473,474,-470]],"type":"Polygon","properties":{"state":"TN","name":"CHARLESTON","zip":"37310"}},{"arcs":[[475,-437,476,477,478]],"type":"Polygon","properties":{"state":"TN","name":"CLEVELAND","zip":"37311"}},{"arcs":[[479,480,481,-474,482,-478]],"type":"Polygon","properties":{"state":"TN","name":"CLEVELAND","zip":"37312"}},{"arcs":[[483,484,-431,-448]],"type":"Polygon","properties":{"state":"TN","name":"COALMONT","zip":"37313"}},{"arcs":[[485,486,487,488]],"type":"Polygon","properties":{"state":"TN","name":"COPPERHILL","zip":"37317"}},{"arcs":[[489,490,491]],"type":"Polygon","properties":{"state":"TN","name":"COWAN","zip":"37318"}},{"arcs":[[492,493,494,495,496,497]],"type":"Polygon","properties":{"state":"TN","name":"DAYTON","zip":"37321"}},{"arcs":[[498,499,-443,-466,500]],"type":"Polygon","properties":{"state":"TN","name":"DECATUR","zip":"37322"}},{"arcs":[[-483,-473,-458,501,502,503,-479]],"type":"Polygon","properties":{"state":"TN","name":"CLEVELAND","zip":"37323"}},{"arcs":[[504,-491,505,506,507,508,509]],"type":"Polygon","properties":{"state":"TN","name":"DECHERD","zip":"37324"}},{"arcs":[[510,-459,-472,-469,511,-439,512]],"type":"Polygon","properties":{"state":"TN","name":"DELANO","zip":"37325"}},{"arcs":[[513,-450,-292,514,515,516,517,518,519,520]],"type":"Polygon","properties":{"state":"TN","name":"DUNLAP","zip":"37327"}},{"arcs":[[521,522,523]],"type":"Polygon","properties":{"state":"TN","name":"ELORA","zip":"37328"}},{"arcs":[[524,525,-446,526]],"type":"Polygon","properties":{"state":"TN","name":"ENGLEWOOD","zip":"37329"}},{"arcs":[[527,528,529,-507,530]],"type":"Polygon","properties":{"state":"TN","name":"ESTILL SPRINGS","zip":"37330"}},{"arcs":[[-438,-526,531,532,-513]],"type":"Polygon","properties":{"state":"TN","name":"ETOWAH","zip":"37331"}},{"arcs":[[533,534,535,-495]],"type":"Polygon","properties":{"state":"TN","name":"EVENSVILLE","zip":"37332"}},{"arcs":[[536,537,538,539,540,541,542,-328,543,544]],"type":"Polygon","properties":{"state":"TN","name":"FAYETTEVILLE","zip":"37334"}},{"arcs":[[545,-538,546,547,548,-452,549,-522]],"type":"Polygon","properties":{"state":"TN","name":"FLINTVILLE","zip":"37335"}},{"arcs":[[-482,550,-462,-471,-475]],"type":"Polygon","properties":{"state":"TN","name":"GEORGETOWN","zip":"37336"}},{"arcs":[[551,552,553]],"type":"Polygon","properties":{"state":"TN","name":"GRANDVIEW","zip":"37337"}},{"arcs":[[554,-493,555,556,-518]],"type":"Polygon","properties":{"state":"TN","name":"GRAYSVILLE","zip":"37338"}},{"arcs":[[557,558,-432,-485,559]],"type":"Polygon","properties":{"state":"TN","name":"GRUETLI LAAGER","zip":"37339"}},{"arcs":[[560,561,562,563,564]],"type":"Polygon","properties":{"state":"TN","name":"GUILD","zip":"37340"}},{"arcs":[[565,566,-464,567]],"type":"Polygon","properties":{"state":"TN","name":"HARRISON","zip":"37341"}},{"arcs":[[568,569,-428,570,-508,-530]],"type":"Polygon","properties":{"state":"TN","name":"HILLSBORO","zip":"37342"}},{"arcs":[[571,572,573,574]],"type":"Polygon","properties":{"state":"TN","name":"HIXSON","zip":"37343"}},{"arcs":[[575,-523,-550,-451]],"type":"Polygon","properties":{"state":"TN","name":"HUNTLAND","zip":"37345"}},{"arcs":[[576,577,578,579]],"type":"Polygon","properties":{"state":"TN","name":"JASPER","zip":"37347"}},{"arcs":[[580,-547,-537]],"type":"Polygon","properties":{"state":"TN","name":"KELSO","zip":"37348"}},{"arcs":[[581,-544,-332,-351,582,583,-453,-549]],"type":"Polygon","properties":{"state":"TN","name":"LYNCHBURG","zip":"37352"}},{"arcs":[[-436,584,-480,-477]],"type":"Polygon","properties":{"state":"TN","name":"MC DONALD","zip":"37353"}},{"arcs":[[585,586,587,588,-527,-445]],"type":"Polygon","properties":{"state":"TN","name":"MADISONVILLE","zip":"37354"}},{"arcs":[[-529,589,590,-370,-41,-69,591,-569]],"type":"Polygon","properties":{"state":"TN","name":"MANCHESTER","zip":"37355"}},{"arcs":[[592,-510,593,594,595]],"type":"Polygon","properties":{"state":"TN","name":"MONTEAGLE","zip":"37356"}},{"arcs":[[-592,-68,-378,-294,-449,-429,-570]],"type":"Polygon","properties":{"state":"TN","name":"MORRISON","zip":"37357"}},{"arcs":[[-545,-582,-548,-581]],"type":"Polygon","properties":{"state":"TN","name":"MULBERRY","zip":"37359"}},{"arcs":[[596,-368,-591]],"type":"Polygon","properties":{"state":"TN","name":"NORMANDY","zip":"37360"}},{"arcs":[[597,-502,-457]],"type":"Polygon","properties":{"state":"TN","name":"OCOEE","zip":"37361"}},{"arcs":[[598,-503,-598,-461,599,-486]],"type":"Polygon","properties":{"state":"TN","name":"OLDFORT","zip":"37362"}},{"arcs":[[600,601,602,-568,-463,-551,-481,-585,-435]],"type":"Polygon","properties":{"state":"TN","name":"OOLTEWAH","zip":"37363"}},{"arcs":[[603,-560,-484,-447,-514,604,605]],"type":"Polygon","properties":{"state":"TN","name":"PALMER","zip":"37365"}},{"arcs":[[-433,-559,606,-594,-509,-571]],"type":"Polygon","properties":{"state":"TN","name":"PELHAM","zip":"37366"}},{"arcs":[[-555,-517,607,608,609,-534,-494]],"type":"Polygon","properties":{"state":"TN","name":"PIKEVILLE","zip":"37367"}},{"arcs":[[-511,-533,610,611,-487,-600,-460]],"type":"Polygon","properties":{"state":"TN","name":"RELIANCE","zip":"37369"}},{"arcs":[[-468,-440,-512]],"type":"Polygon","properties":{"state":"TN","name":"RICEVILLE","zip":"37370"}},{"arcs":[[612,-556,-498,613]],"type":"Polygon","properties":{"state":"TN","name":"SALE CREEK","zip":"37373"}},{"arcs":[[614,615,-606,616,-578]],"type":"Polygon","properties":{"state":"TN","name":"SEQUATCHIE","zip":"37374"}},{"arcs":[[617,-492,-505,-593,618,619]],"type":"Polygon","properties":{"state":"TN","name":"SEWANEE","zip":"37375"}},{"arcs":[[620,621,-455,622,-620]],"type":"Polygon","properties":{"state":"TN","name":"SHERWOOD","zip":"37376"}},{"arcs":[[623,624,625,626,-520,627,-573]],"type":"Polygon","properties":{"state":"TN","name":"SIGNAL MOUNTAIN","zip":"37377"}},{"arcs":[[-519,-557,-613,628,-574,-628]],"type":"Polygon","properties":{"state":"TN","name":"SODDY DAISY","zip":"37379"}},{"arcs":[[[629,-621,-619,-596,630,-615,-577,631]],[[632,-563]]],"type":"MultiPolygon","properties":{"state":"TN","name":"SOUTH PITTSBURG","zip":"37380"}},{"arcs":[[633,-552,634,635,-496,-536]],"type":"Polygon","properties":{"state":"TN","name":"SPRING CITY","zip":"37381"}},{"arcs":[[636,637,-611,-532,-525,-589,638]],"type":"Polygon","properties":{"state":"TN","name":"TELLICO PLAINS","zip":"37385"}},{"arcs":[[-607,-558,-604,-616,-631,-595]],"type":"Polygon","properties":{"state":"TN","name":"TRACY CITY","zip":"37387"}},{"arcs":[[-350,-369,-597,-590,-528,639,-583]],"type":"Polygon","properties":{"state":"TN","name":"TULLAHOMA","zip":"37388"}},{"arcs":[[-638,640,-488,-612]],"type":"Polygon","properties":{"state":"TN","name":"TURTLETOWN","zip":"37391"}},{"arcs":[[641,-565,642]],"type":"Polygon","properties":{"state":"TN","name":"WHITESIDE","zip":"37396"}},{"arcs":[[-579,-617,-605,-521,-627,643]],"type":"Polygon","properties":{"state":"TN","name":"WHITWELL","zip":"37397"}},{"arcs":[[-623,-454,-584,-640,-531,-506,-490,-618]],"type":"Polygon","properties":{"state":"TN","name":"WINCHESTER","zip":"37398"}},{"arcs":[[644,645,646]],"type":"Polygon","properties":{"state":"TN","name":"CHATTANOOGA","zip":"37402"}},{"arcs":[[647,648,649,-647,650]],"type":"Polygon","properties":{"state":"TN","name":"CHATTANOOGA","zip":"37403"}},{"arcs":[[651,652,-649,653,654,655,656]],"type":"Polygon","properties":{"state":"TN","name":"CHATTANOOGA","zip":"37404"}},{"arcs":[[-625,657,658]],"type":"Polygon","properties":{"state":"TN","name":"CHATTANOOGA","zip":"37405"}},{"arcs":[[659,660,661,-654,-648,662]],"type":"Polygon","properties":{"state":"TN","name":"CHATTANOOGA","zip":"37406"}},{"arcs":[[663,664,-652]],"type":"Polygon","properties":{"state":"TN","name":"CHATTANOOGA","zip":"37407"}},{"arcs":[[665,666,-645,-650,-653,667,668]],"type":"Polygon","properties":{"state":"TN","name":"CHATTANOOGA","zip":"37408"}},{"arcs":[[669,-669,670,671]],"type":"Polygon","properties":{"state":"TN","name":"CHATTANOOGA","zip":"37409"}},{"arcs":[[-668,-665,672,-671]],"type":"Polygon","properties":{"state":"TN","name":"CHATTANOOGA","zip":"37410"}},{"arcs":[[673,674,-655,-662]],"type":"Polygon","properties":{"state":"TN","name":"CHATTANOOGA","zip":"37411"}},{"arcs":[[675,-656,-675,676]],"type":"Polygon","properties":{"state":"TN","name":"CHATTANOOGA","zip":"37412"}},{"arcs":[[-658,-624,-572,677]],"type":"Polygon","properties":{"state":"TN","name":"CHATTANOOGA","zip":"37415"}},{"arcs":[[-566,-603,678,-660,679]],"type":"Polygon","properties":{"state":"TN","name":"CHATTANOOGA","zip":"37416"}},{"arcs":[[680,-561,-642,681,-666,-670]],"type":"Polygon","properties":{"state":"TN","name":"CHATTANOOGA","zip":"37419"}},{"arcs":[[682,-677,-674,-661,-679,-602]],"type":"Polygon","properties":{"state":"TN","name":"CHATTANOOGA","zip":"37421"}},{"arcs":[[683,684,685,686,687,688]],"type":"Polygon","properties":{"state":"TN","name":"JOHNSON CITY","zip":"37601"}},{"arcs":[[689,690,691,-684]],"type":"Polygon","properties":{"state":"TN","name":"JOHNSON CITY","zip":"37604"}},{"arcs":[[692,693,694,-685,-692]],"type":"Polygon","properties":{"state":"TN","name":"JOHNSON CITY","zip":"37615"}},{"arcs":[[695,696,697]],"type":"Polygon","properties":{"state":"TN","name":"AFTON","zip":"37616"}},{"arcs":[[698,699,700,701,702,703,704]],"type":"Polygon","properties":{"state":"TN","name":"BLOUNTVILLE","zip":"37617"}},{"arcs":[[705,706,-699,707,708]],"type":"Polygon","properties":{"state":"TN","name":"BLUFF CITY","zip":"37618"}},{"arcs":[[709,-708,-705,710,711]],"type":"Polygon","properties":{"state":"TN","name":"BRISTOL","zip":"37620"}},{"arcs":[[712,713,714,715,716,717]],"type":"Polygon","properties":{"state":"TN","name":"BUTLER","zip":"37640"}},{"arcs":[[718,719,720,721,-698,722,723,724,725,726]],"type":"Polygon","properties":{"state":"TN","name":"CHUCKEY","zip":"37641"}},{"arcs":[[727,728,729,730,731,732,733,734,-724]],"type":"Polygon","properties":{"state":"TN","name":"CHURCH HILL","zip":"37642"}},{"arcs":[[735,-709,-710,736,-714,737,738,-688]],"type":"Polygon","properties":{"state":"TN","name":"ELIZABETHTON","zip":"37643"}},{"arcs":[[739,740,-733]],"type":"Polygon","properties":{"state":"TN","name":"MOUNT CARMEL","zip":"37645"}},{"arcs":[[741,742,-719,743,744]],"type":"Polygon","properties":{"state":"TN","name":"ERWIN","zip":"37650"}},{"arcs":[[745,746,-725,-735,747,748]],"type":"Polygon","properties":{"state":"TN","name":"FALL BRANCH","zip":"37656"}},{"arcs":[[749,-720,-743]],"type":"Polygon","properties":{"state":"TN","name":"FLAG POND","zip":"37657"}},{"arcs":[[750,751,752,-738,-713]],"type":"Polygon","properties":{"state":"TN","name":"HAMPTON","zip":"37658"}},{"arcs":[[753,754,-746,755,756,-693,-691,757,-744,-727,758]],"type":"Polygon","properties":{"state":"TN","name":"JONESBOROUGH","zip":"37659"}},{"arcs":[[759,-748,-734,-741,760,-703]],"type":"Polygon","properties":{"state":"TN","name":"KINGSPORT","zip":"37660"}},{"arcs":[[-757,761,-701,762,-694]],"type":"Polygon","properties":{"state":"TN","name":"KINGSPORT","zip":"37663"}},{"arcs":[[-749,-760,-702,-762,-756]],"type":"Polygon","properties":{"state":"TN","name":"KINGSPORT","zip":"37664"}},{"arcs":[[763,764,765]],"type":"Polygon","properties":{"state":"TN","name":"LAUREL BLOOMERY","zip":"37680"}},{"arcs":[[-747,-755,766,-759,-726]],"type":"Polygon","properties":{"state":"TN","name":"LIMESTONE","zip":"37681"}},{"arcs":[[767,768,-716,769,-764,770]],"type":"Polygon","properties":{"state":"TN","name":"MOUNTAIN CITY","zip":"37683"}},{"arcs":[[771,-686,-695,-763,-700,-707]],"type":"Polygon","properties":{"state":"TN","name":"PINEY FLATS","zip":"37686"}},{"arcs":[[772,-751,-718]],"type":"Polygon","properties":{"state":"TN","name":"ROAN MOUNTAIN","zip":"37687"}},{"arcs":[[-712,773,-765,-770,-715,-737]],"type":"Polygon","properties":{"state":"TN","name":"SHADY VALLEY","zip":"37688"}},{"arcs":[[-754,-767]],"type":"Polygon","properties":{"state":"TN","name":"TELFORD","zip":"37690"}},{"arcs":[[774,-768]],"type":"Polygon","properties":{"state":"TN","name":"TRADE","zip":"37691"}},{"arcs":[[775,-745,-758,-690,-689,-739,-753]],"type":"Polygon","properties":{"state":"TN","name":"UNICOI","zip":"37692"}},{"arcs":[[-687,-772,-706,-736]],"type":"Polygon","properties":{"state":"TN","name":"WATAUGA","zip":"37694"}},{"arcs":[[776,777,778,779]],"type":"Polygon","properties":{"state":"TN","name":"ALCOA","zip":"37701"}},{"arcs":[[780,781,782,783,784,785,786,787]],"type":"Polygon","properties":{"state":"TN","name":"ANDERSONVILLE","zip":"37705"}},{"arcs":[[788,789,790,791]],"type":"Polygon","properties":{"state":"TN","name":"BEAN STATION","zip":"37708"}},{"arcs":[[792,793,794,795,796,797,798]],"type":"Polygon","properties":{"state":"TN","name":"BLAINE","zip":"37709"}},{"arcs":[[799,800,801,802,803,804]],"type":"Polygon","properties":{"state":"TN","name":"BRICEVILLE","zip":"37710"}},{"arcs":[[805,806,807,808,809]],"type":"Polygon","properties":{"state":"TN","name":"BULLS GAP","zip":"37711"}},{"arcs":[[810,811,812,813,814,815,816]],"type":"Polygon","properties":{"state":"TN","name":"BYBEE","zip":"37713"}},{"arcs":[[817,818,819,820,821,-802]],"type":"Polygon","properties":{"state":"TN","name":"CARYVILLE","zip":"37714"}},{"arcs":[[822,823,824,825]],"type":"Polygon","properties":{"state":"TN","name":"CLAIRFIELD","zip":"37715"}},{"arcs":[[826,827,828,829,-804,830,-783,831]],"type":"Polygon","properties":{"state":"TN","name":"CLINTON","zip":"37716"}},{"arcs":[[832,833,834,835,-796,836,837]],"type":"Polygon","properties":{"state":"TN","name":"CORRYTON","zip":"37721"}},{"arcs":[[838,839,840,841,842,843]],"type":"Polygon","properties":{"state":"TN","name":"COSBY","zip":"37722"}},{"arcs":[[844,845,846,847]],"type":"Polygon","properties":{"state":"TN","name":"CRAB ORCHARD","zip":"37723"}},{"arcs":[[848,849,-825,850,851]],"type":"Polygon","properties":{"state":"TN","name":"CUMBERLAND GAP","zip":"37724"}},{"arcs":[[852,-843,853,854,855,856,857]],"type":"Polygon","properties":{"state":"TN","name":"DANDRIDGE","zip":"37725"}},{"arcs":[[858,859,860,861,862]],"type":"Polygon","properties":{"state":"TN","name":"DEER LODGE","zip":"37726"}},{"arcs":[[863,864,865,866,867]],"type":"Polygon","properties":{"state":"TN","name":"DEL RIO","zip":"37727"}},{"arcs":[[868,869,870,-823]],"type":"Polygon","properties":{"state":"TN","name":"DUFF","zip":"37729"}},{"arcs":[[871,872,873,874,875]],"type":"Polygon","properties":{"state":"TN","name":"EIDSON","zip":"37731"}},{"arcs":[[876,877,878,879,880]],"type":"Polygon","properties":{"state":"TN","name":"FRIENDSVILLE","zip":"37737"}},{"arcs":[[881,882,883,-841,884,885]],"type":"Polygon","properties":{"state":"TN","name":"GATLINBURG","zip":"37738"}},{"arcs":[[886,887,888,-878,889]],"type":"Polygon","properties":{"state":"TN","name":"GREENBACK","zip":"37742"}},{"arcs":[[890,-811,891,892,-696,-722,893,-867]],"type":"Polygon","properties":{"state":"TN","name":"GREENEVILLE","zip":"37743"}},{"arcs":[[894,-810,895,-728,-723,-697,-893]],"type":"Polygon","properties":{"state":"TN","name":"GREENEVILLE","zip":"37745"}},{"arcs":[[896,897,898,899,900,901,902]],"type":"Polygon","properties":{"state":"TN","name":"HARRIMAN","zip":"37748"}},{"arcs":[[903,904,905,-852]],"type":"Polygon","properties":{"state":"TN","name":"HARROGATE","zip":"37752"}},{"arcs":[[906,-839,907,-864]],"type":"Polygon","properties":{"state":"TN","name":"HARTFORD","zip":"37753"}},{"arcs":[[-782,908,909,-832]],"type":"Polygon","properties":{"state":"TN","name":"HEISKELL","zip":"37754"}},{"arcs":[[910,911,912]],"type":"Polygon","properties":{"state":"TN","name":"HELENWOOD","zip":"37755"}},{"arcs":[[913,914,-913,915,916,-818,-801,917]],"type":"Polygon","properties":{"state":"TN","name":"HUNTSVILLE","zip":"37756"}},{"arcs":[[918,-821,919,-785]],"type":"Polygon","properties":{"state":"TN","name":"JACKSBORO","zip":"37757"}},{"arcs":[[920,921,922,923,-857]],"type":"Polygon","properties":{"state":"TN","name":"JEFFERSON CITY","zip":"37760"}},{"arcs":[[924,925,926,927,-870]],"type":"Polygon","properties":{"state":"TN","name":"JELLICO","zip":"37762"}},{"arcs":[[[928,929,-897,930,931]],[[932,933,934,935]]],"type":"MultiPolygon","properties":{"state":"TN","name":"KINGSTON","zip":"37763"}},{"arcs":[[936,937,938,-855,939,940]],"type":"Polygon","properties":{"state":"TN","name":"KODAK","zip":"37764"}},{"arcs":[[941,-875,942,943,-731,944]],"type":"Polygon","properties":{"state":"TN","name":"KYLES FORD","zip":"37765"}},{"arcs":[[945,-786,-920,-820,946,-925,-869,947]],"type":"Polygon","properties":{"state":"TN","name":"LA FOLLETTE","zip":"37766"}},{"arcs":[[-822,-919,-784,-831,-803]],"type":"Polygon","properties":{"state":"TN","name":"LAKE CITY","zip":"37769"}},{"arcs":[[948,-863,949,950,-914,951,952]],"type":"Polygon","properties":{"state":"TN","name":"LANCING","zip":"37770"}},{"arcs":[[953,954,955,-932,956,957,958]],"type":"Polygon","properties":{"state":"TN","name":"LENOIR CITY","zip":"37771"}},{"arcs":[[[-954,959,960]],[[961,962,-879,-889]]],"type":"MultiPolygon","properties":{"state":"TN","name":"LENOIR CITY","zip":"37772"}},{"arcs":[[[-929,-956,963]],[[964,-935,965,-962,-888,966]]],"type":"MultiPolygon","properties":{"state":"TN","name":"LOUDON","zip":"37774"}},{"arcs":[[967,-881,968,969,970,-778]],"type":"Polygon","properties":{"state":"TN","name":"LOUISVILLE","zip":"37777"}},{"arcs":[[-836,971,972,973,-797]],"type":"Polygon","properties":{"state":"TN","name":"LUTTRELL","zip":"37779"}},{"arcs":[[974,975,976,-890,-877,-968,-777,977]],"type":"Polygon","properties":{"state":"TN","name":"MARYVILLE","zip":"37801"}},{"arcs":[[978,979,980,-975]],"type":"Polygon","properties":{"state":"TN","name":"MARYVILLE","zip":"37803"}},{"arcs":[[-780,981,982,983,-979,-978]],"type":"Polygon","properties":{"state":"TN","name":"MARYVILLE","zip":"37804"}},{"arcs":[[984,-837,-795,985]],"type":"Polygon","properties":{"state":"TN","name":"MASCOT","zip":"37806"}},{"arcs":[[-835,986,-788,987,988,989,-972]],"type":"Polygon","properties":{"state":"TN","name":"MAYNARDVILLE","zip":"37807"}},{"arcs":[[990,991,-816]],"type":"Polygon","properties":{"state":"TN","name":"MIDWAY","zip":"37809"}},{"arcs":[[992,993,994,-807,-991,-815]],"type":"Polygon","properties":{"state":"TN","name":"MOHAWK","zip":"37810"}},{"arcs":[[995,-872,996,997,998,999,-791]],"type":"Polygon","properties":{"state":"TN","name":"MOORESBURG","zip":"37811"}},{"arcs":[[1000,1001,1002,1003,1004,-993,-814]],"type":"Polygon","properties":{"state":"TN","name":"MORRISTOWN","zip":"37813"}},{"arcs":[[1005,-792,-1000,1006,-1004,1007]],"type":"Polygon","properties":{"state":"TN","name":"MORRISTOWN","zip":"37814"}},{"arcs":[[-992,-806,-895,-892,-817]],"type":"Polygon","properties":{"state":"TN","name":"MOSHEIM","zip":"37818"}},{"arcs":[[1008,1009,1010,-927]],"type":"Polygon","properties":{"state":"TN","name":"NEWCOMB","zip":"37819"}},{"arcs":[[1011,-793,1012,-921,-856,-939]],"type":"Polygon","properties":{"state":"TN","name":"NEW MARKET","zip":"37820"}},{"arcs":[[-908,-844,-853,1013,-1001,-813,1014,-865]],"type":"Polygon","properties":{"state":"TN","name":"NEWPORT","zip":"37821"}},{"arcs":[[1015,1016,1017,1018,-989]],"type":"Polygon","properties":{"state":"TN","name":"NEW TAZEWELL","zip":"37825"}},{"arcs":[[1019,-586,-444,-500,1020,1021]],"type":"Polygon","properties":{"state":"TN","name":"NIOTA","zip":"37826"}},{"arcs":[[1022,-953,1023,-900,1024,-847]],"type":"Polygon","properties":{"state":"TN","name":"OAKDALE","zip":"37829"}},{"arcs":[[1025,-957,-931,-903,1026,-829,1027]],"type":"Polygon","properties":{"state":"TN","name":"OAK RIDGE","zip":"37830"}},{"arcs":[[-902,1028,-805,-830,-1027]],"type":"Polygon","properties":{"state":"TN","name":"OLIVER SPRINGS","zip":"37840"}},{"arcs":[[1029,1030,1031,1032,1033,-916,-912,1034]],"type":"Polygon","properties":{"state":"TN","name":"ONEIDA","zip":"37841"}},{"arcs":[[-812,-891,-866,-1015]],"type":"Polygon","properties":{"state":"TN","name":"PARROTTSVILLE","zip":"37843"}},{"arcs":[[1035,-936,-965,1036,1037,-1022]],"type":"Polygon","properties":{"state":"TN","name":"PHILADELPHIA","zip":"37846"}},{"arcs":[[-819,-917,-1034,1038,-1009,-926,-947]],"type":"Polygon","properties":{"state":"TN","name":"PIONEER","zip":"37847"}},{"arcs":[[-974,1039,1040,-798]],"type":"Polygon","properties":{"state":"TN","name":"POWDER SPRINGS","zip":"37848"}},{"arcs":[[1041,1042,1043,-827,-910,1044,1045]],"type":"Polygon","properties":{"state":"TN","name":"POWELL","zip":"37849"}},{"arcs":[[1046,1047,-1035,-911,-915,-951]],"type":"Polygon","properties":{"state":"TN","name":"ROBBINS","zip":"37852"}},{"arcs":[[-971,1048,1049,-982,-779]],"type":"Polygon","properties":{"state":"TN","name":"ROCKFORD","zip":"37853"}},{"arcs":[[1050,-848,-1025,-899,1051,-635,-554]],"type":"Polygon","properties":{"state":"TN","name":"ROCKWOOD","zip":"37854"}},{"arcs":[[1052,-997,-876,-942,1053,-729,-896,-809]],"type":"Polygon","properties":{"state":"TN","name":"ROGERSVILLE","zip":"37857"}},{"arcs":[[-1005,-1007,-999,1054,-994]],"type":"Polygon","properties":{"state":"TN","name":"RUSSELLVILLE","zip":"37860"}},{"arcs":[[-1013,-799,-1041,1055,1056,-789,-1006,1057,-922]],"type":"Polygon","properties":{"state":"TN","name":"RUTLEDGE","zip":"37861"}},{"arcs":[[1058,1059,1060,1061,-882,1062]],"type":"Polygon","properties":{"state":"TN","name":"SEVIERVILLE","zip":"37862"}},{"arcs":[[1063,-883,-1062]],"type":"Polygon","properties":{"state":"TN","name":"PIGEON FORGE","zip":"37863"}},{"arcs":[[1064,-1060,1065,-983,-1050,1066]],"type":"Polygon","properties":{"state":"TN","name":"SEYMOUR","zip":"37865"}},{"arcs":[[-787,-946,1067,-1016,-988]],"type":"Polygon","properties":{"state":"TN","name":"SHARPS CHAPEL","zip":"37866"}},{"arcs":[[1068,1069,-905,1070,-943,-874]],"type":"Polygon","properties":{"state":"TN","name":"SNEEDVILLE","zip":"37869"}},{"arcs":[[-1068,-948,-826,-850,1071,-1017]],"type":"Polygon","properties":{"state":"TN","name":"SPEEDWELL","zip":"37870"}},{"arcs":[[1072,-986,-794,-1012,-938,1073]],"type":"Polygon","properties":{"state":"TN","name":"STRAWBERRY PLAINS","zip":"37871"}},{"arcs":[[1074,1075,-1047,-950,-862]],"type":"Polygon","properties":{"state":"TN","name":"SUNBRIGHT","zip":"37872"}},{"arcs":[[-945,-730,-1054]],"type":"Polygon","properties":{"state":"TN","name":"SURGOINSVILLE","zip":"37873"}},{"arcs":[[-1038,1076,-587,-1020]],"type":"Polygon","properties":{"state":"TN","name":"SWEETWATER","zip":"37874"}},{"arcs":[[-1065,-940,-854,-842,-884,-1064,-1061]],"type":"Polygon","properties":{"state":"TN","name":"SEVIERVILLE","zip":"37876"}},{"arcs":[[-1058,-1008,-1003,1077,-923]],"type":"Polygon","properties":{"state":"TN","name":"TALBOTT","zip":"37877"}},{"arcs":[[-976,-981,1078,1079,1080,1081]],"type":"Polygon","properties":{"state":"TN","name":"TALLASSEE","zip":"37878"}},{"arcs":[[-1072,-849,-906,-1070,1082,1083,-1018]],"type":"Polygon","properties":{"state":"TN","name":"TAZEWELL","zip":"37879"}},{"arcs":[[-933,-1036,-1021,-499,1084]],"type":"Polygon","properties":{"state":"TN","name":"TEN MILE","zip":"37880"}},{"arcs":[[-1057,1085,-1083,-1069,-873,-996,-790]],"type":"Polygon","properties":{"state":"TN","name":"THORN HILL","zip":"37881"}},{"arcs":[[1086,-1063,-886,1087,-1080]],"type":"Polygon","properties":{"state":"TN","name":"TOWNSEND","zip":"37882"}},{"arcs":[[-1077,-1037,-967,-887,-977,-1082,1088,-639,-588]],"type":"Polygon","properties":{"state":"TN","name":"VONORE","zip":"37885"}},{"arcs":[[-984,-1066,-1059,-1087,-1079,-980]],"type":"Polygon","properties":{"state":"TN","name":"WALLAND","zip":"37886"}},{"arcs":[[-901,-1024,-952,-918,-800,-1029]],"type":"Polygon","properties":{"state":"TN","name":"WARTBURG","zip":"37887"}},{"arcs":[[-990,-1019,-1084,-1086,-1056,-1040,-973]],"type":"Polygon","properties":{"state":"TN","name":"WASHBURN","zip":"37888"}},{"arcs":[[-924,-1078,-1002,-1014,-858]],"type":"Polygon","properties":{"state":"TN","name":"WHITE PINE","zip":"37890"}},{"arcs":[[-1055,-998,-1053,-808,-995]],"type":"Polygon","properties":{"state":"TN","name":"WHITESBURG","zip":"37891"}},{"arcs":[[1089,-1010,-1039,-1033]],"type":"Polygon","properties":{"state":"TN","name":"WINFIELD","zip":"37892"}},{"arcs":[[1090,1091,1092,1093]],"type":"Polygon","properties":{"state":"TN","name":"KNOXVILLE","zip":"37902"}},{"arcs":[[1094,1095,1096]],"type":"Polygon","properties":{"state":"TN","name":"KNOXVILLE","zip":"37909"}},{"arcs":[[1097,1098,-1042,1099]],"type":"Polygon","properties":{"state":"TN","name":"KNOXVILLE","zip":"37912"}},{"arcs":[[1100,1101,1102,1103,1104,-1074,-937]],"type":"Polygon","properties":{"state":"TN","name":"KNOXVILLE","zip":"37914"}},{"arcs":[[-1093,1105,-1103,1106]],"type":"Polygon","properties":{"state":"TN","name":"KNOXVILLE","zip":"37915"}},{"arcs":[[1107,1108,-1091,1109]],"type":"Polygon","properties":{"state":"TN","name":"KNOXVILLE","zip":"37916"}},{"arcs":[[-1092,1110,-1098,1111,1112,-1104,-1106]],"type":"Polygon","properties":{"state":"TN","name":"KNOXVILLE","zip":"37917"}},{"arcs":[[1113,-833,1114,-1112,-1100,-1046]],"type":"Polygon","properties":{"state":"TN","name":"KNOXVILLE","zip":"37918"}},{"arcs":[[1115,-1097,1116,-1108,1117,1118]],"type":"Polygon","properties":{"state":"TN","name":"KNOXVILLE","zip":"37919"}},{"arcs":[[-1049,-970,1119,-1101,-941,-1067]],"type":"Polygon","properties":{"state":"TN","name":"KNOXVILLE","zip":"37920"}},{"arcs":[[-1117,-1096,1120,1121,-1043,-1099,-1111,-1109]],"type":"Polygon","properties":{"state":"TN","name":"KNOXVILLE","zip":"37921"}},{"arcs":[[1122,1123,-1119,1124,-960,-959]],"type":"Polygon","properties":{"state":"TN","name":"KNOXVILLE","zip":"37922"}},{"arcs":[[1125,1126,-1121,-1095,-1116,-1124]],"type":"Polygon","properties":{"state":"TN","name":"KNOXVILLE","zip":"37923"}},{"arcs":[[-1115,-838,-985,-1073,-1105,-1113]],"type":"Polygon","properties":{"state":"TN","name":"KNOXVILLE","zip":"37924"}},{"arcs":[[-828,-1044,-1122,-1127,1127,-1028]],"type":"Polygon","properties":{"state":"TN","name":"KNOXVILLE","zip":"37931"}},{"arcs":[[-958,-1026,-1128,-1126,-1123]],"type":"Polygon","properties":{"state":"TN","name":"KNOXVILLE","zip":"37932"}},{"arcs":[[-1114,-1045,-909,-781,-987,-834]],"type":"Polygon","properties":{"state":"TN","name":"KNOXVILLE","zip":"37938"}},{"arcs":[[1128,1129,1130,1131,1132,1133]],"type":"Polygon","properties":{"state":"TN","name":"ALAMO","zip":"38001"}},{"arcs":[[1134,1135,1136,1137,1138,1139,1140,1141,1142,1143]],"type":"Polygon","properties":{"state":"TN","name":"ARLINGTON","zip":"38002"}},{"arcs":[[1144,1145,1146,1147]],"type":"Polygon","properties":{"state":"TN","name":"ATOKA","zip":"38004"}},{"arcs":[[1148,1149,1150,-1130,1151,1152]],"type":"Polygon","properties":{"state":"TN","name":"BELLS","zip":"38006"}},{"arcs":[[1153,1154,1155,1156,1157,1158,1159]],"type":"Polygon","properties":{"state":"TN","name":"BOLIVAR","zip":"38008"}},{"arcs":[[1160,-1138,1161,-1148,1162,1163]],"type":"Polygon","properties":{"state":"TN","name":"BRIGHTON","zip":"38011"}},{"arcs":[[1164,1165,1166,1167,1168,1169]],"type":"Polygon","properties":{"state":"TN","name":"BROWNSVILLE","zip":"38012"}},{"arcs":[[1170,1171,1172,1173,-1163,-1147]],"type":"Polygon","properties":{"state":"TN","name":"BURLISON","zip":"38015"}},{"arcs":[[1174,1175,1176,1177,-1143]],"type":"Polygon","properties":{"state":"TN","name":"CORDOVA","zip":"38016"}},{"arcs":[[1178,1179,1180,1181,1182]],"type":"Polygon","properties":{"state":"TN","name":"COLLIERVILLE","zip":"38017"}},{"arcs":[[1183,1184,1185,-1176,1186,1187]],"type":"Polygon","properties":{"state":"TN","name":"CORDOVA","zip":"38018"}},{"arcs":[[1188,1189,-1164,-1174,1190,-1165]],"type":"Polygon","properties":{"state":"TN","name":"COVINGTON","zip":"38019"}},{"arcs":[[[1191,1192,-1171,-1146]],[[1193]]],"type":"MultiPolygon","properties":{"state":"TN","name":"DRUMMONDS","zip":"38023"}},{"arcs":[[1194,1195,1196,1197,1198,1199,1200]],"type":"Polygon","properties":{"state":"TN","name":"DYERSBURG","zip":"38024"}},{"arcs":[[1201,-1187,-1175,-1142,1202,1203,-1183]],"type":"Polygon","properties":{"state":"TN","name":"EADS","zip":"38028"}},{"arcs":[[-1195,1204,1205]],"type":"Polygon","properties":{"state":"TN","name":"FINLEY","zip":"38030"}},{"arcs":[[1206,-1132,1207]],"type":"Polygon","properties":{"state":"TN","name":"FRIENDSHIP","zip":"38034"}},{"arcs":[[1208,1209,1210,-1168]],"type":"Polygon","properties":{"state":"TN","name":"GATES","zip":"38037"}},{"arcs":[[1211,1212,1213]],"type":"Polygon","properties":{"state":"TN","name":"GRAND JUNCTION","zip":"38039"}},{"arcs":[[-1210,1214,1215,-1205,-1201,1216]],"type":"Polygon","properties":{"state":"TN","name":"HALLS","zip":"38040"}},{"arcs":[[1217,1218,-1166,-1191,-1173,1219]],"type":"Polygon","properties":{"state":"TN","name":"HENNING","zip":"38041"}},{"arcs":[[1220,-1212,1221,-1155]],"type":"Polygon","properties":{"state":"TN","name":"HICKORY VALLEY","zip":"38042"}},{"arcs":[[1222,1223,1224,-1159,1225,1226,1227]],"type":"Polygon","properties":{"state":"TN","name":"HORNSBY","zip":"38044"}},{"arcs":[[-1161,-1190,1228,1229,-1139]],"type":"Polygon","properties":{"state":"TN","name":"MASON","zip":"38049"}},{"arcs":[[1230,1231,-1160,-1225,1232]],"type":"Polygon","properties":{"state":"TN","name":"MIDDLETON","zip":"38052"}},{"arcs":[[1233,1234,1235,-1192,-1145,-1162,-1137]],"type":"Polygon","properties":{"state":"TN","name":"MILLINGTON","zip":"38053"}},{"arcs":[[1236,1237,1238,1239,1240]],"type":"Polygon","properties":{"state":"TN","name":"MOSCOW","zip":"38057"}},{"arcs":[[-1199,1241,1242]],"type":"Polygon","properties":{"state":"TN","name":"NEWBERN","zip":"38059"}},{"arcs":[[1243,-1203,-1141,1244,-1239]],"type":"Polygon","properties":{"state":"TN","name":"OAKLAND","zip":"38060"}},{"arcs":[[1245,-1233,-1224,1246,1247]],"type":"Polygon","properties":{"state":"TN","name":"POCAHONTAS","zip":"38061"}},{"arcs":[[1248,-1215,-1209,-1167,-1219]],"type":"Polygon","properties":{"state":"TN","name":"RIPLEY","zip":"38063"}},{"arcs":[[1249,-1179,-1204,-1244,-1238]],"type":"Polygon","properties":{"state":"TN","name":"ROSSVILLE","zip":"38066"}},{"arcs":[[1250,-1213,-1221,-1154,-1232]],"type":"Polygon","properties":{"state":"TN","name":"SAULSBURY","zip":"38067"}},{"arcs":[[-1245,-1140,-1230,1251,1252,-1240]],"type":"Polygon","properties":{"state":"TN","name":"SOMERVILLE","zip":"38068"}},{"arcs":[[-1229,-1189,-1170,1253,-1252]],"type":"Polygon","properties":{"state":"TN","name":"STANTON","zip":"38069"}},{"arcs":[[1254,-1157,1255,1256]],"type":"Polygon","properties":{"state":"TN","name":"WHITEVILLE","zip":"38075"}},{"arcs":[[1257,1258,1259,1260]],"type":"Polygon","properties":{"state":"TN","name":"TIPTONVILLE","zip":"38079"}},{"arcs":[[-1259,1261,1262,-1197,1263]],"type":"Polygon","properties":{"state":"TN","name":"RIDGELY","zip":"38080"}},{"arcs":[[1264,1265,1266,1267,1268,1269,1270]],"type":"Polygon","properties":{"state":"TN","name":"MEMPHIS","zip":"38103"}},{"arcs":[[1271,1272,-1271,1273,1274,1275,1276,1277]],"type":"Polygon","properties":{"state":"TN","name":"MEMPHIS","zip":"38104"}},{"arcs":[[1278,-1274,-1270]],"type":"Polygon","properties":{"state":"TN","name":"MEMPHIS","zip":"38105"}},{"arcs":[[1279,1280,1281,1282,1283,-1266,1284,-1272]],"type":"Polygon","properties":{"state":"TN","name":"MEMPHIS","zip":"38106"}},{"arcs":[[-1269,1285,1286,1287,-1275,-1279]],"type":"Polygon","properties":{"state":"TN","name":"MEMPHIS","zip":"38107"}},{"arcs":[[1288,1289,1290,1291,-1287]],"type":"Polygon","properties":{"state":"TN","name":"MEMPHIS","zip":"38108"}},{"arcs":[[1292,-1283,1293]],"type":"Polygon","properties":{"state":"TN","name":"MEMPHIS","zip":"38109"}},{"arcs":[[1294,-1277,1295,1296,1297,1298]],"type":"Polygon","properties":{"state":"TN","name":"MEMPHIS","zip":"38111"}},{"arcs":[[-1276,-1288,-1292,1299,-1296]],"type":"Polygon","properties":{"state":"TN","name":"MEMPHIS","zip":"38112"}},{"arcs":[[1300,-1280,-1278,-1295,1301]],"type":"Polygon","properties":{"state":"TN","name":"MEMPHIS","zip":"38114"}},{"arcs":[[1302,1303,1304,1305,1306]],"type":"Polygon","properties":{"state":"TN","name":"MEMPHIS","zip":"38115"}},{"arcs":[[-1282,1307,1308,1309,-1294]],"type":"Polygon","properties":{"state":"TN","name":"MEMPHIS","zip":"38116"}},{"arcs":[[1310,1311,1312,-1306,1313,-1298]],"type":"Polygon","properties":{"state":"TN","name":"MEMPHIS","zip":"38117"}},{"arcs":[[1314,-1302,-1299,-1314,-1305,1315,1316,-1309]],"type":"Polygon","properties":{"state":"TN","name":"MEMPHIS","zip":"38118"}},{"arcs":[[-1313,1317,1318,1319,-1307]],"type":"Polygon","properties":{"state":"TN","name":"MEMPHIS","zip":"38119"}},{"arcs":[[1320,1321,-1185,1322,-1318,-1312]],"type":"Polygon","properties":{"state":"TN","name":"MEMPHIS","zip":"38120"}},{"arcs":[[-1297,-1300,-1291,1323,-1321,-1311]],"type":"Polygon","properties":{"state":"TN","name":"MEMPHIS","zip":"38122"}},{"arcs":[[1324,1325,-1303,-1320,1326,1327,-1181]],"type":"Polygon","properties":{"state":"TN","name":"MEMPHIS","zip":"38125"}},{"arcs":[[-1265,-1273,-1285]],"type":"Polygon","properties":{"state":"TN","name":"MEMPHIS","zip":"38126"}},{"arcs":[[[-1235,1328,-1289,-1286,-1268,1329]],[[1330]]],"type":"MultiPolygon","properties":{"state":"TN","name":"MEMPHIS","zip":"38127"}},{"arcs":[[-1234,-1136,1331,1332,-1290,-1329]],"type":"Polygon","properties":{"state":"TN","name":"MEMPHIS","zip":"38128"}},{"arcs":[[-1281,-1301,-1315,-1308]],"type":"Polygon","properties":{"state":"TN","name":"MEMPHIS","zip":"38132"}},{"arcs":[[1333,1334,-1144,-1178]],"type":"Polygon","properties":{"state":"TN","name":"MEMPHIS","zip":"38133"}},{"arcs":[[-1333,1335,-1334,-1177,-1186,-1322,-1324]],"type":"Polygon","properties":{"state":"TN","name":"MEMPHIS","zip":"38134"}},{"arcs":[[-1336,-1332,-1135,-1335]],"type":"Polygon","properties":{"state":"TN","name":"MEMPHIS","zip":"38135"}},{"arcs":[[1336,-1327,-1319,-1323,-1184]],"type":"Polygon","properties":{"state":"TN","name":"GERMANTOWN","zip":"38138"}},{"arcs":[[-1328,-1337,-1188,-1202,-1182]],"type":"Polygon","properties":{"state":"TN","name":"GERMANTOWN","zip":"38139"}},{"arcs":[[1337,-1316,-1304,-1326]],"type":"Polygon","properties":{"state":"TN","name":"MEMPHIS","zip":"38141"}},{"arcs":[[1338,1339,1340,1341,1342,1343,1344]],"type":"Polygon","properties":{"state":"TN","name":"MC KENZIE","zip":"38201"}},{"arcs":[[1345,1346,1347,1348,1349]],"type":"Polygon","properties":{"state":"TN","name":"ATWOOD","zip":"38220"}},{"arcs":[[1350,1351,1352,1353]],"type":"Polygon","properties":{"state":"TN","name":"BIG SANDY","zip":"38221"}},{"arcs":[[1354,1355,1356,1357]],"type":"Polygon","properties":{"state":"TN","name":"BUCHANAN","zip":"38222"}},{"arcs":[[1358,1359,1360,1361]],"type":"Polygon","properties":{"state":"TN","name":"COTTAGE GROVE","zip":"38224"}},{"arcs":[[1362,1363,1364,1365,1366,1367]],"type":"Polygon","properties":{"state":"TN","name":"DRESDEN","zip":"38225"}},{"arcs":[[1368,1369,1370,1371]],"type":"Polygon","properties":{"state":"TN","name":"DUKEDOM","zip":"38226"}},{"arcs":[[1372,-1363,1373,1374,-1340]],"type":"Polygon","properties":{"state":"TN","name":"GLEASON","zip":"38229"}},{"arcs":[[1375,1376,1377,1378,1379,-1364,-1373,-1339]],"type":"Polygon","properties":{"state":"TN","name":"GREENFIELD","zip":"38230"}},{"arcs":[[1380,-1341,-1375,1381]],"type":"Polygon","properties":{"state":"TN","name":"HENRY","zip":"38231"}},{"arcs":[[-1258,1382,1383,1384,-1262]],"type":"Polygon","properties":{"state":"TN","name":"HORNBEAK","zip":"38232"}},{"arcs":[[1385,1386,1387,-1379,1388,1389,1390]],"type":"Polygon","properties":{"state":"TN","name":"KENTON","zip":"38233"}},{"arcs":[[-1381,1391,1392,1393,1394,-1342]],"type":"Polygon","properties":{"state":"TN","name":"MANSFIELD","zip":"38236"}},{"arcs":[[1395,1396,1397,1398,-1370,1399,-1366]],"type":"Polygon","properties":{"state":"TN","name":"MARTIN","zip":"38237"}},{"arcs":[[-1242,-1198,-1263,-1385,1400]],"type":"Polygon","properties":{"state":"TN","name":"OBION","zip":"38240"}},{"arcs":[[1401,-1367,-1400,-1369,1402,-1359]],"type":"Polygon","properties":{"state":"TN","name":"PALMERSVILLE","zip":"38241"}},{"arcs":[[-1374,-1368,-1402,-1362,1403,-1356,1404,-1392,-1382]],"type":"Polygon","properties":{"state":"TN","name":"PARIS","zip":"38242"}},{"arcs":[[1405,-1357,-1404,-1361]],"type":"Polygon","properties":{"state":"TN","name":"PURYEAR","zip":"38251"}},{"arcs":[[1406,1407,-1397,1408,-1387,1409,1410]],"type":"Polygon","properties":{"state":"TN","name":"RIVES","zip":"38253"}},{"arcs":[[-1409,-1396,-1365,-1380,-1388]],"type":"Polygon","properties":{"state":"TN","name":"SHARON","zip":"38255"}},{"arcs":[[1411,-1393,-1405,-1355,1412,-1353]],"type":"Polygon","properties":{"state":"TN","name":"SPRINGVILLE","zip":"38256"}},{"arcs":[[1413,-1371,-1399,1414]],"type":"Polygon","properties":{"state":"TN","name":"SOUTH FULTON","zip":"38257"}},{"arcs":[[1415,-1350,1416,-1376,-1345]],"type":"Polygon","properties":{"state":"TN","name":"TREZEVANT","zip":"38258"}},{"arcs":[[-1410,-1386,1417]],"type":"Polygon","properties":{"state":"TN","name":"TRIMBLE","zip":"38259"}},{"arcs":[[-1407,1418]],"type":"Polygon","properties":{"state":"TN","name":"TROY","zip":"38260"}},{"arcs":[[-1383,-1261,1419]],"type":"Polygon","properties":{"state":"TN","name":"UNION CITY","zip":"38261"}},{"arcs":[[1420,1421,-1150,1422,1423,1424,1425]],"type":"Polygon","properties":{"state":"TN","name":"JACKSON","zip":"38301"}},{"arcs":[[1426,1427,1428,1429,1430,1431,1432,-1423,-1149,1433]],"type":"Polygon","properties":{"state":"TN","name":"JACKSON","zip":"38305"}},{"arcs":[[1434,1435,1436,1437,1438,1439,1440,1441,1442]],"type":"Polygon","properties":{"state":"TN","name":"ADAMSVILLE","zip":"38310"}},{"arcs":[[1443,1444,1445,1446]],"type":"Polygon","properties":{"state":"TN","name":"BATH SPRINGS","zip":"38311"}},{"arcs":[[-1433,1447,1448,1449,1450,1451,-1424]],"type":"Polygon","properties":{"state":"TN","name":"BEECH BLUFF","zip":"38313"}},{"arcs":[[1452,1453,-1437,1454,-1228]],"type":"Polygon","properties":{"state":"TN","name":"BETHEL SPRINGS","zip":"38315"}},{"arcs":[[1455,1456,1457,-1377,-1417,-1349]],"type":"Polygon","properties":{"state":"TN","name":"BRADFORD","zip":"38316"}},{"arcs":[[1458,1459,1460,1461]],"type":"Polygon","properties":{"state":"TN","name":"BRUCETON","zip":"38317"}},{"arcs":[[1462,1463,1464,-1459,1465]],"type":"Polygon","properties":{"state":"TN","name":"BUENA VISTA","zip":"38318"}},{"arcs":[[1466,-1466,-1462,1467,-1394,-1412,-1352,1468,1469]],"type":"Polygon","properties":{"state":"TN","name":"CAMDEN","zip":"38320"}},{"arcs":[[1470,1471,1472,1473,-1430]],"type":"Polygon","properties":{"state":"TN","name":"CEDAR GROVE","zip":"38321"}},{"arcs":[[1474,1475,1476,1477]],"type":"Polygon","properties":{"state":"TN","name":"COUNCE","zip":"38326"}},{"arcs":[[1478,1479,-1441]],"type":"Polygon","properties":{"state":"TN","name":"CRUMP","zip":"38327"}},{"arcs":[[1480,1481,1482,1483,1484]],"type":"Polygon","properties":{"state":"TN","name":"DARDEN","zip":"38328"}},{"arcs":[[-1446,1485,-1481,1486,1487]],"type":"Polygon","properties":{"state":"TN","name":"DECATURVILLE","zip":"38329"}},{"arcs":[[-1390,1488,1489,1490]],"type":"Polygon","properties":{"state":"TN","name":"DYER","zip":"38330"}},{"arcs":[[1491,1492,1493,1494,1495,1496]],"type":"Polygon","properties":{"state":"TN","name":"ENVILLE","zip":"38332"}},{"arcs":[[-1469,-1351,1497]],"type":"Polygon","properties":{"state":"TN","name":"EVA","zip":"38333"}},{"arcs":[[1498,-1497,1499,-1438,-1454]],"type":"Polygon","properties":{"state":"TN","name":"FINGER","zip":"38334"}},{"arcs":[[-1129,1500,-1152]],"type":"Polygon","properties":{"state":"TN","name":"GADSDEN","zip":"38337"}},{"arcs":[[1501,1502,1503,1504]],"type":"Polygon","properties":{"state":"TN","name":"GUYS","zip":"38339"}},{"arcs":[[1505,1506,1507,-1451,1508,1509,-1492,-1499,-1453,-1227]],"type":"Polygon","properties":{"state":"TN","name":"HENDERSON","zip":"38340"}},{"arcs":[[1510,1511,1512,1513,-1463,-1467,1514]],"type":"Polygon","properties":{"state":"TN","name":"HOLLADAY","zip":"38341"}},{"arcs":[[1515,-1343,-1395,-1468,-1461]],"type":"Polygon","properties":{"state":"TN","name":"HOLLOW ROCK","zip":"38342"}},{"arcs":[[1516,-1434,-1153,-1501,-1134,1517,1518,1519]],"type":"Polygon","properties":{"state":"TN","name":"HUMBOLDT","zip":"38343"}},{"arcs":[[1520,1521,-1472,1522,-1346,-1416,-1344,-1516,-1460,-1465]],"type":"Polygon","properties":{"state":"TN","name":"HUNTINGDON","zip":"38344"}},{"arcs":[[1523,1524,1525,-1449,1526]],"type":"Polygon","properties":{"state":"TN","name":"HURON","zip":"38345"}},{"arcs":[[1527,-1525,1528,-1493,-1510]],"type":"Polygon","properties":{"state":"TN","name":"JACKS CREEK","zip":"38347"}},{"arcs":[[1529,-1347,-1523,-1471,-1429,1530]],"type":"Polygon","properties":{"state":"TN","name":"LAVINIA","zip":"38348"}},{"arcs":[[1531,1532,-1527,-1448,-1432,1533,-1483]],"type":"Polygon","properties":{"state":"TN","name":"LEXINGTON","zip":"38351"}},{"arcs":[[-1509,-1450,-1526,-1528]],"type":"Polygon","properties":{"state":"TN","name":"LURAY","zip":"38352"}},{"arcs":[[1534,-1520,1535,-1531,-1428]],"type":"Polygon","properties":{"state":"TN","name":"MEDINA","zip":"38355"}},{"arcs":[[1536,-1507,1537,1538,1539,-1426]],"type":"Polygon","properties":{"state":"TN","name":"MEDON","zip":"38356"}},{"arcs":[[1540,1541,1542,-1475,1543,-1505]],"type":"Polygon","properties":{"state":"TN","name":"MICHIE","zip":"38357"}},{"arcs":[[1544,-1456,-1348,-1530,-1536,-1519]],"type":"Polygon","properties":{"state":"TN","name":"MILAN","zip":"38358"}},{"arcs":[[1545,-1439,-1500,-1496,1546]],"type":"Polygon","properties":{"state":"TN","name":"MILLEDGEVILLE","zip":"38359"}},{"arcs":[[-1546,1547,1548,1549,-1479,-1440]],"type":"Polygon","properties":{"state":"TN","name":"MORRIS CHAPEL","zip":"38361"}},{"arcs":[[-1517,-1535,-1427]],"type":"Polygon","properties":{"state":"TN","name":"OAKFIELD","zip":"38362"}},{"arcs":[[1550,-1512,1551,1552,-1487,-1485]],"type":"Polygon","properties":{"state":"TN","name":"PARSONS","zip":"38363"}},{"arcs":[[-1425,-1452,-1508,-1537]],"type":"Polygon","properties":{"state":"TN","name":"PINSON","zip":"38366"}},{"arcs":[[1553,-1248,1554,-1503]],"type":"Polygon","properties":{"state":"TN","name":"RAMER","zip":"38367"}},{"arcs":[[1555,1556,-1494,-1529,-1524,-1533]],"type":"Polygon","properties":{"state":"TN","name":"REAGAN","zip":"38368"}},{"arcs":[[-1489,-1389,-1378,-1458]],"type":"Polygon","properties":{"state":"TN","name":"RUTHERFORD","zip":"38369"}},{"arcs":[[-1549,1557,1558,-1444,1559]],"type":"Polygon","properties":{"state":"TN","name":"SALTILLO","zip":"38370"}},{"arcs":[[-1495,-1557,1560,-1558,-1548,-1547]],"type":"Polygon","properties":{"state":"TN","name":"SARDIS","zip":"38371"}},{"arcs":[[1561,1562,1563,1564,1565]],"type":"Polygon","properties":{"state":"TN","name":"SAVANNAH","zip":"38372"}},{"arcs":[[-1556,-1532,-1482,-1486,-1445,-1559,-1561]],"type":"Polygon","properties":{"state":"TN","name":"SCOTTS HILL","zip":"38374"}},{"arcs":[[-1555,-1247,-1223,-1455,-1436,1566,-1541,-1504]],"type":"Polygon","properties":{"state":"TN","name":"SELMER","zip":"38375"}},{"arcs":[[-1543,1567,-1443,1568,-1476]],"type":"Polygon","properties":{"state":"TN","name":"SHILOH","zip":"38376"}},{"arcs":[[-1435,-1568,-1542,-1567]],"type":"Polygon","properties":{"state":"TN","name":"STANTONVILLE","zip":"38379"}},{"arcs":[[-1511,1569,-1552]],"type":"Polygon","properties":{"state":"TN","name":"SUGAR TREE","zip":"38380"}},{"arcs":[[-1226,-1158,-1255,1570,-1538,-1506]],"type":"Polygon","properties":{"state":"TN","name":"TOONE","zip":"38381"}},{"arcs":[[-1490,-1457,-1545,-1518,-1133,-1207,1571]],"type":"Polygon","properties":{"state":"TN","name":"TRENTON","zip":"38382"}},{"arcs":[[1572,1573,-1521,-1464,-1514]],"type":"Polygon","properties":{"state":"TN","name":"WESTPORT","zip":"38387"}},{"arcs":[[-1534,-1431,-1474,1574,-1573,-1513,-1551,-1484]],"type":"Polygon","properties":{"state":"TN","name":"WILDERSVILLE","zip":"38388"}},{"arcs":[[-1575,-1473,-1522,-1574]],"type":"Polygon","properties":{"state":"TN","name":"YUMA","zip":"38390"}},{"arcs":[[1575,1576,-1421,-1540]],"type":"Polygon","properties":{"state":"TN","name":"DENMARK","zip":"38391"}},{"arcs":[[-1571,-1257,1577,-1576,-1539]],"type":"Polygon","properties":{"state":"TN","name":"MERCER","zip":"38392"}},{"arcs":[[1578,1579,-196,-367,-361,-135,-107,-268,1580,1581]],"type":"Polygon","properties":{"state":"TN","name":"COLUMBIA","zip":"38401"}},{"arcs":[[1582,1583,1584,-1562,1585,-280]],"type":"Polygon","properties":{"state":"TN","name":"CLIFTON","zip":"38425"}},{"arcs":[[1586,1587,1588,1589,1590,-541]],"type":"Polygon","properties":{"state":"TN","name":"ARDMORE","zip":"38449"}},{"arcs":[[1591,1592,1593,1594,1595]],"type":"Polygon","properties":{"state":"TN","name":"COLLINWOOD","zip":"38450"}},{"arcs":[[-144,1596,1597,-1581,-267]],"type":"Polygon","properties":{"state":"TN","name":"CULLEOKA","zip":"38451"}},{"arcs":[[1598,1599,1600,-1592]],"type":"Polygon","properties":{"state":"TN","name":"CYPRESS INN","zip":"38452"}},{"arcs":[[-1591,1601,1602,-542]],"type":"Polygon","properties":{"state":"TN","name":"DELLROSE","zip":"38453"}},{"arcs":[[1603,-96,1604,1605]],"type":"Polygon","properties":{"state":"TN","name":"DUCK RIVER","zip":"38454"}},{"arcs":[[1606,1607,1608,1609]],"type":"Polygon","properties":{"state":"TN","name":"ETHRIDGE","zip":"38456"}},{"arcs":[[1610,1611,1612,1613]],"type":"Polygon","properties":{"state":"TN","name":"FIVE POINTS","zip":"38457"}},{"arcs":[[1614,-329,-543,-1603]],"type":"Polygon","properties":{"state":"TN","name":"FRANKEWING","zip":"38459"}},{"arcs":[[1615,1616,1617,1618]],"type":"Polygon","properties":{"state":"TN","name":"GOODSPRING","zip":"38460"}},{"arcs":[[1619,1620,1621,-97,-1604,1622]],"type":"Polygon","properties":{"state":"TN","name":"HAMPSHIRE","zip":"38461"}},{"arcs":[[1623,1624,1625,-278,-339,-98,-1622]],"type":"Polygon","properties":{"state":"TN","name":"HOHENWALD","zip":"38462"}},{"arcs":[[-1596,1626,1627,1628,1629,-1599]],"type":"Polygon","properties":{"state":"TN","name":"IRON CITY","zip":"38463"}},{"arcs":[[1630,1631,1632,1633,-1625,1634,-1607,1635]],"type":"Polygon","properties":{"state":"TN","name":"LAWRENCEBURG","zip":"38464"}},{"arcs":[[1636,-1631,1637,-1616,1638,-1614]],"type":"Polygon","properties":{"state":"TN","name":"LEOMA","zip":"38468"}},{"arcs":[[1639,-1628,1640,-1632,-1637,-1613,1641]],"type":"Polygon","properties":{"state":"TN","name":"LORETTO","zip":"38469"}},{"arcs":[[1642,-1584,1643,-1593,-1601,1644,-1564]],"type":"Polygon","properties":{"state":"TN","name":"LUTTS","zip":"38471"}},{"arcs":[[1645,1646,-1597,-143,1647,-1609]],"type":"Polygon","properties":{"state":"TN","name":"LYNNVILLE","zip":"38472"}},{"arcs":[[1648,1649,-1611,-1639,-1619]],"type":"Polygon","properties":{"state":"TN","name":"MINOR HILL","zip":"38473"}},{"arcs":[[-1647,1650,-1620,1651,-1582,-1598]],"type":"Polygon","properties":{"state":"TN","name":"MOUNT PLEASANT","zip":"38474"}},{"arcs":[[-1585,-1643,-1563]],"type":"Polygon","properties":{"state":"TN","name":"OLIVEHILL","zip":"38475"}},{"arcs":[[-288,-63,-194,-198,1652,1653,-1605,-104]],"type":"Polygon","properties":{"state":"TN","name":"PRIMM SPRINGS","zip":"38476"}},{"arcs":[[1654,-1649,-1618,1655,-1589]],"type":"Polygon","properties":{"state":"TN","name":"PROSPECT","zip":"38477"}},{"arcs":[[-1590,-1656,-1617,-1638,-1636,-1610,-1648,-142,-330,-1615,-1602]],"type":"Polygon","properties":{"state":"TN","name":"PULASKI","zip":"38478"}},{"arcs":[[-1640,1656,-1629]],"type":"Polygon","properties":{"state":"TN","name":"SAINT JOSEPH","zip":"38481"}},{"arcs":[[1657,-1653,-197,-1580]],"type":"Polygon","properties":{"state":"TN","name":"SANTA FE","zip":"38482"}},{"arcs":[[-1624,-1621,-1651,-1646,-1608,-1635]],"type":"Polygon","properties":{"state":"TN","name":"SUMMERTOWN","zip":"38483"}},{"arcs":[[-1583,-279,-1626,-1634,1658,-1594,-1644]],"type":"Polygon","properties":{"state":"TN","name":"WAYNESBORO","zip":"38485"}},{"arcs":[[-1627,-1595,-1659,-1633,-1641]],"type":"Polygon","properties":{"state":"TN","name":"WESTPOINT","zip":"38486"}},{"arcs":[[-1606,-1654,-1658,-1579,-1652,-1623]],"type":"Polygon","properties":{"state":"TN","name":"WILLIAMSPORT","zip":"38487"}},{"arcs":[[1659,-1587,-540]],"type":"Polygon","properties":{"state":"TN","name":"TAFT","zip":"38488"}},{"arcs":[[1660,1661,1662,1663,1664]],"type":"Polygon","properties":{"state":"TN","name":"COOKEVILLE","zip":"38501"}},{"arcs":[[1665,-1048,-1076]],"type":"Polygon","properties":{"state":"TN","name":"ALLARDT","zip":"38504"}},{"arcs":[[1666,1667,1668,-1665,1669,1670,1671]],"type":"Polygon","properties":{"state":"TN","name":"COOKEVILLE","zip":"38506"}},{"arcs":[[1672,1673,1674,1675]],"type":"Polygon","properties":{"state":"TN","name":"ALLONS","zip":"38541"}},{"arcs":[[1676,1677,1678]],"type":"Polygon","properties":{"state":"TN","name":"ALLRED","zip":"38542"}},{"arcs":[[1679,1680,1681,-1679,1682,1683]],"type":"Polygon","properties":{"state":"TN","name":"ALPINE","zip":"38543"}},{"arcs":[[1684,-354,1685,1686,1687,1688,1689,-1661,-1669]],"type":"Polygon","properties":{"state":"TN","name":"BAXTER","zip":"38544"}},{"arcs":[[-1690,1690,1691,-1662]],"type":"Polygon","properties":{"state":"TN","name":"BLOOMINGTON SPRINGS","zip":"38545"}},{"arcs":[[1692,1693,-6,-372]],"type":"Polygon","properties":{"state":"TN","name":"BRUSH CREEK","zip":"38547"}},{"arcs":[[1694,1695,1696,-1687,1697]],"type":"Polygon","properties":{"state":"TN","name":"BUFFALO VALLEY","zip":"38548"}},{"arcs":[[1698,1699,1700,1701,1702]],"type":"Polygon","properties":{"state":"TN","name":"BYRDSTOWN","zip":"38549"}},{"arcs":[[[1703,1704,1705,1706,-1701,1707,-1675]],[[1708,1709,1710,1711]]],"type":"MultiPolygon","properties":{"state":"TN","name":"CELINA","zip":"38551"}},{"arcs":[[1712,1713,-1696]],"type":"Polygon","properties":{"state":"TN","name":"CHESTNUT MOUND","zip":"38552"}},{"arcs":[[1714,1715,1716,1717,1718,-860,1719]],"type":"Polygon","properties":{"state":"TN","name":"CLARKRANGE","zip":"38553"}},{"arcs":[[1720,1721,1722,1723,-1677,-1682]],"type":"Polygon","properties":{"state":"TN","name":"CRAWFORD","zip":"38554"}},{"arcs":[[-535,-610,1724,1725,1726,-845,-1051,-553,-634]],"type":"Polygon","properties":{"state":"TN","name":"CROSSVILLE","zip":"38555"}},{"arcs":[[1727,-1680,1728,-1699,1729,-1030,-1666,-1075,-861,-1719,1730]],"type":"Polygon","properties":{"state":"TN","name":"JAMESTOWN","zip":"38556"}},{"arcs":[[1731,-1720,-859,-949,-1023,-846,-1727]],"type":"Polygon","properties":{"state":"TN","name":"CROSSVILLE","zip":"38558"}},{"arcs":[[1732,1733,1734,-85,1735,1736,-1688,-1697,-1714]],"type":"Polygon","properties":{"state":"TN","name":"ELMWOOD","zip":"38560"}},{"arcs":[[[-1705,1737,-1663,-1692,1738,1739]],[[-333,1740,1741]]],"type":"MultiPolygon","properties":{"state":"TN","name":"GAINESBORO","zip":"38562"}},{"arcs":[[-264,-258,-86,-1735,1742,-1693,-371]],"type":"Polygon","properties":{"state":"TN","name":"GORDONSVILLE","zip":"38563"}},{"arcs":[[-1739,-1691,-1689,-1737,1743]],"type":"Polygon","properties":{"state":"TN","name":"GRANVILLE","zip":"38564"}},{"arcs":[[1744,-1731,-1718]],"type":"Polygon","properties":{"state":"TN","name":"GRIMSLEY","zip":"38565"}},{"arcs":[[1745,-274,-7,-1694,-1743,-1734]],"type":"Polygon","properties":{"state":"TN","name":"HICKMAN","zip":"38567"}},{"arcs":[[-1704,-1674,1746,-1670,-1664,-1738]],"type":"Polygon","properties":{"state":"TN","name":"HILHAM","zip":"38568"}},{"arcs":[[-275,-1746,-1733,-1713,-1695]],"type":"Polygon","properties":{"state":"TN","name":"LANCASTER","zip":"38569"}},{"arcs":[[-1747,-1673,1747,-1683,-1678,-1724,1748,-1671]],"type":"Polygon","properties":{"state":"TN","name":"LIVINGSTON","zip":"38570"}},{"arcs":[[1749,1750,1751,-1715,-1732,-1726,1752]],"type":"Polygon","properties":{"state":"TN","name":"CROSSVILLE","zip":"38571"}},{"arcs":[[-609,1753,1754,1755,-1753,-1725]],"type":"Polygon","properties":{"state":"TN","name":"CROSSVILLE","zip":"38572"}},{"arcs":[[-1684,-1748,-1676,-1708,-1700,-1729]],"type":"Polygon","properties":{"state":"TN","name":"MONROE","zip":"38573"}},{"arcs":[[1756,-1722,-1716,-1752,1757,-1667]],"type":"Polygon","properties":{"state":"TN","name":"MONTEREY","zip":"38574"}},{"arcs":[[1758,-345,1759,-1709]],"type":"Polygon","properties":{"state":"TN","name":"MOSS","zip":"38575"}},{"arcs":[[1760,-1031,-1730,-1703]],"type":"Polygon","properties":{"state":"TN","name":"PALL MALL","zip":"38577"}},{"arcs":[[1761,-1750,-1756]],"type":"Polygon","properties":{"state":"TN","name":"PLEASANT HILL","zip":"38578"}},{"arcs":[[1762,1763,1764,1765]],"type":"Polygon","properties":{"state":"TN","name":"QUEBECK","zip":"38579"}},{"arcs":[[-1672,-1749,-1723,-1757]],"type":"Polygon","properties":{"state":"TN","name":"RICKMAN","zip":"38580"}},{"arcs":[[1766,-515,-297,-357,1767,-1766]],"type":"Polygon","properties":{"state":"TN","name":"ROCK ISLAND","zip":"38581"}},{"arcs":[[-1698,-1686,-353,-276]],"type":"Polygon","properties":{"state":"TN","name":"SILVER POINT","zip":"38582"}},{"arcs":[[1768,-355,-1685,-1668,-1758,-1751,-1762,-1755,1769,-1764]],"type":"Polygon","properties":{"state":"TN","name":"SPARTA","zip":"38583"}},{"arcs":[[-516,-1767,-1765,-1770,-1754,-608]],"type":"Polygon","properties":{"state":"TN","name":"SPENCER","zip":"38585"}},{"arcs":[[-1768,-356,-1769,-1763]],"type":"Polygon","properties":{"state":"TN","name":"WALLING","zip":"38587"}},{"arcs":[[-1759,-1712,1770,-1741,-337,-343]],"type":"Polygon","properties":{"state":"TN","name":"WHITLEYVILLE","zip":"38588"}},{"arcs":[[-1681,-1728,-1745,-1717,-1721]],"type":"Polygon","properties":{"state":"TN","name":"WILDER","zip":"38589"}},{"arcs":[[-58,1771,-130,-379,-238]],"type":"Polygon","properties":{"state":"TN","name":"FORT CAMPBELL","zip":"42223"}},{"arcs":[[1772]],"type":"Polygon","properties":{"state":"TN","name":"WILSON","zip":"72395"}}]}},"arcs":[[[29308,12186],[-72,63],[58,16],[-13,89]],[[29281,12354],[58,0],[63,2],[14,0]],[[29416,12356],[-59,-84],[45,-68],[-85,40],[-9,-58]],[[30154,11682],[-13,13]],[[30141,11695],[0,87]],[[30141,11782],[76,58]],[[30217,11840],[5,-79]],[[30222,11761],[-59,3],[-9,-64],[45,-10],[-45,-8]],[[29655,11685],[-14,20]],[[29641,11705],[9,84]],[[29650,11789],[72,-2]],[[29722,11787],[27,-23]],[[29749,11764],[-36,-89]],[[29713,11675],[-58,10]],[[29731,11542],[-9,0]],[[29722,11542],[-103,-2]],[[29619,11540],[-5,48]],[[29614,11588],[81,13]],[[29695,11601],[41,-46]],[[29736,11555],[-5,-13]],[[29425,12043],[-9,-63],[76,-18]],[[29492,11962],[-63,-51]],[[29429,11911],[-216,158]],[[29213,12069],[68,76]],[[29281,12145],[-9,-102],[72,26]],[[29344,12069],[81,-26]],[[29348,11865],[-81,64]],[[29267,11929],[23,76]],[[29290,12005],[130,-96]],[[29420,11909],[-13,-23]],[[29407,11886],[-36,-49]],[[29371,11837],[-23,28]],[[30127,11659],[-40,-53]],[[30087,11606],[-50,76]],[[30037,11682],[104,13]],[[30154,11682],[-27,-23]],[[30042,11278],[-50,15]],[[29992,11293],[0,23]],[[29992,11316],[36,74]],[[30028,11390],[63,-43]],[[30091,11347],[-49,-69]],[[29596,11014],[14,101],[45,-40]],[[29655,11075],[-59,-61]],[[29763,11288],[13,76]],[[29776,11364],[18,8]],[[29794,11372],[68,31],[130,-87]],[[29992,11293],[-94,-43]],[[29898,11250],[-36,-25],[-14,86],[-54,-61],[-31,38]],[[30046,12219],[-49,-109]],[[29997,12110],[-77,35]],[[29920,12145],[-45,43]],[[29875,12188],[14,120]],[[29889,12308],[157,-89]],[[28921,12252],[-77,18]],[[28844,12270],[-72,-33],[-18,71]],[[28754,12308],[31,38]],[[28785,12346],[81,3],[41,0]],[[28907,12349],[14,-97]],[[29105,11596],[-63,43]],[[29042,11639],[140,31]],[[29182,11670],[54,30]],[[29236,11700],[27,-96]],[[29263,11604],[-18,-34]],[[29245,11570],[-54,61],[-86,-35]],[[30028,11390],[-4,2]],[[30024,11392],[58,54]],[[30082,11446],[90,-31]],[[30172,11415],[-40,-84]],[[30132,11331],[-41,16]],[[29528,11652],[-22,84]],[[29506,11736],[4,5]],[[29510,11741],[41,20]],[[29551,11761],[54,-18]],[[29605,11743],[36,-38]],[[29655,11685],[-27,-38]],[[29628,11647],[-100,5]],[[28754,12308],[-41,36]],[[28713,12344],[-9,35],[81,-33]],[[29182,11670],[-45,91],[36,48]],[[29173,11809],[72,-53]],[[29245,11756],[-9,-56]],[[30154,11990],[18,33]],[[30172,12023],[63,-38]],[[30235,11985],[-4,-43],[-77,48]],[[30231,11939],[-9,-25]],[[30222,11914],[-45,-23],[-45,74]],[[30132,11965],[9,48],[90,-74]],[[29916,12059],[4,86]],[[29997,12110],[13,-46]],[[30010,12064],[-27,-61],[-13,51],[-63,-41],[9,46]],[[29420,12356],[54,-104],[-67,-31],[4,-73]],[[29411,12148],[-63,-13]],[[29348,12135],[-49,28]],[[29299,12163],[9,23]],[[29416,12356],[4,0]],[[29173,11443],[-99,-10],[18,-114]],[[29092,11319],[-41,-18]],[[29051,11301],[-103,38]],[[28948,11339],[-23,69],[-72,-13]],[[28853,11395],[-5,130]],[[28848,11525],[73,-21]],[[28921,11504],[175,33]],[[29096,11537],[63,-43]],[[29159,11494],[14,-51]],[[29722,11354],[-31,-91]],[[29691,11263],[-113,-3],[-9,94]],[[29569,11354],[36,38]],[[29605,11392],[63,-10]],[[29668,11382],[54,-28]],[[29348,12135],[-40,-15],[36,-51]],[[29281,12145],[18,18]],[[29119,11901],[54,120]],[[29173,12021],[36,55]],[[29209,12076],[81,-71]],[[29267,11929],[-90,-102]],[[29177,11827],[-58,74]],[[29794,11372],[-22,61]],[[29772,11433],[94,-15]],[[29866,11418],[113,-3]],[[29979,11415],[45,-23]],[[29254,12354],[-108,-150]],[[29146,12204],[-36,-13],[9,58]],[[29119,12249],[22,105]],[[29141,12354],[5,0],[67,0],[41,0]],[[29200,12102],[-59,-5]],[[29141,12097],[-72,51]],[[29069,12148],[-27,7]],[[29042,12155],[72,92],[86,-145]],[[29060,12186],[-27,71]],[[29033,12257],[32,94]],[[29065,12351],[76,3]],[[29119,12249],[-59,-63]],[[29213,12069],[-67,135]],[[29254,12354],[27,0]],[[29605,11392],[-27,0]],[[29578,11392],[-45,59]],[[29533,11451],[50,51]],[[29583,11502],[18,48]],[[29601,11550],[18,-10]],[[29722,11542],[-13,-43]],[[29709,11499],[-68,-58],[27,-59]],[[29542,10940],[-72,86]],[[29470,11026],[-14,61]],[[29456,11087],[45,-10]],[[29501,11077],[95,-71]],[[29596,11006],[32,-61],[-86,-5]],[[29731,12120],[-40,33]],[[29691,12153],[-9,63]],[[29682,12216],[22,46]],[[29704,12262],[72,-86]],[[29776,12176],[-45,-56]],[[29682,12216],[-59,41]],[[29623,12257],[-13,38]],[[29610,12295],[76,18]],[[29686,12313],[18,-51]],[[28835,12059],[-27,48]],[[28808,12107],[54,36]],[[28862,12143],[41,-46],[126,48]],[[29029,12145],[-63,-15],[22,-56]],[[28988,12074],[14,-87]],[[29002,11987],[-54,3],[-5,81],[-108,-12]],[[29101,11904],[13,56],[-112,27]],[[28988,12074],[32,-5]],[[29020,12069],[49,-38],[36,66],[36,-76]],[[29141,12021],[32,0]],[[29119,11901],[-18,3]],[[29141,12097],[0,-76]],[[29020,12069],[49,79]],[[29042,11639],[-54,48]],[[28988,11687],[-4,229]],[[28984,11916],[117,-12]],[[29177,11827],[-4,-18]],[[30132,12069],[18,107]],[[30150,12176],[63,-46]],[[30213,12130],[-32,-48]],[[30181,12082],[-49,-13]],[[28808,12107],[-50,-20]],[[28758,12087],[-108,53],[-9,-71]],[[28641,12069],[-54,84],[41,71],[-41,165],[72,-5],[32,-2],[31,-189],[86,16],[54,-66]],[[28844,12270],[-36,-51]],[[28808,12219],[-54,-20],[-41,145]],[[30290,11726],[22,-84],[-58,-13]],[[30254,11629],[-37,86],[73,11]],[[29722,11359],[0,-5]],[[29709,11499],[13,-140]],[[28857,11896],[-54,48]],[[28803,11944],[32,115]],[[29002,11987],[-18,-71]],[[28984,11916],[-9,44],[-23,-64],[-95,0]],[[29245,11756],[22,8]],[[29267,11764],[99,-23]],[[29366,11741],[9,-51]],[[29375,11690],[-85,-99]],[[29290,11591],[-27,13]],[[29583,11502],[-140,56],[-77,-44]],[[29366,11514],[-49,-5]],[[29317,11509],[-27,11]],[[29290,11520],[0,71]],[[29375,11690],[32,13]],[[29407,11703],[126,-72]],[[29533,11631],[68,-81]],[[29772,12018],[-41,102]],[[29776,12176],[99,12]],[[29916,12059],[-144,-41]],[[29533,11631],[-5,21]],[[29628,11647],[-14,-59]],[[29407,11703],[99,33]],[[29578,11990],[-41,53]],[[29537,12043],[-54,51]],[[29483,12094],[149,46]],[[29632,12140],[45,-18]],[[29677,12122],[-18,-104]],[[29659,12018],[-45,-38]],[[29614,11980],[-36,10]],[[29483,12094],[-18,-5]],[[29465,12089],[-4,59],[171,33]],[[29632,12181],[0,-41]],[[30046,12219],[9,-15]],[[30055,12204],[95,-28]],[[30132,12069],[-18,-23]],[[30114,12046],[-104,18]],[[29677,12122],[14,31]],[[29772,12018],[-59,-69],[-45,56]],[[29668,12005],[-9,13]],[[29736,11898],[45,-129]],[[29781,11769],[-32,-5]],[[29722,11787],[-18,0]],[[29704,11787],[-36,104]],[[29668,11891],[23,18]],[[29691,11909],[45,-11]],[[28903,11616],[-55,-86]],[[28848,11530],[-67,0]],[[28781,11530],[-50,145],[99,28]],[[28830,11703],[82,-82]],[[28912,11621],[-9,-5]],[[28934,12249],[50,-81]],[[28984,12168],[-91,-64],[-85,115]],[[28921,12252],[13,-3]],[[29537,12043],[-45,-76]],[[29492,11967],[0,-5]],[[29425,12043],[-5,33]],[[29420,12076],[45,13]],[[29267,11764],[81,101]],[[29371,11837],[-36,-55],[40,-6]],[[29375,11776],[-9,-35]],[[30317,12333],[-86,-45],[50,-26],[-14,-124]],[[30267,12138],[-54,-8]],[[30055,12204],[59,48],[-27,97]],[[30087,12349],[27,-3],[67,-5],[54,-3],[82,-5]],[[30001,11563],[-108,91]],[[29893,11654],[9,51]],[[29902,11705],[95,-7]],[[29997,11698],[49,-59],[-45,-71]],[[30001,11568],[0,-5]],[[29704,11662],[9,13]],[[29781,11769],[18,-33]],[[29799,11736],[-95,-74]],[[30132,11965],[-9,-8]],[[30123,11957],[-171,-81],[-99,56]],[[29853,11932],[-36,81]],[[29817,12013],[85,46],[9,-56],[63,48],[5,-51],[40,79],[32,-48],[0,45],[81,-35],[0,-76]],[[29902,11705],[-49,38]],[[29853,11743],[0,189]],[[30123,11957],[-9,-86]],[[30114,11871],[-126,0],[45,-62],[-36,-111]],[[29596,11014],[0,-8]],[[29501,11077],[-9,102],[-45,5]],[[29447,11184],[72,15],[50,155]],[[29691,11263],[40,-26]],[[29731,11237],[-40,-134]],[[29691,11103],[-36,-28]],[[30254,11629],[-14,-53]],[[30240,11576],[-77,-34],[27,105],[-63,12]],[[30222,11761],[54,10]],[[30276,11771],[45,23]],[[30321,11794],[-4,-35]],[[30317,11759],[-27,-33]],[[28893,11293],[-45,-129]],[[28848,11164],[-72,-3]],[[28776,11161],[-135,10]],[[28641,11171],[-27,199]],[[28614,11370],[221,-28]],[[28835,11342],[58,-49]],[[28668,11530],[113,0]],[[28848,11530],[0,-5]],[[28853,11395],[-18,-53]],[[28614,11370],[54,160]],[[29245,11570],[-86,-76]],[[29096,11537],[-49,31],[58,28]],[[28830,11703],[32,94],[-59,61],[54,38]],[[28988,11687],[-76,-66]],[[30533,11214],[-41,0]],[[30492,11214],[-112,-7]],[[30380,11207],[-104,94],[41,51],[-104,73]],[[30213,11425],[22,110]],[[30235,11535],[145,-43]],[[30380,11492],[117,-117],[36,-161]],[[29632,11937],[-36,2]],[[29596,11939],[18,41]],[[29668,12005],[18,-96],[-54,28]],[[29997,11698],[40,-16]],[[30087,11606],[18,-30]],[[30105,11576],[-104,-8]],[[29853,11743],[-54,-7]],[[29736,11898],[9,67]],[[29745,11965],[72,48]],[[29988,11517],[-45,-28],[36,-74]],[[29866,11418],[9,84]],[[29875,11502],[0,2]],[[29875,11504],[113,13]],[[29772,11433],[45,84],[-86,25]],[[29736,11555],[13,8]],[[29749,11563],[126,-61]],[[29893,11654],[-18,-150]],[[29749,11563],[104,180]],[[30001,11563],[-13,-46]],[[28682,11751],[58,-8],[-18,-38]],[[28722,11705],[-90,-71],[0,97],[50,20]],[[29704,11662],[-40,-18],[31,-43]],[[28921,11504],[27,69],[-45,43]],[[29691,11909],[-32,91],[86,-35]],[[29610,12295],[9,66]],[[29619,12361],[40,0]],[[29659,12361],[27,-48]],[[29029,12145],[13,10]],[[29434,11815],[-59,-39]],[[29407,11886],[27,-71]],[[29772,10996],[-50,-92],[-103,-25]],[[29619,10879],[-59,38],[-23,-53]],[[29537,10864],[5,76]],[[29691,11103],[85,-72]],[[29776,11031],[-4,-35]],[[30353,12084],[-45,-79]],[[30308,12005],[-73,-20]],[[30172,12023],[9,59]],[[30267,12138],[54,-21]],[[30321,12117],[32,-33]],[[29411,12148],[9,-72]],[[28948,11339],[-55,-46]],[[29659,12361],[207,0]],[[29866,12361],[23,-53]],[[30105,11576],[-23,-130]],[[30411,12257],[-81,-51],[-9,-89]],[[30317,12333],[36,0]],[[30353,12333],[63,-15],[-5,-61]],[[30154,11990],[-36,-15],[-4,71]],[[29776,11364],[-54,-5]],[[29731,11237],[32,51]],[[29898,11250],[-32,-51],[90,-124]],[[29956,11075],[-63,-51]],[[29893,11024],[-117,7]],[[30235,11535],[5,41]],[[30317,11759],[85,20]],[[30402,11779],[14,-84]],[[30416,11695],[-5,-94],[45,-5]],[[30456,11596],[0,-74]],[[30456,11522],[-54,23],[-22,-53]],[[29200,12102],[9,-26]],[[29420,12356],[172,5],[27,0]],[[29623,12257],[9,-76]],[[29578,11392],[-126,-61],[-32,133]],[[29420,11464],[113,-13]],[[28758,12087],[-4,-54],[49,8],[-40,-107]],[[28763,11934],[-81,8]],[[28682,11942],[40,18],[-81,109]],[[28803,11944],[-40,-10]],[[29420,11464],[-54,50]],[[29997,11181],[-54,11],[22,-105]],[[29965,11087],[-9,-12]],[[30042,11278],[-45,-97]],[[30114,11871],[18,-16]],[[30132,11855],[9,-73]],[[28668,11530],[54,175]],[[28682,11751],[49,122],[-49,69]],[[29866,12361],[27,0],[194,-12]],[[29542,11949],[-50,18]],[[29578,11990],[-36,-41]],[[30213,11425],[-41,-10]],[[28934,12249],[99,8]],[[29060,12186],[-76,-18]],[[29592,11858],[-9,-3]],[[29583,11855],[0,5]],[[29583,11860],[-9,13]],[[29574,11873],[4,3]],[[29578,11876],[14,-18]],[[29546,11835],[0,10]],[[29546,11845],[9,10]],[[29555,11855],[14,13]],[[29569,11868],[14,-8]],[[29583,11855],[13,-23]],[[29596,11832],[-22,0]],[[29574,11832],[-10,16],[-9,-3],[-9,-10]],[[29560,11787],[9,28]],[[29569,11815],[5,17]],[[29596,11832],[0,-56]],[[29596,11776],[-36,11]],[[29551,11827],[-41,-53]],[[29510,11774],[-40,18]],[[29470,11792],[76,53]],[[29546,11835],[5,-8]],[[29605,11863],[-18,8]],[[29587,11871],[14,27]],[[29601,11898],[45,-7]],[[29646,11891],[-41,-28]],[[29555,11904],[-13,45]],[[29596,11939],[5,-41]],[[29587,11871],[-9,5]],[[29578,11876],[-23,28]],[[29574,11873],[-5,-5]],[[29555,11855],[-18,26]],[[29537,11881],[5,10],[32,0],[4,-15]],[[29420,11909],[45,-79],[18,76],[54,-25]],[[29470,11792],[-36,23]],[[29592,11858],[40,7]],[[29632,11865],[9,-22]],[[29641,11843],[-13,-28]],[[29628,11815],[-32,17]],[[29605,11743],[-9,33]],[[29628,11815],[22,-26]],[[29569,11815],[-18,12]],[[29578,11876],[27,-13]],[[29704,11787],[-63,56]],[[29632,11865],[0,79],[36,-53]],[[29560,11787],[-9,-26]],[[29510,11741],[0,33]],[[29632,11937],[14,-46]],[[29555,11904],[-76,2],[4,-71],[-54,76]],[[30290,11059],[-18,77]],[[30272,11136],[99,-18]],[[30371,11118],[63,-8]],[[30434,11110],[-18,-18]],[[30416,11092],[-99,-43]],[[30317,11049],[-27,10]],[[30983,10655],[-67,0]],[[30916,10655],[49,64]],[[30965,10719],[9,-18]],[[30974,10701],[9,-46]],[[31325,11069],[-45,-94]],[[31280,10975],[-9,-17]],[[31271,10958],[-9,137],[-139,-26]],[[31123,11069],[-23,16]],[[31100,11085],[23,48]],[[31123,11133],[94,107]],[[31217,11240],[131,-69]],[[31348,11171],[22,-28]],[[31370,11143],[-67,-38],[22,-36]],[[30542,11143],[-63,-10]],[[30479,11133],[-45,-23]],[[30371,11118],[9,89]],[[30492,11214],[50,-71]],[[30069,10658],[-5,83],[-126,36]],[[29938,10777],[0,23]],[[29938,10800],[9,71]],[[29947,10871],[212,-104]],[[30159,10767],[-27,-109]],[[30132,10658],[-63,0]],[[31222,10774],[-32,44]],[[31190,10818],[9,53]],[[31199,10871],[90,20]],[[31289,10891],[-58,-119]],[[31231,10772],[-9,2]],[[31073,11029],[-90,30],[-4,-109]],[[30979,10950],[-27,-10]],[[30952,10940],[-23,40]],[[30929,10980],[23,107],[63,-30],[-23,76]],[[30992,11133],[50,-58],[81,58]],[[31100,11085],[-27,-56]],[[31123,11069],[112,-127]],[[31235,10942],[-40,-25]],[[31195,10917],[-113,107]],[[31082,11024],[-9,5]],[[31195,10917],[4,-46]],[[31199,10871],[-76,13]],[[31123,10884],[18,74],[-95,-16]],[[31046,10942],[36,82]],[[31010,10655],[-27,0]],[[30974,10701],[59,112],[-36,38]],[[30997,10851],[85,-13]],[[31082,10838],[-72,-183]],[[30997,10851],[-18,40]],[[30979,10891],[36,62]],[[31015,10953],[31,-11]],[[31123,10884],[-41,-46]],[[30479,11133],[18,-66]],[[30497,11067],[-81,25]],[[31303,10658],[40,96]],[[31343,10754],[27,36]],[[31370,10790],[135,-26]],[[31505,10764],[-13,-106],[-36,-3],[-90,0],[-63,3]],[[30199,10828],[-40,33]],[[30159,10861],[45,30]],[[30204,10891],[-5,-63]],[[30875,11136],[-9,56],[-72,-11]],[[30794,11181],[122,110]],[[30916,11291],[54,-33],[-18,-59],[81,97]],[[31033,11296],[36,-56]],[[31069,11240],[-36,-115],[-54,28],[-36,-58]],[[30943,11095],[-68,41]],[[31123,11247],[103,28]],[[31226,11275],[-9,-35]],[[30992,11133],[41,-18],[31,115],[59,17]],[[31190,10818],[-13,-26]],[[31177,10792],[-59,-137]],[[31118,10655],[-4,0],[-104,0]],[[30285,10897],[-81,-6]],[[30159,10861],[-54,15],[22,77]],[[30127,10953],[54,43]],[[30181,10996],[73,-31]],[[30254,10965],[45,-25]],[[30299,10940],[-14,-43]],[[31321,10942],[-32,-51]],[[31235,10942],[36,16]],[[31280,10975],[41,-33]],[[30528,10996],[59,86],[-45,61]],[[30533,11214],[58,16]],[[30591,11230],[45,20]],[[30636,11250],[50,-114],[49,53],[9,-117]],[[30744,11072],[-22,-56]],[[30722,11016],[0,-104]],[[30722,10912],[-68,-23]],[[30654,10889],[-22,109],[-104,-2]],[[29844,10660],[18,71],[76,3]],[[29938,10734],[0,-74]],[[29938,10660],[-94,0]],[[31460,11090],[-85,-84]],[[31375,11006],[-50,63]],[[31370,11143],[90,-53]],[[30001,10932],[99,99]],[[30100,11031],[59,21]],[[30159,11052],[22,-56]],[[30127,10953],[-63,-64],[-63,43]],[[31375,11006],[13,-10]],[[31388,10996],[-67,-54]],[[30916,11291],[36,43]],[[30952,11334],[4,8]],[[30956,11342],[77,-46]],[[29821,10810],[5,-86]],[[29826,10724],[-50,-66]],[[29776,10658],[-58,2]],[[29718,10660],[-54,117],[-50,-23]],[[29614,10754],[-4,15]],[[29610,10769],[-32,64]],[[29578,10833],[41,46]],[[29772,10996],[81,-59]],[[29853,10937],[-32,-127]],[[29844,10660],[-68,-2]],[[29826,10724],[63,86]],[[29889,10810],[9,8]],[[29898,10818],[40,-18]],[[29938,10777],[0,-43]],[[31015,10953],[-36,-3]],[[31141,11499],[-50,-99],[-58,51]],[[31033,11451],[-50,48],[95,49]],[[31078,11548],[63,-49]],[[30744,11072],[50,109]],[[30875,11136],[-77,-89]],[[30798,11047],[-31,-67],[-45,36]],[[30443,11026],[-45,-12]],[[30398,11014],[-95,-23],[14,58]],[[30497,11067],[-54,-41]],[[30636,10683],[-40,-33]],[[30596,10650],[-104,2],[-4,0]],[[30488,10652],[-5,11]],[[30483,10663],[104,84],[36,-54]],[[30623,10693],[13,-10]],[[30848,10777],[4,15]],[[30852,10792],[77,188]],[[30952,10940],[-41,-148],[-63,-15]],[[30159,11052],[104,122]],[[30263,11174],[9,-38]],[[30290,11059],[-36,-94]],[[30807,10785],[-58,76]],[[30749,10861],[22,30]],[[30771,10891],[77,-15]],[[30848,10876],[-41,-91]],[[30069,10658],[-126,2],[-5,0]],[[30434,10696],[-14,76]],[[30420,10772],[90,30]],[[30510,10802],[36,-50]],[[30546,10752],[-45,-79],[-67,23]],[[29821,10810],[45,48],[23,-48]],[[29898,10818],[-45,119]],[[29893,11024],[77,-87]],[[29970,10937],[-23,-66]],[[30965,10719],[14,172]],[[31348,11171],[9,10]],[[31357,11181],[103,28],[50,89]],[[31510,11298],[36,-94],[40,13],[-36,-61]],[[31550,11156],[-90,-66]],[[30100,11031],[-67,97]],[[30033,11128],[-36,53]],[[30132,11331],[94,-50],[-27,-74],[64,-33]],[[30290,10856],[-5,41]],[[30299,10940],[31,43]],[[30330,10983],[27,-89]],[[30357,10894],[-67,-38]],[[30033,11128],[-68,-41]],[[31222,10774],[-45,18]],[[31303,10658],[-41,0],[-49,-3],[-45,0],[-50,0]],[[31231,10772],[112,-18]],[[30916,10655],[-32,0]],[[30884,10655],[-45,89]],[[30839,10744],[9,33]],[[30456,10983],[-13,43]],[[30528,10996],[-67,-18]],[[30461,10978],[-5,5]],[[30398,11014],[-68,-31]],[[30636,11250],[131,203]],[[30767,11453],[117,6],[0,-51],[50,53]],[[30934,11461],[45,-15],[-73,-84],[46,-28]],[[31388,10996],[27,-38],[-63,-97],[72,-8]],[[31424,10853],[-54,-63]],[[30925,11036],[-127,11]],[[30943,11095],[-18,-59]],[[30420,10772],[-36,117]],[[30384,10889],[72,94]],[[30461,10978],[49,-176]],[[30226,10797],[-27,31]],[[30290,10856],[40,-122],[-40,33]],[[30290,10767],[-64,30]],[[30290,10767],[0,-109]],[[30290,10658],[-158,0]],[[30159,10767],[67,30]],[[30749,10861],[-32,-71]],[[30717,10790],[-31,-16]],[[30686,10774],[-23,18]],[[30663,10792],[-9,97]],[[30722,10912],[36,30],[13,-51]],[[30925,11036],[-28,-139],[-49,-21]],[[30420,10655],[-126,3],[-4,0]],[[30357,10894],[27,-5]],[[30434,10696],[-14,-41]],[[30488,10652],[-63,3],[58,8]],[[30956,11342],[77,109]],[[31141,11499],[27,-20]],[[31168,11479],[-45,-244],[-54,5]],[[31735,11059],[-13,-91],[-149,-21],[-59,-91]],[[31514,10856],[-90,-3]],[[31550,11156],[185,-97]],[[30001,10932],[-31,5]],[[31514,10856],[-4,-20],[-5,-44],[0,-28]],[[30636,10726],[0,-43]],[[30623,10693],[13,33]],[[30663,10792],[-49,-99],[-14,64],[-54,-5]],[[30726,10708],[-13,3]],[[30713,10711],[13,15]],[[30726,10726],[0,-18]],[[30740,10724],[4,-8]],[[30744,10716],[-4,-8]],[[30740,10708],[-14,0]],[[30726,10726],[14,-2]],[[30749,10652],[-18,41]],[[30731,10693],[9,15]],[[30744,10716],[27,3]],[[30771,10719],[-9,-28]],[[30762,10691],[-9,-39]],[[30753,10652],[-4,0]],[[30717,10790],[32,-33]],[[30749,10757],[-45,-64],[-18,81]],[[30785,10774],[13,-35]],[[30798,10739],[0,-20]],[[30798,10719],[-27,0]],[[30740,10724],[45,50]],[[30749,10652],[-18,0]],[[30731,10652],[0,41]],[[30708,10685],[-4,3]],[[30704,10688],[9,23]],[[30731,10693],[-18,-8]],[[30713,10685],[-5,0]],[[30668,10650],[40,35]],[[30713,10685],[-5,-33]],[[30708,10652],[-9,0],[-4,0],[-14,0],[-13,-2]],[[30731,10652],[-23,0]],[[30798,10719],[14,-46]],[[30812,10673],[-50,18]],[[30830,10655],[-23,0],[-54,-3]],[[30812,10673],[18,-18]],[[30807,10785],[-58,-28]],[[30839,10744],[-41,-5]],[[30785,10774],[67,18]],[[30668,10650],[-68,0],[-4,0]],[[30636,10726],[41,56],[27,-94]],[[30884,10655],[-54,0]],[[33050,11957],[-63,125]],[[32987,12082],[14,15]],[[33001,12097],[67,2]],[[33068,12099],[18,-48]],[[33086,12051],[-4,-99]],[[33082,11952],[-32,5]],[[33050,11957],[-22,-13]],[[33028,11944],[-72,92]],[[32956,12036],[31,46]],[[32956,12036],[-55,94]],[[32901,12130],[73,23]],[[32974,12153],[27,-56]],[[32771,11812],[-50,18]],[[32721,11830],[-54,130],[81,89]],[[32748,12049],[-31,-89],[54,-148]],[[33082,12227],[-27,-28]],[[33055,12199],[-63,-34]],[[32992,12165],[-54,41]],[[32938,12206],[49,74]],[[32987,12280],[0,25]],[[32987,12305],[32,0],[40,0]],[[33059,12305],[23,-78]],[[33100,12117],[-9,8]],[[33091,12125],[-36,74]],[[33082,12227],[162,-62]],[[33244,12165],[-144,-48]],[[33316,12216],[-72,-51]],[[33059,12305],[54,0],[77,0],[72,0],[144,21],[31,0]],[[33437,12326],[-121,-110]],[[33212,11937],[-4,94]],[[33208,12031],[135,150]],[[33343,12181],[13,-5]],[[33356,12176],[-13,-79],[67,-64]],[[33410,12033],[-45,-43],[-49,-102]],[[33316,11888],[-104,49]],[[32870,11822],[-18,-48]],[[32852,11774],[-18,-38]],[[32834,11736],[-36,20]],[[32798,11756],[-27,56]],[[32748,12049],[-9,61]],[[32739,12110],[14,0]],[[32753,12110],[58,-6],[-31,-55]],[[32780,12049],[-32,-72],[95,-122]],[[32843,11855],[27,-33]],[[32739,12110],[-67,-18]],[[32672,12092],[-41,10],[41,56]],[[32672,12158],[40,41],[-72,96]],[[32640,12295],[18,8]],[[32658,12303],[108,0]],[[32766,12303],[0,-132]],[[32766,12171],[5,-33]],[[32771,12138],[-18,-28]],[[33086,12051],[14,66]],[[33316,12216],[27,-35]],[[33208,12031],[-104,-105]],[[33104,11926],[-22,26]],[[32766,12303],[63,0]],[[32829,12303],[-63,-132]],[[33122,11840],[-144,-71],[-22,-49],[-32,-35],[-5,-3]],[[32919,11682],[-67,92]],[[32870,11822],[122,71]],[[32992,11893],[130,-53]],[[32856,12132],[-22,-73]],[[32834,12059],[-54,-10]],[[32771,12138],[45,7]],[[32816,12145],[40,-13]],[[32919,11682],[-54,-33],[-31,87]],[[33212,11937],[-58,-41],[36,-48]],[[33190,11848],[-59,7]],[[33131,11855],[-27,71]],[[32861,11863],[58,84],[-72,79]],[[32847,12026],[-13,33]],[[32856,12132],[5,0]],[[32861,12132],[40,-2]],[[33028,11944],[-36,-51]],[[32843,11855],[18,8]],[[32987,12280],[-104,-15],[-67,-120]],[[32829,12303],[14,2],[22,0],[59,0],[63,0]],[[32861,12132],[77,74]],[[32992,12165],[-18,-12]],[[33532,12232],[-45,-23],[-27,71]],[[33460,12280],[36,43]],[[33496,12323],[81,0],[-23,-25],[-22,-66]],[[32847,12026],[14,-163]],[[33509,12107],[-45,-41]],[[33464,12066],[-54,-33]],[[33356,12176],[104,104]],[[33532,12232],[-23,-125]],[[33091,12125],[-23,-26]],[[33316,11888],[-36,-68],[-41,-21],[-49,49]],[[33437,12326],[59,-3]],[[33509,12107],[5,-10],[18,-59],[-68,18],[0,10]],[[33131,11855],[-9,-15]],[[31762,11446],[-27,35]],[[31735,11481],[41,39]],[[31776,11520],[-5,-26]],[[31771,11494],[-9,-48]],[[31794,11883],[-9,8]],[[31785,11891],[-81,-10]],[[31704,11881],[-59,15]],[[31645,11896],[27,28]],[[31672,11924],[18,28]],[[31690,11952],[68,30]],[[31758,11982],[27,0]],[[31785,11982],[-32,-40],[50,0],[-9,-59]],[[32226,11967],[-45,71]],[[32181,12038],[126,61]],[[32307,12099],[18,-109]],[[32325,11990],[-99,-23]],[[32055,11853],[-18,-44]],[[32037,11809],[-32,16]],[[32005,11825],[-40,5]],[[31965,11830],[-5,23]],[[31960,11853],[18,53]],[[31978,11906],[41,36]],[[32019,11942],[36,-89]],[[31415,11822],[-13,41]],[[31402,11863],[90,48]],[[31492,11911],[72,-13]],[[31564,11898],[50,-15]],[[31614,11883],[-41,-63]],[[31573,11820],[-158,2]],[[32582,11985],[-81,-64]],[[32501,11921],[-54,8]],[[32447,11929],[4,117]],[[32451,12046],[95,-38]],[[32546,12008],[36,-23]],[[32483,11787],[0,-3]],[[32483,11784],[-23,-36]],[[32460,11748],[-81,-15],[9,92]],[[32388,11825],[-9,51]],[[32379,11876],[68,-56]],[[32447,11820],[31,-21]],[[32478,11799],[5,-12]],[[31492,11911],[-5,168]],[[31487,12079],[68,3]],[[31555,12082],[27,-39]],[[31582,12043],[41,-68]],[[31623,11975],[-59,-77]],[[31789,12181],[-36,119]],[[31753,12300],[117,-5],[117,-2]],[[31987,12293],[-49,-26]],[[31938,12267],[-149,-86]],[[31672,11769],[-22,-64]],[[31650,11705],[-27,-20]],[[31623,11685],[-46,76],[-54,-46]],[[31523,11715],[50,105]],[[31614,11883],[31,13]],[[31704,11881],[-32,-112]],[[31879,11774],[-31,43]],[[31848,11817],[4,51]],[[31852,11868],[18,-3]],[[31870,11865],[90,-12]],[[31965,11830],[-63,-64]],[[31902,11766],[-23,8]],[[32397,11522],[50,-58]],[[32447,11464],[-122,-61]],[[32325,11403],[-63,66]],[[32262,11469],[18,112]],[[32280,11581],[5,10]],[[32285,11591],[112,-69]],[[31073,11578],[-45,33]],[[31028,11611],[104,143]],[[31132,11754],[76,-135]],[[31208,11619],[-94,18],[18,61],[-50,-54],[32,-68],[-41,2]],[[32023,12252],[-36,-51]],[[31987,12201],[-49,66]],[[31987,12293],[9,17],[27,0]],[[32023,12310],[0,-58]],[[32307,11703],[-22,-112]],[[32280,11581],[-167,78]],[[32113,11659],[-22,18]],[[32091,11677],[54,61]],[[32145,11738],[81,54]],[[32226,11792],[81,-89]],[[31073,11820],[-58,33]],[[31015,11853],[27,71]],[[31042,11924],[45,66]],[[31087,11990],[94,-53],[-22,-39]],[[31159,11898],[-86,-78]],[[32505,11471],[-81,107]],[[32424,11578],[23,76]],[[32447,11654],[103,11]],[[32550,11665],[54,-26]],[[32604,11639],[-49,-160],[-50,-8]],[[31789,12181],[-108,-43],[9,122]],[[31690,12260],[18,40]],[[31708,12300],[45,0]],[[32406,12145],[-31,-15]],[[32375,12130],[18,48]],[[32393,12178],[36,43]],[[32429,12221],[135,31]],[[32564,12252],[-158,-107]],[[31695,11476],[31,-45],[-58,-18]],[[31668,11413],[-54,15]],[[31614,11428],[-5,10]],[[31609,11438],[23,46]],[[31632,11484],[63,-8]],[[32005,11359],[63,51]],[[32068,11410],[32,26]],[[32100,11436],[162,33]],[[32325,11403],[-135,-107],[-185,-43]],[[32005,11253],[0,106]],[[31591,11301],[-41,18]],[[31550,11319],[5,96]],[[31555,11415],[36,-38],[23,51]],[[31668,11413],[-77,-112]],[[32550,11665],[-67,119]],[[32483,11787],[108,43],[-5,114]],[[32586,11944],[135,-114]],[[32798,11756],[-113,-117],[-81,0]],[[32586,11944],[-4,41]],[[32546,12008],[126,84]],[[31424,11616],[-94,-63]],[[31330,11553],[-54,-18]],[[31276,11535],[-45,74]],[[31231,11609],[90,71],[-23,53]],[[31298,11733],[68,15]],[[31366,11748],[72,-91]],[[31438,11657],[-14,-41]],[[32023,12310],[131,-2]],[[32154,12308],[13,-8]],[[32167,12300],[-4,-63],[-140,15]],[[32505,11471],[-58,-7]],[[32397,11522],[27,56]],[[31785,11891],[-32,-41]],[[31753,11850],[-81,-81]],[[31348,12066],[-95,89]],[[31253,12155],[126,-5]],[[31379,12150],[-54,-30],[23,-54]],[[31388,11886],[-9,18]],[[31379,11904],[-31,162]],[[31379,12150],[5,-23]],[[31384,12127],[103,-48]],[[31402,11863],[-14,23]],[[31672,11924],[-49,51]],[[31582,12043],[50,18],[58,-109]],[[32145,11738],[-32,122]],[[32113,11860],[45,13]],[[32158,11873],[68,-76]],[[32226,11797],[0,-5]],[[31690,12260],[-108,-51]],[[31582,12209],[-9,7]],[[31573,12216],[18,87]],[[31591,12303],[117,-3]],[[31447,11530],[-23,-61]],[[31424,11469],[-94,84]],[[31424,11616],[23,-40]],[[31447,11576],[0,-46]],[[31321,11453],[-72,3]],[[31249,11456],[72,94],[54,-81]],[[31375,11469],[-14,-31]],[[31361,11438],[-40,15]],[[31978,11652],[9,15]],[[31987,11667],[54,48]],[[32041,11715],[50,-38]],[[32113,11659],[-130,-22]],[[31983,11637],[-5,15]],[[32568,12254],[-4,-2]],[[32429,12221],[-27,41],[40,41]],[[32442,12303],[95,0],[121,0]],[[32640,12295],[-72,-41]],[[31780,12094],[-22,-112]],[[31555,12082],[-41,58],[68,69]],[[31789,12181],[-9,-87]],[[31118,11787],[-45,33]],[[31159,11898],[139,31]],[[31298,11929],[81,-25]],[[31388,11886],[-148,-115]],[[31240,11771],[-122,16]],[[31559,11563],[-40,-36],[27,-51]],[[31546,11476],[-32,-15]],[[31514,11461],[-72,10],[5,59]],[[31447,11576],[94,12]],[[31541,11588],[14,-20]],[[31555,11568],[4,-5]],[[31559,11563],[50,-71]],[[31609,11492],[-63,-16]],[[31555,11415],[-14,56]],[[31541,11471],[68,-33]],[[31514,11461],[-13,-43],[-77,51]],[[31501,11329],[-81,76],[-59,-35],[0,68]],[[31375,11469],[117,-54],[49,56]],[[31550,11319],[-49,10]],[[31735,11481],[-40,-5]],[[31632,11484],[0,56],[126,25]],[[31758,11565],[27,0]],[[31785,11565],[-9,-45]],[[31870,11865],[104,97]],[[31974,11962],[0,-2]],[[31974,11960],[4,-54]],[[31767,11441],[-95,-178]],[[31672,11263],[0,-26]],[[31672,11237],[-81,64]],[[31762,11446],[5,-5]],[[31767,11441],[90,-3]],[[31857,11438],[-23,-68]],[[31834,11370],[-90,-110],[-72,3]],[[31771,11494],[95,31]],[[31866,11525],[36,-3]],[[31902,11522],[-45,-84]],[[31938,11748],[-36,18]],[[32005,11825],[-67,-77]],[[31852,11868],[-58,15]],[[31785,11982],[166,67]],[[31951,12049],[54,0]],[[32005,12049],[-31,-87]],[[32447,11820],[54,101]],[[32501,11921],[54,-43],[-77,-79]],[[32379,11876],[9,5]],[[32388,11881],[41,20]],[[32429,11901],[18,28]],[[32307,12099],[68,31]],[[32406,12145],[45,-61]],[[32451,12084],[-67,-46]],[[32384,12038],[-41,-56]],[[32343,11982],[-18,8]],[[32388,11825],[-54,-3]],[[32334,11822],[-77,23]],[[32257,11845],[-27,20]],[[32230,11865],[127,84]],[[32357,11949],[31,-68]],[[32185,11909],[41,58]],[[32343,11982],[14,-33]],[[32230,11865],[-45,44]],[[31573,12216],[-36,3]],[[31537,12219],[4,84]],[[31541,12303],[27,0],[23,0]],[[32041,11715],[-4,94]],[[32055,11853],[58,7]],[[32307,11703],[27,119]],[[32460,11748],[-63,-63],[50,-31]],[[31951,12049],[-36,66]],[[31915,12115],[81,73]],[[31996,12188],[77,-40],[-9,-74]],[[32064,12074],[-59,-25]],[[31307,11314],[50,-133]],[[31226,11275],[32,51]],[[31258,11326],[49,-12]],[[31132,11754],[-14,33]],[[31240,11771],[58,-38]],[[31231,11609],[-23,10]],[[31577,11644],[-36,-56]],[[31438,11657],[85,58]],[[31623,11685],[-46,-41]],[[31366,11748],[49,74]],[[31204,12143],[-32,91]],[[31172,12234],[-40,79]],[[31132,12313],[4,0],[135,-5],[68,-3]],[[31339,12305],[121,-109],[-27,-51]],[[31433,12145],[-49,-18]],[[31253,12155],[-49,-12]],[[31258,11326],[63,127]],[[31501,11329],[0,-15]],[[31501,11314],[-77,45],[-117,-45]],[[31433,12145],[104,74]],[[31974,11960],[54,-6]],[[32028,11954],[-9,-12]],[[31749,11720],[-27,-17]],[[31722,11703],[-23,-13]],[[31699,11690],[-49,15]],[[31753,11850],[36,-25],[-36,-79]],[[31753,11746],[-4,-26]],[[31298,11929],[14,76],[-144,36]],[[31168,12041],[63,58],[-27,44]],[[31785,11565],[94,-10]],[[31879,11555],[-13,-30]],[[31078,11548],[-5,30]],[[31276,11535],[-32,-61],[-40,51],[4,-82],[-40,36]],[[32451,12046],[0,38]],[[32568,12254],[0,-78],[104,-18]],[[32384,12038],[45,-137]],[[32028,11954],[117,72]],[[32145,12026],[36,12]],[[32185,11909],[-27,-36]],[[31978,11403],[-27,58]],[[31951,11461],[27,23]],[[31978,11484],[63,-10],[27,109],[59,-5],[-23,-99]],[[32104,11479],[-54,18],[18,-87]],[[32005,11359],[-27,44]],[[32104,11479],[-4,-43]],[[31983,11637],[31,-84],[-36,-69]],[[31951,11461],[-49,61]],[[31879,11555],[104,82]],[[31780,12094],[135,21]],[[32393,12178],[-158,-20]],[[32235,12158],[-68,142]],[[32154,12308],[54,0],[95,0],[85,-5],[54,0]],[[31987,12201],[9,-13]],[[31947,11703],[-41,30],[32,15]],[[31987,11667],[-40,36]],[[31087,11990],[45,38]],[[31132,12028],[36,13]],[[31501,11314],[9,-16]],[[32257,11845],[-31,-48]],[[31834,11370],[9,-6]],[[31843,11364],[-40,-66],[45,-96]],[[31848,11202],[-68,-61],[-4,2]],[[31776,11143],[-14,38],[-13,28],[-77,28]],[[32235,12158],[-126,-97]],[[32109,12061],[-45,13]],[[31123,11247],[27,130],[13,-46],[86,125]],[[32145,12026],[-36,35]],[[31843,11364],[135,39]],[[32005,11253],[-157,-51]],[[31776,11143],[-41,-84]],[[31339,12305],[31,0],[81,0],[90,-2]],[[31807,11649],[-4,10]],[[31803,11659],[4,6]],[[31807,11665],[5,-11]],[[31812,11654],[-5,-5]],[[31704,11619],[9,35]],[[31713,11654],[67,3]],[[31780,11657],[-76,-38]],[[31780,11698],[0,-5]],[[31780,11693],[-58,10]],[[31749,11720],[31,-22]],[[31978,11652],[-117,0]],[[31861,11652],[-31,5]],[[31830,11657],[0,20]],[[31830,11677],[18,46]],[[31848,11723],[99,-20]],[[31807,11665],[23,12]],[[31830,11657],[-18,-3]],[[31789,11642],[-4,10]],[[31785,11652],[18,7]],[[31807,11649],[-18,-7]],[[31803,11659],[-23,34]],[[31780,11698],[54,30]],[[31834,11728],[14,-5]],[[31753,11746],[95,71]],[[31879,11774],[-45,-46]],[[31713,11586],[-9,33]],[[31780,11657],[5,-5]],[[31789,11642],[-63,-69]],[[31726,11573],[-13,13]],[[31758,11565],[0,59],[103,28]],[[31713,11654],[-9,11]],[[31704,11665],[-5,25]],[[31555,11568],[104,38]],[[31659,11606],[54,-20]],[[31726,11573],[-117,-81]],[[31659,11606],[-9,25]],[[31650,11631],[54,34]],[[31650,11631],[-73,13]],[[27804,11502],[-14,-43]],[[27790,11459],[-103,-23]],[[27687,11436],[-117,71],[81,-5]],[[27651,11502],[94,89]],[[27745,11591],[14,-13]],[[27759,11578],[45,-76]],[[27232,10912],[-68,23]],[[27164,10935],[-4,15]],[[27160,10950],[144,92]],[[27304,11042],[49,12]],[[27353,11054],[27,-35]],[[27380,11019],[23,-51]],[[27403,10968],[13,-26]],[[27416,10942],[-121,-73]],[[27295,10869],[-50,10]],[[27245,10879],[-13,33]],[[27286,11075],[-162,43]],[[27124,11118],[49,76]],[[27173,11194],[9,-5]],[[27182,11189],[32,-48],[22,5],[50,-71]],[[27871,11403],[-36,-44]],[[27835,11359],[-40,21],[-5,-105]],[[27790,11275],[-72,64],[54,48],[-85,49]],[[27790,11459],[68,-3]],[[27858,11456],[13,-53]],[[27858,10810],[-23,61],[-45,-69]],[[27790,10802],[-4,69],[-86,-33]],[[27700,10838],[0,43]],[[27700,10881],[117,158]],[[27817,11039],[50,-89],[76,15]],[[27943,10965],[32,-61],[-63,-35]],[[27912,10869],[0,-69],[-54,10]],[[27349,11108],[4,-54]],[[27304,11042],[-18,33]],[[27182,11189],[77,23]],[[27259,11212],[90,-104]],[[27479,11230],[-22,35]],[[27457,11265],[27,38]],[[27484,11303],[40,122]],[[27524,11425],[59,56]],[[27583,11481],[189,-94],[-31,-236]],[[27741,11151],[-262,79]],[[27173,11194],[-22,10]],[[27151,11204],[4,51]],[[27155,11255],[68,54]],[[27223,11309],[36,-97]],[[27295,10869],[0,-39]],[[27295,10830],[-95,8]],[[27200,10838],[-4,10]],[[27196,10848],[49,31]],[[27403,10828],[4,-165]],[[27407,10663],[-121,0],[-18,0]],[[27268,10663],[9,58]],[[27277,10721],[0,56]],[[27277,10777],[126,51]],[[27236,10780],[-13,7]],[[27223,10787],[-18,33]],[[27205,10820],[-5,18]],[[27295,10830],[-27,-53]],[[27268,10777],[-32,3]],[[27479,11230],[-36,-74]],[[27443,11156],[-94,-48]],[[27223,11309],[234,-44]],[[27124,11118],[-86,-43]],[[27038,11075],[113,129]],[[26957,11115],[59,-30],[-14,-18],[-45,48]],[[27466,11642],[-95,114],[-67,-61]],[[27304,11695],[76,191]],[[27380,11886],[144,25]],[[27524,11911],[41,-20]],[[27565,11891],[122,-183]],[[27687,11708],[-113,-125]],[[27574,11583],[-108,59]],[[27277,10777],[-9,0]],[[27416,10942],[0,-94]],[[27416,10848],[-13,-20]],[[27466,11642],[-117,-44]],[[27349,11598],[-45,97]],[[27700,11695],[45,-104]],[[27651,11502],[-77,81],[54,-5],[-4,74],[76,43]],[[27524,11425],[-49,102]],[[27475,11527],[95,-20]],[[27570,11507],[13,-26]],[[27696,10785],[63,-33]],[[27759,10752],[9,-89]],[[27768,10663],[-72,0],[0,122]],[[27475,11527],[-216,-58]],[[27259,11469],[0,112],[90,17]],[[27574,11583],[72,-112],[-76,36]],[[27173,11357],[-18,-18]],[[27155,11339],[194,89],[135,-125]],[[27155,11255],[18,102]],[[27790,10802],[-31,-50]],[[27696,10785],[4,53]],[[28042,10874],[-9,-49]],[[28033,10825],[-36,-68]],[[27997,10757],[-36,129],[-49,-17]],[[27943,10965],[54,51]],[[27997,11016],[36,-79]],[[28033,10937],[9,-63]],[[27443,11156],[86,-89]],[[27529,11067],[-149,-48]],[[27957,10663],[-117,0]],[[27840,10663],[18,147]],[[27997,10757],[-40,-94]],[[27160,10950],[-68,-20]],[[27092,10930],[-94,84]],[[26998,11014],[40,61]],[[27691,10663],[-185,0],[-22,0]],[[27484,10663],[-14,155]],[[27470,10818],[23,10]],[[27493,10828],[45,5],[18,-20],[95,-89],[40,89]],[[27691,10813],[0,-150]],[[27565,11891],[117,15]],[[27682,11906],[77,-66],[-72,-132]],[[27470,10818],[-54,30]],[[27403,10968],[90,-140]],[[28101,10663],[-63,0],[-81,0]],[[28033,10825],[59,-35]],[[28092,10790],[9,-127]],[[27155,11339],[104,130]],[[27484,10663],[-50,0],[-27,0]],[[27840,10663],[-5,0],[-67,0]],[[27529,11067],[176,18]],[[27705,11085],[-14,-272]],[[27741,11151],[-36,-66]],[[27790,11110],[27,-71]],[[27700,10881],[-4,295],[90,-30]],[[27786,11146],[4,-36]],[[27556,12092],[-18,-59]],[[27538,12033],[-86,38]],[[27452,12071],[-18,135],[32,0],[63,0],[50,5]],[[27579,12211],[-23,-119]],[[27538,12033],[-14,-43]],[[27524,11990],[0,-79]],[[27380,11886],[-63,46],[122,28],[-63,63],[76,48]],[[27043,10810],[-18,-13]],[[27025,10797],[-14,0]],[[27011,10797],[14,59]],[[27025,10856],[9,5]],[[27034,10861],[-5,-25]],[[27029,10836],[18,-21]],[[27047,10815],[-4,-5]],[[27056,10790],[-13,5]],[[27043,10795],[0,15]],[[27047,10815],[9,13]],[[27056,10828],[5,0]],[[27061,10828],[31,-23]],[[27092,10805],[-9,-18]],[[27083,10787],[-27,3]],[[27029,10836],[27,-8]],[[27056,10790],[5,-46]],[[27061,10744],[-9,-8]],[[27052,10736],[-23,5]],[[27029,10741],[-94,6]],[[26935,10747],[0,5],[76,45]],[[27025,10797],[18,-2]],[[27034,10861],[22,-5]],[[27056,10856],[23,-23]],[[27079,10833],[-18,-5]],[[27056,10856],[41,8]],[[27097,10864],[49,-21]],[[27146,10843],[-45,0]],[[27101,10843],[-22,-10]],[[27043,10663],[-36,0],[-45,0],[-131,0],[104,84]],[[27029,10741],[14,-78]],[[27101,10752],[-18,35]],[[27092,10805],[14,5]],[[27106,10810],[18,5]],[[27124,10815],[4,-66]],[[27128,10749],[-27,3]],[[27101,10843],[5,-33]],[[27079,10747],[-18,-3]],[[27101,10752],[-22,-5]],[[27200,10726],[0,-23]],[[27200,10703],[-45,0]],[[27155,10703],[-13,46]],[[27142,10749],[9,5]],[[27151,10754],[49,-28]],[[27052,10736],[18,3],[4,-8],[5,0]],[[27079,10731],[0,-68]],[[27079,10663],[-36,0]],[[27124,10815],[31,5]],[[27155,10820],[0,-40]],[[27155,10780],[-4,-26]],[[27142,10749],[-14,0]],[[27079,10731],[0,16]],[[27155,10703],[18,-40]],[[27173,10663],[-54,0],[-40,0]],[[27155,10780],[32,-11]],[[27187,10769],[45,-35]],[[27232,10734],[-32,-8]],[[27155,10820],[5,3]],[[27160,10823],[45,-3]],[[27223,10787],[-36,-18]],[[27146,10843],[14,-20]],[[27268,10663],[-68,0]],[[27200,10663],[0,40]],[[27232,10734],[36,-3]],[[27268,10731],[9,-10]],[[27092,10930],[5,-66]],[[27025,10856],[-27,158]],[[26948,10978],[32,2],[9,-53],[-5,3],[-45,20],[9,28]],[[27164,10935],[-13,-38]],[[27151,10897],[-5,-54]],[[27196,10848],[0,31]],[[27196,10879],[36,33]],[[27151,10897],[45,-18]],[[27236,10780],[32,-49]],[[27200,10663],[-27,0]],[[28119,11761],[-9,97]],[[28110,11858],[94,18],[14,84]],[[28218,11960],[23,-112],[90,0]],[[28331,11848],[22,0]],[[28353,11848],[0,-74]],[[28353,11774],[-149,-64]],[[28204,11710],[-85,51]],[[28177,11680],[-18,-51]],[[28159,11629],[-76,5]],[[28083,11634],[-18,89]],[[28065,11723],[22,18]],[[28087,11741],[14,-69],[76,8]],[[28659,11888],[-58,-58]],[[28601,11830],[-90,63]],[[28511,11893],[45,178]],[[28556,12071],[27,41],[81,-109],[-5,-115]],[[28529,12125],[-36,-76]],[[28493,12049],[-41,53]],[[28452,12102],[-27,107]],[[28425,12209],[63,-3],[63,0],[23,-58],[-45,-23]],[[28222,12082],[-49,58],[54,69]],[[28227,12209],[9,0]],[[28236,12209],[63,-105]],[[28299,12104],[-4,-94],[-77,18],[4,54]],[[28204,11998],[-171,-77]],[[28033,11921],[-9,-2]],[[28024,11919],[0,71]],[[28024,11990],[18,122]],[[28042,12112],[131,-58]],[[28173,12054],[31,-56]],[[28141,12209],[14,-61],[-86,-8]],[[28069,12140],[-9,5]],[[28060,12145],[-22,66]],[[28038,12211],[72,-2],[31,0]],[[28110,11858],[-77,63]],[[28204,11998],[28,-26]],[[28232,11972],[-14,-12]],[[28119,11761],[-32,-2]],[[28087,11759],[-121,73]],[[27966,11832],[-23,18]],[[27943,11850],[-49,54]],[[27894,11904],[130,15]],[[28353,11926],[-22,-78]],[[28232,11972],[121,-46]],[[27556,12092],[72,63]],[[27628,12155],[5,-147]],[[27633,12008],[-109,-18]],[[27727,11855],[36,97]],[[27763,11952],[117,2]],[[27880,11954],[14,-50]],[[27943,11850],[-112,43],[-32,-53]],[[27799,11840],[-40,-5]],[[27759,11835],[-32,20]],[[28353,11926],[99,-5]],[[28452,11921],[50,-43]],[[28502,11878],[-41,-61]],[[28461,11817],[-108,31]],[[28024,11990],[-144,0]],[[27880,11990],[5,41]],[[27885,12031],[0,84]],[[27885,12115],[175,30]],[[28069,12140],[-27,-28]],[[27633,12008],[85,-21],[-36,-81]],[[28222,12082],[-49,-28]],[[28141,12209],[86,0]],[[28299,12104],[153,-2]],[[28493,12049],[-41,-128]],[[28236,12209],[9,0],[180,0]],[[27718,11987],[45,59]],[[27763,12046],[122,-15]],[[27880,11990],[0,-36]],[[27763,11952],[-63,0]],[[27700,11952],[18,35]],[[28511,11893],[-9,-15]],[[28529,12125],[27,-54]],[[27858,12211],[180,0]],[[27885,12115],[-27,96]],[[28204,11710],[-27,-30]],[[28087,11741],[0,18]],[[27727,11855],[-27,97]],[[27718,11987],[-85,18],[-9,145],[40,41],[99,-145]],[[27579,12211],[175,0],[135,-38],[-4,-140],[-257,122]],[[27907,11194],[14,64],[-72,-8],[13,56],[-72,-41]],[[27790,11265],[0,10]],[[27835,11359],[275,-10]],[[28110,11349],[-41,-119]],[[28069,11230],[-72,-49]],[[27997,11181],[-90,13]],[[27975,11428],[45,-46],[27,54]],[[28047,11436],[63,43]],[[28110,11479],[36,20]],[[28146,11499],[13,-7]],[[28159,11492],[0,-13]],[[28159,11479],[-4,-84]],[[28155,11395],[-45,-46]],[[27871,11403],[104,25]],[[28362,10846],[-126,33]],[[28236,10879],[-23,23]],[[28213,10902],[68,109]],[[28281,11011],[9,0]],[[28290,11011],[41,0]],[[28331,11011],[72,-109]],[[28403,10902],[-18,-16]],[[28385,10886],[-5,-53]],[[28380,10833],[-18,13]],[[28475,11059],[0,8]],[[28475,11067],[13,104]],[[28488,11171],[108,21],[0,-49]],[[28596,11143],[45,-68],[-166,-16]],[[28155,11395],[36,-15]],[[28191,11380],[-5,-82]],[[28186,11298],[-9,-63]],[[28177,11235],[-27,-87],[-27,31]],[[28123,11179],[-54,51]],[[28033,10937],[59,51]],[[28092,10988],[189,23]],[[28213,10902],[-171,-28]],[[28065,11723],[-59,-20]],[[28006,11703],[-90,73]],[[27916,11776],[50,56]],[[28461,11695],[-76,-18]],[[28385,11677],[-9,79]],[[28376,11756],[63,-13],[-50,84],[72,-25]],[[28461,11802],[0,-107]],[[28461,11647],[-9,-77]],[[28452,11570],[-67,46]],[[28385,11616],[0,61]],[[28461,11695],[0,-48]],[[28587,11665],[-126,-18]],[[28461,11802],[0,15]],[[28601,11830],[13,-71]],[[28614,11759],[-27,-94]],[[28146,11499],[22,120]],[[28168,11619],[86,-3],[45,-89]],[[28299,11527],[14,-15]],[[28313,11512],[-154,-20]],[[28358,10663],[-5,96]],[[28353,10759],[27,56]],[[28380,10815],[54,-79]],[[28434,10736],[32,-73],[-59,0],[-49,0]],[[28403,10902],[22,-3]],[[28425,10899],[-40,-13]],[[28479,11303],[-22,-22]],[[28457,11281],[-18,20]],[[28439,11301],[-23,130]],[[28416,11431],[59,-18]],[[28475,11413],[4,-110]],[[28488,11171],[-49,31],[18,79]],[[28479,11303],[117,-2]],[[28596,11301],[50,-102],[-50,-56]],[[27799,11840],[117,-64]],[[27916,11776],[-54,-15],[5,-63],[-135,28]],[[27732,11726],[27,109]],[[28250,11069],[-14,64]],[[28236,11133],[32,20]],[[28268,11153],[67,21],[9,-56]],[[28344,11118],[9,-36]],[[28353,11082],[-58,-53]],[[28295,11029],[-45,40]],[[28659,11888],[23,-53],[-68,-76]],[[28092,10988],[27,81],[131,0]],[[28295,11029],[-5,-18]],[[27804,11502],[90,2],[-36,-48]],[[28227,10665],[-14,0]],[[28213,10665],[5,94]],[[28218,10759],[27,0]],[[28245,10759],[-18,-94]],[[27997,11016],[-27,51]],[[27970,11067],[27,25]],[[27997,11092],[126,87]],[[28177,11235],[50,-66]],[[28227,11169],[9,-36]],[[28632,11522],[-45,26],[-31,-69]],[[28556,11479],[-68,-13]],[[28488,11466],[-9,41]],[[28479,11507],[-27,63]],[[28587,11665],[32,-28],[58,-13],[-45,-102]],[[28376,11756],[-23,18]],[[27993,11428],[-18,0]],[[27759,11578],[135,38],[36,-63],[18,76]],[[27948,11629],[63,-102]],[[28011,11527],[-18,-99]],[[28385,11616],[-50,15],[23,-48]],[[28358,11583],[-59,-56]],[[28168,11619],[-9,10]],[[28317,11222],[-67,-58]],[[28250,11164],[-9,10]],[[28241,11174],[-55,124]],[[28191,11380],[126,-158]],[[28227,11169],[14,5]],[[28250,11164],[18,-11]],[[28078,11499],[5,135]],[[28110,11479],[-32,20]],[[28439,11301],[-59,-51]],[[28380,11250],[-63,-28]],[[28159,11479],[131,-23],[9,-53],[41,68],[76,-40]],[[28047,11436],[-54,-8]],[[28011,11527],[67,-28]],[[27997,11181],[0,-89]],[[27970,11067],[-103,43]],[[27867,11110],[-32,48]],[[27835,11158],[72,36]],[[28245,10759],[54,33]],[[28299,10792],[36,21]],[[28335,10813],[18,-54]],[[28358,10663],[-14,0],[-117,2]],[[27948,11629],[58,74]],[[28344,11039],[-13,-28]],[[28353,11082],[-9,-43]],[[28344,11039],[81,-5]],[[28425,11034],[41,0]],[[28466,11034],[18,-54],[-86,-30],[27,-51]],[[28475,11413],[13,53]],[[28556,11479],[45,-66]],[[28601,11413],[-5,-112]],[[28213,10665],[-112,-2]],[[28092,10790],[58,33],[-4,-54],[72,-10]],[[28380,11250],[32,-97]],[[28412,11153],[-68,-35]],[[28425,11034],[-31,46],[45,23]],[[28439,11103],[36,-36]],[[28475,11059],[-9,-25]],[[28412,11153],[27,39],[0,-89]],[[28560,11082],[14,-84]],[[28574,10998],[-41,-28],[108,-117]],[[28641,10853],[0,-178]],[[28641,10675],[-157,0],[-9,79],[-41,-18]],[[28434,10736],[-54,74],[23,143],[157,129]],[[28236,10879],[63,-87]],[[28335,10813],[27,33]],[[28380,10833],[0,-18]],[[28632,11522],[-31,-109]],[[27790,11110],[77,0]],[[27700,11695],[32,31]],[[28479,11507],[-76,2]],[[28403,11509],[-45,74]],[[28313,11512],[90,-3]],[[27835,11158],[-45,97]],[[27790,11255],[0,10]],[[27786,11146],[4,109]],[[29245,11301],[-9,79]],[[29236,11380],[90,12],[-9,117]],[[29447,11184],[-153,-10]],[[29294,11174],[-49,127]],[[28776,11161],[-54,-252]],[[28722,10909],[-81,-15]],[[28641,10894],[0,79],[-67,25]],[[28560,11082],[95,-2],[-59,48],[45,43]],[[29614,10754],[-45,-35],[50,-59]],[[29619,10660],[-14,0],[-104,0]],[[29501,10660],[-85,109]],[[29416,10769],[121,31]],[[29537,10800],[0,-46],[73,15]],[[28875,10769],[-112,41]],[[28763,10810],[0,74]],[[28763,10884],[158,-23]],[[28921,10861],[-14,-25]],[[28907,10836],[-32,-67]],[[29456,11087],[-171,44]],[[29285,11131],[9,43]],[[28875,10769],[-58,-10],[0,-86]],[[28817,10673],[-50,0]],[[28767,10673],[-4,137]],[[29537,10800],[0,25]],[[29537,10825],[41,8]],[[29168,11372],[-76,-53]],[[29173,11443],[27,-38]],[[29200,11405],[-32,-33]],[[29240,10945],[-144,63],[5,64]],[[29101,11072],[139,-20]],[[29240,11052],[54,-16]],[[29294,11036],[-54,-91]],[[29231,10716],[0,-48]],[[29231,10668],[-81,2],[-13,0]],[[29137,10670],[13,61]],[[29150,10731],[81,-15]],[[29537,10825],[0,39]],[[29231,10729],[14,79]],[[29245,10808],[94,-16]],[[29339,10792],[0,-68],[-49,25]],[[29290,10749],[-59,-20]],[[29209,11344],[-54,-158]],[[29155,11186],[-50,-2]],[[29105,11184],[-54,117]],[[29168,11372],[41,-28]],[[29105,11184],[-49,-76]],[[29056,11108],[-108,-18]],[[28948,11090],[-100,74]],[[28907,10836],[45,-112],[59,68]],[[29011,10792],[13,-56]],[[29024,10736],[-22,-66]],[[29002,10670],[-45,3],[-73,0],[-67,0]],[[29236,10866],[-131,-25]],[[29105,10841],[-81,-41]],[[29024,10800],[27,61],[-94,58]],[[28957,10919],[-9,171]],[[29056,11108],[45,-36]],[[29240,10945],[45,-36],[-49,-43]],[[29150,10731],[-49,5],[4,105]],[[29236,10866],[9,-58]],[[29231,10729],[0,-13]],[[29024,10670],[0,66]],[[29011,10792],[13,8]],[[29137,10670],[-104,0],[-9,0]],[[28641,10853],[0,41]],[[28722,10909],[41,-25]],[[28767,10673],[-40,0],[-86,2]],[[29240,11052],[5,61]],[[29245,11113],[40,18]],[[29470,11026],[-135,-38],[-41,48]],[[29290,10749],[45,-84]],[[29335,10665],[-95,3],[-9,0]],[[29245,11113],[-90,73]],[[29209,11344],[36,-43]],[[29290,11520],[-36,-46]],[[29254,11474],[-54,-69]],[[29501,10660],[-18,0],[-121,5],[-27,0]],[[29339,10792],[77,-23]],[[29024,10670],[-22,0]],[[29236,11380],[18,94]],[[28957,10919],[-36,-58]],[[29718,10660],[-72,0],[-27,0]],[[30488,11837],[9,61]],[[30497,11898],[-9,49]],[[30488,11947],[54,96]],[[30542,12043],[36,6]],[[30578,12049],[13,-217],[-103,5]],[[31132,12028],[-36,36],[108,79]],[[30740,11926],[-63,-144]],[[30677,11782],[-158,-26]],[[30519,11756],[-31,81]],[[30578,12049],[72,-8]],[[30650,12041],[45,-36]],[[30695,12005],[-36,-53],[81,-26]],[[30753,12171],[-58,-31]],[[30695,12140],[-86,56]],[[30609,12196],[140,102]],[[30749,12298],[4,-127]],[[30821,12033],[-23,-5]],[[30798,12028],[27,23]],[[30825,12051],[-4,-18]],[[30888,12125],[-18,-94]],[[30870,12031],[5,-49]],[[30875,11982],[-54,51]],[[30825,12051],[-27,38]],[[30798,12089],[54,69],[36,-33]],[[30519,11756],[-103,-61]],[[30402,11779],[41,28],[-63,38]],[[30380,11845],[-23,81]],[[30357,11926],[0,6]],[[30357,11932],[18,5]],[[30375,11937],[122,-39]],[[30375,11937],[45,30]],[[30420,11967],[68,-20]],[[30132,11855],[72,3]],[[30204,11858],[13,-18]],[[30321,11794],[18,46]],[[30339,11840],[18,76]],[[30357,11916],[0,10]],[[30380,11845],[9,-58],[-68,7]],[[30925,12232],[-37,-74]],[[30888,12158],[-139,147]],[[30749,12305],[0,33]],[[30749,12338],[9,0],[139,-5]],[[30897,12333],[-36,-45],[64,-56]],[[30609,12196],[-31,-89]],[[30578,12107],[-86,79]],[[30492,12186],[81,140]],[[30573,12326],[50,2],[126,10]],[[30749,12305],[0,-7]],[[30470,12209],[40,117]],[[30510,12326],[63,0]],[[30573,12326],[-81,-138]],[[30492,12188],[-22,21]],[[30339,11840],[-36,8]],[[30303,11848],[5,91],[49,-23]],[[30992,11853],[-49,18]],[[30943,11871],[-73,-28],[18,99]],[[30888,11942],[41,33]],[[30929,11975],[54,-15]],[[30983,11960],[59,-36]],[[31015,11853],[-23,0]],[[30875,11982],[13,-40]],[[30888,11942],[-94,-79],[9,97],[-68,-26]],[[30735,11934],[-4,41]],[[30731,11975],[67,53]],[[30934,11461],[31,115],[-90,73]],[[30875,11649],[59,44]],[[30934,11693],[94,-82]],[[30961,11985],[-14,58],[-77,-12]],[[30888,12125],[0,33]],[[30925,12232],[153,-8],[-5,53],[99,-43]],[[30983,11960],[-22,25]],[[30934,11693],[-14,76],[72,84]],[[30303,11848],[-13,-11]],[[30290,11837],[-23,34]],[[30267,11871],[-45,43]],[[30231,11939],[9,69],[99,-51]],[[30339,11957],[18,-25]],[[30578,12107],[-36,-64]],[[30420,11967],[-31,38]],[[30389,12005],[-23,51],[95,23],[31,107]],[[30353,12084],[130,64]],[[30483,12148],[-22,-66],[-104,-18],[27,-49],[-58,6],[9,-67],[-27,51]],[[30267,11871],[-63,-13]],[[30339,11957],[-4,64],[54,-16]],[[30929,11975],[32,10]],[[30290,11837],[-14,-66]],[[30695,12140],[-72,-15],[27,-84]],[[30753,12171],[45,-82]],[[30731,11975],[-14,68],[-22,-38]],[[30812,11672],[-23,0]],[[30789,11672],[-22,46]],[[30767,11718],[176,153]],[[30875,11649],[-63,23]],[[30767,11453],[-14,28]],[[30753,11481],[36,186]],[[30789,11667],[23,5]],[[30740,11926],[-5,8]],[[30767,11718],[-90,64]],[[30470,12209],[-14,84],[-45,-36]],[[30353,12333],[31,-2],[90,-3],[36,-2]],[[30897,12333],[86,-7],[149,-13]],[[30789,11667],[0,5]],[[30497,11497],[4,56]],[[30501,11553],[54,-13],[23,-15],[13,-16]],[[30591,11509],[-31,-17]],[[30560,11492],[-63,5]],[[30560,11492],[-32,-153],[63,-109]],[[30456,11522],[41,-25]],[[30501,11553],[23,58],[-68,-15]],[[30753,11481],[-162,28]],[[30492,12188],[-9,-40]],[[28907,12349],[158,2]],[[27047,11156],[-4,5],[-9,18],[-5,25],[41,41],[31,-33],[-54,-56]]]}