{"type":"Topology","transform":{"scale":[0.0012831345112129487,0.0009745357309423489],"translate":[-124.73273099999999,24.60334863324381]},"objects":{"area":{"type":"GeometryCollection","geometries":[{"arcs":[[0,1,2,3,4,5,6,7,8,9,10,11,12,13,14,15,16,17]],"type":"Polygon","properties":{"state":"UT","name":"UINTA NTL FOREST","zip":"00071"}},{"arcs":[[[18,19,20,21,22,23,24,25,26,27,28]],[[29,30,31,32]]],"type":"MultiPolygon","properties":{"state":"UT","name":"WASATCH NATIONAL FOREST","zip":"00100"}},{"arcs":[[33,34,35,36]],"type":"Polygon","properties":{"state":"UT","name":"ALTAMONT","zip":"84001"}},{"arcs":[[37,38,-35]],"type":"Polygon","properties":{"state":"UT","name":"ALTONAH","zip":"84002"}},{"arcs":[[39,40,41,42,43,44,-10,45]],"type":"Polygon","properties":{"state":"UT","name":"AMERICAN FORK","zip":"84003"}},{"arcs":[[-33,46,47,48,-11,-45]],"type":"Polygon","properties":{"state":"UT","name":"ALPINE","zip":"84004"}},{"arcs":[[49,50,51,52,53,54]],"type":"Polygon","properties":{"state":"UT","name":"BINGHAM CANYON","zip":"84006"}},{"arcs":[[55,56,57,-37,58]],"type":"Polygon","properties":{"state":"UT","name":"BLUEBELL","zip":"84007"}},{"arcs":[[59,60,61,62,-25]],"type":"Polygon","properties":{"state":"UT","name":"BOUNTIFUL","zip":"84010"}},{"arcs":[[63,64,65,66,67,68,69,-55,70,71,72]],"type":"Polygon","properties":{"state":"UT","name":"CEDAR VALLEY","zip":"84013"}},{"arcs":[[73,74,75,76,-62]],"type":"Polygon","properties":{"state":"UT","name":"CENTERVILLE","zip":"84014"}},{"arcs":[[77,78,79,80,81,82]],"type":"Polygon","properties":{"state":"UT","name":"CLEARFIELD","zip":"84015"}},{"arcs":[[83,84,85,86,87,88,89,90,91,92]],"type":"Polygon","properties":{"state":"UT","name":"COALVILLE","zip":"84017"}},{"arcs":[[93,94,95,-89]],"type":"Polygon","properties":{"state":"UT","name":"CROYDON","zip":"84018"}},{"arcs":[[96,97,98,99,100,101,-30,-44]],"type":"Polygon","properties":{"state":"UT","name":"DRAPER","zip":"84020"}},{"arcs":[[102,-14,103,104,105,-56,106,107,108]],"type":"Polygon","properties":{"state":"UT","name":"DUCHESNE","zip":"84021"}},{"arcs":[[109,110,111,112,113,114]],"type":"Polygon","properties":{"state":"UT","name":"DUGWAY","zip":"84022"}},{"arcs":[[115,116,117]],"type":"Polygon","properties":{"state":"UT","name":"DUTCH JOHN","zip":"84023"}},{"arcs":[[118,119,120,121,-76,122]],"type":"Polygon","properties":{"state":"UT","name":"FARMINGTON","zip":"84025"}},{"arcs":[[123,124,125,126,127,128]],"type":"Polygon","properties":{"state":"UT","name":"FORT DUCHESNE","zip":"84026"}},{"arcs":[[129,130,131]],"type":"Polygon","properties":{"state":"UT","name":"GARDEN CITY","zip":"84028"}},{"arcs":[[132,-113,133,134]],"type":"Polygon","properties":{"state":"UT","name":"GRANTSVILLE","zip":"84029"}},{"arcs":[[135,136,137]],"type":"Polygon","properties":{"state":"UT","name":"HANNA","zip":"84031"}},{"arcs":[[138,139,-48,140,141,-85,142,143,-137,144,145,-104,-13]],"type":"Polygon","properties":{"state":"UT","name":"HEBER CITY","zip":"84032"}},{"arcs":[[146]],"type":"Polygon","properties":{"state":"UT","name":"JENSEN","zip":"84035"}},{"arcs":[[147,-92,148,149,150,-143,-84]],"type":"Polygon","properties":{"state":"UT","name":"KAMAS","zip":"84036"}},{"arcs":[[151,152,-120]],"type":"Polygon","properties":{"state":"UT","name":"KAYSVILLE","zip":"84037"}},{"arcs":[[153,154,-130,155]],"type":"Polygon","properties":{"state":"UT","name":"LAKETOWN","zip":"84038"}},{"arcs":[[156,157,158,-129]],"type":"Polygon","properties":{"state":"UT","name":"LAPOINT","zip":"84039"}},{"arcs":[[159,-121,-153,160,161,162]],"type":"Polygon","properties":{"state":"UT","name":"LAYTON","zip":"84040"}},{"arcs":[[-119,163,164,-83,165,-161,-152]],"type":"Polygon","properties":{"state":"UT","name":"LAYTON","zip":"84041"}},{"arcs":[[166,-8,167,168,-40]],"type":"Polygon","properties":{"state":"UT","name":"LINDON","zip":"84042"}},{"arcs":[[-72,169,-97,-43,170]],"type":"Polygon","properties":{"state":"UT","name":"LEHI","zip":"84043"}},{"arcs":[[[-78,-165,171]],[[172,173,-51,174,175,176,177,178,179,180]]],"type":"MultiPolygon","properties":{"state":"UT","name":"MAGNA","zip":"84044"}},{"arcs":[[181,182,-150,183,-117]],"type":"Polygon","properties":{"state":"UT","name":"MANILA","zip":"84046"}},{"arcs":[[184,185,186,187,188,189,190,191]],"type":"Polygon","properties":{"state":"UT","name":"MIDVALE","zip":"84047"}},{"arcs":[[192,-49,-140]],"type":"Polygon","properties":{"state":"UT","name":"MIDWAY","zip":"84049"}},{"arcs":[[-77,-122,-160,193,194,195,-94,-88,196,-26,-63]],"type":"Polygon","properties":{"state":"UT","name":"MORGAN","zip":"84050"}},{"arcs":[[197,198,-105,-146]],"type":"Polygon","properties":{"state":"UT","name":"MOUNTAIN HOME","zip":"84051"}},{"arcs":[[199,200,-108,201]],"type":"Polygon","properties":{"state":"UT","name":"MYTON","zip":"84052"}},{"arcs":[[202,203]],"type":"Polygon","properties":{"state":"UT","name":"NEOLA","zip":"84053"}},{"arcs":[[204,-178,205,-60,-24]],"type":"Polygon","properties":{"state":"UT","name":"NORTH SALT LAKE","zip":"84054"}},{"arcs":[[-82,206,-162,-166]],"type":"Polygon","properties":{"state":"UT","name":"HILL AFB","zip":"84056"}},{"arcs":[[207,208,209,-41,-169]],"type":"Polygon","properties":{"state":"UT","name":"OREM","zip":"84057"}},{"arcs":[[-209,210,211,212,213]],"type":"Polygon","properties":{"state":"UT","name":"OREM","zip":"84058"}},{"arcs":[[214,215,-86,-142]],"type":"Polygon","properties":{"state":"UT","name":"PARK CITY","zip":"84060"}},{"arcs":[[-93,-148]],"type":"Polygon","properties":{"state":"UT","name":"PEOA","zip":"84061"}},{"arcs":[[-46,-9,-167]],"type":"Polygon","properties":{"state":"UT","name":"PLEASANT GROVE","zip":"84062"}},{"arcs":[[216,-125]],"type":"Polygon","properties":{"state":"UT","name":"RANDLETT","zip":"84063"}},{"arcs":[[217,-154,218,219]],"type":"Polygon","properties":{"state":"UT","name":"RANDOLPH","zip":"84064"}},{"arcs":[[-71,-54,220,-98,-170]],"type":"Polygon","properties":{"state":"UT","name":"RIVERTON","zip":"84065"}},{"arcs":[[221,-127,222,-202,-107,-59,-36,-39,223,-138,-144,-151,-183,224,225,-203]],"type":"Polygon","properties":{"state":"UT","name":"ROOSEVELT","zip":"84066"}},{"arcs":[[226,-81,227,228]],"type":"Polygon","properties":{"state":"UT","name":"ROY","zip":"84067"}},{"arcs":[[229,230,-110]],"type":"Polygon","properties":{"state":"UT","name":"RUSH VALLEY","zip":"84069"}},{"arcs":[[231,-100,232,233,-186]],"type":"Polygon","properties":{"state":"UT","name":"SANDY","zip":"84070"}},{"arcs":[[-115,234,-69,235,-230]],"type":"Polygon","properties":{"state":"UT","name":"STOCKTON","zip":"84071"}},{"arcs":[[236,-198,-145,-136,-224,-38,-34,-58]],"type":"Polygon","properties":{"state":"UT","name":"TABIONA","zip":"84072"}},{"arcs":[[-237,-57,-106,-199]],"type":"Polygon","properties":{"state":"UT","name":"TALMAGE","zip":"84073"}},{"arcs":[[-235,-114,-133,237,-175,-50,-70]],"type":"Polygon","properties":{"state":"UT","name":"TOOELE","zip":"84074"}},{"arcs":[[238,239,-158]],"type":"Polygon","properties":{"state":"UT","name":"TRIDELL","zip":"84076"}},{"arcs":[[-124,-159,-240,240,-225,-182,-116,241,242,243,244,-200,-223,-126,-217],[-147]],"type":"Polygon","properties":{"state":"UT","name":"VERNAL","zip":"84078"}},{"arcs":[[245,246,-111,-231,-236,-68]],"type":"Polygon","properties":{"state":"UT","name":"VERNON","zip":"84080"}},{"arcs":[[-193,-139,-12]],"type":"Polygon","properties":{"state":"UT","name":"WALLSBURG","zip":"84082"}},{"arcs":[[247,248,249,250,251,-134,-112,-247,252]],"type":"Polygon","properties":{"state":"UT","name":"WENDOVER","zip":"84083"}},{"arcs":[[253,254,-188,255]],"type":"Polygon","properties":{"state":"UT","name":"WEST JORDAN","zip":"84084"}},{"arcs":[[-128,-222,-204,-226,-241,-239,-157]],"type":"Polygon","properties":{"state":"UT","name":"WHITEROCKS","zip":"84085"}},{"arcs":[[256,-90,-96,257,258,-220]],"type":"Polygon","properties":{"state":"UT","name":"WOODRUFF","zip":"84086"}},{"arcs":[[-206,-177,259,-74,-61]],"type":"Polygon","properties":{"state":"UT","name":"WOODS CROSS","zip":"84087"}},{"arcs":[[260,-256,-187,-234,261,-52,-174]],"type":"Polygon","properties":{"state":"UT","name":"WEST JORDAN","zip":"84088"}},{"arcs":[[262,263,264,-31,-102]],"type":"Polygon","properties":{"state":"UT","name":"SANDY","zip":"84092"}},{"arcs":[[265,-192,266,-264]],"type":"Polygon","properties":{"state":"UT","name":"SANDY","zip":"84093"}},{"arcs":[[-101,-232,-185,-266,-263]],"type":"Polygon","properties":{"state":"UT","name":"SANDY","zip":"84094"}},{"arcs":[[-262,-233,-99,-221,-53]],"type":"Polygon","properties":{"state":"UT","name":"SOUTH JORDAN","zip":"84095"}},{"arcs":[[267,-211,-208,-168,-7]],"type":"Polygon","properties":{"state":"UT","name":"OREM","zip":"84097"}},{"arcs":[[268,-27,-197,-87,-216]],"type":"Polygon","properties":{"state":"UT","name":"PARK CITY","zip":"84098"}},{"arcs":[[269,270,271,272,273]],"type":"Polygon","properties":{"state":"UT","name":"SALT LAKE CITY","zip":"84101"}},{"arcs":[[274,275,276,277,278]],"type":"Polygon","properties":{"state":"UT","name":"SALT LAKE CITY","zip":"84102"}},{"arcs":[[279,-273,280,-22,281,282,-276]],"type":"Polygon","properties":{"state":"UT","name":"SALT LAKE CITY","zip":"84103"}},{"arcs":[[283,-271,284,285,286,-180]],"type":"Polygon","properties":{"state":"UT","name":"SALT LAKE CITY","zip":"84104"}},{"arcs":[[287,288,-279,289,290]],"type":"Polygon","properties":{"state":"UT","name":"SALT LAKE CITY","zip":"84105"}},{"arcs":[[291,-291,292,293,294,295]],"type":"Polygon","properties":{"state":"UT","name":"SALT LAKE CITY","zip":"84106"}},{"arcs":[[296,-190,297,298,-296,299,300]],"type":"Polygon","properties":{"state":"UT","name":"SALT LAKE CITY","zip":"84107"}},{"arcs":[[-290,-278,301,302,-20,303,-293]],"type":"Polygon","properties":{"state":"UT","name":"SALT LAKE CITY","zip":"84108"}},{"arcs":[[-304,-19,304,-294]],"type":"Polygon","properties":{"state":"UT","name":"SALT LAKE CITY","zip":"84109"}},{"arcs":[[305,-274,-280,-275,-289]],"type":"Polygon","properties":{"state":"UT","name":"SALT LAKE CITY","zip":"84111"}},{"arcs":[[306,-302,-277,-283]],"type":"Polygon","properties":{"state":"UT","name":"SALT LAKE CITY","zip":"84112"}},{"arcs":[[-282,-21,-303,-307]],"type":"Polygon","properties":{"state":"UT","name":"SALT LAKE CITY","zip":"84113"}},{"arcs":[[307,-285,-270,-306,-288,-292,-299,308]],"type":"Polygon","properties":{"state":"UT","name":"SALT LAKE CITY","zip":"84115"}},{"arcs":[[-205,-23,-281,-272,-284,-179]],"type":"Polygon","properties":{"state":"UT","name":"SALT LAKE CITY","zip":"84116"}},{"arcs":[[309,-301,310]],"type":"Polygon","properties":{"state":"UT","name":"SALT LAKE CITY","zip":"84117"}},{"arcs":[[-261,-173,311,312,313,314,-254]],"type":"Polygon","properties":{"state":"UT","name":"SALT LAKE CITY","zip":"84118"}},{"arcs":[[315,-286,-308,316,-314]],"type":"Polygon","properties":{"state":"UT","name":"SALT LAKE CITY","zip":"84119"}},{"arcs":[[-313,317,-287,-316]],"type":"Polygon","properties":{"state":"UT","name":"SALT LAKE CITY","zip":"84120"}},{"arcs":[[-47,-32,-265,-267,-191,-297,-310,318,-28,-269,-215,-141]],"type":"Polygon","properties":{"state":"UT","name":"SALT LAKE CITY","zip":"84121"}},{"arcs":[[-315,-317,-309,-298,-189,-255]],"type":"Polygon","properties":{"state":"UT","name":"SALT LAKE CITY","zip":"84123"}},{"arcs":[[-319,-311,-300,-295,-305,-29]],"type":"Polygon","properties":{"state":"UT","name":"SALT LAKE CITY","zip":"84124"}},{"arcs":[[-181,-318,-312]],"type":"Polygon","properties":{"state":"UT","name":"SALT LAKE CITY","zip":"84128"}},{"arcs":[[319,320,321,322,323,324,325,326,327,328]],"type":"Polygon","properties":{"state":"UT","name":"BRIGHAM CITY","zip":"84302"}},{"arcs":[[329,330,331,332]],"type":"Polygon","properties":{"state":"UT","name":"CLARKSTON","zip":"84305"}},{"arcs":[[333,334,335,336,337,338,339]],"type":"Polygon","properties":{"state":"UT","name":"COLLINSTON","zip":"84306"}},{"arcs":[[340,341,342,343,344,345,-324,346,-322,347]],"type":"Polygon","properties":{"state":"UT","name":"CORINNE","zip":"84307"}},{"arcs":[[348,349,350,351,-332]],"type":"Polygon","properties":{"state":"UT","name":"CORNISH","zip":"84308"}},{"arcs":[[352,-326,353,354,-339]],"type":"Polygon","properties":{"state":"UT","name":"DEWEYVILLE","zip":"84309"}},{"arcs":[[355,356,357,358,359,360,361]],"type":"Polygon","properties":{"state":"UT","name":"EDEN","zip":"84310"}},{"arcs":[[362,363,-335]],"type":"Polygon","properties":{"state":"UT","name":"FIELDING","zip":"84311"}},{"arcs":[[364,365,-363,-334,366]],"type":"Polygon","properties":{"state":"UT","name":"GARLAND","zip":"84312"}},{"arcs":[[-251,367,368,369,-343,370]],"type":"Polygon","properties":{"state":"UT","name":"GROUSE CREEK","zip":"84313"}},{"arcs":[[371,-354,-325,-346]],"type":"Polygon","properties":{"state":"UT","name":"HONEYVILLE","zip":"84314"}},{"arcs":[[-80,372,373,374,-228]],"type":"Polygon","properties":{"state":"UT","name":"HOOPER","zip":"84315"}},{"arcs":[[375,-361,376,-258,-95,-196,377]],"type":"Polygon","properties":{"state":"UT","name":"HUNTSVILLE","zip":"84317"}},{"arcs":[[378,379,380]],"type":"Polygon","properties":{"state":"UT","name":"HYDE PARK","zip":"84318"}},{"arcs":[[381,382,383,384,385]],"type":"Polygon","properties":{"state":"UT","name":"HYRUM","zip":"84319"}},{"arcs":[[386,-351,387,388]],"type":"Polygon","properties":{"state":"UT","name":"LEWISTON","zip":"84320"}},{"arcs":[[389,-383,390,391,392,393,-381,394,395,396,-131,-155,-218,-259,-377,-360,397,398,-385]],"type":"Polygon","properties":{"state":"UT","name":"LOGAN","zip":"84321"}},{"arcs":[[399,-329,400,401,-398,-359]],"type":"Polygon","properties":{"state":"UT","name":"MANTUA","zip":"84324"}},{"arcs":[[-338,402,-392,403,-327,-353]],"type":"Polygon","properties":{"state":"UT","name":"MENDON","zip":"84325"}},{"arcs":[[404,-386,-399,-402]],"type":"Polygon","properties":{"state":"UT","name":"PARADISE","zip":"84328"}},{"arcs":[[405,406,-369]],"type":"Polygon","properties":{"state":"UT","name":"PARK VALLEY","zip":"84329"}},{"arcs":[[-336,-364,-366,407,408,-331]],"type":"Polygon","properties":{"state":"UT","name":"PLYMOUTH","zip":"84330"}},{"arcs":[[-409,409,410,-349]],"type":"Polygon","properties":{"state":"UT","name":"PORTAGE","zip":"84331"}},{"arcs":[[-390,-384]],"type":"Polygon","properties":{"state":"UT","name":"PROVIDENCE","zip":"84332"}},{"arcs":[[411,412,-389,413,-396]],"type":"Polygon","properties":{"state":"UT","name":"RICHMOND","zip":"84333"}},{"arcs":[[-330,414,-412,-395,-380,415,-393,-403,-337]],"type":"Polygon","properties":{"state":"UT","name":"SMITHFIELD","zip":"84335"}},{"arcs":[[-407,416,-410,-408,-365,417,-344,-370]],"type":"Polygon","properties":{"state":"UT","name":"SNOWVILLE","zip":"84336"}},{"arcs":[[-367,-340,-355,-372,-345,-418]],"type":"Polygon","properties":{"state":"UT","name":"TREMONTON","zip":"84337"}},{"arcs":[[-415,-333,-352,-387,-413]],"type":"Polygon","properties":{"state":"UT","name":"TRENTON","zip":"84338"}},{"arcs":[[-404,-391,-382,-405,-401,-328]],"type":"Polygon","properties":{"state":"UT","name":"WELLSVILLE","zip":"84339"}},{"arcs":[[418,419,420,-320,-400,-358]],"type":"Polygon","properties":{"state":"UT","name":"WILLARD","zip":"84340"}},{"arcs":[[-416,-379,-394]],"type":"Polygon","properties":{"state":"UT","name":"LOGAN","zip":"84341"}},{"arcs":[[421,422,-229,-375,423,-362,-376]],"type":"Polygon","properties":{"state":"UT","name":"OGDEN","zip":"84401"}},{"arcs":[[424,-422,-378,-195]],"type":"Polygon","properties":{"state":"UT","name":"OGDEN","zip":"84403"}},{"arcs":[[-374,425,-341,426,-420,427,-356,-424]],"type":"Polygon","properties":{"state":"UT","name":"OGDEN","zip":"84404"}},{"arcs":[[-227,-423,-425,-194,-163,-207]],"type":"Polygon","properties":{"state":"UT","name":"OGDEN","zip":"84405"}},{"arcs":[[-419,-357,-428]],"type":"Polygon","properties":{"state":"UT","name":"OGDEN","zip":"84414"}},{"arcs":[[428,429,430]],"type":"Polygon","properties":{"state":"UT","name":"PRICE","zip":"84501"}},{"arcs":[[431,432,433,434]],"type":"Polygon","properties":{"state":"UT","name":"ANETH","zip":"84510"}},{"arcs":[[435,436,437,438,-433]],"type":"Polygon","properties":{"state":"UT","name":"BLANDING","zip":"84511"}},{"arcs":[[439,440,-109,-201,-245,441]],"type":"Polygon","properties":{"state":"UT","name":"EAST CARBON","zip":"84520"}},{"arcs":[[442,443,444,445,446,447]],"type":"Polygon","properties":{"state":"UT","name":"FERRON","zip":"84523"}},{"arcs":[[448,449,-447,450,451,-442,-244]],"type":"Polygon","properties":{"state":"UT","name":"GREEN RIVER","zip":"84525"}},{"arcs":[[452,-430,453,454,-15,-103,-441]],"type":"Polygon","properties":{"state":"UT","name":"HELPER","zip":"84526"}},{"arcs":[[455,456,457,458,-454,-429,459,-451,-446]],"type":"Polygon","properties":{"state":"UT","name":"HUNTINGTON","zip":"84528"}},{"arcs":[[460,461,-436,-432,462]],"type":"Polygon","properties":{"state":"UT","name":"MEXICAN HAT","zip":"84531"}},{"arcs":[[463,464,465,466]],"type":"Polygon","properties":{"state":"UT","name":"MOAB","zip":"84532"}},{"arcs":[[-437,-462,467,468]],"type":"Polygon","properties":{"state":"UT","name":"LAKE POWELL","zip":"84533"}},{"arcs":[[[469,-434,-439,470,-466]],[[471,472,473]]],"type":"MultiPolygon","properties":{"state":"UT","name":"MONTICELLO","zip":"84535"}},{"arcs":[[474,-468,-461]],"type":"Polygon","properties":{"state":"UT","name":"MONUMENT VALLEY","zip":"84536"}},{"arcs":[[[-449,-243,475,-472]],[[476,-464,477]]],"type":"MultiPolygon","properties":{"state":"UT","name":"THOMPSON","zip":"84540"}},{"arcs":[[-460,-431,-453,-440,-452]],"type":"Polygon","properties":{"state":"UT","name":"WELLINGTON","zip":"84542"}},{"arcs":[[478,479,-213,480,481]],"type":"Polygon","properties":{"state":"UT","name":"PROVO","zip":"84601"}},{"arcs":[[-481,-212,-268,-6,482]],"type":"Polygon","properties":{"state":"UT","name":"PROVO","zip":"84604"}},{"arcs":[[483,-482,-483,-5,484]],"type":"Polygon","properties":{"state":"UT","name":"PROVO","zip":"84606"}},{"arcs":[[485,486,487,488]],"type":"Polygon","properties":{"state":"UT","name":"AXTELL","zip":"84621"}},{"arcs":[[489,-489,490,491]],"type":"Polygon","properties":{"state":"UT","name":"CENTERFIELD","zip":"84622"}},{"arcs":[[492,493,-248,494,495,496,497]],"type":"Polygon","properties":{"state":"UT","name":"DELTA","zip":"84624"}},{"arcs":[[498,499,-457]],"type":"Polygon","properties":{"state":"UT","name":"EPHRAIM","zip":"84627"}},{"arcs":[[-246,-67,500,-495,-253]],"type":"Polygon","properties":{"state":"UT","name":"EUREKA","zip":"84628"}},{"arcs":[[501,-16,-455,-459,502]],"type":"Polygon","properties":{"state":"UT","name":"FAIRVIEW","zip":"84629"}},{"arcs":[[503,504,505,506,507]],"type":"Polygon","properties":{"state":"UT","name":"FAYETTE","zip":"84630"}},{"arcs":[[508,509,510,511,512,513,514,515,516,-497,517,-506,518,-491,-488,519,520]],"type":"Polygon","properties":{"state":"UT","name":"FILLMORE","zip":"84631"}},{"arcs":[[521,-492,-519,-505]],"type":"Polygon","properties":{"state":"UT","name":"GUNNISON","zip":"84634"}},{"arcs":[[522,523,-493]],"type":"Polygon","properties":{"state":"UT","name":"HINCKLEY","zip":"84635"}},{"arcs":[[-490,-522,-504,524,-499,-456,-445,525,-486]],"type":"Polygon","properties":{"state":"UT","name":"MANTI","zip":"84642"}},{"arcs":[[526,-65,527]],"type":"Polygon","properties":{"state":"UT","name":"MONA","zip":"84645"}},{"arcs":[[-508,528,-503,-458,-500,-525]],"type":"Polygon","properties":{"state":"UT","name":"MOUNT PLEASANT","zip":"84647"}},{"arcs":[[-507,-518,-496,-501,-66,-527,529,-17,-502,-529]],"type":"Polygon","properties":{"state":"UT","name":"NEPHI","zip":"84648"}},{"arcs":[[530,-523,-498,-517]],"type":"Polygon","properties":{"state":"UT","name":"OASIS","zip":"84650"}},{"arcs":[[531,532,533]],"type":"Polygon","properties":{"state":"UT","name":"PAYSON","zip":"84651"}},{"arcs":[[534,-534,535,-1]],"type":"Polygon","properties":{"state":"UT","name":"SALEM","zip":"84653"}},{"arcs":[[536,-520,-487,-526,-444]],"type":"Polygon","properties":{"state":"UT","name":"SALINA","zip":"84654"}},{"arcs":[[-530,-528,-64,537,538,-532,-535,-18]],"type":"Polygon","properties":{"state":"UT","name":"SANTAQUIN","zip":"84655"}},{"arcs":[[-539,539,-479,-484,540,541,-2,-536,-533]],"type":"Polygon","properties":{"state":"UT","name":"SPANISH FORK","zip":"84660"}},{"arcs":[[542,-541,-485,-4]],"type":"Polygon","properties":{"state":"UT","name":"SPRINGVILLE","zip":"84663"}},{"arcs":[[-542,-543,-3]],"type":"Polygon","properties":{"state":"UT","name":"MAPLETON","zip":"84664"}},{"arcs":[[543,-521,-537,-443,544,545,546]],"type":"Polygon","properties":{"state":"UT","name":"RICHFIELD","zip":"84701"}},{"arcs":[[547,548,549,550,551,552,553]],"type":"Polygon","properties":{"state":"UT","name":"ALTON","zip":"84710"}},{"arcs":[[554,555,556,557]],"type":"Polygon","properties":{"state":"UT","name":"ANTIMONY","zip":"84712"}},{"arcs":[[558,559,560,-512,561,562,563,564,565]],"type":"Polygon","properties":{"state":"UT","name":"BEAVER","zip":"84713"}},{"arcs":[[566,567,568]],"type":"Polygon","properties":{"state":"UT","name":"BERYL","zip":"84714"}},{"arcs":[[569,570,571,572]],"type":"Polygon","properties":{"state":"UT","name":"BOULDER","zip":"84716"}},{"arcs":[[573,574,-554,575,-558]],"type":"Polygon","properties":{"state":"UT","name":"BRYCE CANYON","zip":"84717"}},{"arcs":[[576,577,578,-552]],"type":"Polygon","properties":{"state":"UT","name":"BRIAN HEAD","zip":"84719"}},{"arcs":[[579,580,-569,581,582,583,584,-577,-551,585,586]],"type":"Polygon","properties":{"state":"UT","name":"CEDAR CITY","zip":"84720"}},{"arcs":[[587,588,589,590,591,592,-580,593,594,595,596]],"type":"Polygon","properties":{"state":"UT","name":"CENTRAL","zip":"84722"}},{"arcs":[[597,-574,-557,598,599,600,-571]],"type":"Polygon","properties":{"state":"UT","name":"ESCALANTE","zip":"84726"}},{"arcs":[[601,602,-249,-494,-524,-531,-516,603,-514]],"type":"Polygon","properties":{"state":"UT","name":"GARRISON","zip":"84728"}},{"arcs":[[604,605,606,-549]],"type":"Polygon","properties":{"state":"UT","name":"GLENDALE","zip":"84729"}},{"arcs":[[607,-560]],"type":"Polygon","properties":{"state":"UT","name":"GREENVILLE","zip":"84731"}},{"arcs":[[608,609,610,-545,-448,-450,-474,611,612,-573]],"type":"Polygon","properties":{"state":"UT","name":"HANKSVILLE","zip":"84734"}},{"arcs":[[613,-595,614,-586,-550,-607,615,616,617,618,619],[620]],"type":"Polygon","properties":{"state":"UT","name":"HURRICANE","zip":"84737"}},{"arcs":[[621,622]],"type":"Polygon","properties":{"state":"UT","name":"IVINS","zip":"84738"}},{"arcs":[[623,-510,624]],"type":"Polygon","properties":{"state":"UT","name":"JOSEPH","zip":"84739"}},{"arcs":[[625,626,-605,-548,-575,-598,-570,-613,627,-618]],"type":"Polygon","properties":{"state":"UT","name":"KANAB","zip":"84741"}},{"arcs":[[628,629,-547,630,631,-599,-556,632,-564]],"type":"Polygon","properties":{"state":"UT","name":"KINGSTON","zip":"84743"}},{"arcs":[[-621]],"type":"Polygon","properties":{"state":"UT","name":"LA VERKIN","zip":"84745"}},{"arcs":[[633,-631,-546,-611]],"type":"Polygon","properties":{"state":"UT","name":"LOA","zip":"84747"}},{"arcs":[[634,635,-629,-563]],"type":"Polygon","properties":{"state":"UT","name":"MARYSVALE","zip":"84750"}},{"arcs":[[636,-602,-513,-561,-608,-559,637,-582,-568,638]],"type":"Polygon","properties":{"state":"UT","name":"MILFORD","zip":"84751"}},{"arcs":[[639,640]],"type":"Polygon","properties":{"state":"UT","name":"MODENA","zip":"84753"}},{"arcs":[[-630,-636,641,-625,-509,-544]],"type":"Polygon","properties":{"state":"UT","name":"MONROE","zip":"84754"}},{"arcs":[[-617,642,-626]],"type":"Polygon","properties":{"state":"UT","name":"MOUNT CARMEL","zip":"84755"}},{"arcs":[[-593,643,-640,644,-639,-567,-581]],"type":"Polygon","properties":{"state":"UT","name":"NEWCASTLE","zip":"84756"}},{"arcs":[[-587,-615,-594]],"type":"Polygon","properties":{"state":"UT","name":"NEW HARMONY","zip":"84757"}},{"arcs":[[-616,-606,-627,-643]],"type":"Polygon","properties":{"state":"UT","name":"ORDERVILLE","zip":"84758"}},{"arcs":[[645,646,647,-565,-633,-555,-576,-553,-579]],"type":"Polygon","properties":{"state":"UT","name":"PANGUITCH","zip":"84759"}},{"arcs":[[648,-583,-638,-566,-648]],"type":"Polygon","properties":{"state":"UT","name":"PARAGONAH","zip":"84760"}},{"arcs":[[649,-584,-649,-647]],"type":"Polygon","properties":{"state":"UT","name":"PAROWAN","zip":"84761"}},{"arcs":[[-562,-511,-624,-642,-635]],"type":"Polygon","properties":{"state":"UT","name":"SEVIER","zip":"84766"}},{"arcs":[[650,651,652,-591,653,654,-623,655,-597]],"type":"Polygon","properties":{"state":"UT","name":"SAINT GEORGE","zip":"84770"}},{"arcs":[[-650,-646,-578,-585]],"type":"Polygon","properties":{"state":"UT","name":"SUMMIT","zip":"84772"}},{"arcs":[[-601,656,-609,-572]],"type":"Polygon","properties":{"state":"UT","name":"TEASDALE","zip":"84773"}},{"arcs":[[-600,-632,-634,-610,-657]],"type":"Polygon","properties":{"state":"UT","name":"TORREY","zip":"84775"}},{"arcs":[[657,-651,-596,-614]],"type":"Polygon","properties":{"state":"UT","name":"WASHINGTON","zip":"84780"}},{"arcs":[[658,659,-589]],"type":"Polygon","properties":{"state":"UT","name":"PINE VALLEY","zip":"84781"}},{"arcs":[[-590,-660,660,-654]],"type":"Polygon","properties":{"state":"UT","name":"VEYO","zip":"84782"}},{"arcs":[[-661,-659,-588,-656,-622,-655]],"type":"Polygon","properties":{"state":"UT","name":"DAMMERON VALLEY","zip":"84783"}},{"arcs":[[-658,-620,661,-652]],"type":"Polygon","properties":{"state":"UT","name":"SAINT GEORGE","zip":"84790"}}]}},"arcs":[[[10209,15749],[36,63]],[[10245,15812],[5,66]],[[10250,15878],[27,69]],[[10277,15947],[-41,41]],[[10236,15988],[18,58]],[[10254,16046],[45,97],[-103,-10]],[[10196,16133],[-23,7]],[[10173,16140],[-13,20]],[[10160,16160],[-36,82]],[[10124,16242],[0,2]],[[10124,16244],[103,-2]],[[10227,16242],[212,-148]],[[10439,16094],[67,-251],[280,-148]],[[10786,15695],[27,-86]],[[10813,15609],[-302,-3]],[[10511,15606],[-311,0]],[[10200,15606],[-22,0]],[[10178,15606],[31,143]],[[10097,16506],[-5,26]],[[10092,16532],[81,101],[-104,-35]],[[10069,16598],[-18,0]],[[10051,16598],[-58,23]],[[9993,16621],[-5,23]],[[9988,16644],[18,0]],[[10006,16644],[122,38]],[[10128,16682],[77,-64]],[[10205,16618],[31,-142]],[[10236,16476],[-158,-10]],[[10078,16466],[19,40]],[[10060,16298],[9,48]],[[10069,16346],[50,38]],[[10119,16384],[113,0]],[[10232,16384],[-172,-86]],[[11087,16143],[-4,132]],[[11083,16275],[76,-43]],[[11159,16232],[14,-23]],[[11173,16209],[-86,-66]],[[11083,16275],[-5,10]],[[11078,16285],[63,43],[18,-96]],[[10110,16163],[0,-23]],[[10110,16140],[-4,-7]],[[10106,16133],[-68,35]],[[10038,16168],[27,74],[-77,20]],[[9988,16262],[72,36]],[[10060,16298],[64,-54]],[[10124,16242],[-14,-79]],[[10232,16384],[9,8]],[[10241,16392],[18,-46]],[[10259,16346],[-32,-104]],[[9790,16277],[-4,123]],[[9786,16400],[76,2]],[[9862,16402],[14,-30]],[[9876,16372],[-9,-21]],[[9867,16351],[-36,-86]],[[9831,16265],[-41,12]],[[11344,16140],[-162,-86]],[[11182,16054],[-86,68]],[[11096,16122],[-9,21]],[[11173,16209],[171,-69]],[[10006,16644],[-4,38]],[[10002,16682],[4,48]],[[10006,16730],[77,23]],[[10083,16753],[45,-71]],[[10015,15830],[36,-104]],[[10051,15726],[-99,-105]],[[9952,15621],[-99,-45]],[[9853,15576],[27,117],[-99,117]],[[9781,15810],[5,226]],[[9786,16036],[-27,206]],[[9759,16242],[31,35]],[[9831,16265],[148,-21]],[[9979,16244],[-90,-137],[108,36]],[[9997,16143],[18,-313]],[[10006,16730],[-49,8]],[[9957,16738],[13,53]],[[9970,16791],[99,-8]],[[10069,16783],[14,-30]],[[9822,16916],[4,2]],[[9826,16918],[-49,64]],[[9777,16982],[81,0]],[[9858,16982],[45,0]],[[9903,16982],[31,-51]],[[9934,16931],[-40,-28],[-68,13],[-4,0]],[[10421,16555],[-54,-54]],[[10367,16501],[-5,-10]],[[10362,16491],[-18,10]],[[10344,16501],[-31,155]],[[10313,16656],[-72,138],[49,86]],[[10290,16880],[207,94]],[[10497,16974],[171,110]],[[10668,17084],[0,-260],[136,-2]],[[10804,16822],[-45,-166],[-248,-25]],[[10511,16631],[-126,-13],[36,-63]],[[10290,16880],[0,181]],[[10290,17061],[86,134]],[[10376,17195],[126,-73],[-5,-148]],[[9988,16262],[-4,-10]],[[9984,16252],[4,99]],[[9988,16351],[14,5]],[[10002,16356],[22,0]],[[10024,16356],[14,-15]],[[10038,16341],[31,5]],[[11218,15601],[-405,8]],[[10786,15695],[0,237]],[[10786,15932],[310,45]],[[11096,15977],[86,77]],[[11344,16140],[86,-86]],[[11430,16054],[-55,-143],[59,3],[0,-313]],[[11434,15601],[-216,0]],[[9493,16155],[-149,-15],[140,-224]],[[9484,15916],[81,-216]],[[9565,15700],[-968,3],[0,430],[338,17],[103,366],[162,120],[221,-71]],[[9421,16565],[5,-5]],[[9426,16560],[58,-328]],[[9484,16232],[9,-77]],[[12222,16471],[-85,30],[-36,178],[-208,-107]],[[11893,16572],[50,191],[-126,61]],[[11817,16824],[9,0],[396,3],[0,-356]],[[9916,16809],[0,10]],[[9916,16819],[86,38]],[[10002,16857],[49,5]],[[10051,16862],[18,-79]],[[9970,16791],[-54,18]],[[11632,16183],[54,-129]],[[11686,16054],[-36,-21]],[[11650,16033],[-85,26]],[[11565,16059],[-32,104]],[[11533,16163],[59,8]],[[11592,16171],[40,12]],[[10421,17704],[-77,-46]],[[10344,17658],[-36,194]],[[10308,17852],[77,0],[36,-148]],[[9597,16496],[40,-114],[-108,2],[-103,176]],[[9421,16565],[0,5]],[[9421,16570],[99,-43],[9,231],[68,-262]],[[10916,16285],[-130,-58]],[[10786,16227],[-9,58]],[[10777,16285],[139,0]],[[10439,16094],[-72,181],[-77,-59],[32,74]],[[10322,16290],[-63,56]],[[10241,16392],[31,33]],[[10272,16425],[90,66]],[[10367,16501],[265,-163],[149,158]],[[10781,16496],[-4,-211]],[[10786,16227],[-5,-105]],[[10781,16122],[5,-190]],[[11943,16110],[-45,99],[221,7],[-176,-106]],[[10421,16555],[63,-31],[27,107]],[[10804,16822],[220,0],[324,0],[27,0],[68,2],[41,-2]],[[11484,16822],[0,-189]],[[11484,16633],[-703,-137]],[[9916,16819],[54,61]],[[9970,16880],[32,-23]],[[10668,17613],[-297,-92]],[[10371,17521],[-27,137]],[[10421,17704],[76,148],[5,0],[166,0],[0,-239]],[[11592,16171],[13,51]],[[11605,16222],[50,-8]],[[11655,16214],[-23,-31]],[[10038,16936],[13,-74]],[[9970,16880],[-9,64]],[[9961,16944],[23,0]],[[9984,16944],[54,-8]],[[9916,16809],[-90,107]],[[9826,16916],[-4,0]],[[9934,16931],[27,13]],[[10110,16163],[50,-3]],[[10173,16140],[-4,0]],[[10169,16140],[-59,0]],[[9979,16244],[5,8]],[[10038,16168],[-41,-25]],[[9826,16916],[-81,-23],[81,25]],[[9876,16499],[4,-74]],[[9880,16425],[-18,-23]],[[9786,16400],[-41,142]],[[9745,16542],[203,142]],[[9948,16684],[4,-2]],[[9952,16682],[9,-21]],[[9961,16661],[-58,-71]],[[9903,16590],[0,-46]],[[9903,16544],[-27,-45]],[[11893,16572],[-391,59]],[[11502,16631],[-18,2]],[[11484,16822],[333,2]],[[10038,16425],[-14,0]],[[10024,16425],[-31,-13]],[[9993,16412],[-9,13]],[[9984,16425],[0,20]],[[9984,16445],[13,-2]],[[9997,16443],[32,2]],[[10029,16445],[9,-15]],[[10038,16430],[0,-5]],[[10322,16290],[-95,-48]],[[10038,16936],[-5,33]],[[10033,16969],[-9,48]],[[10024,17017],[266,44]],[[10313,16656],[-108,-38]],[[10781,16122],[158,-30]],[[10939,16092],[-27,-82],[184,-33]],[[11502,16051],[4,-453]],[[11506,15598],[-72,3]],[[11430,16054],[72,-3]],[[11502,16227],[-145,15],[-45,180],[190,-61]],[[11502,16361],[0,-134]],[[9988,16644],[-27,17]],[[9952,16682],[50,0]],[[9903,16982],[81,-38]],[[10169,16140],[0,-35]],[[10169,16105],[-59,7]],[[10110,16112],[-4,21]],[[10169,16105],[4,-39]],[[10173,16066],[-18,0]],[[10155,16066],[-27,-20]],[[10128,16046],[-18,66]],[[10272,16425],[-13,15]],[[10259,16440],[85,61]],[[11686,16054],[9,-97],[-45,76]],[[10353,17371],[18,150]],[[10668,17613],[0,-194],[0,-33]],[[10668,17386],[-315,-15]],[[9867,16351],[121,0]],[[11502,16227],[31,-64]],[[11565,16059],[-63,-8]],[[11078,16285],[-162,0]],[[11502,16631],[-5,-168]],[[11497,16463],[5,-102]],[[9921,17035],[-18,-53]],[[9858,16982],[27,53]],[[9885,17035],[36,0]],[[9493,16155],[99,-30],[-103,-163]],[[9489,15962],[-5,-46]],[[10024,16425],[0,-69]],[[10002,16356],[-9,46]],[[9993,16402],[0,10]],[[9484,16232],[275,10]],[[9786,16036],[-81,-191],[-216,117]],[[11096,16122],[-157,-30]],[[9597,16496],[148,46]],[[11605,16222],[9,129]],[[11614,16351],[81,-40],[-40,-97]],[[11614,16351],[-117,112]],[[12222,16471],[0,-117],[0,-326],[0,-577],[0,-168]],[[12222,15283],[-761,-35]],[[11461,15248],[0,5]],[[11461,15253],[32,279],[81,39],[-68,27]],[[9781,15810],[-130,-110]],[[9651,15700],[-86,0]],[[9435,15339],[-433,0]],[[9002,15339],[-675,-10]],[[8327,15329],[0,590],[4,905]],[[8331,16824],[932,0]],[[9263,16824],[158,-254]],[[9651,15700],[-216,-361]],[[9903,16425],[67,28]],[[9970,16453],[14,-8]],[[9984,16425],[-81,0]],[[10668,17386],[0,-302]],[[10376,17195],[-72,64]],[[10304,17259],[49,112]],[[9948,16684],[9,54]],[[9880,16425],[23,0]],[[9993,16402],[-117,-30]],[[10038,16341],[0,53]],[[10038,16394],[45,11]],[[10083,16405],[36,-21]],[[10038,16394],[0,31]],[[10038,16430],[45,-25]],[[10196,16133],[-23,-67]],[[10259,16440],[-23,36]],[[10006,16560],[-13,0]],[[9993,16560],[0,28]],[[9993,16588],[4,2]],[[9997,16590],[9,-2]],[[10006,16588],[0,-28]],[[10020,16567],[0,21]],[[10020,16588],[22,0]],[[10042,16588],[-4,-10]],[[10038,16578],[0,-8]],[[10038,16570],[-18,-3]],[[10020,16588],[-14,0]],[[9997,16590],[-4,31]],[[10051,16598],[-4,-5]],[[10047,16593],[-5,-5]],[[9903,16590],[90,-2]],[[9993,16560],[0,-16]],[[9993,16544],[-54,0]],[[9939,16544],[-36,0]],[[10020,16544],[0,16]],[[10020,16560],[0,7]],[[10038,16570],[9,-26]],[[10047,16544],[-27,0]],[[10020,16504],[0,40]],[[10047,16544],[4,0]],[[10051,16544],[0,-40]],[[10051,16504],[-22,0]],[[10029,16504],[-9,0]],[[10029,16466],[0,-21]],[[9997,16443],[0,61]],[[9997,16504],[23,0]],[[10029,16504],[0,-13]],[[10029,16491],[0,-25]],[[10038,16578],[13,-3]],[[10051,16575],[18,23]],[[10092,16532],[-41,12]],[[10097,16506],[-46,-2]],[[10020,16560],[-14,0]],[[10047,16593],[4,-18]],[[9993,16504],[0,40]],[[9997,16504],[-4,0]],[[10074,16463],[-45,3]],[[10029,16491],[45,-28]],[[9876,16499],[27,-13]],[[9903,16486],[40,-3]],[[9943,16483],[27,0]],[[9970,16483],[0,-30]],[[9943,16483],[-4,61]],[[9993,16504],[-23,-21]],[[9903,16486],[0,58]],[[10074,16463],[4,3]],[[9907,17292],[-36,-33]],[[9871,17259],[-193,-30]],[[9678,17229],[67,91]],[[9745,17320],[-49,-51],[121,69]],[[9817,17338],[32,86]],[[9849,17424],[31,79]],[[9880,17503],[32,-2]],[[9912,17501],[0,-21]],[[9912,17480],[18,-86]],[[9930,17394],[-23,-102]],[[9957,17768],[-72,-69]],[[9885,17699],[-23,48]],[[9862,17747],[81,51]],[[9943,17798],[14,-30]],[[9826,17597],[9,41]],[[9835,17638],[18,46]],[[9853,17684],[32,15]],[[9885,17699],[22,-74]],[[9907,17625],[-9,-23]],[[9898,17602],[-72,-10]],[[9826,17592],[0,5]],[[9660,17066],[0,-3]],[[9660,17063],[-122,-12],[-40,221],[-122,23],[-108,246]],[[9268,17541],[-14,8]],[[9254,17549],[415,-102]],[[9669,17447],[139,-28]],[[9808,17419],[41,5]],[[9817,17338],[-72,-18]],[[9678,17229],[-68,38],[45,53],[-63,-41],[68,-213]],[[9862,17747],[-67,99]],[[9795,17846],[45,3],[126,0]],[[9966,17849],[0,-41]],[[9966,17808],[-23,-10]],[[9898,17602],[14,-101]],[[9880,17503],[-27,8]],[[9853,17511],[-27,81]],[[9979,17068],[0,36]],[[9979,17104],[-27,94]],[[9952,17198],[0,66]],[[9952,17264],[59,0]],[[10011,17264],[81,-48]],[[10092,17216],[27,-84],[-140,-66]],[[9979,17066],[0,2]],[[9835,17638],[-36,66]],[[9799,17704],[54,-20]],[[9723,17590],[67,117]],[[9790,17707],[9,-3]],[[9826,17597],[-103,-7]],[[8331,16824],[0,1020],[216,-3],[90,0]],[[8637,17841],[-81,-99],[190,-129],[-41,-153],[270,56],[-54,-280],[122,-119],[63,117],[-45,356]],[[9061,17590],[193,-41]],[[9268,17541],[-144,-61],[-41,-140],[36,-223],[171,-100],[-27,-193]],[[9808,17419],[45,92]],[[9777,16982],[-41,66]],[[9736,17048],[90,18]],[[9826,17066],[59,-31]],[[9984,17053],[-5,13]],[[10092,17216],[212,43]],[[10024,17017],[-40,36]],[[10106,17640],[-55,6]],[[10051,17646],[55,20]],[[10106,17666],[0,-26]],[[10011,17419],[40,74]],[[10051,17493],[27,-25]],[[10078,17468],[5,-3]],[[10083,17465],[0,-46]],[[10083,17419],[-72,0]],[[9997,17770],[-31,38]],[[9966,17849],[9,0],[45,0],[72,3]],[[10092,17852],[-95,-82]],[[10083,17465],[-18,102],[13,-99]],[[10051,17493],[-76,43]],[[9975,17536],[-14,54]],[[9961,17590],[81,43]],[[10042,17633],[27,-43],[5,0],[32,50]],[[10106,17666],[4,51]],[[10110,17717],[18,135]],[[10128,17852],[180,0]],[[10011,17264],[4,69]],[[10015,17333],[68,86]],[[9952,17264],[-45,28]],[[9930,17394],[31,-3]],[[9961,17391],[54,-58]],[[9907,17625],[54,-35]],[[9975,17536],[-63,-56]],[[9961,17391],[50,28]],[[8637,17841],[505,8],[18,0]],[[9160,17849],[-81,-46],[-18,-213]],[[9790,17707],[-45,86]],[[9745,17793],[117,-46]],[[9745,17793],[-13,59]],[[9732,17852],[63,-6]],[[10110,17717],[-117,28]],[[9993,17745],[4,25]],[[10092,17852],[36,0]],[[9957,17768],[36,-23]],[[10051,17646],[-9,-13]],[[9160,17849],[572,3]],[[9723,17590],[-108,71],[-27,-160],[81,-54]],[[9952,17198],[-49,-28]],[[9903,17170],[-221,-74]],[[9682,17096],[189,163]],[[9984,17053],[-36,-23]],[[9948,17030],[-27,5]],[[9826,17066],[153,2]],[[10033,16969],[-85,61]],[[9736,17048],[-76,15]],[[9660,17066],[22,30]],[[9903,17170],[76,-66]],[[10921,15255],[-302,74]],[[10619,15329],[243,140],[81,-97]],[[10943,15372],[-67,-7],[45,-110]],[[11709,12720],[-5,206]],[[11704,12926],[297,68],[-90,105],[36,81],[149,-15]],[[12096,13165],[131,-74]],[[12227,13091],[0,-33],[0,-91],[0,-247],[-509,0],[-9,0]],[[11704,12926],[-139,-54],[-145,100]],[[11420,12972],[104,73],[54,242],[-230,94],[-157,252]],[[11191,13633],[139,-5],[316,422]],[[11646,14050],[171,-216],[-63,-168],[310,-333],[32,-168]],[[11011,15255],[-32,127]],[[10979,15382],[36,145],[203,74]],[[11461,15253],[-450,2]],[[10466,14271],[4,285]],[[10470,14556],[0,249]],[[10470,14805],[0,186]],[[10470,14991],[379,-130]],[[10849,14861],[-235,-308],[217,-295]],[[10831,14258],[-365,13]],[[11461,15248],[-113,-613],[113,-377]],[[11461,14258],[-630,0]],[[10849,14861],[378,150],[-248,244]],[[10979,15255],[32,0]],[[10979,15382],[-36,-10]],[[10619,15329],[-108,168]],[[10511,15497],[0,109]],[[10470,14991],[-4,86]],[[10466,15077],[0,97]],[[10466,15174],[45,185]],[[10511,15359],[0,138]],[[10921,15255],[58,0]],[[11344,12720],[40,107],[-130,185]],[[11254,13012],[166,-40]],[[11709,12720],[-225,0],[-140,0]],[[12146,14787],[76,8]],[[12222,14795],[-9,-537]],[[12213,14258],[-459,0]],[[11754,14258],[392,529]],[[11254,13012],[-464,-104]],[[10790,12908],[18,170],[104,-63],[-14,114],[86,21],[-77,40],[135,5],[-76,44],[193,213],[-45,79],[77,102]],[[12213,14258],[14,-356],[0,-277],[0,-407],[0,-127]],[[11646,14050],[108,208]],[[11461,14258],[293,0]],[[11754,14258],[-185,-318]],[[11569,13940],[-108,318]],[[11344,12720],[-225,0],[-221,5],[-306,-3],[-18,97],[139,-23],[77,112]],[[12222,15283],[0,-135],[0,-254],[-468,-636]],[[12222,14892],[0,-97]],[[12146,14787],[76,105]],[[10191,16008],[-4,-3]],[[10187,16005],[-59,41]],[[10155,16066],[36,-15]],[[10191,16051],[0,-43]],[[10254,16046],[-54,5],[-4,0],[-5,0]],[[10200,15993],[-9,15]],[[10236,15988],[-36,5]],[[10083,14851],[-5,-43]],[[10078,14808],[-166,12]],[[9912,14820],[0,89]],[[9912,14909],[171,-58]],[[10110,14907],[-27,-56]],[[9912,14909],[0,26]],[[9912,14935],[198,-28]],[[9417,15070],[-109,142]],[[9308,15212],[-306,127]],[[9435,15339],[211,3]],[[9646,15342],[126,-18],[27,-214]],[[9799,15110],[-18,-117],[-175,-12]],[[9606,14981],[-189,89]],[[10466,15077],[-257,74]],[[10209,15151],[257,23]],[[9853,15576],[-207,-234]],[[10146,15334],[-4,153],[103,48],[-45,71]],[[10511,15359],[-365,-25]],[[10200,15148],[-49,-147]],[[10151,15001],[-239,18]],[[9912,15019],[0,76]],[[9912,15095],[207,132]],[[10119,15227],[81,-79]],[[9754,14518],[-58,-69]],[[9696,14449],[-14,-8]],[[9682,14441],[-162,-106]],[[9520,14335],[-185,0]],[[9335,14335],[-283,2]],[[9052,14337],[-41,160]],[[9011,14497],[131,367]],[[9142,14864],[40,68]],[[9182,14932],[424,49]],[[9799,15110],[113,-15]],[[9912,15019],[0,-84]],[[9912,14820],[-90,-114]],[[9822,14706],[-68,-188]],[[10151,15001],[-41,-94]],[[9417,15070],[-100,20]],[[9317,15090],[-94,30],[85,92]],[[10200,15148],[9,3]],[[10470,14805],[-392,3]],[[10106,15604],[-154,17]],[[10051,15726],[55,-122]],[[10119,15227],[27,107]],[[10106,15604],[72,2]],[[9182,14932],[135,158]],[[10160,15789],[-82,97]],[[10078,15886],[91,-31]],[[10169,15855],[-9,-66]],[[10209,15749],[-49,40]],[[10169,15855],[76,-43]],[[10470,14556],[-648,150]],[[10015,15830],[54,117]],[[10069,15947],[9,-61]],[[10069,15947],[118,58]],[[10200,15993],[32,-51]],[[10232,15942],[18,-64]],[[10277,15947],[-45,-5]],[[9988,14261],[-18,219],[-216,38]],[[10466,14271],[-203,0]],[[10263,14271],[-157,-10]],[[10106,14261],[-118,0]],[[9615,13277],[-27,-132]],[[9588,13145],[-365,-44]],[[9223,13101],[0,133]],[[9223,13234],[90,43]],[[9313,13277],[76,0]],[[9389,13277],[217,0]],[[9606,13277],[9,0]],[[9664,13485],[-9,333],[131,82]],[[9786,13900],[189,2]],[[9975,13902],[-59,-363]],[[9916,13539],[-252,-54]],[[9326,13900],[18,91]],[[9344,13991],[73,36],[-113,30]],[[9304,14057],[31,278]],[[9520,14335],[0,-66]],[[9520,14269],[140,-189]],[[9660,14080],[-81,-180]],[[9579,13900],[-27,-3]],[[9552,13897],[-226,3]],[[8755,13704],[-73,-287],[-180,56],[140,427]],[[8642,13900],[135,0]],[[8777,13900],[-72,-94],[50,-102]],[[10817,13277],[-176,-3]],[[10641,13274],[-477,473],[68,153]],[[10232,13900],[297,2]],[[10529,13902],[288,-625]],[[9916,13539],[-54,-120],[185,-25],[9,-120]],[[10056,13274],[-441,3]],[[9606,13277],[58,208]],[[9313,13277],[-113,155]],[[9200,13432],[189,2]],[[9389,13434],[0,-157]],[[8890,13264],[-149,10],[-5,82]],[[8736,13356],[217,137],[-198,211]],[[8777,13900],[396,0]],[[9173,13900],[-54,-229]],[[9119,13671],[54,-137]],[[9173,13534],[27,-102]],[[9223,13234],[-275,-18]],[[8948,13216],[-58,48]],[[8700,12954],[-13,58]],[[8687,13012],[99,-53],[59,198],[-172,-7]],[[8673,13150],[-90,-46]],[[8583,13104],[-261,163]],[[8322,13267],[0,73]],[[8322,13340],[414,16]],[[8890,13264],[9,-64]],[[8899,13200],[0,-185],[-99,-61]],[[8800,12954],[-68,0]],[[8732,12954],[-32,0]],[[10641,13274],[-585,0]],[[9975,13902],[72,0]],[[10047,13902],[149,0]],[[10196,13902],[36,-2]],[[9052,14337],[-725,-2]],[[8327,14335],[0,106],[0,875],[0,13]],[[9142,14864],[-153,-11],[22,-356]],[[9588,13145],[45,-95],[-135,-66]],[[9498,12984],[-100,97],[-13,-79],[-162,43]],[[9223,13045],[0,56]],[[9344,13991],[-40,66]],[[10529,13902],[-18,133],[-162,30]],[[10349,14065],[-86,46]],[[10263,14111],[0,160]],[[11569,13940],[-252,-302],[-180,0],[-45,-239],[-149,-84],[32,-92],[-104,51]],[[10871,13274],[-54,3]],[[8804,12842],[-4,112]],[[8899,13200],[49,16]],[[9223,13045],[-5,-96]],[[9218,12949],[5,-41]],[[9223,12908],[0,-188]],[[9223,12720],[-342,0],[-104,0]],[[8777,12720],[27,122]],[[8935,12916],[-32,78],[-31,-73],[63,-5]],[[8588,12933],[54,-20]],[[8642,12913],[0,-33],[-18,-20],[-36,73]],[[9723,14345],[-41,96]],[[9696,14449],[72,-48],[-45,-56]],[[9223,12908],[166,33]],[[9389,12941],[100,-74],[9,117]],[[10871,13274],[45,-173],[-117,-23],[-63,-223],[-140,-33],[-45,89],[-18,-120],[-58,145],[31,-168],[-274,-2],[81,-44],[-415,0],[-396,0],[-279,-2]],[[9660,14080],[193,41],[86,140]],[[9939,14261],[49,0]],[[10106,14261],[-64,-209]],[[10042,14052],[5,-150]],[[9786,13900],[-207,0]],[[10263,14111],[-221,-59]],[[9520,14269],[203,2]],[[9723,14271],[216,-10]],[[8327,13900],[0,435]],[[9326,13900],[-153,0]],[[8642,13900],[-315,0]],[[8322,13462],[126,97],[-126,-107]],[[8322,13452],[0,10]],[[9723,14271],[0,74]],[[9218,12949],[171,-8]],[[8322,13340],[0,112]],[[8322,13462],[5,438]],[[9389,13434],[-4,33]],[[9385,13467],[86,135]],[[9471,13602],[85,33],[-4,262]],[[9471,13602],[-352,69]],[[9385,13467],[-108,115],[-104,-48]],[[8732,12954],[-5,-104]],[[8727,12850],[-112,-130]],[[8615,12720],[-288,0],[-5,547]],[[8583,13104],[-36,-94]],[[8547,13010],[41,-77]],[[8642,12913],[58,41]],[[10196,13902],[153,163]],[[8804,12842],[-77,8]],[[8687,13012],[-14,33]],[[8673,13045],[0,105]],[[8673,13045],[-126,-35]],[[8777,12720],[-162,0]]]}