{"type":"Topology","transform":{"scale":[0.0012831345112129487,0.0009745357309423489],"translate":[-124.73273099999999,24.60334863324381]},"objects":{"area":{"type":"GeometryCollection","geometries":[{"arcs":[[0,1,2]],"type":"Polygon","properties":{"state":"VA","name":"WASHINGTON","zip":"20041"}},{"arcs":[[3,4,5,6,7,8,9,10]],"type":"Polygon","properties":{"state":"VA","name":"ALDIE","zip":"20105"}},{"arcs":[[11,12,13,14,15,16,17,18,19,20]],"type":"Polygon","properties":{"state":"VA","name":"AMISSVILLE","zip":"20106"}},{"arcs":[[21,22,-9]],"type":"Polygon","properties":{"state":"VA","name":"ARCOLA","zip":"20107"}},{"arcs":[[23,24,25,26,27,28,29,30]],"type":"Polygon","properties":{"state":"VA","name":"MANASSAS","zip":"20109"}},{"arcs":[[31,32,-25,33]],"type":"Polygon","properties":{"state":"VA","name":"MANASSAS","zip":"20110"}},{"arcs":[[-24,34,35,36,-34]],"type":"Polygon","properties":{"state":"VA","name":"MANASSAS","zip":"20111"}},{"arcs":[[37,38,39,-32,-37,40,41,42,43]],"type":"Polygon","properties":{"state":"VA","name":"MANASSAS","zip":"20112"}},{"arcs":[[44,45,46,47,48,49,-20]],"type":"Polygon","properties":{"state":"VA","name":"MARSHALL","zip":"20115"}},{"arcs":[[50,51,52,53,-6,54,-48]],"type":"Polygon","properties":{"state":"VA","name":"MIDDLEBURG","zip":"20117"}},{"arcs":[[55,56,57,58,59]],"type":"Polygon","properties":{"state":"VA","name":"CATLETT","zip":"20119"}},{"arcs":[[60,61,-30,62,63,64]],"type":"Polygon","properties":{"state":"VA","name":"CENTREVILLE","zip":"20120"}},{"arcs":[[65,-35,-31,-62]],"type":"Polygon","properties":{"state":"VA","name":"CENTREVILLE","zip":"20121"}},{"arcs":[[66,67,-41,-36,-66,-61,68]],"type":"Polygon","properties":{"state":"VA","name":"CLIFTON","zip":"20124"}},{"arcs":[[69,70,71,72]],"type":"Polygon","properties":{"state":"VA","name":"PAEONIAN SPRINGS","zip":"20129"}},{"arcs":[[73,74,75]],"type":"Polygon","properties":{"state":"VA","name":"PARIS","zip":"20130"}},{"arcs":[[76,77,78,79,80,81,-53]],"type":"Polygon","properties":{"state":"VA","name":"PURCELLVILLE","zip":"20132"}},{"arcs":[[82,83,84,85]],"type":"Polygon","properties":{"state":"VA","name":"BLUEMONT","zip":"20135"}},{"arcs":[[86,87,-26,-33,-40]],"type":"Polygon","properties":{"state":"VA","name":"BRISTOW","zip":"20136"}},{"arcs":[[88,89,90,91]],"type":"Polygon","properties":{"state":"VA","name":"BROAD RUN","zip":"20137"}},{"arcs":[[92,-83,93,-77,-52]],"type":"Polygon","properties":{"state":"VA","name":"ROUND HILL","zip":"20141"}},{"arcs":[[94,95,-11,96,-28]],"type":"Polygon","properties":{"state":"VA","name":"CATHARPIN","zip":"20143"}},{"arcs":[[97,98,99,-74,100,-46,101]],"type":"Polygon","properties":{"state":"VA","name":"DELAPLANE","zip":"20144"}},{"arcs":[[102,103,104,105]],"type":"Polygon","properties":{"state":"VA","name":"ASHBURN","zip":"20147"}},{"arcs":[[106,-22,-8,107,-104]],"type":"Polygon","properties":{"state":"VA","name":"ASHBURN","zip":"20148"}},{"arcs":[[108,-1,109,110,-64]],"type":"Polygon","properties":{"state":"VA","name":"CHANTILLY","zip":"20151"}},{"arcs":[[-10,111,-109,-63,-29,-97]],"type":"Polygon","properties":{"state":"VA","name":"CHANTILLY","zip":"20152"}},{"arcs":[[112,113,-89,114,-95,-27,-88]],"type":"Polygon","properties":{"state":"VA","name":"GAINESVILLE","zip":"20155"}},{"arcs":[[115,-70,116,-81]],"type":"Polygon","properties":{"state":"VA","name":"HAMILTON","zip":"20158"}},{"arcs":[[117,118,119,120]],"type":"Polygon","properties":{"state":"VA","name":"STERLING","zip":"20164"}},{"arcs":[[121,122,123,124,-120]],"type":"Polygon","properties":{"state":"VA","name":"STERLING","zip":"20165"}},{"arcs":[[-23,-107,-103,-122,-119,125,-2,-112]],"type":"Polygon","properties":{"state":"VA","name":"STERLING","zip":"20166"}},{"arcs":[[126,-4,-96,-115,-92]],"type":"Polygon","properties":{"state":"VA","name":"HAYMARKET","zip":"20169"}},{"arcs":[[127,-126,-118,128,129,130,131]],"type":"Polygon","properties":{"state":"VA","name":"HERNDON","zip":"20170"}},{"arcs":[[-3,-128,132,133,134,-110]],"type":"Polygon","properties":{"state":"VA","name":"HERNDON","zip":"20171"}},{"arcs":[[-82,-117,-73,135,-105,-108,-7,-54]],"type":"Polygon","properties":{"state":"VA","name":"LEESBURG","zip":"20175"}},{"arcs":[[-123,-106,-136,-72,136,137,138]],"type":"Polygon","properties":{"state":"VA","name":"LEESBURG","zip":"20176"}},{"arcs":[[-138,139,-79,140]],"type":"Polygon","properties":{"state":"VA","name":"LOVETTSVILLE","zip":"20180"}},{"arcs":[[141,-58,142,-113,-87,-39]],"type":"Polygon","properties":{"state":"VA","name":"NOKESVILLE","zip":"20181"}},{"arcs":[[-47,-101,-76,143,-84,-93,-51]],"type":"Polygon","properties":{"state":"VA","name":"UPPERVILLE","zip":"20184"}},{"arcs":[[144,-21,-50,145,146,147,148]],"type":"Polygon","properties":{"state":"VA","name":"WARRENTON","zip":"20186"}},{"arcs":[[149,-90,-114,-143,-57,150,151,-147]],"type":"Polygon","properties":{"state":"VA","name":"WARRENTON","zip":"20187"}},{"arcs":[[152,153,-131,154]],"type":"Polygon","properties":{"state":"VA","name":"RESTON","zip":"20190"}},{"arcs":[[155,156,-133,-132,-154,157]],"type":"Polygon","properties":{"state":"VA","name":"RESTON","zip":"20191"}},{"arcs":[[158,159,-155,-130]],"type":"Polygon","properties":{"state":"VA","name":"RESTON","zip":"20194"}},{"arcs":[[-116,-80,-140,-137,-71]],"type":"Polygon","properties":{"state":"VA","name":"WATERFORD","zip":"20197"}},{"arcs":[[-49,-55,-5,-127,-91,-150,-146]],"type":"Polygon","properties":{"state":"VA","name":"THE PLAINS","zip":"20198"}},{"arcs":[[160,161,162,163,164,165,166]],"type":"Polygon","properties":{"state":"VA","name":"ANNANDALE","zip":"22003"}},{"arcs":[[167,168,169,170,-167,171]],"type":"Polygon","properties":{"state":"VA","name":"BURKE","zip":"22015"}},{"arcs":[[172,-44,173,174,175,176]],"type":"Polygon","properties":{"state":"VA","name":"DUMFRIES","zip":"22026"}},{"arcs":[[177,178,179]],"type":"Polygon","properties":{"state":"VA","name":"DUNN LORING","zip":"22027"}},{"arcs":[[180,181,-69,-65,182,183,184]],"type":"Polygon","properties":{"state":"VA","name":"FAIRFAX","zip":"22030"}},{"arcs":[[185,186,187,188,-162,189,-185]],"type":"Polygon","properties":{"state":"VA","name":"FAIRFAX","zip":"22031"}},{"arcs":[[190,-181,-190,-161,-171]],"type":"Polygon","properties":{"state":"VA","name":"FAIRFAX","zip":"22032"}},{"arcs":[[-111,-135,191,-183]],"type":"Polygon","properties":{"state":"VA","name":"FAIRFAX","zip":"22033"}},{"arcs":[[-182,-191,-170,192,193,194,-67]],"type":"Polygon","properties":{"state":"VA","name":"FAIRFAX STATION","zip":"22039"}},{"arcs":[[195,196,-164,197,198,199,200]],"type":"Polygon","properties":{"state":"VA","name":"FALLS CHURCH","zip":"22041"}},{"arcs":[[201,-198,-163,-189,202,203,204]],"type":"Polygon","properties":{"state":"VA","name":"FALLS CHURCH","zip":"22042"}},{"arcs":[[205,-180,206,207,208,209,210,-204]],"type":"Polygon","properties":{"state":"VA","name":"FALLS CHURCH","zip":"22043"}},{"arcs":[[211,-199,-202,212,213,214]],"type":"Polygon","properties":{"state":"VA","name":"FALLS CHURCH","zip":"22044"}},{"arcs":[[-205,-211,215,216,-213]],"type":"Polygon","properties":{"state":"VA","name":"FALLS CHURCH","zip":"22046"}},{"arcs":[[217,218,219,220]],"type":"Polygon","properties":{"state":"VA","name":"FORT BELVOIR","zip":"22060"}},{"arcs":[[-129,-121,-125,221,222,223,-159]],"type":"Polygon","properties":{"state":"VA","name":"GREAT FALLS","zip":"22066"}},{"arcs":[[224,-194,225,226,227,-218,228,229]],"type":"Polygon","properties":{"state":"VA","name":"LORTON","zip":"22079"}},{"arcs":[[230,-209,231,232,233]],"type":"Polygon","properties":{"state":"VA","name":"MC LEAN","zip":"22101"}},{"arcs":[[-208,234,-223,235,-232]],"type":"Polygon","properties":{"state":"VA","name":"MC LEAN","zip":"22102"}},{"arcs":[[-184,-192,-134,-157,236,-186]],"type":"Polygon","properties":{"state":"VA","name":"OAKTON","zip":"22124"}},{"arcs":[[237,238,239,-59,-142,-38,-173]],"type":"Polygon","properties":{"state":"VA","name":"QUANTICO","zip":"22134"}},{"arcs":[[240,-227,241,242,243,244,245]],"type":"Polygon","properties":{"state":"VA","name":"SPRINGFIELD","zip":"22150"}},{"arcs":[[246,-244,247,-172,-166]],"type":"Polygon","properties":{"state":"VA","name":"SPRINGFIELD","zip":"22151"}},{"arcs":[[248,-168,-248,-243]],"type":"Polygon","properties":{"state":"VA","name":"SPRINGFIELD","zip":"22152"}},{"arcs":[[-226,-193,-169,-249,-242]],"type":"Polygon","properties":{"state":"VA","name":"SPRINGFIELD","zip":"22153"}},{"arcs":[[-177,249,-238]],"type":"Polygon","properties":{"state":"VA","name":"TRIANGLE","zip":"22172"}},{"arcs":[[-203,-188,250,251,-178,-206]],"type":"Polygon","properties":{"state":"VA","name":"VIENNA","zip":"22180"}},{"arcs":[[-237,-156,252,-251,-187]],"type":"Polygon","properties":{"state":"VA","name":"VIENNA","zip":"22181"}},{"arcs":[[-179,-252,-253,-158,-153,-160,-224,-235,-207]],"type":"Polygon","properties":{"state":"VA","name":"VIENNA","zip":"22182"}},{"arcs":[[-175,253,254,-230,255]],"type":"Polygon","properties":{"state":"VA","name":"WOODBRIDGE","zip":"22191"}},{"arcs":[[-255,256,-42,-68,-195,-225]],"type":"Polygon","properties":{"state":"VA","name":"WOODBRIDGE","zip":"22192"}},{"arcs":[[-174,-43,-257,-254]],"type":"Polygon","properties":{"state":"VA","name":"WOODBRIDGE","zip":"22193"}},{"arcs":[[257,258,259,260,261,262,263]],"type":"Polygon","properties":{"state":"VA","name":"ARLINGTON","zip":"22201"}},{"arcs":[[264,265,266,267,268,269]],"type":"Polygon","properties":{"state":"VA","name":"ARLINGTON","zip":"22202"}},{"arcs":[[270,-215,271,-260]],"type":"Polygon","properties":{"state":"VA","name":"ARLINGTON","zip":"22203"}},{"arcs":[[-212,-271,-259,272,-267,273,274,-200]],"type":"Polygon","properties":{"state":"VA","name":"ARLINGTON","zip":"22204"}},{"arcs":[[275,276,-261,-272,-214,-217]],"type":"Polygon","properties":{"state":"VA","name":"ARLINGTON","zip":"22205"}},{"arcs":[[277,278,-274,-266]],"type":"Polygon","properties":{"state":"VA","name":"ARLINGTON","zip":"22206"}},{"arcs":[[-277,279,-234,280,-262]],"type":"Polygon","properties":{"state":"VA","name":"ARLINGTON","zip":"22207"}},{"arcs":[[281,-264,282]],"type":"Polygon","properties":{"state":"VA","name":"ARLINGTON","zip":"22209"}},{"arcs":[[-273,-258,-282,283,-268]],"type":"Polygon","properties":{"state":"VA","name":"FT MYER","zip":"22211"}},{"arcs":[[-216,-210,-231,-280,-276]],"type":"Polygon","properties":{"state":"VA","name":"ARLINGTON","zip":"22213"}},{"arcs":[[284,285,286]],"type":"Polygon","properties":{"state":"VA","name":"ALEXANDRIA","zip":"22301"}},{"arcs":[[287,288,-201,-275,-279,289,-286,290]],"type":"Polygon","properties":{"state":"VA","name":"ALEXANDRIA","zip":"22302"}},{"arcs":[[291,292,293,294,295]],"type":"Polygon","properties":{"state":"VA","name":"ALEXANDRIA","zip":"22303"}},{"arcs":[[296,297,298,-288,299,-295]],"type":"Polygon","properties":{"state":"VA","name":"ALEXANDRIA","zip":"22304"}},{"arcs":[[-290,-278,-265,300,-287]],"type":"Polygon","properties":{"state":"VA","name":"ALEXANDRIA","zip":"22305"}},{"arcs":[[301,302,-293,303,304,305]],"type":"Polygon","properties":{"state":"VA","name":"ALEXANDRIA","zip":"22306"}},{"arcs":[[-292,306,307,308,-304]],"type":"Polygon","properties":{"state":"VA","name":"ALEXANDRIA","zip":"22307"}},{"arcs":[[309,-305,-309,310]],"type":"Polygon","properties":{"state":"VA","name":"ALEXANDRIA","zip":"22308"}},{"arcs":[[311,-306,-310,312,-220]],"type":"Polygon","properties":{"state":"VA","name":"ALEXANDRIA","zip":"22309"}},{"arcs":[[313,-297,-294,-303,314,-246]],"type":"Polygon","properties":{"state":"VA","name":"ALEXANDRIA","zip":"22310"}},{"arcs":[[315,-196,-289,-299]],"type":"Polygon","properties":{"state":"VA","name":"ALEXANDRIA","zip":"22311"}},{"arcs":[[-245,-247,-165,-197,-316,-298,-314]],"type":"Polygon","properties":{"state":"VA","name":"ALEXANDRIA","zip":"22312"}},{"arcs":[[-300,-291,-285,-301,-270,316,-307,-296]],"type":"Polygon","properties":{"state":"VA","name":"ALEXANDRIA","zip":"22314"}},{"arcs":[[-219,-228,-241,-315,-302,-312]],"type":"Polygon","properties":{"state":"VA","name":"ALEXANDRIA","zip":"22315"}},{"arcs":[[317,318,319]],"type":"Polygon","properties":{"state":"VA","name":"FREDERICKSBURG","zip":"22401"}},{"arcs":[[320,321,322,323,324]],"type":"Polygon","properties":{"state":"VA","name":"FREDERICKSBURG","zip":"22405"}},{"arcs":[[325,-321,326,327,328,329,330]],"type":"Polygon","properties":{"state":"VA","name":"FREDERICKSBURG","zip":"22406"}},{"arcs":[[331,332,333,334,-318]],"type":"Polygon","properties":{"state":"VA","name":"FREDERICKSBURG","zip":"22407"}},{"arcs":[[-320,335,336,337,338,-332]],"type":"Polygon","properties":{"state":"VA","name":"FREDERICKSBURG","zip":"22408"}},{"arcs":[[339,340,341,342,343]],"type":"Polygon","properties":{"state":"VA","name":"BOWLING GREEN","zip":"22427"}},{"arcs":[[344,345,346]],"type":"Polygon","properties":{"state":"VA","name":"BURGESS","zip":"22432"}},{"arcs":[[347,348,349]],"type":"Polygon","properties":{"state":"VA","name":"BURR HILL","zip":"22433"}},{"arcs":[[350,351,352,353,354,355]],"type":"Polygon","properties":{"state":"VA","name":"CALLAO","zip":"22435"}},{"arcs":[[356,-344,357,358,359]],"type":"Polygon","properties":{"state":"VA","name":"CARET","zip":"22436"}},{"arcs":[[360,361,362,363]],"type":"Polygon","properties":{"state":"VA","name":"CENTER CROSS","zip":"22437"}},{"arcs":[[[364,365,-360,366]],[[367,368,369,370]]],"type":"MultiPolygon","properties":{"state":"VA","name":"CHAMPLAIN","zip":"22438"}},{"arcs":[[371,372,373,374]],"type":"Polygon","properties":{"state":"VA","name":"COLONIAL BEACH","zip":"22443"}},{"arcs":[[375,376,377,378,-363]],"type":"Polygon","properties":{"state":"VA","name":"DUNNSVILLE","zip":"22454"}},{"arcs":[[379,-356,380,381,382,383]],"type":"Polygon","properties":{"state":"VA","name":"FARNHAM","zip":"22460"}},{"arcs":[[384,385,386,387,-352]],"type":"Polygon","properties":{"state":"VA","name":"HAGUE","zip":"22469"}},{"arcs":[[388,389,390,-346,391,392,-382]],"type":"Polygon","properties":{"state":"VA","name":"HEATHSVILLE","zip":"22473"}},{"arcs":[[-357,-366,393,-369,394,-340]],"type":"Polygon","properties":{"state":"VA","name":"HUSTLE","zip":"22476"}},{"arcs":[[395,396,397]],"type":"Polygon","properties":{"state":"VA","name":"IRVINGTON","zip":"22480"}},{"arcs":[[398,399,400,401,402]],"type":"Polygon","properties":{"state":"VA","name":"KILMARNOCK","zip":"22482"}},{"arcs":[[-374,403,-324,404]],"type":"Polygon","properties":{"state":"VA","name":"KING GEORGE","zip":"22485"}},{"arcs":[[-353,-388,405]],"type":"Polygon","properties":{"state":"VA","name":"KINSALE","zip":"22488"}},{"arcs":[[406,407,-383,-393,408,-401]],"type":"Polygon","properties":{"state":"VA","name":"LANCASTER","zip":"22503"}},{"arcs":[[409,410,411,-361,412]],"type":"Polygon","properties":{"state":"VA","name":"LANEVIEW","zip":"22504"}},{"arcs":[[413,-349,414,415,416,417,418]],"type":"Polygon","properties":{"state":"VA","name":"LOCUST GROVE","zip":"22508"}},{"arcs":[[-370,-394,-365,419]],"type":"Polygon","properties":{"state":"VA","name":"LORETTO","zip":"22509"}},{"arcs":[[-381,-355,420,-389]],"type":"Polygon","properties":{"state":"VA","name":"LOTTSBURG","zip":"22511"}},{"arcs":[[421,422,423,424,-341,425]],"type":"Polygon","properties":{"state":"VA","name":"MILFORD","zip":"22514"}},{"arcs":[[426,427,-372,428,-386]],"type":"Polygon","properties":{"state":"VA","name":"MONTROSS","zip":"22520"}},{"arcs":[[429,430,431]],"type":"Polygon","properties":{"state":"VA","name":"PARTLOW","zip":"22534"}},{"arcs":[[432,433,434,-358,-343]],"type":"Polygon","properties":{"state":"VA","name":"PORT ROYAL","zip":"22535"}},{"arcs":[[-434,435,-337,436]],"type":"Polygon","properties":{"state":"VA","name":"RAPPAHANNOCK ACADEMY","zip":"22538"}},{"arcs":[[437,-347,-391,438]],"type":"Polygon","properties":{"state":"VA","name":"REEDVILLE","zip":"22539"}},{"arcs":[[439,440,-350,-414]],"type":"Polygon","properties":{"state":"VA","name":"RHOADESVILLE","zip":"22542"}},{"arcs":[[441,442,443,444,445,446,-424]],"type":"Polygon","properties":{"state":"VA","name":"RUTHER GLEN","zip":"22546"}},{"arcs":[[447,-446,448,-431,449,450,451,-418,452,-333,-339]],"type":"Polygon","properties":{"state":"VA","name":"SPOTSYLVANIA","zip":"22553"}},{"arcs":[[453,-60,-240,454,-322,-326]],"type":"Polygon","properties":{"state":"VA","name":"STAFFORD","zip":"22554"}},{"arcs":[[455,456,457,-426,-395,-368,458,-378,459]],"type":"Polygon","properties":{"state":"VA","name":"TAPPAHANNOCK","zip":"22560"}},{"arcs":[[460,461,462,463,-440,-419,-452]],"type":"Polygon","properties":{"state":"VA","name":"UNIONVILLE","zip":"22567"}},{"arcs":[[-427,-385,-351,-380,464]],"type":"Polygon","properties":{"state":"VA","name":"WARSAW","zip":"22572"}},{"arcs":[[465,-396,466,-407,-400]],"type":"Polygon","properties":{"state":"VA","name":"WEEMS","zip":"22576"}},{"arcs":[[-466,-399,467,-397]],"type":"Polygon","properties":{"state":"VA","name":"WHITE STONE","zip":"22578"}},{"arcs":[[-392,-345,-438,468,-402,-409]],"type":"Polygon","properties":{"state":"VA","name":"WICOMICO CHURCH","zip":"22579"}},{"arcs":[[-425,-447,-448,-338,-436,-433,-342]],"type":"Polygon","properties":{"state":"VA","name":"WOODFORD","zip":"22580"}},{"arcs":[[469,470]],"type":"Polygon","properties":{"state":"VA","name":"WINCHESTER","zip":"22601"}},{"arcs":[[471,472,473,474,475,476,477,-470,478,479,480,481,482]],"type":"Polygon","properties":{"state":"VA","name":"WINCHESTER","zip":"22602"}},{"arcs":[[-478,483,484,485,486,487,-479,-471]],"type":"Polygon","properties":{"state":"VA","name":"WINCHESTER","zip":"22603"}},{"arcs":[[488,489,490,491,492,493]],"type":"Polygon","properties":{"state":"VA","name":"BENTONVILLE","zip":"22610"}},{"arcs":[[494,-85,495,-481,496,497]],"type":"Polygon","properties":{"state":"VA","name":"BERRYVILLE","zip":"22611"}},{"arcs":[[498,499,500,-482,-496,-144,-75,-100]],"type":"Polygon","properties":{"state":"VA","name":"BOYCE","zip":"22620"}},{"arcs":[[501,-487,502,-498]],"type":"Polygon","properties":{"state":"VA","name":"CLEAR BROOK","zip":"22624"}},{"arcs":[[503,504,-485]],"type":"Polygon","properties":{"state":"VA","name":"CROSS JUNCTION","zip":"22625"}},{"arcs":[[505,506,-16]],"type":"Polygon","properties":{"state":"VA","name":"FLINT HILL","zip":"22627"}},{"arcs":[[507,508,-491,509,510,511,512,513,-500]],"type":"Polygon","properties":{"state":"VA","name":"FRONT ROYAL","zip":"22630"}},{"arcs":[[514,-504,-484,-477]],"type":"Polygon","properties":{"state":"VA","name":"GORE","zip":"22637"}},{"arcs":[[-19,515,516,-102,-45]],"type":"Polygon","properties":{"state":"VA","name":"HUME","zip":"22639"}},{"arcs":[[-507,517,-492,-509,518,-17]],"type":"Polygon","properties":{"state":"VA","name":"HUNTLY","zip":"22640"}},{"arcs":[[519,-516,-18,-519,-508,-499,-99]],"type":"Polygon","properties":{"state":"VA","name":"LINDEN","zip":"22642"}},{"arcs":[[-520,-98,-517]],"type":"Polygon","properties":{"state":"VA","name":"MARKHAM","zip":"22643"}},{"arcs":[[520,521,522,523]],"type":"Polygon","properties":{"state":"VA","name":"MAURERTOWN","zip":"22644"}},{"arcs":[[524,-473,525,-512]],"type":"Polygon","properties":{"state":"VA","name":"MIDDLETOWN","zip":"22645"}},{"arcs":[[526,527,528,-489]],"type":"Polygon","properties":{"state":"VA","name":"RILEYVILLE","zip":"22650"}},{"arcs":[[529,530,-521,531,-510,-490,-529,532,533,534]],"type":"Polygon","properties":{"state":"VA","name":"FORT VALLEY","zip":"22652"}},{"arcs":[[535,-475,536,-523,537,538]],"type":"Polygon","properties":{"state":"VA","name":"STAR TANNERY","zip":"22654"}},{"arcs":[[-472,539,-513,-526]],"type":"Polygon","properties":{"state":"VA","name":"STEPHENS CITY","zip":"22655"}},{"arcs":[[-488,-502,-497,-480]],"type":"Polygon","properties":{"state":"VA","name":"STEPHENSON","zip":"22656"}},{"arcs":[[-532,-524,-537,-474,-525,-511]],"type":"Polygon","properties":{"state":"VA","name":"STRASBURG","zip":"22657"}},{"arcs":[[-514,-540,-483,-501]],"type":"Polygon","properties":{"state":"VA","name":"WHITE POST","zip":"22663"}},{"arcs":[[540,-538,-522,-531]],"type":"Polygon","properties":{"state":"VA","name":"WOODSTOCK","zip":"22664"}},{"arcs":[[-348,-441,-464,541,542,543,544,545,546,547,548,549,550,-415]],"type":"Polygon","properties":{"state":"VA","name":"CULPEPER","zip":"22701"}},{"arcs":[[551,552,553,554]],"type":"Polygon","properties":{"state":"VA","name":"ARODA","zip":"22709"}},{"arcs":[[555,-148,-152,556,557,558]],"type":"Polygon","properties":{"state":"VA","name":"BEALETON","zip":"22712"}},{"arcs":[[559,560,561,562,-546,563]],"type":"Polygon","properties":{"state":"VA","name":"BOSTON","zip":"22713"}},{"arcs":[[564,-548,565,566]],"type":"Polygon","properties":{"state":"VA","name":"BRANDY STATION","zip":"22714"}},{"arcs":[[567,568,569,-544,570]],"type":"Polygon","properties":{"state":"VA","name":"BRIGHTWOOD","zip":"22715"}},{"arcs":[[571,-562,572,573,-14]],"type":"Polygon","properties":{"state":"VA","name":"CASTLETON","zip":"22716"}},{"arcs":[[574,575,576,577,-549,-565,578]],"type":"Polygon","properties":{"state":"VA","name":"ELKWOOD","zip":"22718"}},{"arcs":[[579,580,581]],"type":"Polygon","properties":{"state":"VA","name":"ETLAN","zip":"22719"}},{"arcs":[[582,-558,583,-330]],"type":"Polygon","properties":{"state":"VA","name":"GOLDVEIN","zip":"22720"}},{"arcs":[[584,-12,-145,585]],"type":"Polygon","properties":{"state":"VA","name":"JEFFERSONTON","zip":"22724"}},{"arcs":[[586,-570]],"type":"Polygon","properties":{"state":"VA","name":"LEON","zip":"22725"}},{"arcs":[[587,-577,588,-416,-551]],"type":"Polygon","properties":{"state":"VA","name":"LIGNUM","zip":"22726"}},{"arcs":[[589,590,591,592,593,594,-568,595,-552,596,597]],"type":"Polygon","properties":{"state":"VA","name":"MADISON","zip":"22727"}},{"arcs":[[-331,-584,-557,-151,-56,-454]],"type":"Polygon","properties":{"state":"VA","name":"MIDLAND","zip":"22728"}},{"arcs":[[598,599,-553,-596,-571,-543,600]],"type":"Polygon","properties":{"state":"VA","name":"OAKPARK","zip":"22730"}},{"arcs":[[-600,601,602,603,-554]],"type":"Polygon","properties":{"state":"VA","name":"RADIANT","zip":"22732"}},{"arcs":[[-463,604,605,-601,-542]],"type":"Polygon","properties":{"state":"VA","name":"RAPIDAN","zip":"22733"}},{"arcs":[[606,-579,-567,607,-586,-149,-556]],"type":"Polygon","properties":{"state":"VA","name":"REMINGTON","zip":"22734"}},{"arcs":[[-569,-595,608,-564,-545,-587]],"type":"Polygon","properties":{"state":"VA","name":"REVA","zip":"22735"}},{"arcs":[[-589,-576,609,-328,610,-334,-453,-417]],"type":"Polygon","properties":{"state":"VA","name":"RICHARDSVILLE","zip":"22736"}},{"arcs":[[-572,-13,-585,-608,-566,-547,-563]],"type":"Polygon","properties":{"state":"VA","name":"RIXEYVILLE","zip":"22737"}},{"arcs":[[611,612,613,614,-597,-555,-604]],"type":"Polygon","properties":{"state":"VA","name":"ROCHELLE","zip":"22738"}},{"arcs":[[615,-527,-494,616,617,-560,-609,-594,618,-580]],"type":"Polygon","properties":{"state":"VA","name":"SPERRYVILLE","zip":"22740"}},{"arcs":[[-550,-578,-588]],"type":"Polygon","properties":{"state":"VA","name":"STEVENSBURG","zip":"22741"}},{"arcs":[[-329,-610,-575,-607,-559,-583]],"type":"Polygon","properties":{"state":"VA","name":"SUMERDUCK","zip":"22742"}},{"arcs":[[-593,619,620,-581,-619]],"type":"Polygon","properties":{"state":"VA","name":"SYRIA","zip":"22743"}},{"arcs":[[621,-617,-493,-518,-506,-15,-574]],"type":"Polygon","properties":{"state":"VA","name":"WASHINGTON","zip":"22747"}},{"arcs":[[-561,-618,-622,-573]],"type":"Polygon","properties":{"state":"VA","name":"WOODVILLE","zip":"22749"}},{"arcs":[[622,623,624,625,626,627,628,629,630,631]],"type":"Polygon","properties":{"state":"VA","name":"HARRISONBURG","zip":"22801"}},{"arcs":[[632,-629,633,634,635]],"type":"Polygon","properties":{"state":"VA","name":"HARRISONBURG","zip":"22802"}},{"arcs":[[636,637,638,639]],"type":"Polygon","properties":{"state":"VA","name":"BASYE","zip":"22810"}},{"arcs":[[640,641,642]],"type":"Polygon","properties":{"state":"VA","name":"BERGTON","zip":"22811"}},{"arcs":[[643,644,645,646,647,-624]],"type":"Polygon","properties":{"state":"VA","name":"BRIDGEWATER","zip":"22812"}},{"arcs":[[648,649,650,-643,651,652,653,654,655,656,657,658,-635]],"type":"Polygon","properties":{"state":"VA","name":"BROADWAY","zip":"22815"}},{"arcs":[[659,660,-641,-651]],"type":"Polygon","properties":{"state":"VA","name":"CRIDERS","zip":"22820"}},{"arcs":[[-648,661,662,-625]],"type":"Polygon","properties":{"state":"VA","name":"DAYTON","zip":"22821"}},{"arcs":[[-530,663,-639,664,-539,-541]],"type":"Polygon","properties":{"state":"VA","name":"EDINBURG","zip":"22824"}},{"arcs":[[665,666,667,668,669,670,671,-636,-659,672,673,-591,674]],"type":"Polygon","properties":{"state":"VA","name":"ELKTON","zip":"22827"}},{"arcs":[[675,-627,676,-660,-650]],"type":"Polygon","properties":{"state":"VA","name":"FULKS RUN","zip":"22830"}},{"arcs":[[677,678,-633,-672]],"type":"Polygon","properties":{"state":"VA","name":"KEEZLETOWN","zip":"22832"}},{"arcs":[[-634,-628,-676,-649]],"type":"Polygon","properties":{"state":"VA","name":"LINVILLE","zip":"22834"}},{"arcs":[[-621,679,680,-657,681,-533,-528,-616,-582]],"type":"Polygon","properties":{"state":"VA","name":"LURAY","zip":"22835"}},{"arcs":[[682,-631,683,-678,-671]],"type":"Polygon","properties":{"state":"VA","name":"MC GAHEYSVILLE","zip":"22840"}},{"arcs":[[684,685,-644,-623,686]],"type":"Polygon","properties":{"state":"VA","name":"MOUNT CRAWFORD","zip":"22841"}},{"arcs":[[687,-640,-664,-535,688,689,690,-654]],"type":"Polygon","properties":{"state":"VA","name":"MOUNT JACKSON","zip":"22842"}},{"arcs":[[691,692,693,-662,-647,694,695]],"type":"Polygon","properties":{"state":"VA","name":"MOUNT SOLON","zip":"22843"}},{"arcs":[[696,697,-689,-534,-682,-656]],"type":"Polygon","properties":{"state":"VA","name":"NEW MARKET","zip":"22844"}},{"arcs":[[-653,698,-637,-688]],"type":"Polygon","properties":{"state":"VA","name":"ORKNEY SPRINGS","zip":"22845"}},{"arcs":[[-679,-684,-630]],"type":"Polygon","properties":{"state":"VA","name":"PENN LAIRD","zip":"22846"}},{"arcs":[[699,-690,-698]],"type":"Polygon","properties":{"state":"VA","name":"QUICKSBURG","zip":"22847"}},{"arcs":[[700,-673,-658,-681]],"type":"Polygon","properties":{"state":"VA","name":"SHENANDOAH","zip":"22849"}},{"arcs":[[-674,-701,-680,-620,-592]],"type":"Polygon","properties":{"state":"VA","name":"STANLEY","zip":"22851"}},{"arcs":[[-655,-691,-700,-697]],"type":"Polygon","properties":{"state":"VA","name":"TIMBERVILLE","zip":"22853"}},{"arcs":[[701,702,703,704,705,706]],"type":"Polygon","properties":{"state":"VA","name":"CHARLOTTESVILLE","zip":"22901"}},{"arcs":[[707,708,-707,709,710,711,712,713,714,715]],"type":"Polygon","properties":{"state":"VA","name":"CHARLOTTESVILLE","zip":"22902"}},{"arcs":[[716,717,718,-702,-709,719]],"type":"Polygon","properties":{"state":"VA","name":"CHARLOTTESVILLE","zip":"22903"}},{"arcs":[[720,721,722,723,-710,-706]],"type":"Polygon","properties":{"state":"VA","name":"CHARLOTTESVILLE","zip":"22911"}},{"arcs":[[724,725,726,-717,727,728,729,730,731]],"type":"Polygon","properties":{"state":"VA","name":"AFTON","zip":"22920"}},{"arcs":[[732,733,734,735,736,737]],"type":"Polygon","properties":{"state":"VA","name":"ARRINGTON","zip":"22922"}},{"arcs":[[738,-614,739,740,741,-723]],"type":"Polygon","properties":{"state":"VA","name":"BARBOURSVILLE","zip":"22923"}},{"arcs":[[742,-729,743]],"type":"Polygon","properties":{"state":"VA","name":"COVESVILLE","zip":"22931"}},{"arcs":[[-719,744,745,746,747,-668,748,-703]],"type":"Polygon","properties":{"state":"VA","name":"CROZET","zip":"22932"}},{"arcs":[[749,-666,750,751]],"type":"Polygon","properties":{"state":"VA","name":"DYKE","zip":"22935"}},{"arcs":[[752,-752,753,754,-721,-705]],"type":"Polygon","properties":{"state":"VA","name":"EARLYSVILLE","zip":"22936"}},{"arcs":[[755,756,757,-716,758,759,760]],"type":"Polygon","properties":{"state":"VA","name":"ESMONT","zip":"22937"}},{"arcs":[[761,762,763,-730,-743,764,765,766]],"type":"Polygon","properties":{"state":"VA","name":"FABER","zip":"22938"}},{"arcs":[[767,768]],"type":"Polygon","properties":{"state":"VA","name":"FISHERSVILLE","zip":"22939"}},{"arcs":[[-749,-667,-750,-753,-704]],"type":"Polygon","properties":{"state":"VA","name":"FREE UNION","zip":"22940"}},{"arcs":[[769,-741,770,771,772,773]],"type":"Polygon","properties":{"state":"VA","name":"GORDONSVILLE","zip":"22942"}},{"arcs":[[-727,774,-745,-718]],"type":"Polygon","properties":{"state":"VA","name":"GREENWOOD","zip":"22943"}},{"arcs":[[-715,775,-759]],"type":"Polygon","properties":{"state":"VA","name":"KEENE","zip":"22946"}},{"arcs":[[776,-711,-724,-742,-770]],"type":"Polygon","properties":{"state":"VA","name":"KESWICK","zip":"22947"}},{"arcs":[[777,-602,-599,-606]],"type":"Polygon","properties":{"state":"VA","name":"LOCUST DALE","zip":"22948"}},{"arcs":[[778,-735,779,-762]],"type":"Polygon","properties":{"state":"VA","name":"LOVINGSTON","zip":"22949"}},{"arcs":[[780,781,782,783,784,785,786,-725]],"type":"Polygon","properties":{"state":"VA","name":"LYNDHURST","zip":"22952"}},{"arcs":[[787,-731,-764]],"type":"Polygon","properties":{"state":"VA","name":"NELLYSFORD","zip":"22958"}},{"arcs":[[-744,-728,-720,-708,-758,788,-765]],"type":"Polygon","properties":{"state":"VA","name":"NORTH GARDEN","zip":"22959"}},{"arcs":[[789,-612,-603,-778,-605,-462,790,791,-772]],"type":"Polygon","properties":{"state":"VA","name":"ORANGE","zip":"22960"}},{"arcs":[[792,-713,793,794,795,796,797,798]],"type":"Polygon","properties":{"state":"VA","name":"PALMYRA","zip":"22963"}},{"arcs":[[799,800,801,802,-781,-732,-788,-763,-780,-734]],"type":"Polygon","properties":{"state":"VA","name":"ROSELAND","zip":"22967"}},{"arcs":[[-722,-755,803,-598,-615,-739]],"type":"Polygon","properties":{"state":"VA","name":"RUCKERSVILLE","zip":"22968"}},{"arcs":[[804,805,806,807,-766,-789,-757]],"type":"Polygon","properties":{"state":"VA","name":"SCHUYLER","zip":"22969"}},{"arcs":[[-779,-767,-808,808,-736]],"type":"Polygon","properties":{"state":"VA","name":"SHIPMAN","zip":"22971"}},{"arcs":[[-771,-740,-613,-790]],"type":"Polygon","properties":{"state":"VA","name":"SOMERSET","zip":"22972"}},{"arcs":[[-754,-751,-675,-590,-804]],"type":"Polygon","properties":{"state":"VA","name":"STANARDSVILLE","zip":"22973"}},{"arcs":[[809,810,-794,-712,-777,-774]],"type":"Polygon","properties":{"state":"VA","name":"TROY","zip":"22974"}},{"arcs":[[811,-782,-803]],"type":"Polygon","properties":{"state":"VA","name":"TYRO","zip":"22976"}},{"arcs":[[812,813,814,-746,-775,-726,-787,815,816,-768]],"type":"Polygon","properties":{"state":"VA","name":"WAYNESBORO","zip":"22980"}},{"arcs":[[817,818,819,820,821,822,823,824,825,826]],"type":"Polygon","properties":{"state":"VA","name":"AMELIA COURT HOUSE","zip":"23002"}},{"arcs":[[827,828,829,830]],"type":"Polygon","properties":{"state":"VA","name":"ARVONIA","zip":"23004"}},{"arcs":[[831,832,833,834,835]],"type":"Polygon","properties":{"state":"VA","name":"ASHLAND","zip":"23005"}},{"arcs":[[836,-442,-423,837,838,839]],"type":"Polygon","properties":{"state":"VA","name":"AYLETT","zip":"23009"}},{"arcs":[[840,841,842]],"type":"Polygon","properties":{"state":"VA","name":"BARHAMSVILLE","zip":"23011"}},{"arcs":[[843,844,845,-432,-449,-445]],"type":"Polygon","properties":{"state":"VA","name":"BEAVERDAM","zip":"23015"}},{"arcs":[[-798,846,847]],"type":"Polygon","properties":{"state":"VA","name":"BREMO BLUFF","zip":"23022"}},{"arcs":[[848,849,-460,-377]],"type":"Polygon","properties":{"state":"VA","name":"BRUINGTON","zip":"23023"}},{"arcs":[[850,851,852,-450,-430,-846]],"type":"Polygon","properties":{"state":"VA","name":"BUMPASS","zip":"23024"}},{"arcs":[[853,854]],"type":"Polygon","properties":{"state":"VA","name":"CARDINAL","zip":"23025"}},{"arcs":[[855,856,857,858,859]],"type":"Polygon","properties":{"state":"VA","name":"CARTERSVILLE","zip":"23027"}},{"arcs":[[860,861,862,863,864,865,866]],"type":"Polygon","properties":{"state":"VA","name":"CHARLES CITY","zip":"23030"}},{"arcs":[[867,868,869,870,871,872,873]],"type":"Polygon","properties":{"state":"VA","name":"CHURCH VIEW","zip":"23032"}},{"arcs":[[874,875,876]],"type":"Polygon","properties":{"state":"VA","name":"COBBS CREEK","zip":"23035"}},{"arcs":[[[877,-796,878,879,880,881]],[[882,883,-859]]],"type":"MultiPolygon","properties":{"state":"VA","name":"COLUMBIA","zip":"23038"}},{"arcs":[[884,885,886,887,888]],"type":"Polygon","properties":{"state":"VA","name":"CROZIER","zip":"23039"}},{"arcs":[[889,890,891,892,-857]],"type":"Polygon","properties":{"state":"VA","name":"CUMBERLAND","zip":"23040"}},{"arcs":[[893,894]],"type":"Polygon","properties":{"state":"VA","name":"DELTAVILLE","zip":"23043"}},{"arcs":[[895,896,897]],"type":"Polygon","properties":{"state":"VA","name":"DIGGS","zip":"23045"}},{"arcs":[[898,-844,-444,899,-835]],"type":"Polygon","properties":{"state":"VA","name":"DOSWELL","zip":"23047"}},{"arcs":[[-876,900,901]],"type":"Polygon","properties":{"state":"VA","name":"DUTTON","zip":"23050"}},{"arcs":[[-847,-797,-878,902]],"type":"Polygon","properties":{"state":"VA","name":"FORK UNION","zip":"23055"}},{"arcs":[[903,904,905,-854,906]],"type":"Polygon","properties":{"state":"VA","name":"FOSTER","zip":"23056"}},{"arcs":[[907,908,909,910,-833,911,912]],"type":"Polygon","properties":{"state":"VA","name":"GLEN ALLEN","zip":"23059"}},{"arcs":[[913,914,915,916,-908]],"type":"Polygon","properties":{"state":"VA","name":"GLEN ALLEN","zip":"23060"}},{"arcs":[[917,918,919]],"type":"Polygon","properties":{"state":"VA","name":"GLOUCESTER","zip":"23061"}},{"arcs":[[920,921,922,923,924,-881]],"type":"Polygon","properties":{"state":"VA","name":"GOOCHLAND","zip":"23063"}},{"arcs":[[925,-923,926,927,928]],"type":"Polygon","properties":{"state":"VA","name":"GUM SPRING","zip":"23065"}},{"arcs":[[929,930,-836,-900,-443,-837]],"type":"Polygon","properties":{"state":"VA","name":"HANOVER","zip":"23069"}},{"arcs":[[931,932,933,-894,934]],"type":"Polygon","properties":{"state":"VA","name":"HARDYVILLE","zip":"23070"}},{"arcs":[[935,-932,936,937,938,939,940]],"type":"Polygon","properties":{"state":"VA","name":"HARTFIELD","zip":"23071"}},{"arcs":[[941]],"type":"Polygon","properties":{"state":"VA","name":"HAYES","zip":"23072"}},{"arcs":[[942,943,944]],"type":"Polygon","properties":{"state":"VA","name":"HIGHLAND SPRINGS","zip":"23075"}},{"arcs":[[945,-410,946,947,-873]],"type":"Polygon","properties":{"state":"VA","name":"JAMAICA","zip":"23079"}},{"arcs":[[948,949,950,-819]],"type":"Polygon","properties":{"state":"VA","name":"JETERSVILLE","zip":"23083"}},{"arcs":[[-811,951,-879,-795]],"type":"Polygon","properties":{"state":"VA","name":"KENTS STORE","zip":"23084"}},{"arcs":[[952,953,-849,-376,-362,-412,954,955]],"type":"Polygon","properties":{"state":"VA","name":"KING AND QUEEN COURT HOUSE","zip":"23085"}},{"arcs":[[956,957,-839,958,959,960]],"type":"Polygon","properties":{"state":"VA","name":"KING WILLIAM","zip":"23086"}},{"arcs":[[961,962,963]],"type":"Polygon","properties":{"state":"VA","name":"LANEXA","zip":"23089"}},{"arcs":[[-411,-946,-872,964,965,-955]],"type":"Polygon","properties":{"state":"VA","name":"LITTLE PLYMOUTH","zip":"23091"}},{"arcs":[[966,967,968,-939]],"type":"Polygon","properties":{"state":"VA","name":"LOCUST HILL","zip":"23092"}},{"arcs":[[969,-921,-880,-952,-810,-773,-792,970,-928]],"type":"Polygon","properties":{"state":"VA","name":"LOUISA","zip":"23093"}},{"arcs":[[-926,971,-852,972,973,974,-888,975,976,-924]],"type":"Polygon","properties":{"state":"VA","name":"MAIDENS","zip":"23102"}},{"arcs":[[977,978,-885,979,980]],"type":"Polygon","properties":{"state":"VA","name":"MANAKIN SABOT","zip":"23103"}},{"arcs":[[981,982,-930,-840,-958]],"type":"Polygon","properties":{"state":"VA","name":"MANQUIN","zip":"23106"}},{"arcs":[[983,984,-905,985,986,-896]],"type":"Polygon","properties":{"state":"VA","name":"MATHEWS","zip":"23109"}},{"arcs":[[987,-965,-871,988]],"type":"Polygon","properties":{"state":"VA","name":"MATTAPONI","zip":"23110"}},{"arcs":[[989,990,991,-982,-957,992,993,994,-945]],"type":"Polygon","properties":{"state":"VA","name":"MECHANICSVILLE","zip":"23111"}},{"arcs":[[995,996,997,998,999]],"type":"Polygon","properties":{"state":"VA","name":"MIDLOTHIAN","zip":"23112"}},{"arcs":[[1000,1001,1002,1003]],"type":"Polygon","properties":{"state":"VA","name":"MIDLOTHIAN","zip":"23113"}},{"arcs":[[1004,-1000,1005]],"type":"Polygon","properties":{"state":"VA","name":"MIDLOTHIAN","zip":"23114"}},{"arcs":[[-832,-931,-983,-992,1006,-912]],"type":"Polygon","properties":{"state":"VA","name":"MECHANICSVILLE","zip":"23116"}},{"arcs":[[-972,-929,-971,-791,-461,-451,-853]],"type":"Polygon","properties":{"state":"VA","name":"MINERAL","zip":"23117"}},{"arcs":[[-987,1007,1008]],"type":"Polygon","properties":{"state":"VA","name":"MOON","zip":"23119"}},{"arcs":[[-998,1009,1010,-823,1011]],"type":"Polygon","properties":{"state":"VA","name":"MOSELEY","zip":"23120"}},{"arcs":[[-893,1012,-828,1013,-883,-858]],"type":"Polygon","properties":{"state":"VA","name":"NEW CANTON","zip":"23123"}},{"arcs":[[1014,-993,-961,1015,-962,1016]],"type":"Polygon","properties":{"state":"VA","name":"NEW KENT","zip":"23124"}},{"arcs":[[1017,-838,-422,-458,1018]],"type":"Polygon","properties":{"state":"VA","name":"NEWTOWN","zip":"23126"}},{"arcs":[[-904,1019,-901,-875,1020,-1008,-986]],"type":"Polygon","properties":{"state":"VA","name":"NORTH","zip":"23128"}},{"arcs":[[-975,1021,-980,-889]],"type":"Polygon","properties":{"state":"VA","name":"OILVILLE","zip":"23129"}},{"arcs":[[1022,1023,-984,-898,1024]],"type":"Polygon","properties":{"state":"VA","name":"ONEMO","zip":"23130"}},{"arcs":[[1025,1026,-1023,1027]],"type":"Polygon","properties":{"state":"VA","name":"PORT HAYWOOD","zip":"23138"}},{"arcs":[[-856,1028,-1001,1029,-890]],"type":"Polygon","properties":{"state":"VA","name":"POWHATAN","zip":"23139"}},{"arcs":[[-865,1030]],"type":"Polygon","properties":{"state":"VA","name":"PROVIDENCE FORGE","zip":"23140"}},{"arcs":[[1031,-994,-1015,1032]],"type":"Polygon","properties":{"state":"VA","name":"QUINTON","zip":"23141"}},{"arcs":[[-1022,-974,1033,-910,1034,-981]],"type":"Polygon","properties":{"state":"VA","name":"ROCKVILLE","zip":"23146"}},{"arcs":[[-457,1035,-1019]],"type":"Polygon","properties":{"state":"VA","name":"SAINT STEPHENS CHURCH","zip":"23148"}},{"arcs":[[-919,1036,-869,1037,1038,-967,-938,1039]],"type":"Polygon","properties":{"state":"VA","name":"SALUDA","zip":"23149"}},{"arcs":[[-943,-995,-1032,1040]],"type":"Polygon","properties":{"state":"VA","name":"SANDSTON","zip":"23150"}},{"arcs":[[-970,-927,-922]],"type":"Polygon","properties":{"state":"VA","name":"SANDY HOOK","zip":"23153"}},{"arcs":[[-918,1041,1042,-989,-870,-1037]],"type":"Polygon","properties":{"state":"VA","name":"SHACKLEFORDS","zip":"23156"}},{"arcs":[[-976,-887,1043]],"type":"Polygon","properties":{"state":"VA","name":"STATE FARM","zip":"23160"}},{"arcs":[[1044,-953,1045]],"type":"Polygon","properties":{"state":"VA","name":"STEVENSVILLE","zip":"23161"}},{"arcs":[[-1026,1046]],"type":"Polygon","properties":{"state":"VA","name":"SUSAN","zip":"23163"}},{"arcs":[[-841,1047,-867,1048]],"type":"Polygon","properties":{"state":"VA","name":"TOANO","zip":"23168"}},{"arcs":[[-969,1049,-940]],"type":"Polygon","properties":{"state":"VA","name":"TOPPING","zip":"23169"}},{"arcs":[[1050,1051,-1038,-868]],"type":"Polygon","properties":{"state":"VA","name":"URBANNA","zip":"23175"}},{"arcs":[[-936,1052,-933]],"type":"Polygon","properties":{"state":"VA","name":"WAKE","zip":"23176"}},{"arcs":[[-1018,-1036,-456,-850,-954,-1045,1053,-959]],"type":"Polygon","properties":{"state":"VA","name":"WALKERTON","zip":"23177"}},{"arcs":[[-1051,-874,-948,1054]],"type":"Polygon","properties":{"state":"VA","name":"WATER VIEW","zip":"23180"}},{"arcs":[[-963,-1016,-960,-1054,-1046,-956,-966,-988,-1043,1055]],"type":"Polygon","properties":{"state":"VA","name":"WEST POINT","zip":"23181"}},{"arcs":[[1056,1057,1058,1059,1060,1061]],"type":"Polygon","properties":{"state":"VA","name":"WILLIAMSBURG","zip":"23185"}},{"arcs":[[-1048,-843,1062,-1061,-861]],"type":"Polygon","properties":{"state":"VA","name":"WILLIAMSBURG","zip":"23188"}},{"arcs":[[-911,-1034,-973,-851,-845,-899,-834]],"type":"Polygon","properties":{"state":"VA","name":"MONTPELIER","zip":"23192"}},{"arcs":[[1063,1064,1065,1066]],"type":"Polygon","properties":{"state":"VA","name":"RICHMOND","zip":"23219"}},{"arcs":[[1067,1068,1069,1070,-1066,1071]],"type":"Polygon","properties":{"state":"VA","name":"RICHMOND","zip":"23220"}},{"arcs":[[1072,1073,-1068,1074]],"type":"Polygon","properties":{"state":"VA","name":"RICHMOND","zip":"23221"}},{"arcs":[[1075,-1067,-1071,1076,-991]],"type":"Polygon","properties":{"state":"VA","name":"RICHMOND","zip":"23222"}},{"arcs":[[-1076,-990,-944,1077,-1064]],"type":"Polygon","properties":{"state":"VA","name":"RICHMOND","zip":"23223"}},{"arcs":[[1078,1079,1080]],"type":"Polygon","properties":{"state":"VA","name":"RICHMOND","zip":"23224"}},{"arcs":[[1081,1082]],"type":"Polygon","properties":{"state":"VA","name":"RICHMOND","zip":"23225"}},{"arcs":[[1083,1084,1085,-1073,1086]],"type":"Polygon","properties":{"state":"VA","name":"RICHMOND","zip":"23226"}},{"arcs":[[1087,1088,-914,-913,-1007,-1077,-1070]],"type":"Polygon","properties":{"state":"VA","name":"RICHMOND","zip":"23227"}},{"arcs":[[1089,1090,-915,-1089]],"type":"Polygon","properties":{"state":"VA","name":"RICHMOND","zip":"23228"}},{"arcs":[[1091,1092,-1084,1093]],"type":"Polygon","properties":{"state":"VA","name":"RICHMOND","zip":"23229"}},{"arcs":[[-1074,-1086,-1090,-1088,-1069]],"type":"Polygon","properties":{"state":"VA","name":"RICHMOND","zip":"23230"}},{"arcs":[[-863,1094]],"type":"Polygon","properties":{"state":"VA","name":"RICHMOND","zip":"23231"}},{"arcs":[[-1035,-909,-917,1095,-1092,1096,-978]],"type":"Polygon","properties":{"state":"VA","name":"RICHMOND","zip":"23233"}},{"arcs":[[1097,-1081,1098,1099]],"type":"Polygon","properties":{"state":"VA","name":"RICHMOND","zip":"23234"}},{"arcs":[[-1003,1100,-1082,1101]],"type":"Polygon","properties":{"state":"VA","name":"RICHMOND","zip":"23235"}},{"arcs":[[-1005,1102,1103,-996]],"type":"Polygon","properties":{"state":"VA","name":"RICHMOND","zip":"23236"}},{"arcs":[[1104,-1100,1105,1106,1107]],"type":"Polygon","properties":{"state":"VA","name":"RICHMOND","zip":"23237"}},{"arcs":[[-1085,-1093,-1096,-916,-1091]],"type":"Polygon","properties":{"state":"VA","name":"RICHMOND","zip":"23294"}},{"arcs":[[1108,1109,1110,1111,1112]],"type":"Polygon","properties":{"state":"VA","name":"ACCOMAC","zip":"23301"}},{"arcs":[[1113,1114,1115,1116]],"type":"Polygon","properties":{"state":"VA","name":"ASSAWOMAN","zip":"23302"}},{"arcs":[[1117,1118,1119]],"type":"Polygon","properties":{"state":"VA","name":"BELLE HAVEN","zip":"23306"}},{"arcs":[[1120,1121,1122,1123]],"type":"Polygon","properties":{"state":"VA","name":"BIRDSNEST","zip":"23307"}},{"arcs":[[1124,-1114,1125,1126,1127,1128]],"type":"Polygon","properties":{"state":"VA","name":"BLOXOM","zip":"23308"}},{"arcs":[[1129,1130]],"type":"Polygon","properties":{"state":"VA","name":"CAPE CHARLES","zip":"23310"}},{"arcs":[[1131,1132,1133]],"type":"Polygon","properties":{"state":"VA","name":"CARROLLTON","zip":"23314"}},{"arcs":[[1134,1135,1136,1137,1138]],"type":"Polygon","properties":{"state":"VA","name":"CARRSVILLE","zip":"23315"}},{"arcs":[[1139,1140,1141,1142,1143,1144]],"type":"Polygon","properties":{"state":"VA","name":"CHESAPEAKE","zip":"23320"}},{"arcs":[[1145,1146,1147,1148,1149,1150]],"type":"Polygon","properties":{"state":"VA","name":"CHESAPEAKE","zip":"23321"}},{"arcs":[[1151,1152,-1145,1153,1154,1155]],"type":"Polygon","properties":{"state":"VA","name":"CHESAPEAKE","zip":"23322"}},{"arcs":[[-1153,1156,-1150,1157,1158,1159,1160,-1140]],"type":"Polygon","properties":{"state":"VA","name":"CHESAPEAKE","zip":"23323"}},{"arcs":[[-1161,1161,1162,1163,-1141]],"type":"Polygon","properties":{"state":"VA","name":"CHESAPEAKE","zip":"23324"}},{"arcs":[[-1164,1164,1165,1166,-1142]],"type":"Polygon","properties":{"state":"VA","name":"CHESAPEAKE","zip":"23325"}},{"arcs":[[1167]],"type":"Polygon","properties":{"state":"VA","name":"CHINCOTEAGUE ISLAND","zip":"23336"}},{"arcs":[[1168,1169,1170]],"type":"Polygon","properties":{"state":"VA","name":"WALLOPS ISLAND","zip":"23337"}},{"arcs":[[-1118,1171,1172]],"type":"Polygon","properties":{"state":"VA","name":"EXMORE","zip":"23350"}},{"arcs":[[1173,1174]],"type":"Polygon","properties":{"state":"VA","name":"GREENBACKVILLE","zip":"23356"}},{"arcs":[[1175,-1111,1176,1177]],"type":"Polygon","properties":{"state":"VA","name":"GREENBUSH","zip":"23357"}},{"arcs":[[1178,1179,1180,1181,1182,-1115,-1125]],"type":"Polygon","properties":{"state":"VA","name":"HALLWOOD","zip":"23359"}},{"arcs":[[1183,1184,-1182]],"type":"Polygon","properties":{"state":"VA","name":"JENKINS BRIDGE","zip":"23399"}},{"arcs":[[1185,1186,1187]],"type":"Polygon","properties":{"state":"VA","name":"LOCUSTVILLE","zip":"23404"}},{"arcs":[[-1130,1188,-1121,1189]],"type":"Polygon","properties":{"state":"VA","name":"MACHIPONGO","zip":"23405"}},{"arcs":[[-1179,-1129,1190]],"type":"Polygon","properties":{"state":"VA","name":"MEARS","zip":"23409"}},{"arcs":[[1191,1192,1193,1194,-1186,1195,1196,1197]],"type":"Polygon","properties":{"state":"VA","name":"MELFA","zip":"23410"}},{"arcs":[[-1123,1198]],"type":"Polygon","properties":{"state":"VA","name":"NASSAWADOX","zip":"23413"}},{"arcs":[[-1170,1199,1200,-1175,1201]],"type":"Polygon","properties":{"state":"VA","name":"NEW CHURCH","zip":"23415"}},{"arcs":[[1202,1203,-1200]],"type":"Polygon","properties":{"state":"VA","name":"OAK HALL","zip":"23416"}},{"arcs":[[-1177,-1110,1204,-1194,1205]],"type":"Polygon","properties":{"state":"VA","name":"ONANCOCK","zip":"23417"}},{"arcs":[[-1187,-1195,-1205,-1109,1206]],"type":"Polygon","properties":{"state":"VA","name":"ONLEY","zip":"23418"}},{"arcs":[[[-1192,1207,-1172,-1120,1208]],[[-1197,1209]]],"type":"MultiPolygon","properties":{"state":"VA","name":"PAINTER","zip":"23420"}},{"arcs":[[-1112,-1176,1210,-1127,1211]],"type":"Polygon","properties":{"state":"VA","name":"PARKSLEY","zip":"23421"}},{"arcs":[[1212,-1184,-1181,1213]],"type":"Polygon","properties":{"state":"VA","name":"SANFORD","zip":"23426"}},{"arcs":[[1214,1215,1216,1217,1218,1219,-1133]],"type":"Polygon","properties":{"state":"VA","name":"SMITHFIELD","zip":"23430"}},{"arcs":[[1220,-1215,-1132,1221,1222,1223,1224]],"type":"Polygon","properties":{"state":"VA","name":"SUFFOLK","zip":"23432"}},{"arcs":[[-1152,1225,1226,1227,-1139,1228,-1225,1229,1230,-1151,-1157]],"type":"Polygon","properties":{"state":"VA","name":"SUFFOLK","zip":"23434"}},{"arcs":[[-1231,1231,1232,-1146]],"type":"Polygon","properties":{"state":"VA","name":"SUFFOLK","zip":"23435"}},{"arcs":[[-1223,1233]],"type":"Polygon","properties":{"state":"VA","name":"SUFFOLK","zip":"23436"}},{"arcs":[[1234,1235,1236,-1135,-1228]],"type":"Polygon","properties":{"state":"VA","name":"SUFFOLK","zip":"23437"}},{"arcs":[[1237,-1235,-1227]],"type":"Polygon","properties":{"state":"VA","name":"SUFFOLK","zip":"23438"}},{"arcs":[[-1185,-1213,-1203,-1169,1238,-1116,-1183]],"type":"Polygon","properties":{"state":"VA","name":"TEMPERANCEVILLE","zip":"23442"}},{"arcs":[[1239,1240,1241,1242]],"type":"Polygon","properties":{"state":"VA","name":"VIRGINIA BEACH","zip":"23451"}},{"arcs":[[1243,1244,1245,1246,1247]],"type":"Polygon","properties":{"state":"VA","name":"VIRGINIA BEACH","zip":"23452"}},{"arcs":[[1248,1249,1250,-1246,1251,-1241]],"type":"Polygon","properties":{"state":"VA","name":"VIRGINIA BEACH","zip":"23454"}},{"arcs":[[1252,1253,1254,1255,-1242,-1252,-1245,1256]],"type":"Polygon","properties":{"state":"VA","name":"VIRGINIA BEACH","zip":"23455"}},{"arcs":[[1257,1258,-1248,1259,-1250,1260,1261,1262,-1154,-1144]],"type":"Polygon","properties":{"state":"VA","name":"VIRGINIA BEACH","zip":"23456"}},{"arcs":[[-1263,1263,-1155]],"type":"Polygon","properties":{"state":"VA","name":"VIRGINIA BEACH","zip":"23457"}},{"arcs":[[-1247,-1251,-1260]],"type":"Polygon","properties":{"state":"VA","name":"VIRGINIA BEACH","zip":"23460"}},{"arcs":[[-1261,-1249,-1240,1264]],"type":"Polygon","properties":{"state":"VA","name":"VIRGINIA BEACH","zip":"23461"}},{"arcs":[[1265,1266,-1257,-1244,-1259]],"type":"Polygon","properties":{"state":"VA","name":"VIRGINIA BEACH","zip":"23462"}},{"arcs":[[-1143,-1167,1267,-1266,-1258]],"type":"Polygon","properties":{"state":"VA","name":"VIRGINIA BEACH","zip":"23464"}},{"arcs":[[1268,1269,-1216,-1221,-1229,-1138]],"type":"Polygon","properties":{"state":"VA","name":"WINDSOR","zip":"23487"}},{"arcs":[[1270,1271,1272,1273,-1253,-1267]],"type":"Polygon","properties":{"state":"VA","name":"NORFOLK","zip":"23502"}},{"arcs":[[1274,1275,1276,1277]],"type":"Polygon","properties":{"state":"VA","name":"NORFOLK","zip":"23503"}},{"arcs":[[1278,1279,1280,1281,-1272,1282]],"type":"Polygon","properties":{"state":"VA","name":"NORFOLK","zip":"23504"}},{"arcs":[[1283,-1275,1284,1285,1286,1287]],"type":"Polygon","properties":{"state":"VA","name":"NORFOLK","zip":"23505"}},{"arcs":[[1288,1289,1290,1291]],"type":"Polygon","properties":{"state":"VA","name":"NORFOLK","zip":"23507"}},{"arcs":[[-1281,1292,-1292,1293]],"type":"Polygon","properties":{"state":"VA","name":"NORFOLK","zip":"23508"}},{"arcs":[[-1287,1294,-1282]],"type":"Polygon","properties":{"state":"VA","name":"NORFOLK","zip":"23509"}},{"arcs":[[-1290,1295,-1279,1296]],"type":"Polygon","properties":{"state":"VA","name":"NORFOLK","zip":"23510"}},{"arcs":[[-1276,-1284,1297]],"type":"Polygon","properties":{"state":"VA","name":"NORFOLK","zip":"23511"}},{"arcs":[[-1295,-1286,1298,-1273]],"type":"Polygon","properties":{"state":"VA","name":"NORFOLK","zip":"23513"}},{"arcs":[[-1289,-1293,-1280,-1296]],"type":"Polygon","properties":{"state":"VA","name":"NORFOLK","zip":"23517"}},{"arcs":[[-1274,-1299,-1285,-1278,1299,1300,-1254]],"type":"Polygon","properties":{"state":"VA","name":"NORFOLK","zip":"23518"}},{"arcs":[[-1301,1301,-1255]],"type":"Polygon","properties":{"state":"VA","name":"NORFOLK","zip":"23521"}},{"arcs":[[-1165,-1163,1302]],"type":"Polygon","properties":{"state":"VA","name":"NORFOLK","zip":"23523"}},{"arcs":[[1303,1304,1305,1306,1307,1308,1309,1310]],"type":"Polygon","properties":{"state":"VA","name":"NEWPORT NEWS","zip":"23601"}},{"arcs":[[1311,1312,1313,1314,1315,1316,-1308]],"type":"Polygon","properties":{"state":"VA","name":"NEWPORT NEWS","zip":"23602"}},{"arcs":[[1317,1318,-1058,1319]],"type":"Polygon","properties":{"state":"VA","name":"NEWPORT NEWS","zip":"23603"}},{"arcs":[[-1059,-1319,1320,-1314,1321]],"type":"Polygon","properties":{"state":"VA","name":"FORT EUSTIS","zip":"23604"}},{"arcs":[[1322,1323,-1304,1324]],"type":"Polygon","properties":{"state":"VA","name":"NEWPORT NEWS","zip":"23605"}},{"arcs":[[-1312,-1307,1325]],"type":"Polygon","properties":{"state":"VA","name":"NEWPORT NEWS","zip":"23606"}},{"arcs":[[1326,1327,-1305,-1324]],"type":"Polygon","properties":{"state":"VA","name":"NEWPORT NEWS","zip":"23607"}},{"arcs":[[-1321,-1318,1328,-1315]],"type":"Polygon","properties":{"state":"VA","name":"NEWPORT NEWS","zip":"23608"}},{"arcs":[[-1327,-1323,1329,1330,1331]],"type":"Polygon","properties":{"state":"VA","name":"HAMPTON","zip":"23661"}},{"arcs":[[1332,1333,1334]],"type":"Polygon","properties":{"state":"VA","name":"POQUOSON","zip":"23662"}},{"arcs":[[1335,1336,1337]],"type":"Polygon","properties":{"state":"VA","name":"HAMPTON","zip":"23663"}},{"arcs":[[-1337,1338,1339]],"type":"Polygon","properties":{"state":"VA","name":"HAMPTON","zip":"23664"}},{"arcs":[[1340,1309,1341]],"type":"Polygon","properties":{"state":"VA","name":"HAMPTON","zip":"23665"}},{"arcs":[[1341,1342,-1333,1343,1344,-1330,-1325,-1311]],"type":"Polygon","properties":{"state":"VA","name":"HAMPTON","zip":"23666"}},{"arcs":[[-1331,-1345,1345,-1339,-1336,1346]],"type":"Polygon","properties":{"state":"VA","name":"HAMPTON","zip":"23669"}},{"arcs":[[1347,-1320,-1057,1348]],"type":"Polygon","properties":{"state":"VA","name":"YORKTOWN","zip":"23690"}},{"arcs":[[-1329,-1348,1349,1350,1351,1352,-1316]],"type":"Polygon","properties":{"state":"VA","name":"YORKTOWN","zip":"23692"}},{"arcs":[[-1317,-1353,1353,-1334,-1343,1340,-1309]],"type":"Polygon","properties":{"state":"VA","name":"YORKTOWN","zip":"23693"}},{"arcs":[[-1351,1354]],"type":"Polygon","properties":{"state":"VA","name":"SEAFORD","zip":"23696"}},{"arcs":[[1355,1356,1357,-1158,-1149,1358]],"type":"Polygon","properties":{"state":"VA","name":"PORTSMOUTH","zip":"23701"}},{"arcs":[[-1358,1359,-1159]],"type":"Polygon","properties":{"state":"VA","name":"PORTSMOUTH","zip":"23702"}},{"arcs":[[-1147,-1233,1360]],"type":"Polygon","properties":{"state":"VA","name":"PORTSMOUTH","zip":"23703"}},{"arcs":[[-1360,-1357,1361,1362]],"type":"Polygon","properties":{"state":"VA","name":"PORTSMOUTH","zip":"23704"}},{"arcs":[[-1362,-1356,1363]],"type":"Polygon","properties":{"state":"VA","name":"PORTSMOUTH","zip":"23707"}},{"arcs":[[1364,1365,1366,1367]],"type":"Polygon","properties":{"state":"VA","name":"FORT LEE","zip":"23801"}},{"arcs":[[1368,1369,1370,1371,1372,1373,1374,1375,1376,-1365]],"type":"Polygon","properties":{"state":"VA","name":"PETERSBURG","zip":"23803"}},{"arcs":[[1377,1378,1379,-1370,1380]],"type":"Polygon","properties":{"state":"VA","name":"PETERSBURG","zip":"23805"}},{"arcs":[[1381,1382,1383,1384,1385,1386,1387,1388]],"type":"Polygon","properties":{"state":"VA","name":"ALBERTA","zip":"23821"}},{"arcs":[[1389,1390,1391,-827,1392,1393,1394,1395,-1387]],"type":"Polygon","properties":{"state":"VA","name":"BLACKSTONE","zip":"23824"}},{"arcs":[[1396,1397,1398,1399,1400]],"type":"Polygon","properties":{"state":"VA","name":"BOYKINS","zip":"23827"}},{"arcs":[[1401,1402,-1399,1403]],"type":"Polygon","properties":{"state":"VA","name":"BRANCHVILLE","zip":"23828"}},{"arcs":[[1404,-1401,1405,1406,1407]],"type":"Polygon","properties":{"state":"VA","name":"CAPRON","zip":"23829"}},{"arcs":[[1408,-1379,1409,1410,1411]],"type":"Polygon","properties":{"state":"VA","name":"CARSON","zip":"23830"}},{"arcs":[[1412,1413,-1108,1414,1415,-1375]],"type":"Polygon","properties":{"state":"VA","name":"CHESTER","zip":"23831"}},{"arcs":[[-1414,1416,-1010,-997,-1104,1417,-1079,-1098,-1105]],"type":"Polygon","properties":{"state":"VA","name":"CHESTERFIELD","zip":"23832"}},{"arcs":[[1418,1419,1420,-825,1421,-1373,1422]],"type":"Polygon","properties":{"state":"VA","name":"CHURCH ROAD","zip":"23833"}},{"arcs":[[-1416,1423,1424,1425,-1376]],"type":"Polygon","properties":{"state":"VA","name":"COLONIAL HEIGHTS","zip":"23834"}},{"arcs":[[-1415,-1107,1426,1427,-1424]],"type":"Polygon","properties":{"state":"VA","name":"CHESTER","zip":"23836"}},{"arcs":[[1428,1429,1430,1431,1432,-1408]],"type":"Polygon","properties":{"state":"VA","name":"COURTLAND","zip":"23837"}},{"arcs":[[-1011,-1417,-1413,-1374,-1422,-824]],"type":"Polygon","properties":{"state":"VA","name":"CHESTERFIELD","zip":"23838"}},{"arcs":[[1433,1434,1435,1436]],"type":"Polygon","properties":{"state":"VA","name":"DENDRON","zip":"23839"}},{"arcs":[[1437,1438,-1420,1439]],"type":"Polygon","properties":{"state":"VA","name":"DEWITT","zip":"23840"}},{"arcs":[[-1419,1440,-1371,-1380,-1409,1441,1442,-1440]],"type":"Polygon","properties":{"state":"VA","name":"DINWIDDIE","zip":"23841"}},{"arcs":[[1443,1444,1445,1446,1447,-1410,-1378]],"type":"Polygon","properties":{"state":"VA","name":"DISPUTANTA","zip":"23842"}},{"arcs":[[1448,-1382,1449]],"type":"Polygon","properties":{"state":"VA","name":"DOLPHIN","zip":"23843"}},{"arcs":[[1450,1451,-1406,-1400,-1403]],"type":"Polygon","properties":{"state":"VA","name":"DREWRYVILLE","zip":"23844"}},{"arcs":[[1452,1453,1454,1455]],"type":"Polygon","properties":{"state":"VA","name":"EBONY","zip":"23845"}},{"arcs":[[1456,1457,-1436,1458,1459,-1218]],"type":"Polygon","properties":{"state":"VA","name":"ELBERON","zip":"23846"}},{"arcs":[[1460,1461,1462,1463,1464,1465,-1451,-1402,1466]],"type":"Polygon","properties":{"state":"VA","name":"EMPORIA","zip":"23847"}},{"arcs":[[1467,-1393,-826,-1421,-1439,1468]],"type":"Polygon","properties":{"state":"VA","name":"FORD","zip":"23850"}},{"arcs":[[1469,1470,-1432,1471,1472,1473,-1136,-1237]],"type":"Polygon","properties":{"state":"VA","name":"FRANKLIN","zip":"23851"}},{"arcs":[[1474,1475,1476,-1465]],"type":"Polygon","properties":{"state":"VA","name":"FREEMAN","zip":"23856"}},{"arcs":[[1477,1478,1479,1480]],"type":"Polygon","properties":{"state":"VA","name":"GASBURG","zip":"23857"}},{"arcs":[[1481,-1425,-1428,1482,-1445,1483,-1367]],"type":"Polygon","properties":{"state":"VA","name":"HOPEWELL","zip":"23860"}},{"arcs":[[1484,-1473,1485,1486,-1457,-1217,-1270]],"type":"Polygon","properties":{"state":"VA","name":"IVOR","zip":"23866"}},{"arcs":[[1487,-1452,-1466,-1477,1488,1489,1490]],"type":"Polygon","properties":{"state":"VA","name":"JARRATT","zip":"23867"}},{"arcs":[[1491,1492,-1383,-1449,1493,-1475,-1464,1494,-1480]],"type":"Polygon","properties":{"state":"VA","name":"LAWRENCEVILLE","zip":"23868"}},{"arcs":[[1495,-1490,1496,1497,-1395,1498,-1469,-1438,-1443]],"type":"Polygon","properties":{"state":"VA","name":"MC KENNEY","zip":"23872"}},{"arcs":[[1499,-1397,-1405,-1433,-1471]],"type":"Polygon","properties":{"state":"VA","name":"NEWSOMS","zip":"23874"}},{"arcs":[[[-1377,-1426,-1482,-1366]],[[-1369,-1368,-1484,-1444,-1381]]],"type":"MultiPolygon","properties":{"state":"VA","name":"PRINCE GEORGE","zip":"23875"}},{"arcs":[[1500,-1388,-1396,-1498]],"type":"Polygon","properties":{"state":"VA","name":"RAWLINGS","zip":"23876"}},{"arcs":[[-1431,1501,1502,-1486,-1472]],"type":"Polygon","properties":{"state":"VA","name":"SEDLEY","zip":"23878"}},{"arcs":[[1503,-1461]],"type":"Polygon","properties":{"state":"VA","name":"SKIPPERS","zip":"23879"}},{"arcs":[[1504,-1459,-1435,1505,-1447,1506]],"type":"Polygon","properties":{"state":"VA","name":"SPRING GROVE","zip":"23881"}},{"arcs":[[1507,1508,-1491,-1496,-1442,-1412]],"type":"Polygon","properties":{"state":"VA","name":"STONY CREEK","zip":"23882"}},{"arcs":[[-1460,-1505,1509,-1219]],"type":"Polygon","properties":{"state":"VA","name":"SURRY","zip":"23883"}},{"arcs":[[-1423,-1372,-1441]],"type":"Polygon","properties":{"state":"VA","name":"SUTHERLAND","zip":"23885"}},{"arcs":[[1510,-1481,-1495,-1463]],"type":"Polygon","properties":{"state":"VA","name":"VALENTINES","zip":"23887"}},{"arcs":[[-1503,1511,-1437,-1458,-1487]],"type":"Polygon","properties":{"state":"VA","name":"WAKEFIELD","zip":"23888"}},{"arcs":[[-1389,-1501,-1497,-1489,-1476,-1494,-1450]],"type":"Polygon","properties":{"state":"VA","name":"WARFIELD","zip":"23889"}},{"arcs":[[-1430,1512,-1508,-1411,-1448,-1506,-1434,-1512,-1502]],"type":"Polygon","properties":{"state":"VA","name":"WAVERLY","zip":"23890"}},{"arcs":[[1513,-1456,1514,1515,-1492,-1479]],"type":"Polygon","properties":{"state":"VA","name":"WHITE PLAINS","zip":"23893"}},{"arcs":[[-1394,-1468,-1499]],"type":"Polygon","properties":{"state":"VA","name":"WILSONS","zip":"23894"}},{"arcs":[[-1488,-1509,-1513,-1429,-1407]],"type":"Polygon","properties":{"state":"VA","name":"YALE","zip":"23897"}},{"arcs":[[-1485,-1269,-1137,-1474]],"type":"Polygon","properties":{"state":"VA","name":"ZUNI","zip":"23898"}},{"arcs":[[1516,1517,1518,1519,1520,-821,1521,1522,1523,1524]],"type":"Polygon","properties":{"state":"VA","name":"FARMVILLE","zip":"23901"}},{"arcs":[[1525,1526,1527,1528,1529]],"type":"Polygon","properties":{"state":"VA","name":"BASKERVILLE","zip":"23915"}},{"arcs":[[1530,1531,1532,1533,1534,-1527]],"type":"Polygon","properties":{"state":"VA","name":"BOYDTON","zip":"23917"}},{"arcs":[[1535,-1531,-1526,1536,1537,-1454]],"type":"Polygon","properties":{"state":"VA","name":"BRACEY","zip":"23919"}},{"arcs":[[-1516,1538,1539,1540,-1384,-1493]],"type":"Polygon","properties":{"state":"VA","name":"BRODNAX","zip":"23920"}},{"arcs":[[1541,1542,1543,1544,1545]],"type":"Polygon","properties":{"state":"VA","name":"BUCKINGHAM","zip":"23921"}},{"arcs":[[1546,1547,1548,1549,-950]],"type":"Polygon","properties":{"state":"VA","name":"BURKEVILLE","zip":"23922"}},{"arcs":[[1550,1551,1552,1553,1554,1555,1556,-1517]],"type":"Polygon","properties":{"state":"VA","name":"CHARLOTTE COURT HOUSE","zip":"23923"}},{"arcs":[[-1535,1557,1558,1559,1560,1561,1562,-1528]],"type":"Polygon","properties":{"state":"VA","name":"CHASE CITY","zip":"23924"}},{"arcs":[[1563,1564,1565,1566,1567,-1533]],"type":"Polygon","properties":{"state":"VA","name":"CLARKSVILLE","zip":"23927"}},{"arcs":[[1568,1569,1570,-1547,-949,-818,-1392,1571]],"type":"Polygon","properties":{"state":"VA","name":"CREWE","zip":"23930"}},{"arcs":[[1572,-1557]],"type":"Polygon","properties":{"state":"VA","name":"CULLEN","zip":"23934"}},{"arcs":[[1573,-1542,1574,-829,-1013,-892,1575]],"type":"Polygon","properties":{"state":"VA","name":"DILLWYN","zip":"23936"}},{"arcs":[[1576,1577,1578,-1552,1579,-1561]],"type":"Polygon","properties":{"state":"VA","name":"DRAKES BRANCH","zip":"23937"}},{"arcs":[[1580,-1390,-1386]],"type":"Polygon","properties":{"state":"VA","name":"DUNDAS","zip":"23938"}},{"arcs":[[1581,-1523,1582,-1549,1583]],"type":"Polygon","properties":{"state":"VA","name":"GREEN BAY","zip":"23942"}},{"arcs":[[-1563,1584,-1572,-1391,-1581,-1385,-1541,1585,-1529]],"type":"Polygon","properties":{"state":"VA","name":"KENBRIDGE","zip":"23944"}},{"arcs":[[-1551,-1525,1586,1587,-1580]],"type":"Polygon","properties":{"state":"VA","name":"KEYSVILLE","zip":"23947"}},{"arcs":[[-1538,1588,-1539,-1515,-1455]],"type":"Polygon","properties":{"state":"VA","name":"LA CROSSE","zip":"23950"}},{"arcs":[[1589,-1570]],"type":"Polygon","properties":{"state":"VA","name":"LUNENBURG","zip":"23952"}},{"arcs":[[1590,-1587,-1524,-1582]],"type":"Polygon","properties":{"state":"VA","name":"MEHERRIN","zip":"23954"}},{"arcs":[[-1556,1591,1592,1593,-1518,-1573]],"type":"Polygon","properties":{"state":"VA","name":"PAMPLIN","zip":"23958"}},{"arcs":[[1594,1595,1596,-1554]],"type":"Polygon","properties":{"state":"VA","name":"PHENIX","zip":"23959"}},{"arcs":[[1597,-1519,-1594]],"type":"Polygon","properties":{"state":"VA","name":"PROSPECT","zip":"23960"}},{"arcs":[[1598,1599,1600,1601,1602,-1595,-1553,-1579]],"type":"Polygon","properties":{"state":"VA","name":"RANDOLPH","zip":"23962"}},{"arcs":[[1603,1604,1605,-1592,-1555,-1597]],"type":"Polygon","properties":{"state":"VA","name":"RED HOUSE","zip":"23963"}},{"arcs":[[1606,1607,-1559,1608,-1567]],"type":"Polygon","properties":{"state":"VA","name":"RED OAK","zip":"23964"}},{"arcs":[[-1583,-1522,-820,-951,-1550]],"type":"Polygon","properties":{"state":"VA","name":"RICE","zip":"23966"}},{"arcs":[[1609,1610,-1599,-1578]],"type":"Polygon","properties":{"state":"VA","name":"SAXE","zip":"23967"}},{"arcs":[[-1568,-1609,-1558,-1534]],"type":"Polygon","properties":{"state":"VA","name":"SKIPWITH","zip":"23968"}},{"arcs":[[-1537,-1530,-1586,-1540,-1589]],"type":"Polygon","properties":{"state":"VA","name":"SOUTH HILL","zip":"23970"}},{"arcs":[[-1591,-1584,-1548,-1571,-1590,-1569,-1585,-1562,-1588]],"type":"Polygon","properties":{"state":"VA","name":"VICTORIA","zip":"23974"}},{"arcs":[[-1608,1611,-1610,-1577,-1560]],"type":"Polygon","properties":{"state":"VA","name":"WYLLIESBURG","zip":"23976"}},{"arcs":[[1612,1613,1614,1615,1616,1617,1618]],"type":"Polygon","properties":{"state":"VA","name":"ROANOKE","zip":"24012"}},{"arcs":[[1619,1620,1621,-1614]],"type":"Polygon","properties":{"state":"VA","name":"ROANOKE","zip":"24013"}},{"arcs":[[1622,1623,1624,-1621,1625,1626,1627]],"type":"Polygon","properties":{"state":"VA","name":"ROANOKE","zip":"24014"}},{"arcs":[[1628,1629,1630,-1624]],"type":"Polygon","properties":{"state":"VA","name":"ROANOKE","zip":"24015"}},{"arcs":[[-1625,-1631,1631,-1615,-1622]],"type":"Polygon","properties":{"state":"VA","name":"ROANOKE","zip":"24016"}},{"arcs":[[1632,1633,-1616,-1632,-1630,1634]],"type":"Polygon","properties":{"state":"VA","name":"ROANOKE","zip":"24017"}},{"arcs":[[1635,1636,1637,1638,-1635,-1629,-1623]],"type":"Polygon","properties":{"state":"VA","name":"ROANOKE","zip":"24018"}},{"arcs":[[1639,1640,1641,1642,1643,-1617,-1634]],"type":"Polygon","properties":{"state":"VA","name":"ROANOKE","zip":"24019"}},{"arcs":[[1644,1645,1646]],"type":"Polygon","properties":{"state":"VA","name":"ARARAT","zip":"24053"}},{"arcs":[[1647,1648,1649,1650,1651]],"type":"Polygon","properties":{"state":"VA","name":"AXTON","zip":"24054"}},{"arcs":[[1652,1653,1654,1655,1656,1657,1658,1659,1660]],"type":"Polygon","properties":{"state":"VA","name":"BASSETT","zip":"24055"}},{"arcs":[[1661,1662,1663,1664,1665,-1638]],"type":"Polygon","properties":{"state":"VA","name":"BENT MOUNTAIN","zip":"24059"}},{"arcs":[[1666,1667,1668,1669,1670,1671,1672]],"type":"Polygon","properties":{"state":"VA","name":"BLACKSBURG","zip":"24060"}},{"arcs":[[1673,1674,1675,1676,1677,-1619]],"type":"Polygon","properties":{"state":"VA","name":"BLUE RIDGE","zip":"24064"}},{"arcs":[[1678,1679,1680,-1636,-1628,1681]],"type":"Polygon","properties":{"state":"VA","name":"BOONES MILL","zip":"24065"}},{"arcs":[[[1682,1683,1684,1685,1686]],[[1687,1688,1689,1690,1691,1692]]],"type":"MultiPolygon","properties":{"state":"VA","name":"BUCHANAN","zip":"24066"}},{"arcs":[[1693,1694,1695,1696,-1662,-1637,-1681]],"type":"Polygon","properties":{"state":"VA","name":"CALLAWAY","zip":"24067"}},{"arcs":[[1697,1698,1699,-1648,1700]],"type":"Polygon","properties":{"state":"VA","name":"CASCADE","zip":"24069"}},{"arcs":[[1701,1702,-1673,1703,1704]],"type":"Polygon","properties":{"state":"VA","name":"CATAWBA","zip":"24070"}},{"arcs":[[1705,1706,1707,1708]],"type":"Polygon","properties":{"state":"VA","name":"CHECK","zip":"24072"}},{"arcs":[[1709,1710,1711,-1668,1712,1713]],"type":"Polygon","properties":{"state":"VA","name":"CHRISTIANSBURG","zip":"24073"}},{"arcs":[[1714,1715,1716,-1647,1717]],"type":"Polygon","properties":{"state":"VA","name":"CLAUDVILLE","zip":"24076"}},{"arcs":[[1718,1719,-1643]],"type":"Polygon","properties":{"state":"VA","name":"CLOVERDALE","zip":"24077"}},{"arcs":[[1720,1721,-1660,1722]],"type":"Polygon","properties":{"state":"VA","name":"COLLINSVILLE","zip":"24078"}},{"arcs":[[1723,-1706,1724,-1663,-1697]],"type":"Polygon","properties":{"state":"VA","name":"COPPER HILL","zip":"24079"}},{"arcs":[[1725,1726,1727]],"type":"Polygon","properties":{"state":"VA","name":"CRITZ","zip":"24082"}},{"arcs":[[1728,-1719,-1642]],"type":"Polygon","properties":{"state":"VA","name":"DALEVILLE","zip":"24083"}},{"arcs":[[1729,1730,1731]],"type":"Polygon","properties":{"state":"VA","name":"DUBLIN","zip":"24084"}},{"arcs":[[1732,1733,1734,1735,-1685,1736,-1689,1737]],"type":"Polygon","properties":{"state":"VA","name":"EAGLE ROCK","zip":"24085"}},{"arcs":[[1738,1739]],"type":"Polygon","properties":{"state":"VA","name":"EGGLESTON","zip":"24086"}},{"arcs":[[1740,-1713,-1667,-1703,1741,-1665]],"type":"Polygon","properties":{"state":"VA","name":"ELLISTON","zip":"24087"}},{"arcs":[[1742,1743,1744,1745,-1695,1746]],"type":"Polygon","properties":{"state":"VA","name":"FERRUM","zip":"24088"}},{"arcs":[[1747,-1721,1748,-1653]],"type":"Polygon","properties":{"state":"VA","name":"FIELDALE","zip":"24089"}},{"arcs":[[1749,-1738,-1688,1750]],"type":"Polygon","properties":{"state":"VA","name":"FINCASTLE","zip":"24090"}},{"arcs":[[1751,1752,1753,1754,1755,-1707,-1724,-1696,-1746]],"type":"Polygon","properties":{"state":"VA","name":"FLOYD","zip":"24091"}},{"arcs":[[1756,1757,1758,1759]],"type":"Polygon","properties":{"state":"VA","name":"GLADE HILL","zip":"24092"}},{"arcs":[[1760,1761,1762]],"type":"Polygon","properties":{"state":"VA","name":"GLEN LYN","zip":"24093"}},{"arcs":[[1763,1764,1765]],"type":"Polygon","properties":{"state":"VA","name":"GOODVIEW","zip":"24095"}},{"arcs":[[-1627,1766,-1764,1767,1768,-1682]],"type":"Polygon","properties":{"state":"VA","name":"HARDY","zip":"24101"}},{"arcs":[[1769,-1743,1770,-1657]],"type":"Polygon","properties":{"state":"VA","name":"HENRY","zip":"24102"}},{"arcs":[[1771,1772,1773,1774,1775,1776,1777,1778,1779]],"type":"Polygon","properties":{"state":"VA","name":"HUDDLESTON","zip":"24104"}},{"arcs":[[1780,1781,1782]],"type":"Polygon","properties":{"state":"VA","name":"INDIAN VALLEY","zip":"24105"}},{"arcs":[[1783,1784,1785,-1654,-1749,-1723,-1659,1786,1787,1788,-1650]],"type":"Polygon","properties":{"state":"VA","name":"MARTINSVILLE","zip":"24112"}},{"arcs":[[1789,1790,1791,-1753,1792,1793,-1718,-1646]],"type":"Polygon","properties":{"state":"VA","name":"MEADOWS OF DAN","zip":"24120"}},{"arcs":[[1794,1795,-1768,-1766,1796,1797,1798,-1775]],"type":"Polygon","properties":{"state":"VA","name":"MONETA","zip":"24121"}},{"arcs":[[1799,-1676,1800]],"type":"Polygon","properties":{"state":"VA","name":"MONTVALE","zip":"24122"}},{"arcs":[[1801,1802,-1763,1803,1804,1805,1806,1807,1808]],"type":"Polygon","properties":{"state":"VA","name":"NARROWS","zip":"24124"}},{"arcs":[[1809,1810,1811,-1733,-1750,1812]],"type":"Polygon","properties":{"state":"VA","name":"NEW CASTLE","zip":"24127"}},{"arcs":[[1813,1814,1815,-1671]],"type":"Polygon","properties":{"state":"VA","name":"NEWPORT","zip":"24128"}},{"arcs":[[1816,1817,-1811]],"type":"Polygon","properties":{"state":"VA","name":"PAINT BANK","zip":"24131"}},{"arcs":[[1818,-1727,1819,-1655,-1786]],"type":"Polygon","properties":{"state":"VA","name":"PATRICK SPRINGS","zip":"24133"}},{"arcs":[[1820,-1732,1821,1822,1823,1824,-1807,1825,1826,-1739,1827,-1814,-1670]],"type":"Polygon","properties":{"state":"VA","name":"PEARISBURG","zip":"24134"}},{"arcs":[[-1827,1828,1829,-1815,-1828,-1740]],"type":"Polygon","properties":{"state":"VA","name":"PEMBROKE","zip":"24136"}},{"arcs":[[1830,-1757,1831,1832,1833,1834,-1788]],"type":"Polygon","properties":{"state":"VA","name":"PENHOOK","zip":"24137"}},{"arcs":[[1835,-1710,1836,-1708,-1756]],"type":"Polygon","properties":{"state":"VA","name":"PILOT","zip":"24138"}},{"arcs":[[1837,1838,1839,-1773]],"type":"Polygon","properties":{"state":"VA","name":"PITTSVILLE","zip":"24139"}},{"arcs":[[1840,1841,1842,1843,-1730,-1821,-1669,-1712]],"type":"Polygon","properties":{"state":"VA","name":"RADFORD","zip":"24141"}},{"arcs":[[1844,-1804,-1762]],"type":"Polygon","properties":{"state":"VA","name":"RICH CREEK","zip":"24147"}},{"arcs":[[1845,1846,-1784,-1649,-1700]],"type":"Polygon","properties":{"state":"VA","name":"RIDGEWAY","zip":"24148"}},{"arcs":[[1847,-1841,-1711,-1836,-1755]],"type":"Polygon","properties":{"state":"VA","name":"RINER","zip":"24149"}},{"arcs":[[-1826,-1806,1848,-1829]],"type":"Polygon","properties":{"state":"VA","name":"RIPPLEMEAD","zip":"24150"}},{"arcs":[[-1747,-1694,-1680,1849,-1758,-1831,-1787,-1658,-1771]],"type":"Polygon","properties":{"state":"VA","name":"ROCKY MOUNT","zip":"24151"}},{"arcs":[[-1666,-1742,-1702,1850,-1640,-1633,-1639]],"type":"Polygon","properties":{"state":"VA","name":"SALEM","zip":"24153"}},{"arcs":[[1851,-1833,1852,-1774,-1840]],"type":"Polygon","properties":{"state":"VA","name":"SANDY LEVEL","zip":"24161"}},{"arcs":[[-1709,-1837,-1714,-1741,-1664,-1725]],"type":"Polygon","properties":{"state":"VA","name":"SHAWSVILLE","zip":"24162"}},{"arcs":[[1853,-1728,-1819,-1785,-1847,1854]],"type":"Polygon","properties":{"state":"VA","name":"SPENCER","zip":"24165"}},{"arcs":[[1855,-1824]],"type":"Polygon","properties":{"state":"VA","name":"STAFFORDSVILLE","zip":"24167"}},{"arcs":[[-1661,-1722,-1748]],"type":"Polygon","properties":{"state":"VA","name":"STANLEYTOWN","zip":"24168"}},{"arcs":[[-1854,1856,-1715,-1794,1857,-1744,-1770,-1656,-1820,-1726]],"type":"Polygon","properties":{"state":"VA","name":"STUART","zip":"24171"}},{"arcs":[[-1798,1858,-1677,-1800,1859]],"type":"Polygon","properties":{"state":"VA","name":"THAXTON","zip":"24174"}},{"arcs":[[-1851,-1705,1860,-1674,-1618,-1644,-1720,-1729,-1641]],"type":"Polygon","properties":{"state":"VA","name":"TROUTVILLE","zip":"24175"}},{"arcs":[[-1760,1861,-1795,-1853,-1832]],"type":"Polygon","properties":{"state":"VA","name":"UNION HALL","zip":"24176"}},{"arcs":[[-1626,-1620,-1613,-1678,-1859,-1797,-1765,-1767]],"type":"Polygon","properties":{"state":"VA","name":"VINTON","zip":"24179"}},{"arcs":[[-1850,-1679,-1769,-1796,-1862,-1759]],"type":"Polygon","properties":{"state":"VA","name":"WIRTZ","zip":"24184"}},{"arcs":[[-1752,-1745,-1858,-1793]],"type":"Polygon","properties":{"state":"VA","name":"WOOLWINE","zip":"24185"}},{"arcs":[[1862,1863]],"type":"Polygon","properties":{"state":"VA","name":"BRISTOL","zip":"24201"}},{"arcs":[[1864,1865,1866,1867,1868,1869,-1864]],"type":"Polygon","properties":{"state":"VA","name":"BRISTOL","zip":"24202"}},{"arcs":[[1870,1871,-1868,1872,1873,1874]],"type":"Polygon","properties":{"state":"VA","name":"ABINGDON","zip":"24210"}},{"arcs":[[-1872,1875,1876,1877,-1869]],"type":"Polygon","properties":{"state":"VA","name":"ABINGDON","zip":"24211"}},{"arcs":[[1878,1879,1880,1881,1882,1883,1884,1885,1886]],"type":"Polygon","properties":{"state":"VA","name":"APPALACHIA","zip":"24216"}},{"arcs":[[1887,1888,1889,1890,1891,1892]],"type":"Polygon","properties":{"state":"VA","name":"BEE","zip":"24217"}},{"arcs":[[1893,1894,1895,-1886,1896,1897]],"type":"Polygon","properties":{"state":"VA","name":"BIG STONE GAP","zip":"24219"}},{"arcs":[[1898,-1892,1899,1900]],"type":"Polygon","properties":{"state":"VA","name":"BIRCHLEAF","zip":"24220"}},{"arcs":[[1901,1902,1903]],"type":"Polygon","properties":{"state":"VA","name":"BLACKWATER","zip":"24221"}},{"arcs":[[1904,1905,1906,1907,1908,1909,1910,1911,1912]],"type":"Polygon","properties":{"state":"VA","name":"CASTLEWOOD","zip":"24224"}},{"arcs":[[1913,1914,-1911,1915,-1888,1916,1917]],"type":"Polygon","properties":{"state":"VA","name":"CLEVELAND","zip":"24225"}},{"arcs":[[1918,1919,1920,1921,1922]],"type":"Polygon","properties":{"state":"VA","name":"CLINCHCO","zip":"24226"}},{"arcs":[[1923,1924,1925,1926,1927,-1921]],"type":"Polygon","properties":{"state":"VA","name":"CLINTWOOD","zip":"24228"}},{"arcs":[[1928,-1906,1929,-1898,1930,1931,1932,-1925,1933,1934]],"type":"Polygon","properties":{"state":"VA","name":"COEBURN","zip":"24230"}},{"arcs":[[1935,1936,1937,1938,1939,1940,-1877]],"type":"Polygon","properties":{"state":"VA","name":"DAMASCUS","zip":"24236"}},{"arcs":[[1941,-1923,-1890,1942,-1909]],"type":"Polygon","properties":{"state":"VA","name":"DANTE","zip":"24237"}},{"arcs":[[1943,-1917,1944]],"type":"Polygon","properties":{"state":"VA","name":"DAVENPORT","zip":"24239"}},{"arcs":[[1945,1946,1947,-1887,-1896]],"type":"Polygon","properties":{"state":"VA","name":"DRYDEN","zip":"24243"}},{"arcs":[[1948,1949,-1904,1950,1951,-1946,-1895,1952]],"type":"Polygon","properties":{"state":"VA","name":"DUFFIELD","zip":"24244"}},{"arcs":[[1953,1954,1955,-1930,-1905]],"type":"Polygon","properties":{"state":"VA","name":"DUNGANNON","zip":"24245"}},{"arcs":[[1956,1957]],"type":"Polygon","properties":{"state":"VA","name":"EWING","zip":"24248"}},{"arcs":[[-1894,-1956,1958,-1953]],"type":"Polygon","properties":{"state":"VA","name":"FORT BLACKMORE","zip":"24250"}},{"arcs":[[1959,1960,-1949,-1959,-1955,1961,1962]],"type":"Polygon","properties":{"state":"VA","name":"GATE CITY","zip":"24251"}},{"arcs":[[-1891,-1922,-1928,1963,1964,1965,1966,1967,-1900]],"type":"Polygon","properties":{"state":"VA","name":"HAYSI","zip":"24256"}},{"arcs":[[1968,-1963,1969,1970,-1866,1971]],"type":"Polygon","properties":{"state":"VA","name":"HILTONS","zip":"24258"}},{"arcs":[[1972,1973,1974,-1918,-1944,1975,1976,1977]],"type":"Polygon","properties":{"state":"VA","name":"HONAKER","zip":"24260"}},{"arcs":[[1978,1979,1980,-1951,-1903,1981]],"type":"Polygon","properties":{"state":"VA","name":"JONESVILLE","zip":"24263"}},{"arcs":[[1982,1983,1984,-1879,-1948]],"type":"Polygon","properties":{"state":"VA","name":"KEOKEE","zip":"24265"}},{"arcs":[[-1915,1985,1986,-1874,1987,1988,-1912]],"type":"Polygon","properties":{"state":"VA","name":"LEBANON","zip":"24266"}},{"arcs":[[1989,-1934,-1924,-1920]],"type":"Polygon","properties":{"state":"VA","name":"MC CLURE","zip":"24269"}},{"arcs":[[-1971,-1988,-1873,-1867]],"type":"Polygon","properties":{"state":"VA","name":"MENDOTA","zip":"24270"}},{"arcs":[[-1970,-1962,-1954,-1913,-1989]],"type":"Polygon","properties":{"state":"VA","name":"NICKELSVILLE","zip":"24271"}},{"arcs":[[-1908,1990,-1935,-1990,-1919,-1942]],"type":"Polygon","properties":{"state":"VA","name":"NORA","zip":"24272"}},{"arcs":[[-1897,-1885,1991,-1931]],"type":"Polygon","properties":{"state":"VA","name":"NORTON","zip":"24273"}},{"arcs":[[-1952,-1981,1992,1993,-1983,-1947]],"type":"Polygon","properties":{"state":"VA","name":"PENNINGTON GAP","zip":"24277"}},{"arcs":[[1994,-1926,-1933,1995,-1883]],"type":"Polygon","properties":{"state":"VA","name":"POUND","zip":"24279"}},{"arcs":[[-1975,1996,1997,1998,-1986,-1914]],"type":"Polygon","properties":{"state":"VA","name":"ROSEDALE","zip":"24280"}},{"arcs":[[1999,-1958,2000,-1979]],"type":"Polygon","properties":{"state":"VA","name":"ROSE HILL","zip":"24281"}},{"arcs":[[2001,-1984,-1994]],"type":"Polygon","properties":{"state":"VA","name":"SAINT CHARLES","zip":"24282"}},{"arcs":[[-1929,-1991,-1907]],"type":"Polygon","properties":{"state":"VA","name":"SAINT PAUL","zip":"24283"}},{"arcs":[[2002,-1881]],"type":"Polygon","properties":{"state":"VA","name":"STONEGA","zip":"24285"}},{"arcs":[[-1943,-1889,-1916,-1910]],"type":"Polygon","properties":{"state":"VA","name":"TRAMMEL","zip":"24289"}},{"arcs":[[2003,-1960,-1969]],"type":"Polygon","properties":{"state":"VA","name":"WEBER CITY","zip":"24290"}},{"arcs":[[2004,2005,-1940,2006,2007]],"type":"Polygon","properties":{"state":"VA","name":"WHITETOP","zip":"24292"}},{"arcs":[[-1884,-1996,-1932,-1992]],"type":"Polygon","properties":{"state":"VA","name":"WISE","zip":"24293"}},{"arcs":[[2008,2009,-1822,-1731,-1844,2010,2011]],"type":"Polygon","properties":{"state":"VA","name":"PULASKI","zip":"24301"}},{"arcs":[[2012,2013]],"type":"Polygon","properties":{"state":"VA","name":"ATKINS","zip":"24311"}},{"arcs":[[2014,2015,2016,2017,2018,2019]],"type":"Polygon","properties":{"state":"VA","name":"AUSTINVILLE","zip":"24312"}},{"arcs":[[2020,2021,2022,2023]],"type":"Polygon","properties":{"state":"VA","name":"BARREN SPRINGS","zip":"24313"}},{"arcs":[[2024,2025,2026,2027,-1809,2028,2029]],"type":"Polygon","properties":{"state":"VA","name":"BASTIAN","zip":"24314"}},{"arcs":[[2030,2031,2032,-2029,-1808,-1825,-1856,-1823,-2010]],"type":"Polygon","properties":{"state":"VA","name":"BLAND","zip":"24315"}},{"arcs":[[2033,2034,2035,2036]],"type":"Polygon","properties":{"state":"VA","name":"CANA","zip":"24317"}},{"arcs":[[2037,2038,2039,2040,-2030,-2033,2041]],"type":"Polygon","properties":{"state":"VA","name":"CERES","zip":"24318"}},{"arcs":[[2042,-1938,2043,2044,2045]],"type":"Polygon","properties":{"state":"VA","name":"CHILHOWIE","zip":"24319"}},{"arcs":[[2046,2047,2048,2049,2050]],"type":"Polygon","properties":{"state":"VA","name":"CRIPPLE CREEK","zip":"24322"}},{"arcs":[[2051,2052]],"type":"Polygon","properties":{"state":"VA","name":"CROCKETT","zip":"24323"}},{"arcs":[[2053,-2012,2054,-2023]],"type":"Polygon","properties":{"state":"VA","name":"DRAPER","zip":"24324"}},{"arcs":[[2055,2056,2057,-1781,2058]],"type":"Polygon","properties":{"state":"VA","name":"DUGSPUR","zip":"24325"}},{"arcs":[[2059,2060,2061,2062,2063,-2047]],"type":"Polygon","properties":{"state":"VA","name":"ELK CREEK","zip":"24326"}},{"arcs":[[2064,2065,2066,-2037]],"type":"Polygon","properties":{"state":"VA","name":"FANCY GAP","zip":"24328"}},{"arcs":[[-2051,2067,-2018,2068,2069,-2060]],"type":"Polygon","properties":{"state":"VA","name":"FRIES","zip":"24330"}},{"arcs":[[2070,-2069,-2017,2071,2072,-2066,2073,2074]],"type":"Polygon","properties":{"state":"VA","name":"GALAX","zip":"24333"}},{"arcs":[[2075,2076,-2044,-1937]],"type":"Polygon","properties":{"state":"VA","name":"GLADE SPRING","zip":"24340"}},{"arcs":[[-1645,-1717,2077,-2034,-2067,-2073,2078,-2015,2079,-2021,2080,-2057,2081,-1790]],"type":"Polygon","properties":{"state":"VA","name":"HILLSVILLE","zip":"24343"}},{"arcs":[[-2055,-2011,-1843,2082,-1782,-2058,-2081,-2024]],"type":"Polygon","properties":{"state":"VA","name":"HIWASSEE","zip":"24347"}},{"arcs":[[2083,2084,-2061,-2070,-2071,2085]],"type":"Polygon","properties":{"state":"VA","name":"INDEPENDENCE","zip":"24348"}},{"arcs":[[-2068,-2050,2086,2087,-2019]],"type":"Polygon","properties":{"state":"VA","name":"IVANHOE","zip":"24350"}},{"arcs":[[2088,-2074,-2065,-2036]],"type":"Polygon","properties":{"state":"VA","name":"LAMBSBURG","zip":"24351"}},{"arcs":[[-2082,-2056,-1791]],"type":"Polygon","properties":{"state":"VA","name":"LAUREL FORK","zip":"24352"}},{"arcs":[[2089,-2039,2090,-2013,2091,2092,2093,-2046]],"type":"Polygon","properties":{"state":"VA","name":"MARION","zip":"24354"}},{"arcs":[[2094,-2031,-2009,-2054,-2022,-2080,-2020,-2088]],"type":"Polygon","properties":{"state":"VA","name":"MAX MEADOWS","zip":"24360"}},{"arcs":[[-1936,-1876,-1871,2095,-2076]],"type":"Polygon","properties":{"state":"VA","name":"MEADOWVIEW","zip":"24361"}},{"arcs":[[2096,-2005,2097,2098,-2084]],"type":"Polygon","properties":{"state":"VA","name":"MOUTH OF WILSON","zip":"24363"}},{"arcs":[[2099,2100,-1802,-2028]],"type":"Polygon","properties":{"state":"VA","name":"ROCKY GAP","zip":"24366"}},{"arcs":[[-2014,-2091,-2038,2101,-2052,2102,2103,2104,-2092]],"type":"Polygon","properties":{"state":"VA","name":"RURAL RETREAT","zip":"24368"}},{"arcs":[[-2077,-2096,-1875,-1987,-1999,2105,2106,2107,-2040,-2090,-2045]],"type":"Polygon","properties":{"state":"VA","name":"SALTVILLE","zip":"24370"}},{"arcs":[[2108,-2104,2109,-2048,-2064]],"type":"Polygon","properties":{"state":"VA","name":"SPEEDWELL","zip":"24374"}},{"arcs":[[2110,-2093,-2105,-2109,-2063]],"type":"Polygon","properties":{"state":"VA","name":"SUGAR GROVE","zip":"24375"}},{"arcs":[[2111,-2107]],"type":"Polygon","properties":{"state":"VA","name":"TANNERSVILLE","zip":"24377"}},{"arcs":[[2112,-2007,-1939,-2043,-2094,-2111,-2062,-2085,-2099]],"type":"Polygon","properties":{"state":"VA","name":"TROUT DALE","zip":"24378"}},{"arcs":[[-2008,-2113,-2098]],"type":"Polygon","properties":{"state":"VA","name":"VOLNEY","zip":"24379"}},{"arcs":[[-1783,-2083,-1842,-1848,-1754,-1792,-2059]],"type":"Polygon","properties":{"state":"VA","name":"WILLIS","zip":"24380"}},{"arcs":[[-2016,-2079,-2072]],"type":"Polygon","properties":{"state":"VA","name":"WOODLAWN","zip":"24381"}},{"arcs":[[-2053,-2102,-2042,-2032,-2095,-2087,-2049,-2110,-2103]],"type":"Polygon","properties":{"state":"VA","name":"WYTHEVILLE","zip":"24382"}},{"arcs":[[2113,2114,2115,2116,2117,-696,2118,2119,2120,-813,-769,-817]],"type":"Polygon","properties":{"state":"VA","name":"STAUNTON","zip":"24401"}},{"arcs":[[2121,2122]],"type":"Polygon","properties":{"state":"VA","name":"BLUE GRASS","zip":"24413"}},{"arcs":[[2123,2124,2125,2126,2127]],"type":"Polygon","properties":{"state":"VA","name":"BUENA VISTA","zip":"24416"}},{"arcs":[[2128,2129,-692,-2118]],"type":"Polygon","properties":{"state":"VA","name":"CHURCHVILLE","zip":"24421"}},{"arcs":[[2130,2131,2132,2133,2134,-1735]],"type":"Polygon","properties":{"state":"VA","name":"CLIFTON FORGE","zip":"24422"}},{"arcs":[[2135,2136,-2131,-1734,-1812,-1818]],"type":"Polygon","properties":{"state":"VA","name":"COVINGTON","zip":"24426"}},{"arcs":[[2137,2138,2139,2140,2141]],"type":"Polygon","properties":{"state":"VA","name":"CRAIGSVILLE","zip":"24430"}},{"arcs":[[-815,2142,2143,-747]],"type":"Polygon","properties":{"state":"VA","name":"CRIMORA","zip":"24431"}},{"arcs":[[2144,2145,2146,2147,-2140]],"type":"Polygon","properties":{"state":"VA","name":"DEERFIELD","zip":"24432"}},{"arcs":[[2148,2149,2150]],"type":"Polygon","properties":{"state":"VA","name":"DOE HILL","zip":"24433"}},{"arcs":[[2151,-2127,2152,2153,2154]],"type":"Polygon","properties":{"state":"VA","name":"FAIRFIELD","zip":"24435"}},{"arcs":[[2155,2156,2157,-2143,-814,-2121]],"type":"Polygon","properties":{"state":"VA","name":"FORT DEFIANCE","zip":"24437"}},{"arcs":[[2158,-2145,-2139,2159,2160,-2134]],"type":"Polygon","properties":{"state":"VA","name":"GOSHEN","zip":"24439"}},{"arcs":[[2161,2162,-2115,2163,-785]],"type":"Polygon","properties":{"state":"VA","name":"GREENVILLE","zip":"24440"}},{"arcs":[[-748,-2144,-2158,2164,2165,-685,2166,-669]],"type":"Polygon","properties":{"state":"VA","name":"GROTTOES","zip":"24441"}},{"arcs":[[2167,2168,2169,-2147,2170]],"type":"Polygon","properties":{"state":"VA","name":"HEAD WATERS","zip":"24442"}},{"arcs":[[-2137,2171,2172,2173,-2132]],"type":"Polygon","properties":{"state":"VA","name":"HOT SPRINGS","zip":"24445"}},{"arcs":[[-2135,-2161,2174,-2153,-2126,2175,2176,-1686,-1736]],"type":"Polygon","properties":{"state":"VA","name":"LEXINGTON","zip":"24450"}},{"arcs":[[2177,2178,-2149,2179,-2168,2180]],"type":"Polygon","properties":{"state":"VA","name":"MC DOWELL","zip":"24458"}},{"arcs":[[2181,-2138,2182,-2116,-2163,2183]],"type":"Polygon","properties":{"state":"VA","name":"MIDDLEBROOK","zip":"24459"}},{"arcs":[[2184,2185,-2171,-2146,-2159,-2133,-2174]],"type":"Polygon","properties":{"state":"VA","name":"MILLBORO","zip":"24460"}},{"arcs":[[2186,2187,-783,-812,-802]],"type":"Polygon","properties":{"state":"VA","name":"MONTEBELLO","zip":"24464"}},{"arcs":[[2188,-2122,2189,-2150,-2179,2190,2191]],"type":"Polygon","properties":{"state":"VA","name":"MONTEREY","zip":"24465"}},{"arcs":[[2192,-2119,-695,-646,2193,-2165,-2157]],"type":"Polygon","properties":{"state":"VA","name":"MOUNT SIDNEY","zip":"24467"}},{"arcs":[[2194,2195,-2191,-2178]],"type":"Polygon","properties":{"state":"VA","name":"MUSTOE","zip":"24468"}},{"arcs":[[-2167,-687,-632,-683,-670]],"type":"Polygon","properties":{"state":"VA","name":"PORT REPUBLIC","zip":"24471"}},{"arcs":[[2196,-2155,2197,-2184,-2162,-784,-2188]],"type":"Polygon","properties":{"state":"VA","name":"RAPHINE","zip":"24472"}},{"arcs":[[-2175,-2160,-2182,-2198,-2154]],"type":"Polygon","properties":{"state":"VA","name":"ROCKBRIDGE BATHS","zip":"24473"}},{"arcs":[[-2114,-816,-786,-2164]],"type":"Polygon","properties":{"state":"VA","name":"STUARTS DRAFT","zip":"24477"}},{"arcs":[[-2183,-2142,2198,-2129,-2117]],"type":"Polygon","properties":{"state":"VA","name":"SWOOPE","zip":"24479"}},{"arcs":[[-2193,-2156,-2120]],"type":"Polygon","properties":{"state":"VA","name":"VERONA","zip":"24482"}},{"arcs":[[2199,-2128,-2152,-2197,-2187,-801]],"type":"Polygon","properties":{"state":"VA","name":"VESUVIUS","zip":"24483"}},{"arcs":[[2200,-2192,-2196,2201,-2185,-2173]],"type":"Polygon","properties":{"state":"VA","name":"WARM SPRINGS","zip":"24484"}},{"arcs":[[-2141,-2148,-2170,-693,-2130,-2199]],"type":"Polygon","properties":{"state":"VA","name":"WEST AUGUSTA","zip":"24485"}},{"arcs":[[-645,-686,-2166,-2194]],"type":"Polygon","properties":{"state":"VA","name":"WEYERS CAVE","zip":"24486"}},{"arcs":[[-2202,-2195,-2181,-2186]],"type":"Polygon","properties":{"state":"VA","name":"WILLIAMSVILLE","zip":"24487"}},{"arcs":[[2202,2203,2204,2205]],"type":"Polygon","properties":{"state":"VA","name":"LYNCHBURG","zip":"24501"}},{"arcs":[[2206,2207,-2203,2208,2209]],"type":"Polygon","properties":{"state":"VA","name":"LYNCHBURG","zip":"24502"}},{"arcs":[[-2208,2210,2211,2212,2213,-2204]],"type":"Polygon","properties":{"state":"VA","name":"LYNCHBURG","zip":"24503"}},{"arcs":[[2214,2215,-2205,-2214,2216]],"type":"Polygon","properties":{"state":"VA","name":"LYNCHBURG","zip":"24504"}},{"arcs":[[2217,2218,2219,2220]],"type":"Polygon","properties":{"state":"VA","name":"ALTAVISTA","zip":"24517"}},{"arcs":[[2221,2222,2223,2224,2225]],"type":"Polygon","properties":{"state":"VA","name":"ALTON","zip":"24520"}},{"arcs":[[2226,2227,2228,-800,-733]],"type":"Polygon","properties":{"state":"VA","name":"AMHERST","zip":"24521"}},{"arcs":[[2229,2230,2231,2232,-1520,-1598,-1593,-1606]],"type":"Polygon","properties":{"state":"VA","name":"APPOMATTOX","zip":"24522"}},{"arcs":[[-1692,2233,2234,2235]],"type":"Polygon","properties":{"state":"VA","name":"BEDFORD","zip":"24523"}},{"arcs":[[-2235,2236,2237]],"type":"Polygon","properties":{"state":"VA","name":"BIG ISLAND","zip":"24526"}},{"arcs":[[2238,2239,2240]],"type":"Polygon","properties":{"state":"VA","name":"BLAIRS","zip":"24527"}},{"arcs":[[-1603,2241,2242,2243,-1604,-1596]],"type":"Polygon","properties":{"state":"VA","name":"BROOKNEAL","zip":"24528"}},{"arcs":[[2244,2245,2246,2247,-1565]],"type":"Polygon","properties":{"state":"VA","name":"BUFFALO JUNCTION","zip":"24529"}},{"arcs":[[2248,2249,-1651,-1789,-1835,2250]],"type":"Polygon","properties":{"state":"VA","name":"CALLANDS","zip":"24530"}},{"arcs":[[-1834,-1852,-1839,2251,2252,2253,2254,2255,-2251]],"type":"Polygon","properties":{"state":"VA","name":"CHATHAM","zip":"24531"}},{"arcs":[[2256,2257,-1601]],"type":"Polygon","properties":{"state":"VA","name":"CLOVER","zip":"24534"}},{"arcs":[[2258,2259,-2212]],"type":"Polygon","properties":{"state":"VA","name":"COLEMAN FALLS","zip":"24536"}},{"arcs":[[2260,-2215,2261,-2232,2262,-2230,-1605,-2244,2263]],"type":"Polygon","properties":{"state":"VA","name":"CONCORD","zip":"24538"}},{"arcs":[[2264,2265,2266]],"type":"Polygon","properties":{"state":"VA","name":"CRYSTAL HILL","zip":"24539"}},{"arcs":[[-1652,-2250,2267,-2239,2268,2269,2270,-1701]],"type":"Polygon","properties":{"state":"VA","name":"DANVILLE","zip":"24540"}},{"arcs":[[2271,2272,-1698,-2271]],"type":"Polygon","properties":{"state":"VA","name":"DANVILLE","zip":"24541"}},{"arcs":[[-2268,-2249,-2256,2273,-2240]],"type":"Polygon","properties":{"state":"VA","name":"DRY FORK","zip":"24549"}},{"arcs":[[2274,-1779,2275,-2210,2276,2277,-2221]],"type":"Polygon","properties":{"state":"VA","name":"EVINGTON","zip":"24550"}},{"arcs":[[2278,2279,-2259,-2211,-2207,-2276,-1778]],"type":"Polygon","properties":{"state":"VA","name":"FOREST","zip":"24551"}},{"arcs":[[[-738,2280,2281,-2227]],[[-1574,2282,2283,-1543]]],"type":"MultiPolygon","properties":{"state":"VA","name":"GLADSTONE","zip":"24553"}},{"arcs":[[2284,2285,2286,-2218,-2278,2287,-2264,-2243]],"type":"Polygon","properties":{"state":"VA","name":"GLADYS","zip":"24554"}},{"arcs":[[2288,2289,-2176,-2125,2290,2291]],"type":"Polygon","properties":{"state":"VA","name":"GLASGOW","zip":"24555"}},{"arcs":[[-2279,-1777,2292]],"type":"Polygon","properties":{"state":"VA","name":"GOODE","zip":"24556"}},{"arcs":[[2293,2294,-2252,-1838,-1772,2295,2296,2297]],"type":"Polygon","properties":{"state":"VA","name":"GRETNA","zip":"24557"}},{"arcs":[[2298,2299,2264,2300,2301]],"type":"Polygon","properties":{"state":"VA","name":"HALIFAX","zip":"24558"}},{"arcs":[[-805,-756,2302]],"type":"Polygon","properties":{"state":"VA","name":"HOWARDSVILLE","zip":"24562"}},{"arcs":[[2303,-2297,2304,-2219,-2287]],"type":"Polygon","properties":{"state":"VA","name":"HURT","zip":"24563"}},{"arcs":[[-2295,2305,2306,-2253]],"type":"Polygon","properties":{"state":"VA","name":"JAVA","zip":"24565"}},{"arcs":[[-2241,-2274,-2255,2307,2308,2309,2310,-2269]],"type":"Polygon","properties":{"state":"VA","name":"KEELING","zip":"24566"}},{"arcs":[[-2304,-2286,2311,-2298]],"type":"Polygon","properties":{"state":"VA","name":"LONG ISLAND","zip":"24569"}},{"arcs":[[-2275,-2220,-2305,-2296,-1780]],"type":"Polygon","properties":{"state":"VA","name":"LYNCH STATION","zip":"24571"}},{"arcs":[[2312]],"type":"Polygon","properties":{"state":"VA","name":"MADISON HEIGHTS","zip":"24572"}},{"arcs":[[-2291,-2124,-2200,-2229,2313]],"type":"Polygon","properties":{"state":"VA","name":"MONROE","zip":"24574"}},{"arcs":[[-2294,-2312,-2285,-2242,-1602,-2258,2314,2266,-2300,2315,-2306]],"type":"Polygon","properties":{"state":"VA","name":"NATHALIE","zip":"24577"}},{"arcs":[[2316,-1687,-2177,-2290]],"type":"Polygon","properties":{"state":"VA","name":"NATURAL BRIDGE","zip":"24578"}},{"arcs":[[[-1683,-2317,-2289,2317]],[[-1691,2318,-2237,-2234]]],"type":"MultiPolygon","properties":{"state":"VA","name":"NATURAL BRIDGE STATION","zip":"24579"}},{"arcs":[[2319,2320,-2246]],"type":"Polygon","properties":{"state":"VA","name":"NELSON","zip":"24580"}},{"arcs":[[2321,-2272,-2270,-2311,2322,-2222]],"type":"Polygon","properties":{"state":"VA","name":"RINGGOLD","zip":"24586"}},{"arcs":[[-2288,-2277,-2209,-2206,-2216,-2261]],"type":"Polygon","properties":{"state":"VA","name":"RUSTBURG","zip":"24588"}},{"arcs":[[-1566,-2248,2323,2324,-2301,2265,-2315,-2257,-1600,-1611,-1612,-1607]],"type":"Polygon","properties":{"state":"VA","name":"SCOTTSBURG","zip":"24589"}},{"arcs":[[[-760,-776,-714,-793,2325]],[[-1575,-1546,2326,-830]]],"type":"MultiPolygon","properties":{"state":"VA","name":"SCOTTSVILLE","zip":"24590"}},{"arcs":[[2327,-2309,2328,-2302,-2325,2329,-2224]],"type":"Polygon","properties":{"state":"VA","name":"SOUTH BOSTON","zip":"24592"}},{"arcs":[[-2263,-2231]],"type":"Polygon","properties":{"state":"VA","name":"SPOUT SPRING","zip":"24593"}},{"arcs":[[-2323,-2310,-2328,-2223]],"type":"Polygon","properties":{"state":"VA","name":"SUTHERLIN","zip":"24594"}},{"arcs":[[-2308,-2254,-2307,-2316,-2299,-2329]],"type":"Polygon","properties":{"state":"VA","name":"VERNON HILL","zip":"24597"}},{"arcs":[[-2330,-2324,-2247,-2321,2330,-2225]],"type":"Polygon","properties":{"state":"VA","name":"VIRGILINA","zip":"24598"}},{"arcs":[[[-737,-809,-807,2331,-2281]],[[-1544,-2284,2332]]],"type":"MultiPolygon","properties":{"state":"VA","name":"WINGINA","zip":"24599"}},{"arcs":[[2333,2334,2335,2336,2337,2338,2339]],"type":"Polygon","properties":{"state":"VA","name":"BANDY","zip":"24602"}},{"arcs":[[2340,2341,-1965]],"type":"Polygon","properties":{"state":"VA","name":"BIG ROCK","zip":"24603"}},{"arcs":[[-2027,2342,-2337,2343,2344,2345,-2100]],"type":"Polygon","properties":{"state":"VA","name":"BLUEFIELD","zip":"24605"}},{"arcs":[[2346,2347,-2340,2348]],"type":"Polygon","properties":{"state":"VA","name":"CEDAR BLUFF","zip":"24609"}},{"arcs":[[2349,-2345]],"type":"Polygon","properties":{"state":"VA","name":"FALLS MILLS","zip":"24613"}},{"arcs":[[-2342,2350,2351,2352,2353,2354,-1966]],"type":"Polygon","properties":{"state":"VA","name":"GRUNDY","zip":"24614"}},{"arcs":[[2355,2356,-2352]],"type":"Polygon","properties":{"state":"VA","name":"HURLEY","zip":"24620"}},{"arcs":[[2357,2358,2359,2360,-2335]],"type":"Polygon","properties":{"state":"VA","name":"JEWELL RIDGE","zip":"24622"}},{"arcs":[[-1968,2361,-1901]],"type":"Polygon","properties":{"state":"VA","name":"MAVISDALE","zip":"24627"}},{"arcs":[[-2343,-2026,2362,2363,-2338]],"type":"Polygon","properties":{"state":"VA","name":"NORTH TAZEWELL","zip":"24630"}},{"arcs":[[2364,2365,-1978,2366,2367,-2354,2368,2369]],"type":"Polygon","properties":{"state":"VA","name":"OAKWOOD","zip":"24631"}},{"arcs":[[2370,-2369,-2353,-2357,2371]],"type":"Polygon","properties":{"state":"VA","name":"PILGRIMS KNOB","zip":"24634"}},{"arcs":[[-2349,-2339,-2364,2372,-1997,-1974]],"type":"Polygon","properties":{"state":"VA","name":"POUNDING MILL","zip":"24637"}},{"arcs":[[2373,-2365,2374,-2359,2375,-2347]],"type":"Polygon","properties":{"state":"VA","name":"RAVEN","zip":"24639"}},{"arcs":[[-2376,-2358,-2334,-2348]],"type":"Polygon","properties":{"state":"VA","name":"RICHLANDS","zip":"24641"}},{"arcs":[[2376,-2367,-1977]],"type":"Polygon","properties":{"state":"VA","name":"ROWE","zip":"24646"}},{"arcs":[[-2366,-2374,-1973]],"type":"Polygon","properties":{"state":"VA","name":"SWORDS CREEK","zip":"24649"}},{"arcs":[[-2112,-2106,-1998,-2373,-2363,-2025,-2041,-2108]],"type":"Polygon","properties":{"state":"VA","name":"TAZEWELL","zip":"24651"}},{"arcs":[[-1899,-2362,-1967,-2355,-2368,-2377,-1976,-1945,-1893]],"type":"Polygon","properties":{"state":"VA","name":"VANSANT","zip":"24656"}},{"arcs":[[-2371,2377,-2360,-2375,-2370]],"type":"Polygon","properties":{"state":"VA","name":"WHITEWOOD","zip":"24657"}}]}},"arcs":[[[36869,14680],[-32,11]],[[36837,14691],[32,43]],[[36869,14734],[0,-54]],[[36752,14660],[-63,54]],[[36689,14714],[-14,2]],[[36675,14716],[18,69]],[[36693,14785],[68,-21]],[[36761,14764],[13,-5]],[[36774,14759],[9,-35]],[[36783,14724],[-13,-66]],[[36770,14658],[-18,2]],[[36486,14441],[-22,-43]],[[36464,14398],[-32,0],[-49,-10]],[[36383,14388],[-32,23]],[[36351,14411],[0,79]],[[36351,14490],[59,-41],[-68,74]],[[36342,14523],[-4,84]],[[36338,14607],[45,-33]],[[36383,14574],[54,-44]],[[36437,14530],[-23,-45],[81,-23]],[[36495,14462],[-9,-21]],[[36774,14759],[36,-2]],[[36810,14757],[-27,-33]],[[36833,14563],[-9,-12]],[[36824,14551],[-41,-49]],[[36783,14502],[-54,64]],[[36729,14566],[23,8]],[[36752,14574],[22,45]],[[36774,14619],[9,-2]],[[36783,14617],[23,-26]],[[36806,14591],[27,-28]],[[36842,14487],[-36,-15]],[[36806,14472],[-23,30]],[[36824,14551],[18,-64]],[[36833,14563],[27,-2]],[[36860,14561],[45,-69]],[[36905,14492],[-63,-5]],[[36860,14388],[-18,8]],[[36842,14396],[-27,58]],[[36815,14454],[-9,18]],[[36905,14492],[4,-15]],[[36909,14477],[9,-33]],[[36918,14444],[-9,-64]],[[36909,14380],[-49,8]],[[36437,14530],[36,89]],[[36473,14619],[49,89]],[[36522,14708],[59,39]],[[36581,14747],[0,-11]],[[36581,14736],[-41,-139]],[[36540,14597],[-45,-135]],[[36581,14747],[-14,45]],[[36567,14792],[36,33]],[[36603,14825],[68,-5]],[[36671,14820],[22,-35]],[[36675,14716],[-94,20]],[[36761,14289],[-135,130]],[[36626,14419],[31,71],[50,-18]],[[36707,14472],[40,-8],[5,-79]],[[36752,14385],[36,-68]],[[36788,14317],[-27,-28]],[[36882,14609],[-4,-2]],[[36878,14607],[-72,-16]],[[36783,14617],[27,43]],[[36810,14660],[77,-38]],[[36887,14622],[-5,-13]],[[36878,14607],[-18,-46]],[[36914,14563],[4,-73]],[[36918,14490],[-9,-13]],[[36882,14609],[32,-46]],[[36720,14917],[-4,18]],[[36716,14935],[18,25]],[[36734,14960],[-9,-43]],[[36725,14917],[-5,0]],[[36459,14764],[-9,23]],[[36450,14787],[32,23]],[[36482,14810],[-23,-46]],[[36603,14825],[14,107],[-45,18]],[[36572,14950],[36,92],[31,61],[32,2]],[[36671,15105],[-27,-84],[45,-28]],[[36689,14993],[-14,-28]],[[36675,14965],[0,-89]],[[36675,14876],[-4,-56]],[[36558,14920],[5,-102]],[[36563,14818],[-54,20]],[[36509,14838],[45,71]],[[36554,14909],[4,11]],[[36815,14454],[-99,76]],[[36716,14530],[13,36]],[[36680,14566],[-18,-5]],[[36662,14561],[-63,8]],[[36599,14569],[54,43]],[[36653,14612],[27,-46]],[[36567,14792],[-4,26]],[[36558,14920],[14,30]],[[36752,14574],[-14,76]],[[36738,14650],[14,10]],[[36770,14658],[4,-39]],[[36450,14640],[9,109],[-49,-28]],[[36410,14721],[13,36]],[[36423,14757],[27,30]],[[36459,14764],[63,-56]],[[36473,14619],[-23,21]],[[36864,14820],[-27,-53]],[[36837,14767],[-49,51]],[[36788,14818],[13,43]],[[36801,14861],[63,-41]],[[36837,14767],[-27,-10]],[[36761,14764],[27,54]],[[36810,14660],[27,31]],[[36869,14680],[4,-5]],[[36873,14675],[14,-53]],[[36783,14724],[54,-33]],[[36716,14530],[-27,-17]],[[36689,14513],[-27,48]],[[36680,14566],[58,84]],[[36675,14965],[41,-30]],[[36720,14917],[-45,-41]],[[36909,14790],[-22,-36]],[[36887,14754],[0,51]],[[36887,14805],[31,-8]],[[36918,14797],[-9,-7]],[[36887,14805],[-23,15]],[[36864,14820],[-9,26]],[[36855,14846],[90,-13]],[[36945,14833],[-27,-36]],[[36887,14754],[-18,-20]],[[36653,14612],[36,102]],[[36896,14726],[-27,8]],[[36909,14790],[23,-18]],[[36932,14772],[-18,-33]],[[36914,14739],[-5,-13]],[[36909,14726],[-13,0]],[[36896,14726],[27,-46]],[[36923,14680],[-5,-20]],[[36918,14660],[-45,15]],[[36725,14917],[76,-56]],[[36734,14960],[-5,46]],[[36729,15006],[45,46]],[[36774,15052],[68,-46],[-54,-81],[67,-79]],[[36729,15006],[-40,-13]],[[36671,15105],[103,-53]],[[36842,14396],[-90,-11]],[[36707,14472],[-18,41]],[[36482,14810],[27,28]],[[36522,14363],[-36,78]],[[36540,14597],[27,-23]],[[36567,14574],[9,-178]],[[36576,14396],[-31,-51]],[[36545,14345],[-23,18]],[[36567,14574],[32,-5]],[[36626,14419],[-32,-26]],[[36594,14393],[-18,3]],[[36950,14747],[9,-28]],[[36959,14719],[-50,7]],[[36914,14739],[36,8]],[[36959,14706],[-5,-13]],[[36954,14693],[-31,-13]],[[36959,14719],[0,-13]],[[36932,14772],[22,-23]],[[36954,14749],[-4,-2]],[[36991,14579],[18,28]],[[37009,14607],[13,23]],[[37022,14630],[41,-16]],[[37063,14614],[13,-10]],[[37076,14604],[-13,-25]],[[37063,14579],[-63,0]],[[37000,14579],[-9,0]],[[37009,14563],[-14,-22]],[[36995,14541],[-9,-21]],[[36986,14520],[-41,49]],[[36945,14569],[46,10]],[[37000,14579],[9,-16]],[[36878,14332],[-18,56]],[[36909,14380],[50,-10]],[[36959,14370],[23,-18]],[[36982,14352],[-19,-35]],[[36963,14317],[-85,15]],[[37027,14655],[0,8]],[[37027,14663],[4,12]],[[37031,14675],[-4,-20]],[[36968,14614],[-23,-33]],[[36945,14581],[-31,-18]],[[36887,14622],[49,10]],[[36936,14632],[37,10]],[[36973,14642],[-5,-28]],[[36973,14642],[4,0]],[[36977,14642],[14,5]],[[36991,14647],[31,0]],[[37022,14647],[0,-17]],[[37009,14607],[-41,7]],[[36945,14569],[0,12]],[[36918,14660],[18,-28]],[[36986,14520],[18,-20]],[[37004,14500],[-22,-38]],[[36982,14462],[-64,28]],[[37108,14609],[-14,-2]],[[37094,14607],[-18,-3]],[[37063,14614],[0,3]],[[37063,14617],[36,15]],[[37099,14632],[9,-13]],[[37108,14619],[0,-10]],[[37076,14645],[-13,-28]],[[37022,14647],[5,0]],[[37027,14647],[18,-2]],[[37045,14645],[31,0]],[[37027,14647],[0,8]],[[37031,14675],[0,5]],[[37031,14680],[18,13]],[[37049,14693],[27,-20]],[[37076,14673],[-4,-5]],[[37072,14668],[-27,-23]],[[37094,14635],[5,-3]],[[37076,14645],[5,2]],[[37081,14647],[4,-5]],[[37085,14642],[9,-7]],[[37072,14668],[0,-13]],[[37072,14655],[9,-8]],[[37054,14449],[13,51]],[[37067,14500],[36,8]],[[37103,14508],[-4,-39]],[[37099,14469],[-45,-20]],[[36945,14833],[64,-69]],[[37009,14764],[-14,-40]],[[36995,14724],[-41,25]],[[37009,14436],[-27,26]],[[37004,14500],[36,-10]],[[37040,14490],[18,20]],[[37058,14510],[9,-10]],[[37054,14449],[45,-51],[-81,31]],[[37018,14429],[-9,7]],[[37081,14675],[-5,-2]],[[37049,14693],[9,49]],[[37058,14742],[50,-36]],[[37108,14706],[-27,-31]],[[37031,14680],[-36,44]],[[37009,14764],[9,-15],[9,-5],[31,-2]],[[36954,14693],[23,-51]],[[36878,14332],[99,-46]],[[36977,14286],[-9,-23]],[[36968,14263],[-140,92],[-40,-38]],[[37072,14533],[-14,-23]],[[37040,14490],[-9,35]],[[37031,14525],[0,36]],[[37031,14561],[32,-3]],[[37063,14558],[18,3]],[[37081,14561],[-9,-28]],[[37063,14579],[0,-21]],[[37031,14561],[-22,2]],[[37031,14525],[-36,16]],[[36963,14317],[14,-31]],[[36991,14647],[-5,33]],[[36986,14680],[41,-17]],[[36959,14706],[27,-26]],[[36959,14370],[14,21]],[[36973,14391],[36,45]],[[37018,14429],[-36,-77]],[[36973,14391],[-55,53]],[[37135,14658],[0,-11]],[[37135,14647],[-14,-7]],[[37121,14640],[-13,13]],[[37108,14653],[0,2]],[[37108,14655],[27,18]],[[37135,14673],[9,-3]],[[37144,14670],[-9,-12]],[[37162,14609],[-14,5]],[[37148,14614],[-4,11]],[[37144,14625],[9,12]],[[37153,14637],[4,13]],[[37157,14650],[9,-41]],[[37166,14609],[-4,0]],[[37121,14640],[-27,-5]],[[37085,14642],[23,11]],[[37135,14647],[18,-10]],[[37144,14625],[-32,-8]],[[37112,14617],[-4,2]],[[37072,14655],[4,5]],[[37076,14660],[32,-5]],[[37148,14614],[-9,-2]],[[37139,14612],[-27,5]],[[37076,14660],[5,15]],[[37108,14706],[27,-33]],[[37153,14655],[-18,3]],[[37144,14670],[4,-10],[5,-5]],[[37153,14655],[4,-5]],[[37162,14599],[-18,-20]],[[37144,14579],[4,20]],[[37148,14599],[14,0]],[[37130,14586],[-13,16]],[[37117,14602],[-9,7]],[[37139,14612],[9,-13]],[[37144,14579],[-14,7]],[[37157,14561],[-13,-15]],[[37144,14546],[-5,2]],[[37139,14548],[-18,23]],[[37121,14571],[9,0]],[[37130,14571],[27,-10]],[[37121,14571],[-27,-5]],[[37094,14566],[5,23]],[[37099,14589],[18,13]],[[37130,14586],[0,-15]],[[37162,14609],[0,-10]],[[37126,14513],[-14,20]],[[37112,14533],[27,15]],[[37144,14546],[13,-28]],[[37157,14518],[-22,-18]],[[37135,14500],[-9,13]],[[37157,14561],[5,-3]],[[37162,14558],[4,-40]],[[37166,14518],[-9,0]],[[37144,14477],[-9,23]],[[37166,14518],[-22,-41]],[[37103,14508],[23,5]],[[37144,14477],[-45,-8]],[[37081,14561],[13,5]],[[37112,14533],[-40,0]],[[37099,14589],[-5,18]],[[37166,14609],[-4,-51]],[[36801,14035],[-13,30]],[[36788,14065],[54,-2],[0,-6],[9,-17]],[[36851,14040],[-50,-5]],[[36810,14083],[36,53]],[[36846,14136],[77,-30]],[[36923,14106],[27,-13]],[[36950,14093],[-5,-94]],[[36945,13999],[-135,84]],[[36734,14256],[112,-120]],[[36810,14083],[-81,5],[-22,76]],[[36707,14164],[-23,13]],[[36684,14177],[0,8]],[[36684,14185],[41,58]],[[36725,14243],[9,13]],[[36801,14035],[5,-120]],[[36806,13915],[-45,13],[31,71],[-76,5],[-50,109]],[[36666,14113],[45,13]],[[36711,14126],[77,-61]],[[36851,14040],[58,-41]],[[36909,13999],[-4,-8]],[[36905,13991],[-104,-109]],[[36801,13882],[5,33]],[[37099,13793],[45,-71]],[[37144,13722],[-50,48],[-76,-71],[-113,81]],[[36905,13780],[22,41]],[[36927,13821],[55,-56],[85,64]],[[37067,13829],[32,-36]],[[37734,13590],[-41,15]],[[37693,13605],[14,23]],[[37707,13628],[27,-38]],[[36527,14098],[9,15]],[[36536,14113],[-5,-12]],[[36531,14101],[-4,-3]],[[37508,13694],[-22,18]],[[37486,13712],[0,12]],[[37486,13724],[67,51]],[[37553,13775],[5,-2]],[[37558,13773],[-9,-100]],[[37549,13673],[-41,21]],[[37171,13823],[-72,-30]],[[37067,13829],[45,56]],[[37112,13885],[41,28],[22,-74]],[[37175,13839],[-4,-16]],[[37432,13526],[-41,-41]],[[37391,13485],[-31,46]],[[37360,13531],[36,36]],[[37396,13567],[36,-41]],[[37216,13831],[-23,-20]],[[37193,13811],[-22,12]],[[37175,13839],[41,-8]],[[37265,13750],[-45,-5]],[[37220,13745],[-22,48]],[[37198,13793],[63,-20]],[[37261,13773],[4,-23]],[[37274,13946],[-45,-110]],[[37229,13836],[-76,77]],[[37153,13913],[22,106]],[[37175,14019],[59,-23],[-41,-43],[81,-7]],[[37360,13531],[-63,-8]],[[37297,13523],[-54,46]],[[37243,13569],[94,82]],[[37337,13651],[59,-84]],[[37450,13567],[58,127]],[[37549,13673],[0,-5]],[[37549,13668],[36,-86]],[[37585,13582],[-95,-41]],[[37490,13541],[-40,26]],[[37486,13712],[-95,61]],[[37391,13773],[63,76]],[[37454,13849],[36,56],[23,-48]],[[37513,13857],[-27,-133]],[[37549,13668],[63,66]],[[37612,13734],[180,-101]],[[37792,13633],[-85,-5]],[[37693,13605],[-49,-33]],[[37644,13572],[-59,10]],[[37193,13811],[5,-18]],[[37220,13745],[-76,-23]],[[37653,13414],[13,0]],[[37666,13414],[-4,-15]],[[37662,13399],[-9,15]],[[37702,13429],[-18,5]],[[37684,13434],[-18,36]],[[37666,13470],[0,56]],[[37666,13526],[32,-79]],[[37698,13447],[4,-18]],[[37153,13913],[-208,86]],[[36950,14093],[216,64],[23,-41],[-27,-38],[13,-59]],[[37513,13857],[40,-82]],[[37666,13470],[-4,3]],[[37662,13473],[-86,7],[9,-102],[-95,163]],[[37644,13572],[22,-46]],[[37445,13511],[-49,-44]],[[37396,13467],[-5,3]],[[37391,13470],[0,15]],[[37432,13526],[13,-15]],[[36536,14024],[-5,77]],[[36536,14113],[9,21]],[[36545,14134],[58,12]],[[36603,14146],[50,-30]],[[36653,14116],[-36,-122],[-81,-5]],[[36536,13989],[0,35]],[[37216,13831],[45,-58]],[[37558,13773],[54,-39]],[[37090,13717],[-32,-82]],[[37058,13635],[-49,10]],[[37009,13645],[-127,117]],[[36882,13762],[23,18]],[[37144,13722],[-54,-5]],[[37391,13773],[-94,101],[-45,-45]],[[37252,13829],[-23,7]],[[37274,13946],[104,-26],[27,-69],[36,62],[13,-64]],[[36666,13755],[-36,89]],[[36630,13844],[72,33],[9,-76]],[[36711,13801],[-45,-46]],[[36927,13821],[-36,109],[72,44]],[[36963,13974],[91,-49]],[[37054,13925],[58,-40]],[[36963,13974],[-58,17]],[[36909,13999],[113,0],[-22,-59],[54,-15]],[[37734,13574],[0,16]],[[37792,13633],[-18,-71],[-40,12]],[[36536,14024],[-81,44]],[[36455,14068],[72,30]],[[37009,13645],[-23,-53]],[[36986,13592],[-90,-5]],[[36896,13587],[-122,48]],[[36774,13635],[-45,-10],[5,176]],[[36734,13801],[31,17]],[[36765,13818],[117,-56]],[[36801,13882],[-36,-64]],[[36734,13801],[-23,0]],[[36630,13844],[-36,0]],[[36594,13844],[-85,84]],[[36509,13928],[27,61]],[[36653,14116],[13,-3]],[[36734,14256],[27,33]],[[36968,14263],[-9,-109],[-50,46],[68,-92],[-54,-2]],[[37234,13572],[-27,5]],[[37207,13577],[-59,122],[-31,-41]],[[37117,13658],[-27,59]],[[37265,13750],[72,-99]],[[37243,13569],[-9,3]],[[36509,13928],[-14,-13]],[[36495,13915],[-85,102]],[[36410,14017],[31,40]],[[36441,14057],[14,11]],[[37450,13567],[-198,262]],[[37684,13434],[-18,-20]],[[37653,13414],[-41,-10],[50,69]],[[37702,13429],[-9,-56],[68,-22],[-99,48]],[[37734,13574],[22,-53],[-45,-33],[32,-61],[-45,20]],[[36315,14963],[-36,-56],[-14,61]],[[36265,14968],[50,-5]],[[36297,14871],[-126,-15]],[[36171,14856],[-5,-3]],[[36166,14853],[-22,18]],[[36144,14871],[-63,43]],[[36081,14914],[13,41]],[[36094,14955],[99,56]],[[36193,15011],[72,-43]],[[36315,14963],[36,-3]],[[36351,14960],[14,-5]],[[36365,14955],[-14,-30]],[[36351,14925],[-9,-44]],[[36342,14881],[-45,-10]],[[36193,15011],[0,84]],[[36193,15095],[36,92]],[[36229,15187],[14,-13],[54,-49],[41,-33]],[[36338,15092],[-45,-53],[40,-23]],[[36333,15016],[18,-56]],[[36198,14525],[-77,74]],[[36121,14599],[36,46]],[[36157,14645],[131,-54]],[[36288,14591],[-23,-48]],[[36265,14543],[-49,-18]],[[36216,14525],[-18,0]],[[36396,15044],[86,-74],[72,-61]],[[36509,14838],[-158,87]],[[36365,14955],[18,56]],[[36383,15011],[13,33]],[[36423,14757],[-4,-5]],[[36419,14752],[-63,35]],[[36356,14787],[31,44],[-45,50]],[[36383,15011],[-50,5]],[[36338,15092],[58,-48]],[[36193,15095],[-49,13]],[[36144,15108],[9,134],[-5,8],[81,-63]],[[36351,14490],[-13,20]],[[36338,14510],[4,13]],[[36419,14752],[-77,-36],[-22,-84]],[[36320,14632],[-32,-41]],[[36157,14645],[27,74]],[[36184,14719],[63,12]],[[36247,14731],[5,56]],[[36252,14787],[36,3]],[[36288,14790],[68,-3]],[[36094,14955],[23,109],[27,44]],[[36383,14574],[27,30]],[[36410,14604],[40,36]],[[36338,14510],[-73,33]],[[36320,14632],[18,-25]],[[36410,14721],[0,-117]],[[36112,14686],[-31,-41]],[[36081,14645],[-113,81]],[[35968,14726],[81,41]],[[36049,14767],[5,-15],[40,-56],[18,-10]],[[36247,14731],[-81,33],[-31,67],[31,22]],[[36171,14856],[81,-69]],[[36198,14525],[-23,-23]],[[36175,14502],[-49,-25],[-50,69]],[[36076,14546],[45,53]],[[35991,14508],[49,89]],[[36040,14597],[41,48]],[[36112,14686],[72,33]],[[36076,14546],[-85,-49]],[[35991,14497],[0,8]],[[35991,14505],[0,3]],[[35892,14698],[135,166],[54,50]],[[36144,14871],[-14,-2],[-31,-31],[-50,-71]],[[35968,14726],[-40,-43]],[[35928,14683],[-36,15]],[[36297,14871],[-9,-81]],[[36040,14597],[-112,86]],[[36441,14057],[0,51],[-58,44],[-36,10]],[[36347,14162],[-5,2]],[[36342,14164],[-22,38]],[[36320,14202],[9,51]],[[36329,14253],[22,77]],[[36351,14330],[113,-11]],[[36464,14319],[54,-94]],[[36518,14225],[-5,-10]],[[36513,14215],[23,-28]],[[36536,14187],[9,-53]],[[36180,14055],[31,46],[9,7],[23,23]],[[36243,14131],[22,-30]],[[36265,14101],[-9,-77]],[[36256,14024],[-76,31]],[[36617,14261],[-72,84]],[[36594,14393],[81,-122]],[[36675,14271],[5,-51]],[[36680,14220],[-63,41]],[[36288,14284],[-14,68]],[[36274,14352],[23,-7]],[[36297,14345],[41,-3]],[[36338,14342],[13,-12]],[[36329,14253],[-41,31]],[[36545,14281],[-27,-56]],[[36464,14319],[27,21]],[[36491,14340],[54,-59]],[[36252,14152],[4,17]],[[36256,14169],[18,16]],[[36274,14185],[46,17]],[[36342,14164],[-90,-12]],[[36383,14388],[-45,-46]],[[36297,14345],[23,74]],[[36320,14419],[31,-8]],[[36599,14235],[18,-50]],[[36617,14185],[-9,-13]],[[36608,14172],[-54,20]],[[36554,14192],[-41,23]],[[36545,14281],[54,-46]],[[36157,14391],[23,-107]],[[36180,14284],[-59,56]],[[36121,14340],[36,51]],[[36684,14185],[-4,35]],[[36675,14271],[50,-28]],[[36491,14352],[-27,46]],[[36522,14363],[-31,-11]],[[36274,14185],[14,28],[14,7],[18,-18]],[[36536,14187],[18,5]],[[36608,14172],[-5,-26]],[[36112,14083],[-45,152]],[[36067,14235],[5,26]],[[36072,14261],[9,15]],[[36081,14276],[94,-51]],[[36175,14225],[59,-10]],[[36234,14215],[22,-46]],[[36252,14152],[-9,-21]],[[36180,14055],[-18,-31]],[[36162,14024],[-50,59]],[[36333,14108],[-13,-2]],[[36320,14106],[-55,-5]],[[36347,14162],[-14,-54]],[[36320,14106],[0,-33]],[[36320,14073],[-46,-41]],[[36274,14032],[-18,-8]],[[36410,14017],[-72,51]],[[36338,14068],[-5,40]],[[36617,14261],[-18,-26]],[[36491,14340],[0,12]],[[36234,14215],[54,69]],[[36617,14185],[67,-8]],[[36707,14164],[4,-38]],[[36274,14032],[-4,-33]],[[36270,13999],[-45,-13]],[[36225,13986],[-27,38]],[[36198,14024],[-36,0]],[[36157,14391],[18,111]],[[36216,14525],[45,-76]],[[36261,14449],[13,-97]],[[36175,14225],[5,59]],[[36081,14276],[40,41]],[[36121,14317],[0,23]],[[36320,14419],[-59,30]],[[35761,14113],[-67,16]],[[35694,14129],[-9,17]],[[35685,14146],[18,41],[-45,43],[-73,41],[-81,59]],[[35504,14330],[9,12]],[[35513,14342],[41,-2],[-9,71],[122,-104]],[[35667,14307],[22,-18]],[[35689,14289],[99,-140]],[[35788,14149],[23,-41]],[[35811,14108],[-18,-15]],[[35793,14093],[-32,20]],[[35874,14253],[-104,-43],[18,-61]],[[35689,14289],[81,-8]],[[35770,14281],[104,-20]],[[35874,14261],[0,-8]],[[35793,14546],[-36,7]],[[35757,14553],[36,77],[4,5]],[[35797,14635],[63,-21]],[[35860,14614],[-67,-68]],[[35703,14474],[-36,72],[-77,-28]],[[35590,14518],[9,10],[27,51],[23,38],[72,-69]],[[35721,14548],[-18,-74]],[[35694,14129],[-9,-51]],[[35685,14078],[-54,-18]],[[35631,14060],[-19,18]],[[35612,14078],[-135,150]],[[35477,14228],[208,-82]],[[35770,14281],[-40,104]],[[35730,14385],[-32,62]],[[35698,14447],[5,27]],[[35721,14548],[22,-18]],[[35743,14530],[27,-25]],[[35770,14505],[27,-23]],[[35797,14482],[-31,-86],[121,2]],[[35887,14398],[32,-30]],[[35919,14368],[0,-3]],[[35919,14365],[-36,-94]],[[35883,14271],[-9,-10]],[[35698,14447],[-131,-21]],[[35567,14426],[23,92]],[[35477,14228],[-9,10]],[[35468,14238],[32,81],[4,11]],[[35991,14508],[-131,106]],[[35797,14635],[50,63],[45,0]],[[35973,14085],[-68,-53]],[[35905,14032],[-36,-38]],[[35869,13994],[-31,-36]],[[35838,13958],[-41,79]],[[35797,14037],[27,20]],[[35824,14057],[63,67],[-45,81]],[[35842,14205],[32,48]],[[35883,14271],[27,-74],[112,72]],[[36022,14269],[50,-8]],[[36067,14235],[-94,-150]],[[35730,14385],[-63,-78]],[[35513,14342],[54,84]],[[35842,14205],[-22,-59]],[[35820,14146],[-32,3]],[[36121,14317],[-162,48]],[[35959,14365],[-40,0]],[[35919,14368],[72,129]],[[35824,14057],[-31,36]],[[35811,14108],[9,38]],[[35775,14065],[-18,-33]],[[35757,14032],[-72,46]],[[35761,14113],[14,-48]],[[35770,14505],[23,41]],[[35991,14505],[-77,-28]],[[35914,14477],[-85,33]],[[35829,14510],[-32,-28]],[[35590,14024],[-90,36]],[[35500,14060],[-104,109]],[[35396,14169],[72,69]],[[35612,14078],[-13,-61]],[[35599,14017],[-9,7]],[[35887,14398],[-67,59],[36,23]],[[35856,14480],[58,-3]],[[35743,14530],[14,23]],[[35856,14480],[-27,30]],[[35959,14365],[0,-76],[41,35],[22,-55]],[[36049,13790],[-144,21]],[[35905,13811],[0,63],[41,0]],[[35946,13874],[54,31]],[[36000,13905],[58,-54]],[[36058,13851],[5,-68]],[[36063,13783],[-14,7]],[[35955,13635],[31,44]],[[35986,13679],[63,111]],[[36063,13783],[49,-38]],[[36112,13745],[27,-36]],[[36139,13709],[9,-8]],[[36148,13701],[-40,-58]],[[36108,13643],[-45,71],[-77,-107]],[[35986,13607],[-13,11]],[[35973,13618],[-18,17]],[[35860,13742],[-18,18]],[[35842,13760],[9,2]],[[35851,13762],[54,49]],[[35986,13679],[-126,63]],[[36058,13851],[23,84]],[[36081,13935],[22,8]],[[36103,13943],[36,-66]],[[36139,13877],[-27,-132]],[[35653,13645],[99,135]],[[35752,13780],[14,16]],[[35766,13796],[76,-36]],[[35860,13742],[-4,-46]],[[35856,13696],[-23,-48]],[[35833,13648],[-63,-5]],[[35770,13643],[-54,8]],[[35716,13651],[-63,-6]],[[35676,13386],[-54,56]],[[35622,13442],[9,20],[49,-7],[14,68]],[[35694,13523],[49,-53]],[[35743,13470],[23,-8]],[[35766,13462],[4,-78]],[[35770,13384],[-94,2]],[[36103,13943],[95,81]],[[36225,13986],[-27,-20]],[[36198,13966],[36,-74],[-27,-43]],[[36207,13849],[-68,28]],[[35883,13620],[-50,28]],[[35856,13696],[49,-38],[-22,-38]],[[35851,13762],[-49,59]],[[35802,13821],[4,58]],[[35806,13879],[14,26]],[[35820,13905],[18,53]],[[35869,13994],[95,-15],[-18,-105]],[[35982,13961],[-77,71]],[[35973,14085],[76,-117]],[[36049,13968],[-67,-7]],[[36000,13905],[-18,56]],[[36049,13968],[18,-7]],[[36067,13961],[14,-26]],[[35946,13498],[-32,-25]],[[35914,13473],[-36,40],[59,97]],[[35937,13610],[18,25]],[[35973,13618],[-5,-56]],[[35968,13562],[18,-56]],[[35986,13506],[-40,-8]],[[35788,13574],[-40,31]],[[35748,13605],[0,10]],[[35748,13615],[22,28]],[[35883,13620],[4,-8]],[[35887,13612],[-49,-73]],[[35838,13539],[-50,35]],[[35676,13882],[4,-79],[-40,23]],[[35640,13826],[36,56]],[[36202,13762],[5,87]],[[36198,13966],[85,-20]],[[36283,13946],[131,-56]],[[36414,13890],[-76,12],[22,-101],[-86,17],[32,-71],[-45,-33]],[[36261,13714],[-59,48]],[[35766,13796],[36,25]],[[35986,13607],[-18,-45]],[[36202,13762],[-63,-53]],[[36338,14068],[-18,5]],[[35788,13574],[-45,-104]],[[35694,13523],[54,82]],[[35653,13645],[-4,-10]],[[35649,13635],[-18,0]],[[35631,13635],[-37,28]],[[35594,13663],[5,23]],[[35599,13686],[23,38]],[[35622,13724],[40,-15],[0,59]],[[35662,13768],[90,12]],[[35748,13615],[-41,-8],[9,44]],[[35937,13610],[-50,2]],[[36283,13946],[-13,53]],[[36495,13915],[-4,-48]],[[36491,13867],[-77,23]],[[36139,13475],[-31,168]],[[36148,13701],[135,-33]],[[36283,13668],[5,-96]],[[36288,13572],[-23,-28]],[[36265,13544],[-40,-15]],[[36225,13529],[-63,-74]],[[36162,13455],[-23,20]],[[35622,13442],[-118,69]],[[35504,13511],[5,35]],[[35509,13546],[22,8]],[[35531,13554],[72,-41],[68,71],[-22,51]],[[36067,13961],[45,122]],[[35914,13473],[5,0]],[[35919,13473],[-41,-49]],[[35878,13424],[-54,43]],[[35824,13467],[14,72]],[[35824,13467],[-58,-5]],[[36261,13714],[41,-28]],[[36302,13686],[-19,-18]],[[35531,13554],[100,81]],[[35676,13882],[36,61]],[[35712,13943],[27,-13]],[[35739,13930],[67,-51]],[[35662,13768],[-45,38]],[[35617,13806],[23,20]],[[36432,12967],[-67,20]],[[36365,12987],[58,122],[-149,-46]],[[36274,13063],[-13,74]],[[36261,13137],[4,23]],[[36265,13160],[154,71],[117,-81]],[[36536,13150],[-18,-54],[63,-33]],[[36581,13063],[45,-66]],[[36626,12997],[-14,-46]],[[36612,12951],[-45,-28]],[[36567,12923],[-135,44]],[[36166,13452],[-36,-94]],[[36130,13358],[-99,31]],[[36031,13389],[63,91]],[[36094,13480],[72,-28]],[[36887,13447],[-36,-25]],[[36851,13422],[-135,79]],[[36716,13501],[36,40]],[[36752,13541],[126,26]],[[36878,13567],[9,-120]],[[37027,13508],[-41,84]],[[37058,13635],[63,-106]],[[37121,13529],[-40,-62]],[[37081,13467],[-54,41]],[[37364,13170],[-54,8]],[[37310,13178],[0,53],[81,-41]],[[37391,13190],[-27,-20]],[[36774,13635],[54,-33],[-90,-33]],[[36738,13569],[-85,79]],[[36653,13648],[13,107]],[[36225,13529],[45,-49]],[[36270,13480],[-36,-51],[-72,26]],[[37297,13523],[-36,-43]],[[37261,13480],[-41,15],[14,77]],[[36653,13648],[-54,-114]],[[36599,13534],[-27,-28]],[[36572,13506],[-68,73],[50,69],[-27,28],[58,28],[9,140]],[[37666,13157],[27,5]],[[37693,13162],[14,-28],[0,-17],[-41,40]],[[36365,13394],[-23,-74]],[[36342,13320],[-68,-38],[-27,66]],[[36247,13348],[0,18]],[[36247,13366],[59,94],[27,-41]],[[36333,13419],[32,-25]],[[37297,13071],[0,-79]],[[37297,12992],[-5,-3],[-13,-12],[-95,63],[-40,-38],[0,56],[-149,-8],[9,74]],[[37004,13124],[41,61]],[[37045,13185],[49,18]],[[37094,13203],[41,-112],[139,18]],[[37274,13109],[23,-33]],[[37297,13076],[0,-5]],[[37499,13417],[-31,-36]],[[37468,13381],[-32,-10]],[[37436,13371],[-9,13]],[[37427,13384],[-13,28]],[[37414,13412],[0,12]],[[37414,13424],[45,16]],[[37459,13440],[40,-23]],[[37725,13218],[-59,16]],[[37666,13234],[-13,7]],[[37653,13241],[72,-23]],[[36293,13490],[-28,54]],[[36288,13572],[104,53]],[[36392,13625],[4,-53]],[[36396,13572],[-67,-107]],[[36329,13465],[-36,25]],[[36247,13366],[-13,63]],[[36234,13429],[63,61],[36,-71]],[[36599,13437],[-9,-86]],[[36590,13351],[-36,20]],[[36554,13371],[4,13]],[[36558,13384],[27,61]],[[36585,13445],[14,-8]],[[36342,13320],[-18,-92],[-86,16],[68,-59]],[[36306,13185],[-95,-35],[-81,53]],[[36130,13203],[-36,71],[90,-15],[27,69]],[[36211,13328],[36,20]],[[37675,13272],[5,38]],[[37680,13310],[67,-21],[-72,-17]],[[37756,13152],[0,23]],[[37756,13175],[27,-18]],[[37783,13157],[-27,-5]],[[36752,13541],[-14,28]],[[36896,13587],[-18,-20]],[[37666,13234],[-32,-16]],[[37634,13218],[19,23]],[[36293,13490],[-23,-10]],[[37657,13175],[27,15]],[[37684,13190],[9,-10]],[[37693,13180],[0,-18]],[[37666,13157],[-9,18]],[[36851,13396],[-135,3]],[[36716,13399],[-18,7]],[[36698,13406],[-9,82]],[[36689,13488],[27,13]],[[36851,13422],[13,-31]],[[36864,13391],[-13,5]],[[36851,13396],[-14,-20]],[[36837,13376],[-54,5]],[[36783,13381],[-22,-3]],[[36761,13378],[-45,21]],[[37432,13183],[45,43]],[[37477,13226],[45,89],[36,-20]],[[37558,13295],[81,-69],[23,-127],[-73,33],[68,-79],[-90,36],[-36,-46],[-99,140]],[[36396,13572],[18,-8]],[[36414,13564],[-13,-41],[121,-25]],[[36522,13498],[5,-5]],[[36527,13493],[-27,-84]],[[36500,13409],[-63,-46],[-108,102]],[[36527,13498],[0,-5]],[[36522,13498],[-99,69]],[[36423,13567],[9,20]],[[36432,13587],[59,3],[36,-92]],[[37027,13508],[-9,-43]],[[37018,13465],[-50,-51],[-32,66],[-49,-33]],[[37616,13267],[14,20]],[[37630,13287],[32,30]],[[37662,13317],[18,-7]],[[37675,13272],[-59,-5]],[[37634,13317],[-4,-30]],[[37616,13267],[-40,28]],[[37576,13295],[4,12]],[[37580,13307],[27,16]],[[37607,13323],[27,-3]],[[37634,13320],[0,-3]],[[37603,12982],[-18,15],[-59,56],[41,36],[117,-69],[-81,-38]],[[36977,13292],[-45,-23]],[[36932,13269],[13,36]],[[36945,13305],[32,-13]],[[37414,13424],[-18,43]],[[37445,13511],[50,-38]],[[37495,13473],[-36,-33]],[[36365,12987],[-50,15]],[[36315,13002],[-77,23]],[[36238,13025],[36,38]],[[36302,13686],[90,-61]],[[37265,13432],[-4,35]],[[37261,13467],[0,13]],[[37391,13470],[-94,-76]],[[37297,13394],[-32,38]],[[37103,13363],[-18,51]],[[37085,13414],[-4,53]],[[37121,13529],[104,-92]],[[37225,13437],[22,-112],[-40,-8]],[[37207,13317],[-104,46]],[[37225,13221],[45,84]],[[37270,13305],[72,-21],[-32,-53]],[[37310,13231],[-18,-81],[41,-39],[-36,-35],[-72,145]],[[37414,13412],[-104,-39]],[[37310,13373],[-13,21]],[[37580,13307],[-4,41]],[[37576,13348],[9,0]],[[37585,13348],[22,-25]],[[36423,13567],[-9,-3]],[[36491,13867],[-45,-120],[45,-35],[-50,-77],[32,-33],[-41,-15]],[[36527,13498],[45,8]],[[36599,13534],[9,-18]],[[36608,13516],[-18,-56]],[[36590,13460],[-5,-15]],[[36558,13384],[-31,5]],[[36527,13389],[-27,20]],[[36671,13409],[-5,-92]],[[36666,13317],[-76,34]],[[36599,13437],[0,8]],[[36599,13445],[72,-36]],[[37085,13414],[-72,13]],[[37013,13427],[5,38]],[[37756,13152],[-36,-25]],[[37720,13127],[-27,53]],[[37684,13190],[45,-10]],[[37729,13180],[27,-5]],[[37360,13325],[-50,48]],[[37427,13384],[-67,-59]],[[36945,13305],[-45,28]],[[36900,13333],[-18,15]],[[36882,13348],[131,79]],[[37103,13363],[-45,-38]],[[37058,13325],[-36,-53]],[[37022,13272],[-45,20]],[[36716,13195],[31,-20]],[[36747,13175],[-36,-69],[-63,26]],[[36648,13132],[-45,86]],[[36603,13218],[41,21]],[[36644,13239],[72,-44]],[[36630,13241],[9,82]],[[36639,13323],[95,-31]],[[36734,13292],[-9,-53]],[[36725,13239],[-95,2]],[[36725,13239],[-9,-44]],[[36644,13239],[81,0]],[[36882,13348],[-18,43]],[[37729,13180],[5,13]],[[37734,13193],[22,-18]],[[36648,13132],[-18,-28]],[[36630,13104],[-49,-41]],[[36536,13150],[67,68]],[[36211,13328],[-81,30]],[[36166,13452],[68,-23]],[[37157,13234],[-99,91]],[[37207,13317],[31,-48],[32,36]],[[37225,13221],[-68,13]],[[37175,13551],[-54,-22]],[[37117,13658],[58,-107]],[[37657,13175],[-23,43]],[[37725,13218],[9,-25]],[[36590,13460],[9,-15]],[[37779,13101],[-59,23]],[[37720,13124],[0,3]],[[37783,13157],[-4,-56]],[[37734,13104],[-14,0]],[[37720,13104],[0,20]],[[37779,13101],[-45,3]],[[36365,13394],[90,-31],[31,66],[153,-106]],[[36630,13241],[-90,-94],[-121,84],[-113,-46]],[[37094,13203],[162,10],[-27,-61],[45,-43]],[[37063,13223],[-41,49]],[[37157,13234],[-94,-11]],[[36608,13516],[81,-28]],[[36698,13406],[-27,3]],[[37207,13577],[-32,-26]],[[37477,13226],[-41,145]],[[37468,13381],[63,10]],[[37531,13391],[45,-43]],[[37576,13295],[-18,0]],[[37063,13223],[-27,-40],[-104,86]],[[37432,13183],[-63,76]],[[37369,13259],[-9,66]],[[36554,13371],[-27,18]],[[37234,13427],[27,40]],[[37265,13432],[-31,-5]],[[37734,13104],[22,-15],[5,-21],[-41,36]],[[37364,13170],[0,-104],[-67,5]],[[37297,13076],[13,102]],[[37585,13348],[49,-28]],[[37499,13417],[23,-13]],[[37522,13404],[9,-13]],[[37634,13317],[28,0]],[[37234,13427],[-9,10]],[[37495,13473],[27,-69]],[[37369,13259],[-59,-28]],[[37526,13005],[-40,-26],[31,-38]],[[37517,12941],[-9,-41]],[[37508,12900],[-4,-10]],[[37504,12890],[-207,102]],[[37297,12992],[108,-5],[9,18],[85,28]],[[37499,13033],[27,-28]],[[37391,13190],[108,-157]],[[36869,13287],[-5,-23]],[[36864,13264],[-18,3]],[[36846,13267],[18,22]],[[36864,13289],[5,-2]],[[36824,13267],[9,30]],[[36833,13297],[4,15]],[[36837,13312],[14,-5]],[[36851,13307],[13,-18]],[[36846,13267],[-22,0]],[[36797,13297],[18,13]],[[36815,13310],[18,-13]],[[36824,13267],[-27,30]],[[36900,13333],[-31,-46]],[[36851,13307],[31,41]],[[36932,13269],[-68,-5]],[[36806,13195],[-14,5]],[[36792,13200],[77,34]],[[36869,13234],[-63,-39]],[[36792,13206],[-13,89]],[[36779,13295],[67,-33],[-54,-56]],[[36788,13297],[-5,10],[-4,8],[0,36]],[[36779,13351],[18,-6]],[[36797,13345],[18,-35]],[[36797,13297],[-9,0]],[[36837,13312],[-9,13]],[[36828,13325],[9,51]],[[36828,13325],[-31,20]],[[36797,13345],[-14,36]],[[36716,13295],[40,73]],[[36756,13368],[23,-17]],[[36788,13297],[-72,-2]],[[37004,13124],[-27,-38],[-108,71],[4,99],[63,-22],[5,-6],[104,-43]],[[36761,13378],[-5,-10]],[[36716,13295],[-50,22]],[[36797,13160],[9,35]],[[36869,13234],[0,-67]],[[36869,13167],[-72,-7]],[[36734,13292],[45,3]],[[36792,13206],[-67,33]],[[36725,13239],[45,-61]],[[36770,13178],[-23,-3]],[[36819,13101],[-63,41],[41,18]],[[36869,13167],[31,-50]],[[36900,13117],[-18,-13]],[[36882,13104],[-63,-3]],[[38256,13391],[-50,51]],[[38206,13442],[-4,53]],[[38202,13495],[36,-2]],[[38238,13493],[54,-31]],[[38292,13462],[-36,-71]],[[38360,13579],[-9,8]],[[38351,13587],[-14,15]],[[38337,13602],[23,-12]],[[38360,13590],[0,-11]],[[38125,13279],[-18,10]],[[38107,13289],[-81,3],[41,18],[-14,53],[32,-33]],[[38085,13330],[40,-51]],[[38103,13137],[-63,53]],[[38040,13190],[13,0]],[[38053,13190],[59,-15]],[[38112,13175],[-9,-38]],[[38292,13602],[59,-15]],[[38360,13579],[-23,-71]],[[38337,13508],[-113,79]],[[38224,13587],[5,13]],[[38229,13600],[63,2]],[[38031,13119],[45,-5]],[[38076,13114],[-72,-272],[-45,152],[45,49],[-41,-3],[68,79]],[[37571,12626],[-13,5]],[[37558,12631],[-23,89]],[[37535,12720],[63,-41],[-27,-53]],[[37373,12443],[-63,-56]],[[37310,12387],[23,38],[-77,-8],[32,77]],[[37288,12494],[49,5]],[[37337,12499],[50,-41]],[[37387,12458],[-14,-15]],[[37747,12448],[0,40]],[[37747,12488],[36,13]],[[37783,12501],[27,26]],[[37810,12527],[59,-56]],[[37869,12471],[31,-38]],[[37900,12433],[-153,15]],[[37616,12483],[37,100]],[[37653,12583],[22,-13]],[[37675,12570],[-4,-48]],[[37671,12522],[9,-11]],[[37680,12511],[-64,-51]],[[37616,12460],[0,23]],[[37598,12260],[5,71]],[[37603,12331],[54,56],[108,-46],[-18,107]],[[37900,12433],[27,-36]],[[37927,12397],[-45,-20],[0,-117]],[[37882,12260],[-18,0],[-130,0],[-136,0]],[[37603,12331],[13,129]],[[37680,12511],[31,-5]],[[37711,12506],[36,8]],[[37747,12514],[5,-3]],[[37752,12511],[-5,-23]],[[37752,12511],[4,26]],[[37756,12537],[23,0]],[[37779,12537],[4,-36]],[[37779,12537],[9,12]],[[37788,12549],[13,0]],[[37801,12549],[9,-22]],[[38562,13775],[9,0],[-126,-155],[117,155]],[[38382,13638],[-18,10]],[[38364,13648],[50,43]],[[38414,13691],[-32,-53]],[[38125,13279],[18,-15]],[[38143,13264],[-18,-58],[-63,50],[-54,-48],[23,74],[76,7]],[[38418,13757],[45,5],[-40,-22]],[[38423,13740],[-5,17]],[[38197,13536],[41,-43]],[[38202,13495],[-14,31]],[[38188,13526],[9,10]],[[38292,13602],[-36,38]],[[38256,13640],[-9,8]],[[38247,13648],[9,13]],[[38256,13661],[9,10]],[[38265,13671],[72,-69]],[[38256,13661],[0,10]],[[38256,13671],[9,0]],[[38233,13356],[-9,33]],[[38224,13389],[27,0]],[[38251,13389],[-18,-33]],[[38031,13119],[-36,48],[45,23]],[[38103,13137],[-27,-23]],[[38229,13600],[27,40]],[[38179,13302],[-76,107]],[[38103,13409],[0,3]],[[38103,13412],[90,15]],[[38193,13427],[31,-38]],[[38233,13356],[-18,-33]],[[38215,13323],[-36,-23]],[[38179,13300],[0,2]],[[38053,13190],[27,49],[32,-64]],[[38364,13648],[-99,74]],[[38265,13722],[9,18],[126,15],[18,2]],[[38423,13740],[-9,-49]],[[38364,13648],[-108,33]],[[38256,13681],[9,41]],[[38206,13442],[-13,-15]],[[38103,13412],[54,96],[-32,28],[63,-10]],[[38256,13391],[-5,-2]],[[38179,13302],[-36,-38]],[[38085,13330],[27,41],[-50,13],[41,25]],[[38215,13323],[18,-56],[-27,28],[-9,-67],[-67,-22],[49,94]],[[38197,13536],[27,51]],[[38337,13508],[-45,-46]],[[38256,13681],[0,-10]],[[38247,13648],[-59,15],[68,18]],[[37558,12631],[-41,-43]],[[37517,12588],[-148,78]],[[37369,12666],[-5,77]],[[37364,12743],[45,28]],[[37409,12771],[45,96]],[[37454,12867],[5,-89],[72,-43],[-36,-33],[40,18]],[[37504,12575],[13,13]],[[37571,12626],[-9,-21]],[[37562,12605],[18,-10]],[[37580,12595],[-31,-40]],[[37549,12555],[-45,20]],[[37598,12260],[-40,0],[-45,0]],[[37513,12260],[-77,99]],[[37436,12359],[-63,84]],[[37387,12458],[117,117]],[[37549,12555],[0,-6]],[[37549,12549],[67,-66]],[[37549,12549],[113,67]],[[37662,12616],[-9,-33]],[[37562,12605],[23,23],[9,-20],[-14,-13]],[[37436,12359],[-112,-99]],[[37324,12260],[-59,2]],[[37265,12262],[45,125]],[[37513,12260],[-41,0],[-148,0]],[[38382,13638],[-22,-48]],[[38008,12529],[-4,-20]],[[38004,12509],[-95,112]],[[37909,12621],[0,5]],[[37909,12626],[36,20],[41,-13],[22,-104]],[[37900,12522],[-18,48]],[[37882,12570],[27,46]],[[37909,12616],[32,-89]],[[37941,12527],[-5,-5]],[[37936,12522],[-36,0]],[[38004,12509],[0,-28]],[[38004,12481],[-63,28]],[[37941,12509],[36,10],[-36,8]],[[37909,12616],[0,5]],[[37833,12590],[-5,13]],[[37828,12603],[9,23]],[[37837,12626],[36,15]],[[37873,12641],[36,-15]],[[37882,12570],[-49,20]],[[37869,12471],[9,43]],[[37878,12514],[22,8]],[[37936,12522],[5,-13]],[[38004,12481],[13,-5]],[[38017,12476],[68,-216],[-14,0],[-40,173],[-32,-44]],[[37999,12389],[-72,8]],[[37999,12389],[-9,-129],[-22,0],[-27,66],[13,-66],[-72,0]],[[38008,12529],[9,-53]],[[37878,12514],[-50,33]],[[37828,12547],[5,43]],[[37801,12549],[27,-2]],[[37337,12499],[41,53],[-50,33]],[[37328,12585],[41,81]],[[37828,12547],[-36,13]],[[37792,12560],[-4,20]],[[37788,12580],[22,20]],[[37810,12600],[18,3]],[[37783,12649],[-9,2]],[[37774,12651],[-4,23]],[[37770,12674],[40,-18]],[[37810,12656],[-27,-7]],[[37765,12557],[-9,23]],[[37756,12580],[0,10]],[[37756,12590],[5,15]],[[37761,12605],[27,-25]],[[37792,12560],[-27,-3]],[[37725,12651],[49,0]],[[37783,12649],[0,-16]],[[37783,12633],[-4,-10]],[[37779,12623],[-18,-18]],[[37761,12605],[-36,46]],[[37743,12593],[13,-16]],[[37756,12577],[-18,0]],[[37738,12577],[-4,6]],[[37734,12583],[9,10]],[[37756,12590],[-13,3]],[[37734,12583],[27,22]],[[37779,12623],[9,-43]],[[37756,12577],[0,3]],[[37765,12557],[-27,20]],[[37725,12651],[45,23]],[[37783,12633],[27,-33]],[[37810,12656],[32,-7]],[[37842,12649],[-5,-23]],[[37842,12649],[31,-8]],[[37756,12537],[32,12]],[[37630,12766],[0,-26]],[[37630,12740],[-5,-2]],[[37625,12738],[-27,25]],[[37598,12763],[23,48]],[[37621,12811],[0,13]],[[37621,12824],[18,-5]],[[37639,12819],[5,0]],[[37644,12819],[-14,-53]],[[37621,12811],[-54,-7]],[[37567,12804],[-27,33]],[[37540,12837],[-5,10]],[[37535,12847],[50,31]],[[37585,12878],[4,-6]],[[37589,12872],[32,-48]],[[37562,12911],[-27,-13]],[[37535,12898],[-27,2]],[[37517,12941],[45,-30]],[[37535,12898],[0,-51]],[[37540,12837],[-36,53]],[[37653,12735],[4,-8]],[[37657,12727],[-27,13]],[[37630,12766],[23,-31]],[[37598,12763],[-31,41]],[[37657,12727],[23,-17]],[[37680,12710],[-55,28]],[[37562,12911],[23,-33]],[[37653,12735],[18,10]],[[37671,12745],[31,-23]],[[37702,12722],[-22,-12]],[[37680,12829],[-9,0]],[[37671,12829],[-14,33]],[[37657,12862],[95,-12],[-72,-21]],[[37725,12735],[0,3],[0,7],[18,31]],[[37743,12776],[0,-28]],[[37743,12748],[-18,-13]],[[37743,12776],[0,13]],[[37743,12789],[13,43],[-4,-77],[-9,-7]],[[37662,12816],[-23,3]],[[37644,12819],[18,-3]],[[37662,12816],[9,13]],[[37680,12829],[9,0],[9,-43],[0,-18]],[[37698,12768],[-27,-23]],[[37698,12768],[45,21]],[[37725,12735],[-23,-13]],[[37612,12941],[-50,-30]],[[37526,13005],[86,-64]],[[37612,12941],[13,-10]],[[37625,12931],[0,-26]],[[37625,12905],[37,-5],[-32,-43]],[[37630,12857],[-41,15]],[[37630,12857],[27,5]],[[37625,12931],[50,-23],[-50,-3]],[[37698,12542],[13,-8]],[[37711,12534],[5,-2]],[[37716,12532],[-5,-26]],[[37671,12522],[27,20]],[[37716,12532],[31,-18]],[[37662,12616],[54,-39],[-41,-7]],[[37711,12534],[14,28]],[[37725,12562],[22,-15],[0,-23],[0,-10]],[[37698,12542],[27,20]],[[36932,12941],[-14,26]],[[36918,12967],[32,15]],[[36950,12982],[4,-5]],[[36954,12977],[-22,-36]],[[36932,12941],[9,-15]],[[36941,12926],[-86,-3],[-31,-79]],[[36824,12844],[-45,31]],[[36779,12875],[18,69],[-54,30]],[[36743,12974],[-14,15]],[[36729,12989],[108,28]],[[36837,13017],[18,-5]],[[36855,13012],[18,-40],[5,-13],[27,13]],[[36905,12972],[13,-5]],[[36950,12911],[-18,-145]],[[36932,12766],[-99,48]],[[36833,12814],[-9,30]],[[36941,12926],[9,-15]],[[36554,12600],[-36,-58]],[[36518,12542],[-41,-3]],[[36477,12539],[-72,16]],[[36405,12555],[0,33]],[[36405,12588],[50,7],[-18,69]],[[36437,12664],[31,25]],[[36468,12689],[86,-61]],[[36554,12628],[0,-28]],[[36437,12664],[-27,-15]],[[36410,12649],[-45,84]],[[36365,12733],[67,234]],[[36567,12923],[14,-5]],[[36581,12918],[-81,-81]],[[36500,12837],[9,-127]],[[36509,12710],[-41,-21]],[[37072,12361],[22,-109]],[[37094,12252],[-22,2],[-27,0]],[[37045,12254],[-77,102]],[[36968,12356],[9,13]],[[36977,12369],[95,-8]],[[36963,12254],[-54,79]],[[36909,12333],[59,23]],[[37045,12254],[-82,0]],[[37081,12369],[-9,-8]],[[36977,12369],[-59,89]],[[36918,12458],[122,74]],[[37040,12532],[27,-130],[41,-5],[-27,-28]],[[36828,12710],[5,104]],[[36932,12766],[59,-39]],[[36991,12727],[-5,-2]],[[36986,12725],[-158,-15]],[[36837,13017],[-40,82]],[[36797,13099],[22,2]],[[36882,13104],[0,-31]],[[36882,13073],[-27,-61]],[[36797,13099],[-167,5]],[[36770,13178],[22,22]],[[36716,12862],[-9,-18]],[[36707,12844],[-32,0]],[[36675,12844],[-63,107]],[[36626,12997],[103,-8]],[[36743,12974],[-41,-20],[14,-92]],[[36882,13073],[54,-30]],[[36936,13043],[-13,-31]],[[36923,13012],[-18,-40]],[[36900,13117],[91,-39],[-23,-38]],[[36968,13040],[-32,3]],[[37040,12532],[14,43]],[[37054,12575],[72,13]],[[37126,12588],[31,-125],[45,5]],[[37202,12468],[0,-104],[-67,23]],[[37135,12387],[-54,-18]],[[37225,12758],[40,71]],[[37265,12829],[59,21]],[[37324,12850],[-41,-77]],[[37283,12773],[-58,-15]],[[36702,12707],[-81,97]],[[36621,12804],[54,40]],[[36707,12844],[49,-101],[-9,-59],[-45,23]],[[36716,12862],[63,13]],[[36828,12710],[-81,-44]],[[36747,12666],[-45,41]],[[36950,12911],[126,48]],[[37076,12959],[41,69]],[[37117,13028],[31,-41]],[[37148,12987],[-67,-150]],[[37081,12837],[-90,-110]],[[36626,12588],[-41,-66],[-67,20]],[[36554,12600],[72,-12]],[[36909,12333],[-45,33],[32,77]],[[36896,12443],[22,15]],[[36455,12252],[-23,0],[-36,0]],[[36396,12252],[-4,48]],[[36392,12300],[49,49]],[[36441,12349],[14,-97]],[[37364,12743],[-36,-18]],[[37328,12725],[-45,48]],[[37324,12850],[4,5]],[[37328,12855],[81,-84]],[[36765,12254],[27,102],[-117,-102]],[[36675,12254],[-72,0]],[[36603,12254],[9,23]],[[36612,12277],[41,77],[-32,63]],[[36621,12417],[77,49],[-9,78]],[[36689,12544],[207,-101]],[[36963,12254],[-54,0],[-144,0]],[[36567,12806],[14,112]],[[36621,12804],[-54,2]],[[37265,12262],[0,-10],[-81,0]],[[37184,12252],[-49,135]],[[37202,12468],[14,54]],[[37216,12522],[27,2]],[[37243,12524],[45,-30]],[[36621,12417],[-36,69],[50,74]],[[36635,12560],[54,40]],[[36689,12600],[0,-56]],[[36522,12254],[-22,0],[-36,-2]],[[36464,12252],[54,69]],[[36518,12321],[27,-21]],[[36545,12300],[-23,-46]],[[36950,12982],[-27,30]],[[36968,13040],[149,-12]],[[37076,12959],[-122,18]],[[37328,12585],[-85,-61]],[[37216,12522],[-27,50]],[[37189,12572],[139,153]],[[36936,12532],[-18,-74]],[[36689,12600],[0,13]],[[36689,12613],[63,5]],[[36752,12618],[184,-86]],[[36518,12321],[-5,38]],[[36513,12359],[23,107],[-59,73]],[[36626,12588],[9,-28]],[[36612,12277],[-67,23]],[[36747,12666],[5,-48]],[[36689,12613],[-63,53]],[[36626,12666],[-117,44]],[[36500,12837],[67,-31]],[[37184,12252],[-90,0]],[[36626,12666],[-72,-38]],[[37126,12588],[18,15]],[[37144,12603],[45,-31]],[[36765,12254],[-22,0],[-45,0],[-23,0]],[[37355,12918],[-27,-63]],[[37265,12829],[-184,8]],[[37148,12987],[41,46],[0,-94],[166,-21]],[[36986,12725],[-13,-117]],[[36973,12608],[-37,-76]],[[37355,12918],[50,-48],[36,53],[13,-56]],[[36603,12254],[-40,0],[-41,0]],[[37144,12603],[0,114],[81,41]],[[37054,12575],[-81,33]],[[36464,12252],[-9,0]],[[36441,12349],[0,5]],[[36441,12354],[72,5]],[[35991,12903],[-5,2]],[[35986,12905],[59,92]],[[36045,12997],[9,74],[-95,58]],[[35959,13129],[9,21]],[[35968,13150],[122,-23],[45,84],[130,-51]],[[36261,13137],[-135,-173]],[[36126,12964],[-23,-92]],[[36103,12872],[-27,46],[-18,-74]],[[36058,12844],[-67,59]],[[36243,12351],[-27,-23]],[[36216,12328],[-45,117]],[[36171,12445],[27,97]],[[36198,12542],[27,-10]],[[36225,12532],[18,-181]],[[36216,12328],[171,-76]],[[36387,12252],[-49,0],[-122,0],[-41,0]],[[36175,12252],[-135,71],[0,56]],[[36040,12379],[23,33]],[[36063,12412],[108,33]],[[36396,12252],[-9,0]],[[36243,12351],[40,-23]],[[36283,12328],[109,-28]],[[36441,12354],[-54,-31],[-49,171]],[[36338,12494],[13,15]],[[36351,12509],[54,46]],[[35964,13394],[-14,-74],[86,-61],[-122,-46]],[[35914,13213],[-13,66]],[[35901,13279],[31,23],[-72,71]],[[35860,13373],[90,122]],[[35950,13495],[14,-101]],[[36315,13002],[-45,-63],[18,-148]],[[36288,12791],[-23,10]],[[36265,12801],[-85,132]],[[36180,12933],[58,16],[0,76]],[[35991,12903],[-50,-158]],[[35941,12745],[-31,-58]],[[35910,12687],[-63,94]],[[35847,12781],[-23,97]],[[35824,12878],[18,25]],[[35842,12903],[32,2]],[[35874,12905],[40,-81],[72,81]],[[36063,12412],[13,51],[-108,31]],[[35968,12494],[18,30]],[[35986,12524],[18,43]],[[36004,12567],[72,77]],[[36076,12644],[14,-72],[58,-5]],[[36148,12567],[50,-25]],[[36175,12252],[-9,0],[-99,0],[-112,-3]],[[35955,12249],[13,100]],[[35968,12349],[-54,61]],[[35914,12410],[63,33]],[[35977,12443],[63,-64]],[[36347,12743],[-27,15]],[[36320,12758],[-32,20]],[[36288,12778],[0,13]],[[36365,12733],[-18,10]],[[35874,12905],[112,0]],[[35874,13190],[40,23]],[[35964,13394],[67,-5]],[[36130,13203],[-40,-76],[-216,63]],[[36004,12567],[-9,-2]],[[35995,12565],[-22,117],[-45,-3]],[[35928,12679],[-18,8]],[[35941,12745],[135,-101]],[[36405,12588],[-40,15],[45,46]],[[36184,12758],[-81,114]],[[36126,12964],[54,-31]],[[36265,12801],[-81,-43]],[[36148,12567],[18,87],[122,-3],[59,92]],[[36351,12509],[-36,81],[-90,-58]],[[36058,12844],[99,-152]],[[36157,12692],[-27,-69],[-54,21]],[[36283,12328],[55,166]],[[36320,12758],[-73,-25],[41,45]],[[36184,12758],[-27,-66]],[[35842,12903],[5,46]],[[35847,12949],[27,58],[-45,33],[126,49]],[[35955,13089],[-9,-112],[99,20]],[[35847,12781],[-27,-28]],[[35820,12753],[-77,43],[23,99]],[[35766,12895],[58,-17]],[[35955,13089],[4,40]],[[35928,12679],[-54,-79]],[[35874,12600],[-23,-43]],[[35851,12557],[-4,148]],[[35847,12705],[-18,15]],[[35829,12720],[-9,33]],[[35766,12895],[-54,26]],[[35712,12921],[31,48]],[[35743,12969],[104,-20]],[[35914,12410],[-13,117]],[[35901,12527],[85,-3]],[[35968,12494],[9,-51]],[[35995,12565],[-94,-10]],[[35901,12555],[-27,45]],[[35901,12527],[0,28]],[[35009,13063],[-81,-56]],[[34928,13007],[-5,-2]],[[34923,13005],[-22,12]],[[34901,13017],[-18,21]],[[34883,13038],[81,43]],[[34964,13081],[27,5]],[[34991,13086],[18,-23]],[[34928,13007],[9,-13]],[[34937,12994],[-27,-7]],[[34910,12987],[0,7],[0,6],[13,5]],[[34865,12916],[9,48]],[[34874,12964],[27,18]],[[34901,12982],[9,5]],[[34937,12994],[45,-25]],[[34982,12969],[-50,-74]],[[34932,12895],[-67,21]],[[34874,12964],[-9,30]],[[34865,12994],[4,6]],[[34869,13000],[32,-18]],[[34869,13000],[32,17]],[[34851,13000],[-9,35]],[[34842,13035],[41,3]],[[34865,12994],[-14,6]],[[34865,12916],[-54,-26]],[[34811,12890],[-5,-2]],[[34806,12888],[-54,38]],[[34752,12926],[99,74]],[[34842,13035],[27,76]],[[34869,13111],[41,46]],[[34910,13157],[22,-48]],[[34932,13109],[19,-8]],[[34951,13101],[13,-20]],[[34446,12293],[-13,43]],[[34433,12336],[85,-18]],[[34518,12318],[-72,-25]],[[35122,12351],[-36,-86]],[[35086,12265],[-90,94]],[[34996,12359],[72,28],[22,112]],[[35090,12499],[77,-69]],[[35167,12430],[-45,-79]],[[34892,12448],[-45,-43]],[[34847,12405],[-41,-18]],[[34806,12387],[-22,81]],[[34784,12468],[45,41]],[[34829,12509],[99,48]],[[34928,12557],[41,-10]],[[34969,12547],[-41,-79]],[[34928,12468],[-18,-25]],[[34910,12443],[-18,5]],[[34806,12888],[-45,-41]],[[34761,12847],[-58,-8]],[[34703,12839],[4,49]],[[34707,12888],[14,12]],[[34721,12900],[31,26]],[[34662,13038],[-54,-99]],[[34608,12939],[-135,-44]],[[34473,12895],[-85,77]],[[34388,12972],[4,0]],[[34392,12972],[135,73]],[[34527,13045],[81,51]],[[34608,13096],[54,-58]],[[34991,13086],[54,69]],[[35045,13155],[50,43]],[[35095,13198],[-14,-132]],[[35081,13066],[-4,-21]],[[35077,13045],[-68,18]],[[34996,12862],[-73,-51]],[[34923,12811],[-81,-61]],[[34842,12750],[-31,140]],[[34932,12895],[64,-33]],[[35189,13335],[5,-2]],[[35194,13333],[-99,-79],[-36,94]],[[35059,13348],[49,51]],[[35108,13399],[36,-28]],[[35144,13371],[45,-36]],[[35032,13180],[27,36],[-54,38]],[[35005,13254],[49,84]],[[35054,13338],[41,-87],[94,66]],[[35189,13317],[63,-50]],[[35252,13267],[-103,-77]],[[35149,13190],[-117,-10]],[[34842,12750],[41,-78]],[[34883,12672],[-135,-3]],[[34748,12669],[4,8]],[[34752,12677],[9,170]],[[35162,12356],[9,-107]],[[35171,12249],[-4,0],[-81,0]],[[35086,12249],[0,16]],[[35122,12351],[40,5]],[[34847,13122],[-180,-94]],[[34667,13028],[-5,10]],[[34608,13096],[158,117],[67,-18]],[[34833,13195],[-27,-40],[41,-33]],[[34694,12822],[13,-105]],[[34707,12717],[-36,-38],[-45,59]],[[34626,12738],[54,81]],[[34680,12819],[14,3]],[[34631,12837],[-41,-36]],[[34590,12801],[-130,-43]],[[34460,12758],[13,137]],[[34608,12939],[0,-56]],[[34608,12883],[23,-46]],[[34541,12364],[63,-10],[-36,-97]],[[34568,12257],[-5,0],[-144,8]],[[34419,12265],[27,28]],[[34518,12318],[23,46]],[[34932,13109],[5,10]],[[34937,13119],[14,-18]],[[34919,12410],[-9,25]],[[34910,12435],[0,8]],[[34928,12468],[-9,-58]],[[34752,12677],[-45,40]],[[34694,12822],[9,17]],[[34770,12300],[-40,31]],[[34730,12331],[72,-8]],[[34802,12323],[-32,-23]],[[34910,13157],[27,-38]],[[34289,12923],[36,-66],[63,74],[22,-127],[-67,-31]],[[34343,12773],[-113,122]],[[34230,12895],[59,28]],[[34874,13307],[-27,79]],[[34847,13386],[162,155]],[[35009,13541],[108,-38]],[[35117,13503],[-9,-104]],[[35059,13348],[-81,127],[58,51],[-58,-53],[76,-135]],[[35005,13254],[-64,99],[-67,-46]],[[34383,13015],[-54,-23],[5,56]],[[34334,13048],[49,-33]],[[34707,12888],[-99,-5]],[[34667,13028],[54,-128]],[[34919,12618],[-135,-56]],[[34784,12562],[-90,-28]],[[34694,12534],[-14,56]],[[34680,12590],[68,79]],[[34883,12672],[36,-54]],[[34892,12448],[18,-13]],[[34919,12410],[-72,-5]],[[34851,13236],[23,71]],[[35032,13180],[-181,56]],[[34680,12590],[-90,-63]],[[34590,12527],[-31,-31]],[[34559,12496],[-90,219]],[[34469,12715],[99,10]],[[34568,12725],[58,13]],[[35117,12656],[-22,-28]],[[35095,12628],[-90,77],[27,78]],[[35032,12783],[36,-17]],[[35068,12766],[49,-110]],[[34194,13086],[-14,41]],[[34180,13127],[9,-26]],[[34189,13101],[5,-15]],[[35086,12900],[-68,67]],[[35018,12967],[90,-31]],[[35108,12936],[-22,-36]],[[34982,12969],[36,-2]],[[35086,12900],[-5,-56]],[[35081,12844],[-85,18]],[[34829,12509],[-45,53]],[[34919,12618],[9,-61]],[[35270,12786],[0,-53]],[[35270,12733],[-4,-6]],[[35266,12727],[-86,36]],[[35180,12763],[-18,53]],[[35162,12816],[185,168]],[[35347,12984],[4,-2]],[[35351,12982],[32,-18]],[[35383,12964],[-14,-33]],[[35369,12931],[-76,-38],[-23,-107]],[[34433,12565],[-63,86]],[[34370,12651],[49,28]],[[34419,12679],[14,-114]],[[34996,12359],[-41,-54],[-63,33]],[[34892,12338],[-72,-2]],[[34820,12336],[-14,51]],[[34969,12547],[72,33]],[[35041,12580],[22,-58]],[[35063,12522],[27,-23]],[[34433,12336],[49,41]],[[34482,12377],[-9,89]],[[34473,12466],[86,30]],[[34590,12527],[23,-56]],[[34613,12471],[-72,-107]],[[35180,12763],[-49,0]],[[35131,12763],[-50,81]],[[35108,12936],[5,104]],[[35113,13040],[36,-12]],[[35149,13028],[63,-69],[-86,-76],[36,-67]],[[35131,13152],[-50,-86]],[[35095,13198],[45,13],[-9,-59]],[[34000,12969],[-13,33]],[[33987,13002],[207,84]],[[34189,13101],[50,28]],[[34239,13129],[22,-25]],[[34261,13104],[55,-13]],[[34316,13091],[-109,-94]],[[34207,12997],[-171,-53]],[[34036,12944],[-36,25]],[[34545,13190],[95,77]],[[34640,13267],[103,71]],[[34743,13338],[104,48]],[[34851,13236],[-324,-191],[-36,110],[54,35]],[[34392,12972],[0,25]],[[34392,12997],[108,125]],[[34500,13122],[27,-77]],[[34640,13267],[-32,33],[81,66]],[[34689,13366],[54,-28]],[[34820,12336],[-18,-13]],[[34730,12331],[-54,28],[108,109]],[[34388,12972],[-99,-49]],[[34230,12895],[-36,-23]],[[34194,12872],[-36,39],[31,58]],[[34189,12969],[122,-5],[-117,20]],[[34194,12984],[13,13]],[[34316,13091],[18,-23]],[[34334,13068],[0,-20]],[[34383,13015],[9,-18]],[[34334,13068],[0,31],[139,79]],[[34473,13178],[18,-23],[9,-33]],[[35041,12580],[54,48]],[[35117,12656],[59,102]],[[35176,12758],[4,-104]],[[35180,12654],[-31,-56]],[[35149,12598],[-86,-76]],[[34568,12725],[-32,38],[54,38]],[[34631,12837],[49,-18]],[[35270,12733],[27,-64],[-45,-8]],[[35252,12661],[-27,13]],[[35225,12674],[41,53]],[[34460,12758],[0,-28]],[[34460,12730],[-23,-25]],[[34437,12705],[-9,53],[-81,-5]],[[34347,12753],[-4,20]],[[34180,13127],[5,7],[9,28],[0,-2],[45,-31]],[[35086,12249],[-117,3],[-100,0]],[[34869,12252],[23,86]],[[34469,12715],[-9,15]],[[34261,13104],[104,58],[90,49],[9,5],[9,-38]],[[34923,12811],[109,-28]],[[34847,13122],[22,-11]],[[35225,12674],[-45,-20]],[[35176,12758],[4,5]],[[34770,12252],[0,48]],[[34869,12252],[-27,0],[-72,0]],[[34189,12969],[5,15]],[[34770,12252],[-27,0],[-112,0],[-63,5]],[[34613,12471],[81,63]],[[35113,13040],[-36,5]],[[35131,13152],[18,-124]],[[34833,13195],[32,54],[180,-94]],[[35068,12766],[63,-3]],[[33190,12305],[-77,0]],[[33113,12305],[104,41],[-27,-41]],[[33113,12305],[-54,0],[-40,0]],[[33019,12305],[36,77]],[[33055,12382],[153,106]],[[33208,12488],[-5,-101],[68,2]],[[33271,12389],[-9,-84]],[[33262,12305],[-72,0]],[[33365,12539],[36,-89]],[[33401,12450],[-130,-61]],[[33208,12488],[-5,16]],[[33203,12504],[140,79]],[[33343,12583],[22,-44]],[[33401,12450],[27,-71]],[[33428,12379],[-22,-53]],[[33406,12326],[-144,-21]],[[32640,12583],[-22,28]],[[32618,12611],[4,20],[14,15],[-9,46],[0,2]],[[32627,12694],[67,-43],[0,79]],[[32694,12730],[45,36]],[[32739,12766],[9,-13]],[[32748,12753],[-4,-92],[49,-10]],[[32793,12651],[-9,-7]],[[32784,12644],[-130,-79]],[[32654,12565],[-14,18]],[[33185,12804],[-40,-51]],[[33145,12753],[-9,0]],[[33136,12753],[-32,61]],[[33104,12814],[9,36]],[[33113,12850],[54,-3]],[[33167,12847],[18,-43]],[[32825,12598],[-72,-59]],[[32753,12539],[-126,-63]],[[32627,12476],[27,89]],[[32784,12644],[27,-18]],[[32811,12626],[14,-28]],[[33145,12890],[22,-43]],[[33113,12850],[-40,45],[49,33]],[[33122,12928],[23,-38]],[[32537,12303],[-95,0],[-54,0]],[[32388,12303],[135,79]],[[32523,12382],[104,20],[-90,-99]],[[33001,12562],[-14,31]],[[32987,12593],[23,15]],[[33010,12608],[63,15],[-27,69]],[[33046,12692],[13,8]],[[33059,12700],[63,25]],[[33122,12725],[18,20]],[[33140,12745],[9,-91]],[[33149,12654],[-31,-10],[40,-102],[-121,-79]],[[33037,12463],[-36,99]],[[33284,12674],[-18,-13]],[[33266,12661],[-117,-7]],[[33140,12745],[5,8]],[[33185,12804],[36,-33]],[[33221,12771],[50,-13],[-72,-13],[22,-73],[63,2]],[[33050,12789],[-27,17]],[[33023,12806],[-22,13]],[[33001,12819],[49,104]],[[33050,12923],[54,-109]],[[33104,12814],[-54,-25]],[[33001,12819],[-9,0]],[[32992,12819],[-109,25]],[[32883,12844],[-13,84]],[[32870,12928],[58,31],[73,25]],[[33001,12984],[49,-61]],[[33019,12717],[-50,-45],[41,-64]],[[32987,12593],[-99,-51],[-63,56]],[[32811,12626],[36,40]],[[32847,12666],[86,3],[-41,158]],[[32892,12827],[-9,17]],[[32992,12819],[13,-38]],[[33005,12781],[14,-64]],[[33428,12379],[27,-5]],[[33455,12374],[77,5]],[[33532,12379],[49,18]],[[33581,12397],[28,-46]],[[33609,12351],[-32,-28]],[[33577,12323],[-81,0],[-59,3],[-31,0]],[[33059,12700],[-9,89]],[[33136,12753],[-14,-28]],[[33221,12794],[0,-23]],[[33185,12804],[36,-10]],[[32627,12476],[-50,-26]],[[32577,12450],[-49,44]],[[32528,12494],[112,89]],[[32793,12420],[-135,-117]],[[32658,12303],[-121,0]],[[32523,12382],[-13,20]],[[32510,12402],[67,48]],[[32753,12539],[40,-119]],[[33001,12562],[-82,-81]],[[32919,12481],[-9,46],[-58,-39]],[[32852,12488],[-27,110]],[[32208,12308],[-54,0],[-131,2],[-27,0],[113,67],[54,0],[36,5]],[[32199,12382],[9,-74]],[[32852,12488],[22,-96],[-81,28]],[[32910,12377],[-81,-74]],[[32829,12303],[-63,0],[-108,0]],[[32919,12481],[0,-97]],[[32919,12384],[-9,-7]],[[33001,12984],[58,41]],[[33059,13025],[41,-18]],[[33100,13007],[72,-28]],[[33172,12979],[-50,-43]],[[33122,12936],[0,-8]],[[32924,12305],[-14,72]],[[32919,12384],[127,38]],[[33046,12422],[9,-40]],[[33019,12305],[-32,0],[-63,0]],[[33320,12844],[32,-89],[76,34]],[[33428,12789],[18,-28]],[[33446,12761],[-162,-87]],[[33221,12794],[9,17]],[[33230,12811],[81,41]],[[33311,12852],[9,-8]],[[32303,12308],[13,89],[-68,10]],[[32248,12407],[95,33],[77,18]],[[32420,12458],[58,15],[32,-71]],[[32388,12303],[-85,5]],[[32528,12494],[-50,25]],[[32478,12519],[41,46]],[[32519,12565],[99,46]],[[33266,12661],[140,-43]],[[33406,12618],[-63,-35]],[[33203,12504],[-157,-82]],[[33046,12422],[-9,41]],[[33023,12806],[-18,-25]],[[33046,12692],[-27,25]],[[32793,12651],[9,69],[45,-54]],[[32420,12458],[27,86],[4,8]],[[32451,12552],[27,-33]],[[32739,12766],[-4,73],[45,21],[81,61],[9,7]],[[32892,12827],[-22,-97],[-122,23]],[[33446,12761],[27,-77]],[[33473,12684],[0,-5]],[[33473,12679],[-67,-61]],[[32303,12308],[-95,0]],[[32199,12382],[49,25]],[[32451,12552],[45,20],[23,-7]],[[32627,12694],[58,33],[9,3]],[[32924,12305],[-59,0],[-22,0],[-14,-2]],[[33676,12354],[0,-64]],[[33676,12290],[-122,8],[23,25]],[[33609,12351],[63,15]],[[33672,12366],[4,-12]],[[34189,12727],[-40,69]],[[34149,12796],[45,76]],[[34347,12753],[-86,-99]],[[34261,12654],[9,66],[-81,7]],[[33793,12547],[-54,38],[54,26]],[[33793,12611],[41,-46],[-41,-18]],[[34194,12565],[58,-18],[-49,-64]],[[34203,12483],[-45,46],[-5,-48]],[[34153,12481],[-18,10]],[[34135,12491],[0,10]],[[34135,12501],[-13,71]],[[34122,12572],[72,-7]],[[34257,12638],[-9,-25]],[[34248,12613],[-36,23]],[[34212,12636],[36,15]],[[34248,12651],[9,-13]],[[33879,12847],[-86,43]],[[33793,12890],[32,13]],[[33825,12903],[45,20]],[[33870,12923],[130,46]],[[34036,12944],[-94,-153]],[[33942,12791],[-63,56]],[[34149,12796],[-14,-7]],[[34135,12789],[-229,-21]],[[33906,12768],[36,23]],[[34392,12379],[-9,-112]],[[34383,12267],[-72,5]],[[34311,12272],[-45,31]],[[34266,12303],[126,76]],[[33820,12694],[-31,-22]],[[33789,12672],[-122,-46]],[[33667,12626],[77,104]],[[33744,12730],[135,117]],[[33906,12768],[-86,-74]],[[33658,12415],[-77,-18]],[[33532,12379],[-27,168]],[[33505,12547],[13,15]],[[33518,12562],[50,-33],[27,-7],[63,-107]],[[34014,12481],[-32,0]],[[33982,12481],[5,51]],[[33987,12532],[31,23]],[[34018,12555],[0,-51]],[[34018,12504],[-4,-23]],[[33937,12567],[-31,-12],[-5,78]],[[33901,12633],[36,-66]],[[34212,12636],[-5,64],[-49,-6],[31,33]],[[34261,12654],[-13,-3]],[[34473,12466],[-72,-11]],[[34401,12455],[-94,148]],[[34307,12603],[63,48]],[[34433,12565],[-45,-31],[85,-68]],[[34014,12481],[-23,-59]],[[33991,12422],[-130,-23]],[[33861,12399],[4,74]],[[33865,12473],[14,5]],[[33879,12478],[103,3]],[[34266,12303],[-14,23]],[[34252,12326],[-4,38]],[[34248,12364],[59,56],[85,-41]],[[34018,12504],[117,-3]],[[34135,12491],[-54,-74],[18,-58],[-67,7]],[[34032,12366],[-41,56]],[[34005,12277],[27,89]],[[34153,12481],[-27,-79],[27,51],[77,-43]],[[34230,12410],[18,-46]],[[34252,12326],[-45,-59]],[[34207,12267],[-49,3],[-99,5],[-54,2]],[[33455,12374],[18,92],[-54,-8],[50,122]],[[33469,12580],[36,-33]],[[34419,12265],[-36,2]],[[34230,12410],[-27,73]],[[34194,12565],[54,48]],[[34257,12638],[50,-35]],[[34401,12455],[81,-78]],[[34437,12705],[-18,-26]],[[33924,12282],[-86,92]],[[33838,12374],[23,25]],[[34005,12277],[-81,5]],[[34018,12555],[77,28]],[[34095,12583],[27,-11]],[[34311,12272],[-4,0],[-100,-5]],[[33518,12562],[149,64]],[[33789,12672],[4,-61]],[[33793,12547],[-31,-15]],[[33762,12532],[-77,-54],[27,-51]],[[33712,12427],[-54,-12]],[[34095,12583],[-41,43],[63,109],[-63,-23],[81,77]],[[33365,12539],[104,41]],[[33924,12282],[-32,0],[-81,3],[-117,5],[-18,0]],[[33676,12354],[77,0]],[[33753,12354],[85,20]],[[33870,12923],[36,38]],[[33906,12961],[81,41]],[[33820,12694],[99,-20],[-18,-41]],[[33937,12567],[9,-35]],[[33946,12532],[-76,-23]],[[33870,12509],[-108,23]],[[33473,12679],[59,18]],[[33532,12697],[22,-43]],[[33554,12654],[36,23],[154,53]],[[33879,12478],[-9,31]],[[33946,12532],[41,0]],[[33865,12473],[-153,-46]],[[33532,12697],[144,66],[-122,-109]],[[33753,12354],[-81,12]],[[35617,13806],[-68,-38]],[[35549,13768],[-76,10]],[[35473,13778],[4,61]],[[35477,13839],[63,79],[-31,40]],[[35509,13958],[81,66]],[[35599,14017],[13,-21]],[[35612,13996],[19,-86],[63,33]],[[35694,13943],[18,0]],[[35239,14286],[-63,-61],[-54,46]],[[35122,14271],[13,81],[104,-61],[0,-5]],[[35405,13480],[-99,-127]],[[35306,13353],[5,61]],[[35311,13414],[31,137],[59,33]],[[35401,13584],[18,-5]],[[35419,13579],[-14,-99]],[[35509,13958],[-36,10]],[[35473,13968],[27,92]],[[35009,13541],[-58,77]],[[34951,13618],[27,15]],[[34978,13633],[157,-18]],[[35135,13615],[32,-8]],[[35167,13607],[-50,-104]],[[34689,13366],[-54,51],[-4,12],[171,257],[18,10]],[[34820,13696],[108,-28],[-50,-86],[73,36]],[[35428,13841],[-72,-76]],[[35356,13765],[36,76],[-104,-25]],[[35288,13816],[108,102]],[[35396,13918],[54,20]],[[35450,13938],[-22,-97]],[[35739,13930],[-5,31]],[[35734,13961],[86,-56]],[[35288,13816],[-22,20]],[[35266,13836],[36,77],[-59,20]],[[35243,13933],[63,51]],[[35306,13984],[104,-18],[-14,-48]],[[35306,14202],[-45,-111],[-45,15]],[[35216,14106],[54,109]],[[35270,14215],[36,-13]],[[35468,13630],[-49,-51]],[[35401,13584],[-32,44]],[[35369,13628],[23,45]],[[35392,13673],[76,-43]],[[35694,13943],[-32,51]],[[35662,13994],[36,-8]],[[35698,13986],[36,-25]],[[35135,13615],[131,221]],[[35356,13765],[-77,-135]],[[35279,13630],[-112,-23]],[[35599,13686],[-140,64]],[[35459,13750],[14,28]],[[35549,13768],[73,-44]],[[35698,13986],[36,5]],[[35734,13991],[23,41]],[[35775,14065],[22,-28]],[[35207,13948],[144,237]],[[35351,14185],[45,-16]],[[35396,14169],[-90,-185]],[[35243,13933],[-36,15]],[[34820,13696],[72,115]],[[34892,13811],[144,-23]],[[35036,13788],[-58,-155]],[[35279,13630],[45,-43],[45,41]],[[35311,13414],[-41,33]],[[35270,13447],[-40,23],[-86,-99]],[[35122,13968],[63,120]],[[35185,14088],[31,18]],[[35306,14202],[45,-17]],[[35207,13948],[-85,20]],[[35369,13752],[-13,13]],[[35428,13841],[49,-2]],[[35459,13750],[-90,2]],[[35036,13788],[45,76]],[[35081,13864],[126,84]],[[35509,13546],[9,89]],[[35518,13635],[76,28]],[[35023,14019],[0,59],[18,20],[58,127],[23,46]],[[35239,14286],[31,-71]],[[35185,14088],[-45,43],[-72,-142]],[[35068,13989],[-45,30]],[[35662,13994],[-50,2]],[[35631,14060],[103,-69]],[[35122,13968],[-27,6]],[[35095,13974],[-27,15]],[[35518,13635],[-50,-5]],[[35392,13673],[-50,13],[27,66]],[[35450,13938],[23,30]],[[35504,13511],[-36,-92],[-63,61]],[[34892,13811],[31,119],[100,89]],[[35095,13974],[-14,-110]],[[35518,13058],[18,48],[-68,49]],[[35468,13155],[50,-3]],[[35518,13152],[40,-89]],[[35558,13063],[-40,-5]],[[35405,13012],[45,107]],[[35450,13119],[-18,43],[36,-7]],[[35518,13058],[-18,-18]],[[35500,13040],[-95,-28]],[[35450,13119],[-58,46]],[[35392,13165],[18,69]],[[35410,13234],[108,-64]],[[35518,13170],[0,-18]],[[35626,13160],[-14,-148]],[[35612,13012],[-54,51]],[[35518,13170],[72,-53],[36,43]],[[35486,12905],[-36,-63]],[[35450,12842],[-58,2]],[[35392,12844],[49,61]],[[35441,12905],[45,0]],[[35473,12249],[4,41]],[[35477,12290],[81,38]],[[35558,12328],[50,43],[126,-50]],[[35734,12321],[0,-69]],[[35734,12252],[-67,0],[-109,-3],[-85,0]],[[35676,13386],[31,-38],[-58,-114]],[[35649,13234],[-73,12]],[[35576,13246],[-40,23],[40,79],[-130,28],[40,8],[18,127]],[[35743,12969],[-63,120]],[[35680,13089],[63,0],[-45,35]],[[35698,13124],[23,84]],[[35721,13208],[90,31],[90,-87],[76,46],[-9,-48]],[[35252,13267],[23,15]],[[35275,13282],[45,-15],[-23,-46]],[[35297,13221],[50,-237],[-189,-170],[-32,69],[86,76],[-77,89],[14,142]],[[35275,13282],[27,71]],[[35302,13353],[81,-107],[-86,-25]],[[35383,12399],[-41,36]],[[35342,12435],[14,3]],[[35356,12438],[27,-39]],[[35829,12720],[-108,-23],[-59,76]],[[35662,12773],[5,145]],[[35667,12918],[45,3]],[[35955,12249],[-23,0]],[[35932,12249],[-22,95],[-45,-11]],[[35865,12333],[18,61]],[[35883,12394],[85,-45]],[[35221,12463],[-50,-30]],[[35171,12433],[-4,-3]],[[35149,12598],[85,-28],[-49,-33],[36,-74]],[[35252,12661],[176,-73],[-27,-41]],[[35401,12547],[36,-18]],[[35437,12529],[4,-23]],[[35441,12506],[-76,-61]],[[35365,12445],[-27,46],[-117,-28]],[[35851,12557],[-36,-58],[-40,78]],[[35775,12577],[72,128]],[[35392,13165],[-27,38]],[[35365,13203],[45,31]],[[35635,12933],[18,59],[-41,20]],[[35626,13160],[54,76],[41,-28]],[[35698,13124],[-18,-35]],[[35667,12918],[-32,15]],[[35689,12557],[23,18]],[[35712,12575],[40,0]],[[35752,12575],[-63,-18]],[[35171,12433],[81,-74],[18,68],[72,8]],[[35383,12399],[9,-7]],[[35392,12392],[-23,-135]],[[35369,12257],[-207,99]],[[35369,12257],[5,-8]],[[35374,12249],[-54,0],[-104,0],[-45,0]],[[35365,12445],[-9,-7]],[[35441,12905],[-72,26]],[[35383,12964],[22,48]],[[35500,13040],[-32,-48],[59,-99]],[[35527,12893],[-41,12]],[[35351,12982],[41,58],[-41,13],[-4,147]],[[35347,13200],[18,3]],[[35770,13384],[23,-6]],[[35793,13378],[-18,-106],[-126,-38]],[[35874,13190],[-171,38],[76,59]],[[35779,13287],[122,-8]],[[35662,12773],[-68,-5]],[[35594,12768],[-22,69],[-90,-48]],[[35482,12789],[-32,53]],[[35527,12893],[27,76],[81,-36]],[[35261,13353],[-4,33]],[[35257,13386],[13,61]],[[35306,13353],[-4,0]],[[35302,13353],[-41,0]],[[35347,12984],[-32,84],[0,26],[-27,106],[59,0]],[[35554,12702],[-14,-69]],[[35540,12633],[-139,-86]],[[35270,12786],[81,58]],[[35351,12844],[14,-99],[126,-12]],[[35491,12733],[63,-31]],[[35549,12466],[41,-44],[27,130]],[[35617,12552],[72,5]],[[35712,12575],[63,-18],[-45,-61],[58,-61]],[[35788,12435],[-117,33],[-77,-84],[-45,82]],[[35946,13498],[-27,-25]],[[35482,12789],[9,-56]],[[35351,12844],[41,0]],[[35540,12633],[36,-73]],[[35576,12560],[-139,-31]],[[35441,12506],[68,-56]],[[35509,12450],[-9,-40]],[[35500,12410],[-54,-36]],[[35446,12374],[-54,18]],[[35594,12768],[-40,-66]],[[35649,13234],[40,-13],[-99,-102],[-126,130],[185,-15]],[[35576,13246],[-166,-12],[-108,119]],[[35775,12577],[-23,-2]],[[35617,12552],[-41,8]],[[35257,13386],[-68,-51]],[[35261,13353],[-67,-20]],[[35189,13317],[113,36]],[[35932,12249],[-31,3],[-27,-3]],[[35874,12249],[-9,84]],[[35473,12249],[-99,0]],[[35446,12374],[-14,-71],[45,-13]],[[35883,12394],[-81,18]],[[35802,12412],[-14,23]],[[36139,13475],[-99,64],[-54,-33]],[[35950,13495],[90,41],[54,-56]],[[35558,12328],[-58,82]],[[35509,12450],[40,16]],[[35802,12412],[-68,-91]],[[35874,12249],[-72,0],[-68,3]],[[35878,13424],[-85,-46]],[[35779,13287],[0,81],[81,5]],[[33491,12822],[-18,94]],[[33473,12916],[32,48]],[[33505,12964],[99,-33],[86,30]],[[33690,12961],[13,-7]],[[33703,12954],[-167,-122]],[[33536,12832],[-31,-18]],[[33505,12814],[-14,8]],[[33059,13025],[45,43],[27,26]],[[33131,13094],[45,-54],[-76,-33]],[[33825,12903],[-122,51]],[[33690,12961],[4,23],[108,84],[23,-30],[13,-16]],[[33838,13022],[-54,-38],[77,21]],[[33861,13005],[45,-44]],[[33428,12789],[5,2]],[[33433,12791],[58,31]],[[33505,12814],[-77,-25]],[[33838,13022],[23,-17]],[[33131,13094],[5,0],[49,48]],[[33185,13142],[176,-86]],[[33361,13056],[-9,-26]],[[33352,13030],[-81,-38],[4,-71]],[[33275,12921],[-103,58]],[[33185,13142],[149,127],[-27,-66],[67,-130]],[[33374,13073],[-13,-17]],[[33473,12916],[-40,-38]],[[33433,12878],[-32,94]],[[33401,12972],[32,40]],[[33433,13012],[36,0],[36,-48]],[[33122,12936],[23,-46]],[[33793,12890],[-198,-58]],[[33595,12832],[-59,0]],[[33356,12959],[0,-107]],[[33356,12852],[-36,-8]],[[33311,12852],[-36,51]],[[33275,12903],[0,18]],[[33352,13030],[9,-46]],[[33361,12984],[-5,-25]],[[33415,13033],[-54,-49]],[[33374,13073],[41,-40]],[[33595,12832],[-122,-148]],[[33428,12789],[-72,63]],[[33356,12959],[45,13]],[[33433,12878],[0,-87]],[[33230,12811],[45,92]],[[33415,13033],[18,-21]]]}