{"type":"Topology","transform":{"scale":[0.0012831345112129487,0.0009745357309423489],"translate":[-124.73273099999999,24.60334863324381]},"objects":{"area":{"type":"GeometryCollection","geometries":[{"arcs":[[0,1,2]],"type":"Polygon","properties":{"state":"VT","name":"LAKE MEMPHREMAGOG","zip":"00082"}},{"arcs":[[3,4,5,6]],"type":"Polygon","properties":{"state":"VT","name":"WARNERS GRANT","zip":"00190"}},{"arcs":[[7,8,9,-4]],"type":"Polygon","properties":{"state":"VT","name":"WEST WARREN GORE","zip":"00191"}},{"arcs":[[10,11,12,13]],"type":"Polygon","properties":{"state":"VT","name":"LEWIS MCD","zip":"00192"}},{"arcs":[[14,15,16,17,18,19,20,21]],"type":"Polygon","properties":{"state":"VT","name":"WHITE RIVER JUNCTION","zip":"05001"}},{"arcs":[[22,23,24,25,26,27,28,29]],"type":"Polygon","properties":{"state":"VT","name":"BETHEL","zip":"05032"}},{"arcs":[[30,31,32,33,34,35]],"type":"Polygon","properties":{"state":"VT","name":"BRADFORD","zip":"05033"}},{"arcs":[[36,37,38,39]],"type":"Polygon","properties":{"state":"VT","name":"BRIDGEWATER","zip":"05034"}},{"arcs":[[40,41,42,43,-30,44,-39]],"type":"Polygon","properties":{"state":"VT","name":"BRIDGEWATER CORNERS","zip":"05035"}},{"arcs":[[45,46,47,48,49]],"type":"Polygon","properties":{"state":"VT","name":"BROOKFIELD","zip":"05036"}},{"arcs":[[50,51,52]],"type":"Polygon","properties":{"state":"VT","name":"BROWNSVILLE","zip":"05037"}},{"arcs":[[53,-46,54,55,56,57,58]],"type":"Polygon","properties":{"state":"VT","name":"CHELSEA","zip":"05038"}},{"arcs":[[59,60,61,-32,62,-57]],"type":"Polygon","properties":{"state":"VT","name":"CORINTH","zip":"05039"}},{"arcs":[[63,64,65,-33,-62]],"type":"Polygon","properties":{"state":"VT","name":"EAST CORINTH","zip":"05040"}},{"arcs":[[66,67,-47,-54]],"type":"Polygon","properties":{"state":"VT","name":"EAST RANDOLPH","zip":"05041"}},{"arcs":[[68,69,70,71]],"type":"Polygon","properties":{"state":"VT","name":"EAST RYEGATE","zip":"05042"}},{"arcs":[[72,73,74]],"type":"Polygon","properties":{"state":"VT","name":"EAST THETFORD","zip":"05043"}},{"arcs":[[75,76,77,-36,78,79]],"type":"Polygon","properties":{"state":"VT","name":"FAIRLEE","zip":"05045"}},{"arcs":[[80,81,82,83,84,85]],"type":"Polygon","properties":{"state":"VT","name":"GROTON","zip":"05046"}},{"arcs":[[86,87,-17,88,89,90]],"type":"Polygon","properties":{"state":"VT","name":"HARTLAND","zip":"05048"}},{"arcs":[[-66,91,92,93,-34]],"type":"Polygon","properties":{"state":"VT","name":"NEWBURY","zip":"05051"}},{"arcs":[[-16,94,-89]],"type":"Polygon","properties":{"state":"VT","name":"NORTH HARTLAND","zip":"05052"}},{"arcs":[[95,96,97,98,99]],"type":"Polygon","properties":{"state":"VT","name":"NORTH POMFRET","zip":"05053"}},{"arcs":[[100,101,102,-73,103,-22]],"type":"Polygon","properties":{"state":"VT","name":"NORWICH","zip":"05055"}},{"arcs":[[104,105,106,107,108,-42]],"type":"Polygon","properties":{"state":"VT","name":"PLYMOUTH","zip":"05056"}},{"arcs":[[109,110,111,-76]],"type":"Polygon","properties":{"state":"VT","name":"POST MILLS","zip":"05058"}},{"arcs":[[112,113,114,115,116,-49,117,-26]],"type":"Polygon","properties":{"state":"VT","name":"RANDOLPH","zip":"05060"}},{"arcs":[[-118,-48,-68,118,119,-27]],"type":"Polygon","properties":{"state":"VT","name":"RANDOLPH CENTER","zip":"05061"}},{"arcs":[[120,121,-105,-41,-38,122,123,-52,124]],"type":"Polygon","properties":{"state":"VT","name":"READING","zip":"05062"}},{"arcs":[[125,126,127,-101,-21,128,-99]],"type":"Polygon","properties":{"state":"VT","name":"SHARON","zip":"05065"}},{"arcs":[[129,130,131,-97]],"type":"Polygon","properties":{"state":"VT","name":"SOUTH POMFRET","zip":"05067"}},{"arcs":[[-132,132,-28,-120,133,134,-126,-98]],"type":"Polygon","properties":{"state":"VT","name":"SOUTH ROYALTON","zip":"05068"}},{"arcs":[[135,-81,136,-71,137,-92,-65]],"type":"Polygon","properties":{"state":"VT","name":"SOUTH RYEGATE","zip":"05069"}},{"arcs":[[-128,138,139,-102]],"type":"Polygon","properties":{"state":"VT","name":"SOUTH STRAFFORD","zip":"05070"}},{"arcs":[[-37,140,-87,141,-123]],"type":"Polygon","properties":{"state":"VT","name":"SOUTH WOODSTOCK","zip":"05071"}},{"arcs":[[142,143,144,-139,-127,-135]],"type":"Polygon","properties":{"state":"VT","name":"STRAFFORD","zip":"05072"}},{"arcs":[[145,-130,-96,146,-19]],"type":"Polygon","properties":{"state":"VT","name":"TAFTSVILLE","zip":"05073"}},{"arcs":[[-145,147,-110,-80,148,-74,-103,-140]],"type":"Polygon","properties":{"state":"VT","name":"THETFORD CENTER","zip":"05075"}},{"arcs":[[-134,-119,-67,-59,-143]],"type":"Polygon","properties":{"state":"VT","name":"TUNBRIDGE","zip":"05077"}},{"arcs":[[-58,-63,-31,-78,149,-111,-148,-144]],"type":"Polygon","properties":{"state":"VT","name":"VERSHIRE","zip":"05079"}},{"arcs":[[-70,150,-93,-138]],"type":"Polygon","properties":{"state":"VT","name":"WELLS RIVER","zip":"05081"}},{"arcs":[[-112,-150,-77]],"type":"Polygon","properties":{"state":"VT","name":"WEST FAIRLEE","zip":"05083"}},{"arcs":[[-100,-129,-20,-147]],"type":"Polygon","properties":{"state":"VT","name":"WEST HARTFORD","zip":"05084"}},{"arcs":[[151,152,-82,-136,-64,-61]],"type":"Polygon","properties":{"state":"VT","name":"WEST TOPSHAM","zip":"05086"}},{"arcs":[[153,-53,-124,-142,-91,154,155]],"type":"Polygon","properties":{"state":"VT","name":"WINDSOR","zip":"05089"}},{"arcs":[[-45,-29,-133,-131,-146,-18,-88,-141,-40]],"type":"Polygon","properties":{"state":"VT","name":"WOODSTOCK","zip":"05091"}},{"arcs":[[156,157,158,159,160,161]],"type":"Polygon","properties":{"state":"VT","name":"BELLOWS FALLS","zip":"05101"}},{"arcs":[[162,-125,163,164]],"type":"Polygon","properties":{"state":"VT","name":"CAVENDISH","zip":"05142"}},{"arcs":[[165,166,167,168,-165,169,170,171,-159,172,173]],"type":"Polygon","properties":{"state":"VT","name":"CHESTER","zip":"05143"}},{"arcs":[[174,175,176,177,-173,-158]],"type":"Polygon","properties":{"state":"VT","name":"GRAFTON","zip":"05146"}},{"arcs":[[178,179,180,181,182,-166,183]],"type":"Polygon","properties":{"state":"VT","name":"LONDONDERRY","zip":"05148"}},{"arcs":[[184,185,-106,-122,186,-168]],"type":"Polygon","properties":{"state":"VT","name":"LUDLOW","zip":"05149"}},{"arcs":[[187,-171,188]],"type":"Polygon","properties":{"state":"VT","name":"NORTH SPRINGFIELD","zip":"05150"}},{"arcs":[[-164,-51,-154,189,-189,-170]],"type":"Polygon","properties":{"state":"VT","name":"PERKINSVILLE","zip":"05151"}},{"arcs":[[190,-179,191]],"type":"Polygon","properties":{"state":"VT","name":"PERU","zip":"05152"}},{"arcs":[[-169,-187,-121,-163]],"type":"Polygon","properties":{"state":"VT","name":"PROCTORSVILLE","zip":"05153"}},{"arcs":[[192,193,-192,-184,194]],"type":"Polygon","properties":{"state":"VT","name":"SOUTH LONDONDERRY","zip":"05155"}},{"arcs":[[-188,-190,-156,195,-160,-172]],"type":"Polygon","properties":{"state":"VT","name":"SPRINGFIELD","zip":"05156"}},{"arcs":[[196,197,-162]],"type":"Polygon","properties":{"state":"VT","name":"WESTMINSTER","zip":"05158"}},{"arcs":[[198,199,200,-185,-167,-183]],"type":"Polygon","properties":{"state":"VT","name":"WESTON","zip":"05161"}},{"arcs":[[201,202,203,204,205,206,207,208,209,210]],"type":"Polygon","properties":{"state":"VT","name":"BENNINGTON","zip":"05201"}},{"arcs":[[211,-209,212,213,214,215,216]],"type":"Polygon","properties":{"state":"VT","name":"ARLINGTON","zip":"05250"}},{"arcs":[[217,218,219,220,221]],"type":"Polygon","properties":{"state":"VT","name":"DORSET","zip":"05251"}},{"arcs":[[222,223,-218,224,-181]],"type":"Polygon","properties":{"state":"VT","name":"EAST DORSET","zip":"05253"}},{"arcs":[[225,-216,-219,-224]],"type":"Polygon","properties":{"state":"VT","name":"MANCHESTER CENTER","zip":"05255"}},{"arcs":[[226,227,-207]],"type":"Polygon","properties":{"state":"VT","name":"NORTH BENNINGTON","zip":"05257"}},{"arcs":[[228,229,-205]],"type":"Polygon","properties":{"state":"VT","name":"NORTH POWNAL","zip":"05260"}},{"arcs":[[230,231,-229,-204]],"type":"Polygon","properties":{"state":"VT","name":"POWNAL","zip":"05261"}},{"arcs":[[-228,232,-213,-208]],"type":"Polygon","properties":{"state":"VT","name":"SHAFTSBURY","zip":"05262"}},{"arcs":[[233,234,235,236,237,238,239,240,241,242,243]],"type":"Polygon","properties":{"state":"VT","name":"BRATTLEBORO","zip":"05301"}},{"arcs":[[-226,-223,-180,-191,-194,244,245,-217]],"type":"Polygon","properties":{"state":"VT","name":"BONDVILLE","zip":"05340"}},{"arcs":[[246,247,248,-236]],"type":"Polygon","properties":{"state":"VT","name":"EAST DOVER","zip":"05341"}},{"arcs":[[249,250,251,252,-234]],"type":"Polygon","properties":{"state":"VT","name":"JACKSONVILLE","zip":"05342"}},{"arcs":[[253,-245,-193,254,255,256]],"type":"Polygon","properties":{"state":"VT","name":"JAMAICA","zip":"05343"}},{"arcs":[[257,258,259,-176,260,-239,261]],"type":"Polygon","properties":{"state":"VT","name":"NEWFANE","zip":"05345"}},{"arcs":[[-175,-157,-198,262,-240,-261]],"type":"Polygon","properties":{"state":"VT","name":"PUTNEY","zip":"05346"}},{"arcs":[[263,264,265,-202,266]],"type":"Polygon","properties":{"state":"VT","name":"READSBORO","zip":"05350"}},{"arcs":[[267,-237,-249,268,-258]],"type":"Polygon","properties":{"state":"VT","name":"SOUTH NEWFANE","zip":"05351"}},{"arcs":[[269,-231,-203,-266]],"type":"Polygon","properties":{"state":"VT","name":"STAMFORD","zip":"05352"}},{"arcs":[[270,-256,271,-177,-260]],"type":"Polygon","properties":{"state":"VT","name":"TOWNSHEND","zip":"05353"}},{"arcs":[[272,-242]],"type":"Polygon","properties":{"state":"VT","name":"VERNON","zip":"05354"}},{"arcs":[[273,274,-257,-271,-259,-269,-248]],"type":"Polygon","properties":{"state":"VT","name":"WARDSBORO","zip":"05355"}},{"arcs":[[275,-210,276,-274,-247]],"type":"Polygon","properties":{"state":"VT","name":"WEST DOVER","zip":"05356"}},{"arcs":[[277,-250,-244]],"type":"Polygon","properties":{"state":"VT","name":"WEST HALIFAX","zip":"05358"}},{"arcs":[[-255,-195,-174,-178,-272]],"type":"Polygon","properties":{"state":"VT","name":"WEST TOWNSHEND","zip":"05359"}},{"arcs":[[-212,-246,-254,-275,-277]],"type":"Polygon","properties":{"state":"VT","name":"WEST WARDSBORO","zip":"05360"}},{"arcs":[[278,-264,279,-252]],"type":"Polygon","properties":{"state":"VT","name":"WHITINGHAM","zip":"05361"}},{"arcs":[[-268,-262,-238]],"type":"Polygon","properties":{"state":"VT","name":"WILLIAMSVILLE","zip":"05362"}},{"arcs":[[-280,-267,-211,-276,-235,-253]],"type":"Polygon","properties":{"state":"VT","name":"WILMINGTON","zip":"05363"}},{"arcs":[[280,281,282,283]],"type":"Polygon","properties":{"state":"VT","name":"BURLINGTON","zip":"05401"}},{"arcs":[[-281,284,285,286,287,288,289]],"type":"Polygon","properties":{"state":"VT","name":"SOUTH BURLINGTON","zip":"05403"}},{"arcs":[[290,-285,-284]],"type":"Polygon","properties":{"state":"VT","name":"WINOOSKI","zip":"05404"}},{"arcs":[[291]],"type":"Polygon","properties":{"state":"VT","name":"ALBURG","zip":"05440"}},{"arcs":[[292,293,294,295,296,297]],"type":"Polygon","properties":{"state":"VT","name":"BAKERSFIELD","zip":"05441"}},{"arcs":[[298,299,-296,300]],"type":"Polygon","properties":{"state":"VT","name":"BELVIDERE CENTER","zip":"05442"}},{"arcs":[[301,302,303,304,305,306,307,308,309]],"type":"Polygon","properties":{"state":"VT","name":"BRISTOL","zip":"05443"}},{"arcs":[[310,311,312,313]],"type":"Polygon","properties":{"state":"VT","name":"CAMBRIDGE","zip":"05444"}},{"arcs":[[314,315,316,317]],"type":"Polygon","properties":{"state":"VT","name":"CHARLOTTE","zip":"05445"}},{"arcs":[[-283,318,319,320,-286,-291]],"type":"Polygon","properties":{"state":"VT","name":"COLCHESTER","zip":"05446"}},{"arcs":[[321,-314,322,323,324,-293]],"type":"Polygon","properties":{"state":"VT","name":"EAST FAIRFIELD","zip":"05448"}},{"arcs":[[325,-294,-325,326,327,328,329,330]],"type":"Polygon","properties":{"state":"VT","name":"ENOSBURG FALLS","zip":"05450"}},{"arcs":[[-321,331,332,333,334,335,-287]],"type":"Polygon","properties":{"state":"VT","name":"ESSEX JUNCTION","zip":"05452"}},{"arcs":[[336,337,338,-323,-313,339]],"type":"Polygon","properties":{"state":"VT","name":"FAIRFAX","zip":"05454"}},{"arcs":[[340,341,-327,-324,-339]],"type":"Polygon","properties":{"state":"VT","name":"FAIRFIELD","zip":"05455"}},{"arcs":[[342,343,344]],"type":"Polygon","properties":{"state":"VT","name":"FERRISBURG","zip":"05456"}},{"arcs":[[345,346,347,-329]],"type":"Polygon","properties":{"state":"VT","name":"FRANKLIN","zip":"05457"}},{"arcs":[[348,349]],"type":"Polygon","properties":{"state":"VT","name":"GRAND ISLE","zip":"05458"}},{"arcs":[[350,351,352,353,-347]],"type":"Polygon","properties":{"state":"VT","name":"HIGHGATE CENTER","zip":"05459"}},{"arcs":[[354,355,356,357,358,-305,359,-318]],"type":"Polygon","properties":{"state":"VT","name":"HINESBURG","zip":"05461"}},{"arcs":[[360,-358,361,362,363]],"type":"Polygon","properties":{"state":"VT","name":"HUNTINGTON","zip":"05462"}},{"arcs":[[364,365,366,-311,-322,-298,367,368]],"type":"Polygon","properties":{"state":"VT","name":"JEFFERSONVILLE","zip":"05464"}},{"arcs":[[369,-335,370,371,372]],"type":"Polygon","properties":{"state":"VT","name":"JERICHO","zip":"05465"}},{"arcs":[[373,-332,-320,374,375,376,-337]],"type":"Polygon","properties":{"state":"VT","name":"MILTON","zip":"05468"}},{"arcs":[[-295,-326,377,378,379,380,381,-301]],"type":"Polygon","properties":{"state":"VT","name":"MONTGOMERY CENTER","zip":"05471"}},{"arcs":[[382,383,384,-303]],"type":"Polygon","properties":{"state":"VT","name":"NEW HAVEN","zip":"05472"}},{"arcs":[[-345,385,-315,-360,-304,-385]],"type":"Polygon","properties":{"state":"VT","name":"NORTH FERRISBURG","zip":"05473"}},{"arcs":[[386,-378,-331,387]],"type":"Polygon","properties":{"state":"VT","name":"RICHFORD","zip":"05476"}},{"arcs":[[388,-362,-357,389,-373]],"type":"Polygon","properties":{"state":"VT","name":"RICHMOND","zip":"05477"}},{"arcs":[[390,-352,391,-341,-338,-377,392]],"type":"Polygon","properties":{"state":"VT","name":"SAINT ALBANS","zip":"05478"}},{"arcs":[[-289,393,-355,-317,394]],"type":"Polygon","properties":{"state":"VT","name":"SHELBURNE","zip":"05482"}},{"arcs":[[-392,-351,-346,-328,-342]],"type":"Polygon","properties":{"state":"VT","name":"SHELDON","zip":"05483"}},{"arcs":[[-349,395,396]],"type":"Polygon","properties":{"state":"VT","name":"SOUTH HERO","zip":"05486"}},{"arcs":[[397,-306,-359,-361]],"type":"Polygon","properties":{"state":"VT","name":"STARKSBORO","zip":"05487"}},{"arcs":[[-353,-391,398]],"type":"Polygon","properties":{"state":"VT","name":"SWANTON","zip":"05488"}},{"arcs":[[-334,399,-312,-367,400,401,-371]],"type":"Polygon","properties":{"state":"VT","name":"UNDERHILL","zip":"05489"}},{"arcs":[[-343,-384,402,403,404]],"type":"Polygon","properties":{"state":"VT","name":"VERGENNES","zip":"05491"}},{"arcs":[[405,-368,-297,-300,406]],"type":"Polygon","properties":{"state":"VT","name":"WATERVILLE","zip":"05492"}},{"arcs":[[-333,-374,-340,-400]],"type":"Polygon","properties":{"state":"VT","name":"WESTFORD","zip":"05494"}},{"arcs":[[-356,-394,-288,-336,-370,-390]],"type":"Polygon","properties":{"state":"VT","name":"WILLISTON","zip":"05495"}},{"arcs":[[407,408,409,410,411,412,413,414,415,416]],"type":"Polygon","properties":{"state":"VT","name":"MONTPELIER","zip":"05602"}},{"arcs":[[417,-412,418,419,420]],"type":"Polygon","properties":{"state":"VT","name":"ADAMANT","zip":"05640"}},{"arcs":[[421,422,423,-415,424,425,-83,-153]],"type":"Polygon","properties":{"state":"VT","name":"BARRE","zip":"05641"}},{"arcs":[[426,427,428,429,430]],"type":"Polygon","properties":{"state":"VT","name":"CABOT","zip":"05647"}},{"arcs":[[431,432,433,-420]],"type":"Polygon","properties":{"state":"VT","name":"CALAIS","zip":"05648"}},{"arcs":[[434,435,-421,-434,436]],"type":"Polygon","properties":{"state":"VT","name":"EAST CALAIS","zip":"05650"}},{"arcs":[[-425,-414,437]],"type":"Polygon","properties":{"state":"VT","name":"EAST MONTPELIER","zip":"05651"}},{"arcs":[[438,-407,-299,-382,439,440,441]],"type":"Polygon","properties":{"state":"VT","name":"EDEN","zip":"05652"}},{"arcs":[[442,443,-441,444,445]],"type":"Polygon","properties":{"state":"VT","name":"EDEN MILLS","zip":"05653"}},{"arcs":[[446,-423,447]],"type":"Polygon","properties":{"state":"VT","name":"GRANITEVILLE","zip":"05654"}},{"arcs":[[448,-442,-444,449,450,451]],"type":"Polygon","properties":{"state":"VT","name":"HYDE PARK","zip":"05655"}},{"arcs":[[-406,-439,-449,452,-369]],"type":"Polygon","properties":{"state":"VT","name":"JOHNSON","zip":"05656"}},{"arcs":[[453,454,-435,455,-428]],"type":"Polygon","properties":{"state":"VT","name":"MARSHFIELD","zip":"05658"}},{"arcs":[[456,457,-408,458]],"type":"Polygon","properties":{"state":"VT","name":"MORETOWN","zip":"05660"}},{"arcs":[[459,460,-365,-453,-452]],"type":"Polygon","properties":{"state":"VT","name":"MORRISVILLE","zip":"05661"}},{"arcs":[[461,-116,462,463,464,-459,-417]],"type":"Polygon","properties":{"state":"VT","name":"NORTHFIELD","zip":"05663"}},{"arcs":[[-413,-418,-436,-455,465,-84,-426,-438]],"type":"Polygon","properties":{"state":"VT","name":"PLAINFIELD","zip":"05667"}},{"arcs":[[466,467,-463,-115]],"type":"Polygon","properties":{"state":"VT","name":"ROXBURY","zip":"05669"}},{"arcs":[[468,-401,-366,-461,469,470]],"type":"Polygon","properties":{"state":"VT","name":"STOWE","zip":"05672"}},{"arcs":[[-398,-364,471,-457,-465,472,-307]],"type":"Polygon","properties":{"state":"VT","name":"WAITSFIELD","zip":"05673"}},{"arcs":[[473,-308,-473,-464,-468]],"type":"Polygon","properties":{"state":"VT","name":"WARREN","zip":"05674"}},{"arcs":[[474,-448,-422,-152,-60,-56]],"type":"Polygon","properties":{"state":"VT","name":"WASHINGTON","zip":"05675"}},{"arcs":[[-458,-472,-363,-389,-372,-402,-469,475,-409]],"type":"Polygon","properties":{"state":"VT","name":"WATERBURY","zip":"05676"}},{"arcs":[[-471,-410,-476]],"type":"Polygon","properties":{"state":"VT","name":"WATERBURY CENTER","zip":"05677"}},{"arcs":[[-117,-462,-416,-424,-447,-475,-55,-50]],"type":"Polygon","properties":{"state":"VT","name":"WILLIAMSTOWN","zip":"05679"}},{"arcs":[[-451,476,477,478,479,-460]],"type":"Polygon","properties":{"state":"VT","name":"WOLCOTT","zip":"05680"}},{"arcs":[[-479,480,-429,-456,-437,-433]],"type":"Polygon","properties":{"state":"VT","name":"WOODBURY","zip":"05681"}},{"arcs":[[-411,-470,-480,-432,-419]],"type":"Polygon","properties":{"state":"VT","name":"WORCESTER","zip":"05682"}},{"arcs":[[481,482,483,484,485,486,487,488,489]],"type":"Polygon","properties":{"state":"VT","name":"RUTLAND","zip":"05701"}},{"arcs":[[490,491]],"type":"Polygon","properties":{"state":"VT","name":"BELMONT","zip":"05730"}},{"arcs":[[492,493,494]],"type":"Polygon","properties":{"state":"VT","name":"BOMOSEEN","zip":"05732"}},{"arcs":[[495,496,497,498,499,500,501,502,503,504,505]],"type":"Polygon","properties":{"state":"VT","name":"BRANDON","zip":"05733"}},{"arcs":[[506,507,-404,508]],"type":"Polygon","properties":{"state":"VT","name":"BRIDPORT","zip":"05734"}},{"arcs":[[509,-506,510,511,512,-494]],"type":"Polygon","properties":{"state":"VT","name":"CASTLETON","zip":"05735"}},{"arcs":[[513,514,-485]],"type":"Polygon","properties":{"state":"VT","name":"CENTER RUTLAND","zip":"05736"}},{"arcs":[[515,516,-488]],"type":"Polygon","properties":{"state":"VT","name":"CHITTENDEN","zip":"05737"}},{"arcs":[[517,518,-482,519,-108,520]],"type":"Polygon","properties":{"state":"VT","name":"CUTTINGSVILLE","zip":"05738"}},{"arcs":[[-182,-225,-222,521,522,523,-199]],"type":"Polygon","properties":{"state":"VT","name":"DANBY","zip":"05739"}},{"arcs":[[524,525,-518,526,-491,527,-200,-524]],"type":"Polygon","properties":{"state":"VT","name":"EAST WALLINGFORD","zip":"05742"}},{"arcs":[[528,529,530,-496,-510,-493]],"type":"Polygon","properties":{"state":"VT","name":"FAIR HAVEN","zip":"05743"}},{"arcs":[[531,-511,-505,532,533]],"type":"Polygon","properties":{"state":"VT","name":"FLORENCE","zip":"05744"}},{"arcs":[[534,535,536,-23,-44]],"type":"Polygon","properties":{"state":"VT","name":"GAYSVILLE","zip":"05746"}},{"arcs":[[537,-309,-474,-467,-114,538,539]],"type":"Polygon","properties":{"state":"VT","name":"GRANVILLE","zip":"05747"}},{"arcs":[[540,-540,541,-501]],"type":"Polygon","properties":{"state":"VT","name":"HANCOCK","zip":"05748"}},{"arcs":[[-490,542,-535,-43,-109,-520]],"type":"Polygon","properties":{"state":"VT","name":"KILLINGTON","zip":"05751"}},{"arcs":[[543,-509,-403,-383,-302,544,545,546]],"type":"Polygon","properties":{"state":"VT","name":"MIDDLEBURY","zip":"05753"}},{"arcs":[[547,548,549,550,551]],"type":"Polygon","properties":{"state":"VT","name":"MIDDLETOWN SPRINGS","zip":"05757"}},{"arcs":[[-492,-527,-521,-107,-186,-201,-528]],"type":"Polygon","properties":{"state":"VT","name":"MOUNT HOLLY","zip":"05758"}},{"arcs":[[552,553,-483,-519,-526]],"type":"Polygon","properties":{"state":"VT","name":"NORTH CLARENDON","zip":"05759"}},{"arcs":[[554,555,-497,-531,556]],"type":"Polygon","properties":{"state":"VT","name":"ORWELL","zip":"05760"}},{"arcs":[[557,558,559,-549,560,-522,-221]],"type":"Polygon","properties":{"state":"VT","name":"PAWLET","zip":"05761"}},{"arcs":[[-489,-517,561,-503,562,563,-536,-543]],"type":"Polygon","properties":{"state":"VT","name":"PITTSFIELD","zip":"05762"}},{"arcs":[[-487,564,-533,-504,-562,-516]],"type":"Polygon","properties":{"state":"VT","name":"PITTSFORD","zip":"05763"}},{"arcs":[[565,566,-529,-495,-513,567,-551]],"type":"Polygon","properties":{"state":"VT","name":"POULTNEY","zip":"05764"}},{"arcs":[[568,-534,-565,-486,-515]],"type":"Polygon","properties":{"state":"VT","name":"PROCTOR","zip":"05765"}},{"arcs":[[-500,-545,-310,-538,-541]],"type":"Polygon","properties":{"state":"VT","name":"RIPTON","zip":"05766"}},{"arcs":[[569,-563,-502,-542,-539,-113,-25]],"type":"Polygon","properties":{"state":"VT","name":"ROCHESTER","zip":"05767"}},{"arcs":[[570,-546,-499]],"type":"Polygon","properties":{"state":"VT","name":"SALISBURY","zip":"05769"}},{"arcs":[[-507,-544,571,-555,572]],"type":"Polygon","properties":{"state":"VT","name":"SHOREHAM","zip":"05770"}},{"arcs":[[-564,-570,-24,-537]],"type":"Polygon","properties":{"state":"VT","name":"STOCKBRIDGE","zip":"05772"}},{"arcs":[[-548,573,-553,-525,-523,-561]],"type":"Polygon","properties":{"state":"VT","name":"WALLINGFORD","zip":"05773"}},{"arcs":[[-560,574,575,-566,-550]],"type":"Polygon","properties":{"state":"VT","name":"WELLS","zip":"05774"}},{"arcs":[[576,577,-575,-559]],"type":"Polygon","properties":{"state":"VT","name":"WEST PAWLET","zip":"05775"}},{"arcs":[[-215,578,-577,-558,-220]],"type":"Polygon","properties":{"state":"VT","name":"WEST RUPERT","zip":"05776"}},{"arcs":[[-574,-552,-568,-512,-532,-569,-514,-484,-554]],"type":"Polygon","properties":{"state":"VT","name":"WEST RUTLAND","zip":"05777"}},{"arcs":[[-556,-572,-547,-571,-498]],"type":"Polygon","properties":{"state":"VT","name":"WHITING","zip":"05778"}},{"arcs":[[579,580,581,582,583]],"type":"Polygon","properties":{"state":"VT","name":"SAINT JOHNSBURY","zip":"05819"}},{"arcs":[[584,585,-446,586,587,588,589,590]],"type":"Polygon","properties":{"state":"VT","name":"ALBANY","zip":"05820"}},{"arcs":[[-86,591,592,-580,593,-72,-137]],"type":"Polygon","properties":{"state":"VT","name":"BARNET","zip":"05821"}},{"arcs":[[594,595,596,597,598,-589,599,600]],"type":"Polygon","properties":{"state":"VT","name":"BARTON","zip":"05822"}},{"arcs":[[601,602,-583,603,604,605]],"type":"Polygon","properties":{"state":"VT","name":"CONCORD","zip":"05824"}},{"arcs":[[606,607,608]],"type":"Polygon","properties":{"state":"VT","name":"COVENTRY","zip":"05825"}},{"arcs":[[-450,-443,-586,609,-591,610,611,612,-477]],"type":"Polygon","properties":{"state":"VT","name":"CRAFTSBURY","zip":"05826"}},{"arcs":[[-585,-610]],"type":"Polygon","properties":{"state":"VT","name":"CRAFTSBURY COMMON","zip":"05827"}},{"arcs":[[-593,613,614,615,616,617,-581]],"type":"Polygon","properties":{"state":"VT","name":"DANVILLE","zip":"05828"}},{"arcs":[[618,619,620,621]],"type":"Polygon","properties":{"state":"VT","name":"DERBY","zip":"05829"}},{"arcs":[[622,-621,623,624,625,-6]],"type":"Polygon","properties":{"state":"VT","name":"DERBY LINE","zip":"05830"}},{"arcs":[[626,627,628,629,630]],"type":"Polygon","properties":{"state":"VT","name":"EAST BURKE","zip":"05832"}},{"arcs":[[631,632,633,634]],"type":"Polygon","properties":{"state":"VT","name":"EAST CHARLESTON","zip":"05833"}},{"arcs":[[635,636,637,638,-616]],"type":"Polygon","properties":{"state":"VT","name":"EAST HARDWICK","zip":"05836"}},{"arcs":[[639,640,641,-631]],"type":"Polygon","properties":{"state":"VT","name":"EAST HAVEN","zip":"05837"}},{"arcs":[[642,643,644,-598]],"type":"Polygon","properties":{"state":"VT","name":"GLOVER","zip":"05839"}},{"arcs":[[645,-612,-644,646,647,-638]],"type":"Polygon","properties":{"state":"VT","name":"GREENSBORO","zip":"05841"}},{"arcs":[[-639,-648,648,-617]],"type":"Polygon","properties":{"state":"VT","name":"GREENSBORO BEND","zip":"05842"}},{"arcs":[[-478,-613,-646,-637,649,-430,-481]],"type":"Polygon","properties":{"state":"VT","name":"HARDWICK","zip":"05843"}},{"arcs":[[650,-600,-588,651,652,653,-607]],"type":"Polygon","properties":{"state":"VT","name":"IRASBURG","zip":"05845"}},{"arcs":[[654,655,-632,656,-9,657,-11,658,659,-641]],"type":"Polygon","properties":{"state":"VT","name":"ISLAND POND","zip":"05846"}},{"arcs":[[-381,660,661,662,-652,-587,-445,-440]],"type":"Polygon","properties":{"state":"VT","name":"LOWELL","zip":"05847"}},{"arcs":[[-647,663,664,-628,665,-604,-582,-618,-649]],"type":"Polygon","properties":{"state":"VT","name":"LYNDONVILLE","zip":"05851"}},{"arcs":[[666,-622,-623,-5,-10,-657,-635]],"type":"Polygon","properties":{"state":"VT","name":"MORGAN","zip":"05853"}},{"arcs":[[667,-608,-654,668,-1,669,-624,-620,670]],"type":"Polygon","properties":{"state":"VT","name":"NEWPORT","zip":"05855"}},{"arcs":[[671,672,673,-2,-669,-653,-663]],"type":"Polygon","properties":{"state":"VT","name":"NEWPORT CENTER","zip":"05857"}},{"arcs":[[-627,-642,-660,674,675,-605,-666]],"type":"Polygon","properties":{"state":"VT","name":"NORTH CONCORD","zip":"05858"}},{"arcs":[[676,677,-379,-387,678,-673]],"type":"Polygon","properties":{"state":"VT","name":"NORTH TROY","zip":"05859"}},{"arcs":[[679,-601,-651,-609,-668,680,-633,-656]],"type":"Polygon","properties":{"state":"VT","name":"ORLEANS","zip":"05860"}},{"arcs":[[-427,681,-614,-592,-85,-466,-454]],"type":"Polygon","properties":{"state":"VT","name":"PEACHAM","zip":"05862"}},{"arcs":[[682,-664,-643,-597]],"type":"Polygon","properties":{"state":"VT","name":"SHEFFIELD","zip":"05866"}},{"arcs":[[-665,-683,-596,683,-629]],"type":"Polygon","properties":{"state":"VT","name":"SUTTON","zip":"05867"}},{"arcs":[[684,-677,-672,-662]],"type":"Polygon","properties":{"state":"VT","name":"TROY","zip":"05868"}},{"arcs":[[-630,-684,-595,-680,-655,-640]],"type":"Polygon","properties":{"state":"VT","name":"WEST BURKE","zip":"05871"}},{"arcs":[[-681,-671,-619,-667,-634]],"type":"Polygon","properties":{"state":"VT","name":"WEST CHARLESTON","zip":"05872"}},{"arcs":[[-682,-431,-650,-636,-615]],"type":"Polygon","properties":{"state":"VT","name":"WEST DANVILLE","zip":"05873"}},{"arcs":[[-380,-678,-685,-661]],"type":"Polygon","properties":{"state":"VT","name":"WESTFIELD","zip":"05874"}},{"arcs":[[-611,-590,-599,-645]],"type":"Polygon","properties":{"state":"VT","name":"WEST GLOVER","zip":"05875"}},{"arcs":[[685,-13,686,687]],"type":"Polygon","properties":{"state":"VT","name":"AVERILL","zip":"05901"}},{"arcs":[[688,689]],"type":"Polygon","properties":{"state":"VT","name":"BEECHER FALLS","zip":"05902"}},{"arcs":[[690,691,-689,692,693,-688]],"type":"Polygon","properties":{"state":"VT","name":"CANAAN","zip":"05903"}},{"arcs":[[694,695,-602]],"type":"Polygon","properties":{"state":"VT","name":"GILMAN","zip":"05904"}},{"arcs":[[-659,-14,-686,-694,696,697,-675]],"type":"Polygon","properties":{"state":"VT","name":"GUILDHALL","zip":"05905"}},{"arcs":[[-606,-676,-698,698,-695]],"type":"Polygon","properties":{"state":"VT","name":"LUNENBURG","zip":"05906"}},{"arcs":[[-7,-626,699,-691,-687,-12,-658,-8]],"type":"Polygon","properties":{"state":"VT","name":"NORTON","zip":"05907"}}]}},"arcs":[[[40931,20936],[-18,-48]],[[40913,20888],[-14,46]],[[40899,20934],[32,2]],[[41179,20873],[-14,-51]],[[41165,20822],[-9,38]],[[41156,20860],[5,13]],[[41161,20873],[18,0]],[[41179,20873],[36,0],[-9,-84]],[[41206,20789],[-9,15]],[[41197,20804],[-32,18]],[[41296,20730],[-72,48]],[[41224,20778],[54,82]],[[41278,20860],[81,-54]],[[41359,20806],[-63,-76]],[[40859,19578],[-18,-79]],[[40841,19499],[-18,-2]],[[40823,19497],[-81,25]],[[40742,19522],[-9,31]],[[40733,19553],[4,51]],[[40737,19604],[27,15]],[[40764,19619],[23,20]],[[40787,19639],[72,-61]],[[40557,19588],[14,84],[-59,3]],[[40512,19675],[-27,30]],[[40485,19705],[59,107]],[[40544,19812],[72,-25]],[[40616,19787],[40,-16]],[[40656,19771],[-49,-63],[22,-89]],[[40629,19619],[-58,-36]],[[40571,19583],[-14,5]],[[40908,19878],[0,3]],[[40908,19881],[27,63]],[[40935,19944],[23,18]],[[40958,19962],[68,-33]],[[41026,19929],[-5,-69],[-13,-10]],[[41008,19850],[-100,28]],[[40611,19479],[-9,-28]],[[40602,19451],[-9,3]],[[40593,19454],[14,28]],[[40607,19482],[4,-3]],[[40593,19454],[-4,-49]],[[40589,19405],[-81,77]],[[40508,19482],[45,94]],[[40553,19576],[4,12]],[[40571,19583],[36,-101]],[[40679,19967],[-18,-86]],[[40661,19881],[-5,5]],[[40656,19886],[-45,15]],[[40611,19901],[-9,76]],[[40602,19977],[77,-10]],[[40742,19324],[-59,10]],[[40683,19334],[14,33]],[[40697,19367],[45,-43]],[[40697,19868],[-36,13]],[[40679,19967],[49,-23]],[[40728,19944],[72,-22]],[[40800,19922],[0,-11]],[[40800,19911],[-9,-81]],[[40791,19830],[-94,38]],[[40800,19922],[23,81]],[[40823,20003],[72,-20]],[[40895,19983],[40,-39]],[[40908,19881],[-108,30]],[[40895,19983],[27,22]],[[40922,20005],[40,-30]],[[40962,19975],[-4,-13]],[[40697,19868],[-23,-48]],[[40674,19820],[-18,66]],[[41053,20166],[4,-39],[5,-63]],[[41062,20064],[-32,13]],[[41030,20077],[-45,104]],[[40985,20181],[68,-15]],[[40935,19667],[-36,15]],[[40899,19682],[54,59]],[[40953,19741],[-18,-74]],[[40895,19782],[-5,28]],[[40890,19810],[5,43]],[[40895,19853],[13,25]],[[41008,19850],[-41,-79],[-14,-7]],[[40953,19764],[-58,18]],[[40949,20189],[18,-89],[-32,0]],[[40935,20100],[-76,-8]],[[40859,20092],[-32,33]],[[40827,20125],[23,86]],[[40850,20211],[117,16]],[[40967,20227],[-18,-38]],[[40728,19433],[-18,26]],[[40710,19459],[32,63]],[[40823,19497],[4,-13]],[[40827,19484],[-36,-66]],[[40791,19418],[-63,15]],[[40962,19975],[50,-5]],[[41012,19970],[45,41]],[[41057,20011],[0,-39],[-22,-38],[-9,-5]],[[40841,19499],[0,-5],[-14,-10]],[[40728,19604],[-27,-3]],[[40701,19601],[-27,15]],[[40674,19616],[41,26]],[[40715,19642],[22,-8]],[[40737,19634],[-9,-30]],[[40787,19639],[13,28]],[[40800,19667],[32,41]],[[40832,19708],[67,-26]],[[40935,19667],[-76,-79],[0,-10]],[[40589,19405],[-5,-40]],[[40584,19365],[-72,-3]],[[40512,19362],[-18,5]],[[40494,19367],[0,117]],[[40494,19484],[14,-2]],[[40895,19782],[-18,20]],[[40877,19802],[4,13]],[[40881,19815],[9,-5]],[[40544,19812],[-63,54]],[[40481,19866],[36,68]],[[40517,19934],[58,5]],[[40575,19939],[18,44]],[[40593,19983],[9,-6]],[[40611,19901],[5,-114]],[[40674,19820],[-4,-49]],[[40670,19771],[-14,0]],[[40616,19342],[-32,5]],[[40584,19347],[0,18]],[[40602,19451],[81,-25]],[[40683,19426],[14,-59]],[[40683,19334],[-67,8]],[[40715,19642],[40,89]],[[40755,19731],[27,-8]],[[40782,19723],[18,-56]],[[40764,19619],[-27,15]],[[40701,19601],[5,-18]],[[40706,19583],[-54,0]],[[40652,19583],[22,33]],[[40652,19583],[-23,36]],[[40670,19771],[81,-7]],[[40751,19764],[4,-33]],[[40922,20005],[13,95]],[[40949,20189],[36,-8]],[[41030,20077],[-45,-44],[27,-63]],[[40782,19723],[63,38]],[[40845,19761],[-13,-53]],[[40611,19479],[99,-20]],[[40728,19433],[-45,-7]],[[40751,19764],[40,66]],[[40791,19830],[72,-23]],[[40863,19807],[-18,-46]],[[40733,19553],[-27,30]],[[40728,19604],[9,0]],[[40863,19807],[14,-5]],[[40953,19764],[0,-23]],[[40895,19853],[-36,-3],[22,-35]],[[41062,20064],[4,0],[5,-26],[-14,-27]],[[40823,20003],[-14,2]],[[40809,20005],[-22,33],[31,13],[41,41]],[[40751,19298],[-9,26]],[[40791,19418],[-4,-8],[0,-94],[-5,-25]],[[40782,19291],[-31,7]],[[40697,19009],[-36,-13]],[[40661,18996],[-23,23],[23,25],[0,33]],[[40661,19077],[40,41]],[[40701,19118],[59,0]],[[40760,19118],[-14,-74],[9,-33],[0,-5]],[[40755,19006],[-40,0],[-18,3]],[[40611,19235],[5,107]],[[40683,19334],[-4,-66]],[[40679,19268],[-68,-33]],[[40526,19103],[-18,20]],[[40508,19123],[-5,117]],[[40503,19240],[41,-74],[36,71]],[[40580,19237],[31,-2]],[[40679,19268],[-9,-36]],[[40670,19232],[0,-30]],[[40670,19202],[31,-84]],[[40661,19077],[-90,3]],[[40571,19080],[-45,23]],[[40661,18996],[-14,-43]],[[40647,18953],[-22,-3]],[[40625,18950],[-27,56]],[[40598,19006],[-27,74]],[[40436,19113],[-72,-23]],[[40364,19090],[-27,3]],[[40337,19093],[0,83]],[[40337,19176],[85,11]],[[40422,19187],[86,-64]],[[40526,19103],[-54,-36],[-36,46]],[[40503,19240],[-9,5]],[[40494,19245],[18,117]],[[40584,19347],[-4,-110]],[[40706,19230],[-36,-28]],[[40670,19232],[36,-2]],[[40751,19298],[-45,-68]],[[40427,19087],[-63,3]],[[40436,19113],[-9,-26]],[[40494,19024],[-72,2]],[[40422,19026],[5,61]],[[40526,19103],[13,-56],[-45,-23]],[[40782,19291],[-4,-66],[-18,-107]],[[40755,19006],[-9,-58]],[[40746,18948],[-49,61]],[[40422,19187],[9,68]],[[40431,19255],[50,-2]],[[40481,19253],[13,-8]],[[40309,18734],[-4,-28]],[[40305,18706],[-95,5],[0,-46]],[[40210,18665],[-85,10]],[[40125,18675],[-23,36]],[[40102,18711],[0,61]],[[40102,18772],[50,36]],[[40152,18808],[54,96]],[[40206,18904],[108,-2]],[[40314,18902],[-5,-97]],[[40309,18805],[0,-71]],[[40323,18998],[-9,-96]],[[40206,18904],[-99,5]],[[40107,18909],[4,59],[0,71],[5,61]],[[40116,19100],[103,-2]],[[40219,19098],[9,-97],[86,-3]],[[40314,18998],[9,0]],[[40323,19192],[-36,-97]],[[40287,19095],[-68,3]],[[40219,19098],[5,96]],[[40224,19194],[22,-2]],[[40246,19192],[77,0]],[[40337,19093],[-19,2]],[[40318,19095],[-31,0]],[[40323,19192],[14,-16]],[[40318,19095],[-4,-97]],[[40102,18772],[0,38]],[[40102,18810],[50,-2]],[[40125,18675],[-32,8]],[[40093,18683],[9,28]],[[40210,18665],[-4,-51]],[[40206,18614],[-18,0],[-77,3],[-18,66]],[[40102,18810],[0,8],[5,56],[0,35]],[[40481,18678],[-23,23]],[[40458,18701],[18,97]],[[40476,18798],[18,2]],[[40494,18800],[32,-43],[27,43]],[[40553,18800],[45,23]],[[40598,18823],[13,38]],[[40611,18861],[77,-69]],[[40688,18792],[-23,-61],[5,-35]],[[40670,18696],[-14,-97]],[[40656,18599],[-85,5],[-9,0]],[[40562,18604],[-5,69],[-76,5]],[[40422,19026],[-27,-30]],[[40395,18996],[-72,2]],[[40476,18798],[14,66]],[[40490,18864],[18,0]],[[40508,18864],[-14,-64]],[[40481,18678],[18,-71]],[[40499,18607],[-36,0]],[[40463,18607],[-32,94]],[[40431,18701],[27,0]],[[40418,18932],[49,28],[-72,36]],[[40494,19024],[36,-71]],[[40530,18953],[-4,-23]],[[40526,18930],[-108,2]],[[40553,18836],[-41,40]],[[40512,18876],[5,23]],[[40517,18899],[94,-2],[14,53]],[[40647,18953],[-36,-92]],[[40598,18823],[-45,13]],[[40746,18948],[-9,-49],[-49,-89],[0,-18]],[[40377,18698],[-4,-89]],[[40373,18609],[-68,3]],[[40305,18612],[0,94]],[[40309,18734],[68,-36]],[[40553,18836],[0,-36]],[[40508,18864],[4,12]],[[40305,18612],[-5,0],[-94,2]],[[40517,18899],[9,31]],[[40530,18953],[68,53]],[[40670,18696],[67,-99],[-45,2],[-36,0]],[[40490,18864],[-77,2]],[[40413,18866],[5,66]],[[40476,18798],[-167,7]],[[40314,18902],[99,-36]],[[40562,18604],[-63,3]],[[40463,18607],[-36,2],[-54,0]],[[40377,18698],[54,3]],[[40183,20402],[-13,-13],[-5,0],[-27,-28]],[[40138,20361],[-36,87]],[[40102,20448],[59,-41]],[[40161,20407],[22,-5]],[[40183,20402],[0,8]],[[40183,20410],[27,7]],[[40210,20417],[0,-28]],[[40210,20389],[-9,-76]],[[40201,20313],[-54,23]],[[40147,20336],[-9,25]],[[40161,20407],[22,3]],[[40084,20768],[-36,161],[104,15],[-68,-176]],[[40454,20656],[18,49]],[[40472,20705],[94,53]],[[40566,20758],[5,-38]],[[40571,20720],[-54,-10]],[[40517,20710],[-32,-59]],[[40485,20651],[-31,5]],[[40634,20715],[-113,-61]],[[40521,20654],[-4,56]],[[40571,20720],[63,-5]],[[40264,19944],[-22,16]],[[40242,19960],[-36,185]],[[40206,20145],[13,23]],[[40219,20168],[45,23]],[[40264,20191],[-4,-99],[90,2]],[[40350,20094],[18,-25]],[[40368,20069],[14,-92]],[[40382,19977],[4,-38]],[[40386,19939],[-122,5]],[[40431,20659],[-4,-160]],[[40427,20499],[-81,61]],[[40346,20560],[22,35]],[[40368,20595],[63,64]],[[40206,20183],[-99,-12]],[[40107,20171],[-9,91]],[[40098,20262],[90,13]],[[40188,20275],[18,-92]],[[40102,20448],[-27,23],[113,23],[-59,38]],[[40129,20532],[113,-46]],[[40242,20486],[-32,-69]],[[40454,20656],[-23,3]],[[40368,20595],[-31,84]],[[40337,20679],[54,56]],[[40391,20735],[76,28],[5,-58]],[[40593,20827],[-27,-69]],[[40391,20735],[-18,43]],[[40373,20778],[45,49],[-54,2]],[[40364,20829],[94,18],[-9,99]],[[40449,20946],[81,0]],[[40530,20946],[-31,-43],[49,-48],[45,-28]],[[40242,20486],[0,3]],[[40242,20489],[108,-11]],[[40350,20478],[-9,-10]],[[40341,20468],[-50,-84]],[[40291,20384],[-81,5]],[[40287,20573],[-54,48]],[[40233,20621],[58,94]],[[40291,20715],[46,-36]],[[40346,20560],[-59,13]],[[40291,20715],[32,41]],[[40323,20756],[50,22]],[[40170,20127],[-81,-58],[-23,66]],[[40066,20135],[45,15]],[[40111,20150],[59,-23]],[[40364,20829],[-23,23]],[[40341,20852],[54,10],[-72,82]],[[40323,20944],[126,2]],[[40089,20603],[-45,-5]],[[40044,20598],[58,97],[-13,-92]],[[40341,20852],[-41,-10]],[[40300,20842],[-18,25]],[[40282,20867],[23,77]],[[40305,20944],[18,0]],[[40188,20275],[31,3]],[[40219,20278],[36,7]],[[40255,20285],[36,-10]],[[40291,20275],[9,-61]],[[40300,20214],[-36,-23]],[[40219,20168],[-13,15]],[[40346,20140],[-46,74]],[[40291,20275],[64,-13]],[[40355,20262],[54,-20],[-18,-46]],[[40391,20196],[-45,-56]],[[40517,20509],[-18,-28]],[[40499,20481],[-32,-15]],[[40467,20466],[-40,33]],[[40485,20651],[-27,-76],[59,18]],[[40517,20593],[0,-84]],[[40300,20349],[-9,35]],[[40341,20468],[63,-81]],[[40404,20387],[-9,-31]],[[40395,20356],[-95,-7]],[[40287,20573],[-45,-84]],[[40129,20532],[0,15]],[[40129,20547],[50,135]],[[40179,20682],[54,-61]],[[40593,20827],[86,28]],[[40679,20855],[27,0]],[[40706,20855],[-23,-97]],[[40683,20758],[-36,-53]],[[40647,20705],[-13,10]],[[40242,19960],[-104,38]],[[40138,19998],[32,129]],[[40170,20127],[36,18]],[[40111,20150],[-4,21]],[[40665,20939],[14,-84]],[[40530,20946],[135,-7]],[[40395,20356],[63,-10],[-103,-84]],[[40255,20285],[45,64]],[[40183,20733],[99,134]],[[40300,20842],[23,-86]],[[40179,20682],[4,51]],[[40201,20313],[18,-35]],[[40098,20262],[49,74]],[[40089,20603],[40,-56]],[[40129,20547],[-54,-36],[-31,87]],[[40346,20140],[4,-46]],[[40183,20733],[9,114],[-45,56],[158,41]],[[40350,20478],[-4,82]],[[40467,20466],[-22,-92]],[[40445,20374],[-41,13]],[[40138,19998],[-49,-26],[27,-71]],[[40116,19901],[-113,3]],[[40003,19904],[63,231]],[[40548,20641],[-31,-48]],[[40521,20654],[27,-13]],[[40575,20125],[-27,23],[50,30],[-104,11]],[[40494,20189],[81,89]],[[40575,20278],[9,35]],[[40584,20313],[104,-66]],[[40688,20247],[18,-5]],[[40706,20242],[0,-3]],[[40706,20239],[-27,-89]],[[40679,20150],[-36,-84]],[[40643,20066],[-5,6]],[[40638,20072],[-63,53]],[[40728,20278],[-22,-36]],[[40688,20247],[18,46]],[[40706,20293],[13,2]],[[40719,20295],[9,-17]],[[40809,20005],[-58,31]],[[40751,20036],[-18,28],[-5,5],[-36,-10]],[[40692,20059],[-49,7]],[[40679,20150],[45,-7]],[[40724,20143],[103,-18]],[[40917,20311],[-27,-54]],[[40890,20257],[-67,79]],[[40823,20336],[9,51]],[[40832,20387],[31,-8]],[[40863,20379],[54,-68]],[[40706,20293],[9,46]],[[40715,20339],[13,-6]],[[40728,20333],[-9,-38]],[[40778,20318],[9,-46]],[[40787,20272],[-59,6]],[[40728,20333],[50,-15]],[[40706,20239],[36,-43],[4,-13],[-22,-40]],[[40634,20606],[-86,35]],[[40647,20705],[41,-18]],[[40688,20687],[-27,-104]],[[40661,20583],[-27,23]],[[40764,20636],[-36,-74]],[[40728,20562],[-67,21]],[[40688,20687],[85,-43]],[[40773,20644],[-9,-8]],[[40737,20028],[-45,31]],[[40751,20036],[-14,-8]],[[40589,20522],[45,84]],[[40728,20562],[-9,-7]],[[40719,20555],[-31,-64]],[[40688,20491],[-99,31]],[[40589,20522],[-72,-13]],[[40890,20257],[-31,-38]],[[40859,20219],[-99,-5],[27,58]],[[40778,20318],[45,18]],[[40526,20120],[-113,63]],[[40413,20183],[81,6]],[[40575,20125],[-49,-5]],[[40688,20491],[-54,-94]],[[40634,20397],[-135,84]],[[40638,20072],[-45,-89]],[[40575,19939],[-4,69],[-77,25]],[[40494,20033],[-9,5]],[[40485,20038],[41,82]],[[40859,20219],[-9,-8]],[[40517,19934],[-59,23]],[[40458,19957],[36,76]],[[40521,20351],[-76,23]],[[40634,20397],[-50,-84]],[[40584,20313],[-63,38]],[[40391,20196],[22,-13]],[[40485,20038],[-117,31]],[[40458,19957],[-76,20]],[[40728,19944],[9,84]],[[40521,20351],[5,-84],[49,11]],[[40719,20555],[86,-54]],[[40805,20501],[-45,-76]],[[40760,20425],[-45,-86]],[[40715,20339],[-81,58]],[[40760,20425],[72,-38]],[[40418,19512],[-27,-43]],[[40391,19469],[-77,-5]],[[40314,19464],[-5,20]],[[40309,19484],[5,56]],[[40314,19540],[0,20]],[[40314,19560],[45,11]],[[40359,19571],[63,20]],[[40422,19591],[5,0]],[[40427,19591],[-9,-79]],[[40467,19278],[-36,59]],[[40431,19337],[45,0],[-9,-59]],[[40134,19497],[31,76]],[[40165,19573],[-9,-71]],[[40156,19502],[-22,-5]],[[40201,19621],[-63,26]],[[40138,19647],[9,89]],[[40147,19736],[54,20]],[[40201,19756],[81,46],[-9,71]],[[40273,19873],[59,-48]],[[40332,19825],[23,-48]],[[40355,19777],[-5,-49]],[[40350,19728],[-18,-10]],[[40332,19718],[-45,-2],[-9,-100]],[[40278,19616],[-63,33],[9,-43]],[[40224,19606],[-23,15]],[[40116,19848],[-90,-61]],[[40026,19787],[-23,117]],[[40116,19901],[0,-53]],[[40165,19573],[36,48]],[[40224,19606],[13,-48]],[[40237,19558],[-9,-102]],[[40228,19456],[-85,-2],[13,48]],[[40309,19484],[-22,20]],[[40287,19504],[27,36]],[[40359,19571],[-13,38]],[[40346,19609],[40,35],[36,-53]],[[40418,19370],[-41,5]],[[40377,19375],[14,94]],[[40418,19512],[76,-28]],[[40494,19367],[-76,3]],[[40246,19192],[27,91]],[[40273,19283],[140,-2]],[[40413,19281],[18,-26]],[[40413,19281],[-58,94]],[[40355,19375],[22,0]],[[40418,19370],[13,-33]],[[40467,19278],[14,-25]],[[40134,19497],[-9,-66]],[[40125,19431],[-14,30],[-54,61],[-49,-61],[-23,69],[45,97]],[[40030,19627],[108,20]],[[40273,19560],[-36,-2]],[[40278,19616],[4,-28]],[[40282,19588],[-9,-28]],[[40553,19576],[-95,35]],[[40458,19611],[9,18]],[[40467,19629],[45,46]],[[40386,19863],[0,76]],[[40481,19866],[-23,-26]],[[40458,19840],[-72,23]],[[40332,19825],[54,38]],[[40458,19840],[-22,-76],[-81,13]],[[40427,19591],[31,20]],[[40125,19822],[-9,26]],[[40264,19944],[9,-71]],[[40273,19873],[-99,-63]],[[40174,19810],[-49,12]],[[40278,19385],[-54,-94]],[[40224,19291],[-23,2]],[[40201,19293],[-22,61]],[[40179,19354],[45,72]],[[40224,19426],[63,10],[-9,-51]],[[40355,19375],[-23,10]],[[40332,19385],[-18,79]],[[40030,19743],[113,16]],[[40143,19759],[4,-23]],[[40030,19627],[0,116]],[[40224,19194],[-90,5]],[[40134,19199],[40,31],[-18,66]],[[40156,19296],[45,-3]],[[40224,19291],[49,-8]],[[40346,19609],[-14,109]],[[40350,19728],[63,28],[63,-79]],[[40476,19677],[-9,-48]],[[40314,19560],[-32,28]],[[40179,19354],[-54,-2]],[[40125,19352],[0,79]],[[40228,19456],[-4,-30]],[[40287,19504],[-14,56]],[[40485,19705],[-9,-28]],[[40201,19756],[-27,54]],[[40125,19822],[-27,-25],[45,-38]],[[40030,19743],[-4,44]],[[40278,19385],[54,0]],[[40156,19296],[-36,0]],[[40120,19296],[5,30],[0,26]],[[40134,19199],[-14,0]],[[40120,19199],[0,97]],[[40116,19100],[0,13],[4,86]],[[41107,20250],[-63,43]],[[41044,20293],[-14,137]],[[41030,20430],[99,-23]],[[41129,20407],[95,-147]],[[41224,20260],[-117,-10]],[[40854,20595],[-63,31]],[[40791,20626],[-27,10]],[[40773,20644],[36,76]],[[40809,20720],[90,-43]],[[40899,20677],[-4,-8]],[[40895,20669],[-41,-76]],[[40854,20593],[0,2]],[[40967,20227],[59,43]],[[41026,20270],[18,23]],[[41107,20250],[-54,-84]],[[41093,20626],[-4,-5]],[[41089,20621],[-81,53],[22,-68]],[[41030,20606],[-50,20]],[[40980,20626],[-49,36]],[[40931,20662],[-36,7]],[[40899,20677],[23,38]],[[40922,20715],[135,-20],[36,-69]],[[41291,20336],[5,-20]],[[41296,20316],[-72,-56]],[[41129,20407],[59,33]],[[41188,20440],[76,-68]],[[41264,20372],[27,-36]],[[40917,20763],[-31,23]],[[40886,20786],[54,10]],[[40940,20796],[-23,-33]],[[40791,20626],[14,-69],[49,38]],[[40854,20593],[9,-15]],[[40863,20578],[-49,-79]],[[40814,20499],[-9,2]],[[41026,20270],[-59,28]],[[40967,20298],[0,102]],[[40967,20400],[9,17]],[[40976,20417],[13,21]],[[40989,20438],[41,-8]],[[41044,20842],[-9,-10]],[[41035,20832],[-64,51],[37,33]],[[41008,20916],[36,-59]],[[41044,20857],[0,-15]],[[41156,20860],[-112,-3]],[[41008,20916],[-23,20]],[[40985,20936],[194,3]],[[41179,20939],[-18,-66]],[[41219,20532],[-40,-56]],[[41179,20476],[-81,33]],[[41098,20509],[4,15]],[[41102,20524],[68,41]],[[41170,20565],[49,-33]],[[41156,20761],[-45,-46]],[[41111,20715],[-40,28]],[[41071,20743],[40,53]],[[41111,20796],[45,-35]],[[40967,20400],[-95,12]],[[40872,20412],[-18,66]],[[40854,20478],[23,-10]],[[40877,20468],[99,-51]],[[41170,20565],[54,74]],[[41224,20639],[76,-54]],[[41300,20585],[-81,-53]],[[40980,20626],[-40,-81]],[[40940,20545],[-77,33]],[[40863,20578],[68,84]],[[40854,20478],[-40,21]],[[40940,20545],[-18,-34]],[[40922,20511],[-45,-43]],[[40922,20511],[67,-73]],[[40872,20412],[-9,-33]],[[40917,20763],[5,-48]],[[40809,20720],[27,48]],[[40836,20768],[18,31]],[[40854,20799],[32,-13]],[[41224,20639],[-81,53]],[[41143,20692],[-32,23]],[[41156,20761],[41,43]],[[41206,20789],[18,-11]],[[41296,20730],[63,-183]],[[41359,20547],[-59,38]],[[40683,20758],[99,10]],[[40782,20768],[18,0]],[[40800,20768],[36,0]],[[40940,20545],[113,-28]],[[41053,20517],[45,-8]],[[41179,20476],[9,-36]],[[41111,20796],[-67,46]],[[41003,20791],[-63,5]],[[40854,20799],[59,89]],[[40931,20936],[54,0]],[[41035,20832],[-32,-41]],[[40800,20768],[14,33]],[[40814,20801],[27,133]],[[40841,20934],[58,0]],[[41359,20547],[-36,-91]],[[41323,20456],[-68,-34],[9,-50]],[[40814,20801],[-36,0]],[[40778,20801],[-5,51],[-67,3]],[[40665,20939],[176,-5]],[[41143,20692],[-50,-66]],[[41003,20791],[68,-48]],[[40917,20311],[50,-13]],[[41030,20606],[23,-89]],[[41089,20621],[13,-97]],[[40782,20768],[-4,33]],[[41408,20883],[-49,-77]],[[41278,20860],[54,79]],[[41332,20939],[76,-56]],[[41458,20926],[-14,15]],[[41444,20941],[41,3],[31,0],[-58,-18]],[[41332,20939],[0,2]],[[41332,20941],[112,0]],[[41458,20926],[31,-89]],[[41489,20837],[-81,46]],[[41291,20336],[23,-10]],[[41314,20326],[-18,-10]],[[41489,20837],[-81,-142],[32,-133],[18,-56],[-54,-104]],[[41404,20402],[-81,54]],[[41404,20402],[-41,-46],[-49,-30]],[[41179,20939],[153,2]]]}