{"type":"Topology","transform":{"scale":[0.0012831345112129487,0.0009745357309423489],"translate":[-124.73273099999999,24.60334863324381]},"objects":{"area":{"type":"GeometryCollection","geometries":[{"arcs":[[0,1,2,3,4,5,6]],"type":"Polygon","properties":{"state":"WA","name":"NATIONAL FOREST/PARK","zip":"00072"}},{"arcs":[[7,8,9,10,11]],"type":"Polygon","properties":{"state":"WA","name":"USDOE HANFORD SITE","zip":"00073"}},{"arcs":[[12,13,14,15,16,17,18,19,20,21,22,23,24]],"type":"Polygon","properties":{"state":"WA","name":"YAKIMA INDIAN RES","zip":"00074"}},{"arcs":[[25,-5,26,27,28,29,30]],"type":"Polygon","properties":{"state":"WA","name":"OKANOGAN NATL PARK","zip":"00076"}},{"arcs":[[31,32,33,34,35]],"type":"Polygon","properties":{"state":"WA","name":"AUBURN","zip":"98001"}},{"arcs":[[36,37,-35,38,39]],"type":"Polygon","properties":{"state":"WA","name":"AUBURN","zip":"98002"}},{"arcs":[[40,41,42,43,44,-33,45]],"type":"Polygon","properties":{"state":"WA","name":"FEDERAL WAY","zip":"98003"}},{"arcs":[[46,47,48]],"type":"Polygon","properties":{"state":"WA","name":"BELLEVUE","zip":"98004"}},{"arcs":[[49,-47,50,51,52]],"type":"Polygon","properties":{"state":"WA","name":"BELLEVUE","zip":"98005"}},{"arcs":[[53,54,-50,55,56,57,58]],"type":"Polygon","properties":{"state":"WA","name":"BELLEVUE","zip":"98006"}},{"arcs":[[59,-56,-53,60]],"type":"Polygon","properties":{"state":"WA","name":"BELLEVUE","zip":"98007"}},{"arcs":[[61,62,-57,-60,63,64]],"type":"Polygon","properties":{"state":"WA","name":"BELLEVUE","zip":"98008"}},{"arcs":[[65,66,67,68,69]],"type":"Polygon","properties":{"state":"WA","name":"BLACK DIAMOND","zip":"98010"}},{"arcs":[[70,71,72,73]],"type":"Polygon","properties":{"state":"WA","name":"BOTHELL","zip":"98011"}},{"arcs":[[74,75,76,77,78,79]],"type":"Polygon","properties":{"state":"WA","name":"BOTHELL","zip":"98012"}},{"arcs":[[80,81,82]],"type":"Polygon","properties":{"state":"WA","name":"CARNATION","zip":"98014"}},{"arcs":[[83,84,-83,85,86,87,88,89]],"type":"Polygon","properties":{"state":"WA","name":"DUVALL","zip":"98019"}},{"arcs":[[90,91,92,93]],"type":"Polygon","properties":{"state":"WA","name":"EDMONDS","zip":"98020"}},{"arcs":[[94,-72,95,96,-77]],"type":"Polygon","properties":{"state":"WA","name":"BOTHELL","zip":"98021"}},{"arcs":[[97,98,99,100,101,-66,102,103,104,105]],"type":"Polygon","properties":{"state":"WA","name":"ENUMCLAW","zip":"98022"}},{"arcs":[[106,107,-42]],"type":"Polygon","properties":{"state":"WA","name":"FEDERAL WAY","zip":"98023"}},{"arcs":[[108,-81,-85,109,110,111,112,113]],"type":"Polygon","properties":{"state":"WA","name":"FALL CITY","zip":"98024"}},{"arcs":[[114,115,-94,116,117,118,119]],"type":"Polygon","properties":{"state":"WA","name":"EDMONDS","zip":"98026"}},{"arcs":[[120,-58,-63,121,122,-114,123,124,125,126]],"type":"Polygon","properties":{"state":"WA","name":"ISSAQUAH","zip":"98027"}},{"arcs":[[127,128,-96,-71,129,130]],"type":"Polygon","properties":{"state":"WA","name":"KENMORE","zip":"98028"}},{"arcs":[[-123,131,132,-109]],"type":"Polygon","properties":{"state":"WA","name":"ISSAQUAH","zip":"98029"}},{"arcs":[[133,134,-40,135,136,137]],"type":"Polygon","properties":{"state":"WA","name":"KENT","zip":"98031"}},{"arcs":[[138,139,140,-136,-39,-34,-45]],"type":"Polygon","properties":{"state":"WA","name":"KENT","zip":"98032"}},{"arcs":[[-49,141,142,143,-51]],"type":"Polygon","properties":{"state":"WA","name":"KIRKLAND","zip":"98033"}},{"arcs":[[144,-143,145,-130,-74,146]],"type":"Polygon","properties":{"state":"WA","name":"KIRKLAND","zip":"98034"}},{"arcs":[[147,148,-120,149,-78,-97,-129]],"type":"Polygon","properties":{"state":"WA","name":"LYNNWOOD","zip":"98036"}},{"arcs":[[-150,-119,150,151,152,-79]],"type":"Polygon","properties":{"state":"WA","name":"LYNNWOOD","zip":"98037"}},{"arcs":[[153,154,155,-127,156,-69]],"type":"Polygon","properties":{"state":"WA","name":"MAPLE VALLEY","zip":"98038"}},{"arcs":[[157,-134,158,-154,-68]],"type":"Polygon","properties":{"state":"WA","name":"KENT","zip":"98042"}},{"arcs":[[159,-115,-149]],"type":"Polygon","properties":{"state":"WA","name":"MOUNTLAKE TERRACE","zip":"98043"}},{"arcs":[[160,-125,161,-112,162,163,-104]],"type":"Polygon","properties":{"state":"WA","name":"NORTH BEND","zip":"98045"}},{"arcs":[[164,165,-36,-38]],"type":"Polygon","properties":{"state":"WA","name":"PACIFIC","zip":"98047"}},{"arcs":[[-157,-126,-161,-103,-70]],"type":"Polygon","properties":{"state":"WA","name":"RAVENSDALE","zip":"98051"}},{"arcs":[[166,-64,-61,-52,-144,-145,167,168]],"type":"Polygon","properties":{"state":"WA","name":"REDMOND","zip":"98052"}},{"arcs":[[-133,169,170,-169,171,-86,-82]],"type":"Polygon","properties":{"state":"WA","name":"REDMOND","zip":"98053"}},{"arcs":[[172,173,174,175,176,-137,-141]],"type":"Polygon","properties":{"state":"WA","name":"RENTON","zip":"98055"}},{"arcs":[[177,178,-176,179,-54]],"type":"Polygon","properties":{"state":"WA","name":"RENTON","zip":"98056"}},{"arcs":[[-177,-179,180,-155,-159,-138]],"type":"Polygon","properties":{"state":"WA","name":"RENTON","zip":"98058"}},{"arcs":[[-181,-178,-59,-121,-156]],"type":"Polygon","properties":{"state":"WA","name":"RENTON","zip":"98059"}},{"arcs":[[-113,-162,-124]],"type":"Polygon","properties":{"state":"WA","name":"SNOQUALMIE","zip":"98065"}},{"arcs":[[181]],"type":"Polygon","properties":{"state":"WA","name":"VASHON","zip":"98070"}},{"arcs":[[-172,-168,-147,-73,-95,-76,182,183,-87]],"type":"Polygon","properties":{"state":"WA","name":"WOODINVILLE","zip":"98072"}},{"arcs":[[184,-65,-167,-171]],"type":"Polygon","properties":{"state":"WA","name":"SAMMAMISH","zip":"98074"}},{"arcs":[[-62,-185,-170,-132,-122]],"type":"Polygon","properties":{"state":"WA","name":"SAMMAMISH","zip":"98075"}},{"arcs":[[185,-165,-37,-135,-158,-67,-102,186]],"type":"Polygon","properties":{"state":"WA","name":"AUBURN","zip":"98092"}},{"arcs":[[187,188,189,190,191]],"type":"Polygon","properties":{"state":"WA","name":"SEATTLE","zip":"98101"}},{"arcs":[[192,193,194,195]],"type":"Polygon","properties":{"state":"WA","name":"SEATTLE","zip":"98102"}},{"arcs":[[196,197,198,199,200,201]],"type":"Polygon","properties":{"state":"WA","name":"SEATTLE","zip":"98103"}},{"arcs":[[202,203,204,-191,205]],"type":"Polygon","properties":{"state":"WA","name":"SEATTLE","zip":"98104"}},{"arcs":[[-197,206,207]],"type":"Polygon","properties":{"state":"WA","name":"SEATTLE","zip":"98105"}},{"arcs":[[208,209,210,211,212]],"type":"Polygon","properties":{"state":"WA","name":"SEATTLE","zip":"98106"}},{"arcs":[[213,-199,214]],"type":"Polygon","properties":{"state":"WA","name":"SEATTLE","zip":"98107"}},{"arcs":[[215,-209,216,217,218,219]],"type":"Polygon","properties":{"state":"WA","name":"SEATTLE","zip":"98108"}},{"arcs":[[-189,220,221,222,-193]],"type":"Polygon","properties":{"state":"WA","name":"SEATTLE","zip":"98109"}},{"arcs":[[223,-195,224]],"type":"Polygon","properties":{"state":"WA","name":"SEATTLE","zip":"98112"}},{"arcs":[[-207,-202,225,226]],"type":"Polygon","properties":{"state":"WA","name":"SEATTLE","zip":"98115"}},{"arcs":[[227,228,229]],"type":"Polygon","properties":{"state":"WA","name":"SEATTLE","zip":"98116"}},{"arcs":[[-214,230,231,-200]],"type":"Polygon","properties":{"state":"WA","name":"SEATTLE","zip":"98117"}},{"arcs":[[232,233,-219,234,235]],"type":"Polygon","properties":{"state":"WA","name":"SEATTLE","zip":"98118"}},{"arcs":[[-222,236]],"type":"Polygon","properties":{"state":"WA","name":"SEATTLE","zip":"98119"}},{"arcs":[[-221,-188,237]],"type":"Polygon","properties":{"state":"WA","name":"SEATTLE","zip":"98121"}},{"arcs":[[238,-206,-190,-196,-224,239]],"type":"Polygon","properties":{"state":"WA","name":"SEATTLE","zip":"98122"}},{"arcs":[[-226,240,241,242]],"type":"Polygon","properties":{"state":"WA","name":"SEATTLE","zip":"98125"}},{"arcs":[[243,-230,244,-211,245]],"type":"Polygon","properties":{"state":"WA","name":"SEATTLE","zip":"98126"}},{"arcs":[[246,-91,-116,247,-241,-201]],"type":"Polygon","properties":{"state":"WA","name":"SEATTLE","zip":"98133"}},{"arcs":[[-204,248,-217,-213,249]],"type":"Polygon","properties":{"state":"WA","name":"SEATTLE","zip":"98134"}},{"arcs":[[250,251,-228,-244]],"type":"Polygon","properties":{"state":"WA","name":"SEATTLE","zip":"98136"}},{"arcs":[[-203,-239,252,-235,-218,-249]],"type":"Polygon","properties":{"state":"WA","name":"SEATTLE","zip":"98144"}},{"arcs":[[-251,-246,-210,-216,253,254,255]],"type":"Polygon","properties":{"state":"WA","name":"SEATTLE","zip":"98146"}},{"arcs":[[256,257,258,259]],"type":"Polygon","properties":{"state":"WA","name":"SEATTLE","zip":"98148"}},{"arcs":[[-160,-148,-128,260,-242,-248]],"type":"Polygon","properties":{"state":"WA","name":"SEATTLE","zip":"98155"}},{"arcs":[[-255,261,-257,262,263]],"type":"Polygon","properties":{"state":"WA","name":"SEATTLE","zip":"98166"}},{"arcs":[[-254,-220,-234,264,265,-258,-262]],"type":"Polygon","properties":{"state":"WA","name":"SEATTLE","zip":"98168"}},{"arcs":[[-92,-247,-232,266]],"type":"Polygon","properties":{"state":"WA","name":"SEATTLE","zip":"98177"}},{"arcs":[[267,-265,-233,268,-174]],"type":"Polygon","properties":{"state":"WA","name":"SEATTLE","zip":"98178"}},{"arcs":[[-266,-268,-173,-140,269,-259]],"type":"Polygon","properties":{"state":"WA","name":"SEATTLE","zip":"98188"}},{"arcs":[[-44,270,-263,-260,-270,-139]],"type":"Polygon","properties":{"state":"WA","name":"SEATTLE","zip":"98198"}},{"arcs":[[271,272,273]],"type":"Polygon","properties":{"state":"WA","name":"EVERETT","zip":"98201"}},{"arcs":[[274,275,-272,276,277,278]],"type":"Polygon","properties":{"state":"WA","name":"EVERETT","zip":"98203"}},{"arcs":[[279,-152,280,-279]],"type":"Polygon","properties":{"state":"WA","name":"EVERETT","zip":"98204"}},{"arcs":[[281,-277,-274,282,283,284,285,286,287]],"type":"Polygon","properties":{"state":"WA","name":"EVERETT","zip":"98205"}},{"arcs":[[-280,-278,-282,288,-80,-153]],"type":"Polygon","properties":{"state":"WA","name":"EVERETT","zip":"98208"}},{"arcs":[[289,290,291]],"type":"Polygon","properties":{"state":"WA","name":"ACME","zip":"98220"}},{"arcs":[[292,293,294]],"type":"Polygon","properties":{"state":"WA","name":"ANACORTES","zip":"98221"}},{"arcs":[[295,296,297,298,299,300,301,302,-285]],"type":"Polygon","properties":{"state":"WA","name":"ARLINGTON","zip":"98223"}},{"arcs":[[-84,303,304,305,-110]],"type":"Polygon","properties":{"state":"WA","name":"BARING","zip":"98224"}},{"arcs":[[306,307]],"type":"Polygon","properties":{"state":"WA","name":"BELLINGHAM","zip":"98225"}},{"arcs":[[-307,308,309,310,311,312,-291,313,314,315,316]],"type":"Polygon","properties":{"state":"WA","name":"BELLINGHAM","zip":"98226"}},{"arcs":[[317,318,319,320]],"type":"Polygon","properties":{"state":"WA","name":"BLAINE","zip":"98230"}},{"arcs":[[321,322,-316,323]],"type":"Polygon","properties":{"state":"WA","name":"BOW","zip":"98232"}},{"arcs":[[324,325,-324,-315]],"type":"Polygon","properties":{"state":"WA","name":"BURLINGTON","zip":"98233"}},{"arcs":[[326,327]],"type":"Polygon","properties":{"state":"WA","name":"CLINTON","zip":"98236"}},{"arcs":[[328,-7,329,330,331,332,333]],"type":"Polygon","properties":{"state":"WA","name":"CONCRETE","zip":"98237"}},{"arcs":[[334,335,336,337]],"type":"Polygon","properties":{"state":"WA","name":"COUPEVILLE","zip":"98239"}},{"arcs":[[338,-321,339]],"type":"Polygon","properties":{"state":"WA","name":"CUSTER","zip":"98240"}},{"arcs":[[340,341,342,-301,-334,343]],"type":"Polygon","properties":{"state":"WA","name":"DARRINGTON","zip":"98241"}},{"arcs":[[-313,344,345,346,347,-2,348,-292]],"type":"Polygon","properties":{"state":"WA","name":"DEMING","zip":"98244"}},{"arcs":[[349,350]],"type":"Polygon","properties":{"state":"WA","name":"EASTSOUND","zip":"98245"}},{"arcs":[[351,352,-345,-312]],"type":"Polygon","properties":{"state":"WA","name":"EVERSON","zip":"98247"}},{"arcs":[[-318,-339,353,-310,354]],"type":"Polygon","properties":{"state":"WA","name":"FERNDALE","zip":"98248"}},{"arcs":[[355,356,357,358]],"type":"Polygon","properties":{"state":"WA","name":"FREELAND","zip":"98249"}},{"arcs":[[359]],"type":"Polygon","properties":{"state":"WA","name":"FRIDAY HARBOR","zip":"98250"}},{"arcs":[[360,-304,-90]],"type":"Polygon","properties":{"state":"WA","name":"GOLD BAR","zip":"98251"}},{"arcs":[[361,362,363,364,-302,-343]],"type":"Polygon","properties":{"state":"WA","name":"GRANITE FALLS","zip":"98252"}},{"arcs":[[-358,365,-337,366]],"type":"Polygon","properties":{"state":"WA","name":"GREENBANK","zip":"98253"}},{"arcs":[[367,368,-293]],"type":"Polygon","properties":{"state":"WA","name":"LA CONNER","zip":"98257"}},{"arcs":[[369,-286,-303,-365]],"type":"Polygon","properties":{"state":"WA","name":"LAKE STEVENS","zip":"98258"}},{"arcs":[[-327,370,-356,371]],"type":"Polygon","properties":{"state":"WA","name":"LANGLEY","zip":"98260"}},{"arcs":[[372]],"type":"Polygon","properties":{"state":"WA","name":"LOPEZ ISLAND","zip":"98261"}},{"arcs":[[-340,-320,373,374,-352,-311,-354]],"type":"Polygon","properties":{"state":"WA","name":"LYNDEN","zip":"98264"}},{"arcs":[[375,-347]],"type":"Polygon","properties":{"state":"WA","name":"MAPLE FALLS","zip":"98266"}},{"arcs":[[376,-330,-6,-26,377,-332]],"type":"Polygon","properties":{"state":"WA","name":"MARBLEMOUNT","zip":"98267"}},{"arcs":[[378,-296,-284,379]],"type":"Polygon","properties":{"state":"WA","name":"MARYSVILLE","zip":"98270"}},{"arcs":[[380,-297,-379,381]],"type":"Polygon","properties":{"state":"WA","name":"MARYSVILLE","zip":"98271"}},{"arcs":[[382,383,-363,384,-88,-184]],"type":"Polygon","properties":{"state":"WA","name":"MONROE","zip":"98272"}},{"arcs":[[385,386,387,-368,-295,388,-322,-326,389]],"type":"Polygon","properties":{"state":"WA","name":"MOUNT VERNON","zip":"98273"}},{"arcs":[[390,-386,391,-299]],"type":"Polygon","properties":{"state":"WA","name":"MOUNT VERNON","zip":"98274"}},{"arcs":[[-118,392,-275,-281,-151]],"type":"Polygon","properties":{"state":"WA","name":"MUKILTEO","zip":"98275"}},{"arcs":[[-335,393]],"type":"Polygon","properties":{"state":"WA","name":"OAK HARBOR","zip":"98277"}},{"arcs":[[-350,394]],"type":"Polygon","properties":{"state":"WA","name":"OLGA","zip":"98279"}},{"arcs":[[395,396]],"type":"Polygon","properties":{"state":"WA","name":"CAMANO ISLAND","zip":"98282"}},{"arcs":[[-377,-331]],"type":"Polygon","properties":{"state":"WA","name":"ROCKPORT","zip":"98283"}},{"arcs":[[-300,-392,-390,-325,-314,-290,-349,-1,-329]],"type":"Polygon","properties":{"state":"WA","name":"SEDRO WOOLLEY","zip":"98284"}},{"arcs":[[397,398,-163,-111,-306,399]],"type":"Polygon","properties":{"state":"WA","name":"SKYKOMISH","zip":"98288"}},{"arcs":[[400,-287,-370,-364,-384]],"type":"Polygon","properties":{"state":"WA","name":"SNOHOMISH","zip":"98290"}},{"arcs":[[-381,401,-396,402,-387,-391,-298]],"type":"Polygon","properties":{"state":"WA","name":"STANWOOD","zip":"98292"}},{"arcs":[[-362,-342,403,-400,-305,-361,-89,-385]],"type":"Polygon","properties":{"state":"WA","name":"SULTAN","zip":"98294"}},{"arcs":[[-376,-346,-353,-375,404,-3,-348]],"type":"Polygon","properties":{"state":"WA","name":"SUMAS","zip":"98295"}},{"arcs":[[-289,-288,-401,-383,-183,-75]],"type":"Polygon","properties":{"state":"WA","name":"SNOHOMISH","zip":"98296"}},{"arcs":[[405,406,407,408,409]],"type":"Polygon","properties":{"state":"WA","name":"ASHFORD","zip":"98304"}},{"arcs":[[410]],"type":"Polygon","properties":{"state":"WA","name":"BEAVER","zip":"98305"}},{"arcs":[[411,412,413]],"type":"Polygon","properties":{"state":"WA","name":"BREMERTON","zip":"98311"}},{"arcs":[[414,415,416,417,418,419,420,421,422]],"type":"Polygon","properties":{"state":"WA","name":"BREMERTON","zip":"98312"}},{"arcs":[[423,424,-420]],"type":"Polygon","properties":{"state":"WA","name":"BREMERTON","zip":"98314"}},{"arcs":[[425,426,427]],"type":"Polygon","properties":{"state":"WA","name":"SILVERDALE","zip":"98315"}},{"arcs":[[428,429,430,431,432,433]],"type":"Polygon","properties":{"state":"WA","name":"BRINNON","zip":"98320"}},{"arcs":[[434,435,-187,-101,436,437,-406]],"type":"Polygon","properties":{"state":"WA","name":"BUCKLEY","zip":"98321"}},{"arcs":[[438,439,440,441]],"type":"Polygon","properties":{"state":"WA","name":"CHIMACUM","zip":"98325"}},{"arcs":[[442,443,444,445]],"type":"Polygon","properties":{"state":"WA","name":"CLALLAM BAY","zip":"98326"}},{"arcs":[[446,447,448,449]],"type":"Polygon","properties":{"state":"WA","name":"DUPONT","zip":"98327"}},{"arcs":[[450,451,452,453,-409,454,455]],"type":"Polygon","properties":{"state":"WA","name":"EATONVILLE","zip":"98328"}},{"arcs":[[456,457,458,459,460,461]],"type":"Polygon","properties":{"state":"WA","name":"GIG HARBOR","zip":"98329"}},{"arcs":[[462,-455,-408]],"type":"Polygon","properties":{"state":"WA","name":"ELBE","zip":"98330"}},{"arcs":[[463,-443,464,465,466,467],[-411]],"type":"Polygon","properties":{"state":"WA","name":"FORKS","zip":"98331"}},{"arcs":[[468,469,470,471,472]],"type":"Polygon","properties":{"state":"WA","name":"GIG HARBOR","zip":"98332"}},{"arcs":[[-469,473]],"type":"Polygon","properties":{"state":"WA","name":"GIG HARBOR","zip":"98335"}},{"arcs":[[474,475,476]],"type":"Polygon","properties":{"state":"WA","name":"GLENOMA","zip":"98336"}},{"arcs":[[-419,477,-424]],"type":"Polygon","properties":{"state":"WA","name":"BREMERTON","zip":"98337"}},{"arcs":[[478,479,480,481,482,-453]],"type":"Polygon","properties":{"state":"WA","name":"GRAHAM","zip":"98338"}},{"arcs":[[483,484,485,-442]],"type":"Polygon","properties":{"state":"WA","name":"PORT HADLOCK","zip":"98339"}},{"arcs":[[486,487,488]],"type":"Polygon","properties":{"state":"WA","name":"INDIANOLA","zip":"98342"}},{"arcs":[[-488,489,490]],"type":"Polygon","properties":{"state":"WA","name":"KINGSTON","zip":"98346"}},{"arcs":[[491,-462,492]],"type":"Polygon","properties":{"state":"WA","name":"LAKEBAY","zip":"98349"}},{"arcs":[[493,494,-46,495,496]],"type":"Polygon","properties":{"state":"WA","name":"MILTON","zip":"98354"}},{"arcs":[[497,498,499,500,-456,-463,-407,-438,501,502,-476,503,504]],"type":"Polygon","properties":{"state":"WA","name":"MINERAL","zip":"98355"}},{"arcs":[[505,506,507,508,509,-504,-475]],"type":"Polygon","properties":{"state":"WA","name":"MORTON","zip":"98356"}},{"arcs":[[510,511,-472]],"type":"Polygon","properties":{"state":"WA","name":"OLALLA","zip":"98359"}},{"arcs":[[-483,512,513,-435,-410,-454]],"type":"Polygon","properties":{"state":"WA","name":"ORTING","zip":"98360"}},{"arcs":[[-437,-100,514,-502]],"type":"Polygon","properties":{"state":"WA","name":"PACKWOOD","zip":"98361"}},{"arcs":[[515,-430,516,517]],"type":"Polygon","properties":{"state":"WA","name":"PORT ANGELES","zip":"98362"}},{"arcs":[[518,-465,-446,519,-517]],"type":"Polygon","properties":{"state":"WA","name":"PORT ANGELES","zip":"98363"}},{"arcs":[[520,-439,-486,521]],"type":"Polygon","properties":{"state":"WA","name":"PORT LUDLOW","zip":"98365"}},{"arcs":[[522,-422,523,-511,-471,524,-460]],"type":"Polygon","properties":{"state":"WA","name":"PORT ORCHARD","zip":"98367"}},{"arcs":[[525,526,-484,-441,527]],"type":"Polygon","properties":{"state":"WA","name":"PORT TOWNSEND","zip":"98368"}},{"arcs":[[-413,528,-428,529,-490,-487,530]],"type":"Polygon","properties":{"state":"WA","name":"POULSBO","zip":"98370"}},{"arcs":[[531,532,533,-497,534,535]],"type":"Polygon","properties":{"state":"WA","name":"PUYALLUP","zip":"98371"}},{"arcs":[[536,537,-535,-496,-32]],"type":"Polygon","properties":{"state":"WA","name":"PUYALLUP","zip":"98372"}},{"arcs":[[538,-536,539,540]],"type":"Polygon","properties":{"state":"WA","name":"PUYALLUP","zip":"98373"}},{"arcs":[[541,-540,-538,542,-513,-482]],"type":"Polygon","properties":{"state":"WA","name":"PUYALLUP","zip":"98374"}},{"arcs":[[543,544,-541,-542,-481]],"type":"Polygon","properties":{"state":"WA","name":"PUYALLUP","zip":"98375"}},{"arcs":[[-432,545,-528,-440,-521,546]],"type":"Polygon","properties":{"state":"WA","name":"QUILCENE","zip":"98376"}},{"arcs":[[547,-506,-477,-503,-515,-99,548,-14]],"type":"Polygon","properties":{"state":"WA","name":"RANDLE","zip":"98377"}},{"arcs":[[-415,549,550,551]],"type":"Polygon","properties":{"state":"WA","name":"SEABECK","zip":"98380"}},{"arcs":[[-444,-464,552]],"type":"Polygon","properties":{"state":"WA","name":"SEKIU","zip":"98381"}},{"arcs":[[-516,553,-526,-546,-431]],"type":"Polygon","properties":{"state":"WA","name":"SEQUIM","zip":"98382"}},{"arcs":[[-417,554,-426,-529,-412,555]],"type":"Polygon","properties":{"state":"WA","name":"SILVERDALE","zip":"98383"}},{"arcs":[[-480,556,557,558,559,560,561,-544]],"type":"Polygon","properties":{"state":"WA","name":"SPANAWAY","zip":"98387"}},{"arcs":[[562,563,564,565]],"type":"Polygon","properties":{"state":"WA","name":"STEILACOOM","zip":"98388"}},{"arcs":[[-537,-166,-186,-436,-514,-543]],"type":"Polygon","properties":{"state":"WA","name":"SUMNER","zip":"98390"}},{"arcs":[[-457,-492,566]],"type":"Polygon","properties":{"state":"WA","name":"VAUGHN","zip":"98394"}},{"arcs":[[567,568,569,570,571,572]],"type":"Polygon","properties":{"state":"WA","name":"TACOMA","zip":"98402"}},{"arcs":[[573,574,575,576,-572]],"type":"Polygon","properties":{"state":"WA","name":"TACOMA","zip":"98403"}},{"arcs":[[577,578,579,580,581,582,583]],"type":"Polygon","properties":{"state":"WA","name":"TACOMA","zip":"98404"}},{"arcs":[[584,585,586,-574,-571]],"type":"Polygon","properties":{"state":"WA","name":"TACOMA","zip":"98405"}},{"arcs":[[587,588,589,-575,-587]],"type":"Polygon","properties":{"state":"WA","name":"TACOMA","zip":"98406"}},{"arcs":[[-576,-590,590]],"type":"Polygon","properties":{"state":"WA","name":"TACOMA","zip":"98407"}},{"arcs":[[591,592,593,594,-578]],"type":"Polygon","properties":{"state":"WA","name":"TACOMA","zip":"98408"}},{"arcs":[[595,596,597,-585,-570,598,-594,599]],"type":"Polygon","properties":{"state":"WA","name":"TACOMA","zip":"98409"}},{"arcs":[[-569,-579,-595,-599]],"type":"Polygon","properties":{"state":"WA","name":"TACOMA","zip":"98418"}},{"arcs":[[[600,601,602]],[[-580,-568,603]]],"type":"MultiPolygon","properties":{"state":"WA","name":"TACOMA","zip":"98421"}},{"arcs":[[-107,-41,-495,604,-601,605]],"type":"Polygon","properties":{"state":"WA","name":"TACOMA","zip":"98422"}},{"arcs":[[-602,-605,-494,-534,606,-582]],"type":"Polygon","properties":{"state":"WA","name":"TACOMA","zip":"98424"}},{"arcs":[[-563,607,608,609,-558,610,611,612,-447,613]],"type":"Polygon","properties":{"state":"WA","name":"TACOMA","zip":"98433"}},{"arcs":[[-610,614,615,616,-559]],"type":"Polygon","properties":{"state":"WA","name":"MCCHORD AFB","zip":"98438"}},{"arcs":[[-609,617,618,-615]],"type":"Polygon","properties":{"state":"WA","name":"LAKEWOOD","zip":"98439"}},{"arcs":[[619,-583,-607,-533]],"type":"Polygon","properties":{"state":"WA","name":"TACOMA","zip":"98443"}},{"arcs":[[620,-592,621,-560,-617]],"type":"Polygon","properties":{"state":"WA","name":"TACOMA","zip":"98444"}},{"arcs":[[622,-561,-622,-584]],"type":"Polygon","properties":{"state":"WA","name":"TACOMA","zip":"98445"}},{"arcs":[[-562,-623,-620,-532,-539,-545]],"type":"Polygon","properties":{"state":"WA","name":"TACOMA","zip":"98446"}},{"arcs":[[623,624,-588,-586,-598]],"type":"Polygon","properties":{"state":"WA","name":"TACOMA","zip":"98465"}},{"arcs":[[-624,-597,625,626]],"type":"Polygon","properties":{"state":"WA","name":"TACOMA","zip":"98466"}},{"arcs":[[-626,-596,627,628,-565,629]],"type":"Polygon","properties":{"state":"WA","name":"UNIVERSITY PLACE","zip":"98467"}},{"arcs":[[-608,-566,-629,630,-618]],"type":"Polygon","properties":{"state":"WA","name":"LAKEWOOD","zip":"98498"}},{"arcs":[[-619,-631,-628,-600,-593,-621,-616]],"type":"Polygon","properties":{"state":"WA","name":"LAKEWOOD","zip":"98499"}},{"arcs":[[631,632,633,634,635,636,637]],"type":"Polygon","properties":{"state":"WA","name":"OLYMPIA","zip":"98501"}},{"arcs":[[-635,638,639,640,641]],"type":"Polygon","properties":{"state":"WA","name":"OLYMPIA","zip":"98502"}},{"arcs":[[642,643,644,-638]],"type":"Polygon","properties":{"state":"WA","name":"LACEY","zip":"98503"}},{"arcs":[[-637,645,646,-643]],"type":"Polygon","properties":{"state":"WA","name":"OLYMPIA","zip":"98506"}},{"arcs":[[647,648,649,-639,-634,650,651]],"type":"Polygon","properties":{"state":"WA","name":"OLYMPIA","zip":"98512"}},{"arcs":[[652,653,-632,-645,654,-448,-613]],"type":"Polygon","properties":{"state":"WA","name":"OLYMPIA","zip":"98513"}},{"arcs":[[-647,655,-449,-655,-644]],"type":"Polygon","properties":{"state":"WA","name":"OLYMPIA","zip":"98516"}},{"arcs":[[656,657,658,659,660,661,662]],"type":"Polygon","properties":{"state":"WA","name":"ABERDEEN","zip":"98520"}},{"arcs":[[663,664,665]],"type":"Polygon","properties":{"state":"WA","name":"ALLYN","zip":"98524"}},{"arcs":[[666,667,668,669]],"type":"Polygon","properties":{"state":"WA","name":"AMANDA PARK","zip":"98526"}},{"arcs":[[670,-550,-423,-523,-459,671,-665,672,673,674]],"type":"Polygon","properties":{"state":"WA","name":"BELFAIR","zip":"98528"}},{"arcs":[[675,676,677]],"type":"Polygon","properties":{"state":"WA","name":"CENTRALIA","zip":"98531"}},{"arcs":[[678,679,680,681,682,683,684,-676,685,686,-499,687]],"type":"Polygon","properties":{"state":"WA","name":"CHEHALIS","zip":"98532"}},{"arcs":[[688,-505,-510,689]],"type":"Polygon","properties":{"state":"WA","name":"CINEBAR","zip":"98533"}},{"arcs":[[690,691,692]],"type":"Polygon","properties":{"state":"WA","name":"COPALIS BEACH","zip":"98535"}},{"arcs":[[693,694,695,696,697,-693]],"type":"Polygon","properties":{"state":"WA","name":"COPALIS CROSSING","zip":"98536"}},{"arcs":[[698,699,700,-657,701]],"type":"Polygon","properties":{"state":"WA","name":"COSMOPOLIS","zip":"98537"}},{"arcs":[[702,-681,703]],"type":"Polygon","properties":{"state":"WA","name":"CURTIS","zip":"98538"}},{"arcs":[[704,705,706,707,708,-649]],"type":"Polygon","properties":{"state":"WA","name":"ELMA","zip":"98541"}},{"arcs":[[709,710,711,-679,712]],"type":"Polygon","properties":{"state":"WA","name":"ETHEL","zip":"98542"}},{"arcs":[[713,714,-673,-664,715]],"type":"Polygon","properties":{"state":"WA","name":"GRAPEVIEW","zip":"98546"}},{"arcs":[[716,717,718,-658,-701]],"type":"Polygon","properties":{"state":"WA","name":"GRAYLAND","zip":"98547"}},{"arcs":[[719,720,721,722]],"type":"Polygon","properties":{"state":"WA","name":"HOODSPORT","zip":"98548"}},{"arcs":[[723,724,725,-691,-698,726,727,-660,728]],"type":"Polygon","properties":{"state":"WA","name":"HOQUIAM","zip":"98550"}},{"arcs":[[-728,729,730,-667,731,-661]],"type":"Polygon","properties":{"state":"WA","name":"HUMPTULIPS","zip":"98552"}},{"arcs":[[-722,732,-434,733]],"type":"Polygon","properties":{"state":"WA","name":"LILLIWAUP","zip":"98555"}},{"arcs":[[-709,734,-640,-650]],"type":"Polygon","properties":{"state":"WA","name":"MCCLEARY","zip":"98557"}},{"arcs":[[735,736,-707]],"type":"Polygon","properties":{"state":"WA","name":"MATLOCK","zip":"98560"}},{"arcs":[[737,-730,-727,-697,738,739]],"type":"Polygon","properties":{"state":"WA","name":"MOCLIPS","zip":"98562"}},{"arcs":[[-706,740,-702,-663,741,-669,742,-466,-519,-429,-733,-721,743,-736]],"type":"Polygon","properties":{"state":"WA","name":"MONTESANO","zip":"98563"}},{"arcs":[[744,745,746,747,-508]],"type":"Polygon","properties":{"state":"WA","name":"MOSSYROCK","zip":"98564"}},{"arcs":[[-741,-705,-648,748,-684,749,-699]],"type":"Polygon","properties":{"state":"WA","name":"OAKVILLE","zip":"98568"}},{"arcs":[[[-694,-692,-726,750]],[[-724,751]]],"type":"MultiPolygon","properties":{"state":"WA","name":"OCEAN SHORES","zip":"98569"}},{"arcs":[[[752,753,-713,-688,-498,-689]],[[754,-711,755]]],"type":"MultiPolygon","properties":{"state":"WA","name":"ONALASKA","zip":"98570"}},{"arcs":[[-739,-696,756]],"type":"Polygon","properties":{"state":"WA","name":"PACIFIC BEACH","zip":"98571"}},{"arcs":[[757,758,759,760,-682,-703,761,762]],"type":"Polygon","properties":{"state":"WA","name":"PE ELL","zip":"98572"}},{"arcs":[[-670,-742,-662,-732]],"type":"Polygon","properties":{"state":"WA","name":"QUINAULT","zip":"98575"}},{"arcs":[[-687,763,764,-500]],"type":"Polygon","properties":{"state":"WA","name":"RAINIER","zip":"98576"}},{"arcs":[[765,766,767,-717,-700,-750,-683,-761,768]],"type":"Polygon","properties":{"state":"WA","name":"RAYMOND","zip":"98577"}},{"arcs":[[-685,-749,-652,769,-677]],"type":"Polygon","properties":{"state":"WA","name":"ROCHESTER","zip":"98579"}},{"arcs":[[770,-611,-557,-479,-452]],"type":"Polygon","properties":{"state":"WA","name":"ROY","zip":"98580"}},{"arcs":[[771,772,773,-763,774,775]],"type":"Polygon","properties":{"state":"WA","name":"RYDERWOOD","zip":"98581"}},{"arcs":[[-710,-754,776,-747,777,778,-756]],"type":"Polygon","properties":{"state":"WA","name":"SALKUM","zip":"98582"}},{"arcs":[[-641,-735,-708,-737,-744,-720,779,780,-714,781]],"type":"Polygon","properties":{"state":"WA","name":"SHELTON","zip":"98584"}},{"arcs":[[-777,-753,-690,-509,-748]],"type":"Polygon","properties":{"state":"WA","name":"SILVER CREEK","zip":"98585"}},{"arcs":[[782,783,-766]],"type":"Polygon","properties":{"state":"WA","name":"SOUTH BEND","zip":"98586"}},{"arcs":[[-738,784,-467,-743,-668,-731]],"type":"Polygon","properties":{"state":"WA","name":"TAHOLAH","zip":"98587"}},{"arcs":[[-551,-671,785]],"type":"Polygon","properties":{"state":"WA","name":"TAHUYA","zip":"98588"}},{"arcs":[[-686,-678,-770,-651,-633,-654,786,-764]],"type":"Polygon","properties":{"state":"WA","name":"TENINO","zip":"98589"}},{"arcs":[[-718,-768,787]],"type":"Polygon","properties":{"state":"WA","name":"TOKELAND","zip":"98590"}},{"arcs":[[788,789,790,791,-778,-746]],"type":"Polygon","properties":{"state":"WA","name":"TOLEDO","zip":"98591"}},{"arcs":[[-781,792,-674,-715]],"type":"Polygon","properties":{"state":"WA","name":"UNION","zip":"98592"}},{"arcs":[[793,-776,794,-791]],"type":"Polygon","properties":{"state":"WA","name":"VADER","zip":"98593"}},{"arcs":[[-775,-762,-704,-680,-712,-755,-779,-792,-795]],"type":"Polygon","properties":{"state":"WA","name":"WINLOCK","zip":"98596"}},{"arcs":[[-787,-653,-612,-771,-451,-501,-765]],"type":"Polygon","properties":{"state":"WA","name":"YELM","zip":"98597"}},{"arcs":[[795,796,797,798,799,800]],"type":"Polygon","properties":{"state":"WA","name":"AMBOY","zip":"98601"}},{"arcs":[[801,802,803,804]],"type":"Polygon","properties":{"state":"WA","name":"APPLETON","zip":"98602"}},{"arcs":[[805,806,807,808,-797]],"type":"Polygon","properties":{"state":"WA","name":"ARIEL","zip":"98603"}},{"arcs":[[809,810,811,812,813,814]],"type":"Polygon","properties":{"state":"WA","name":"BATTLE GROUND","zip":"98604"}},{"type":null,"properties":{"state":"WA","name":"BINGEN","zip":"98605"}},{"arcs":[[815,816,817,-815,818]],"type":"Polygon","properties":{"state":"WA","name":"BRUSH PRAIRIE","zip":"98606"}},{"arcs":[[819,820,821,-816,822,823,824]],"type":"Polygon","properties":{"state":"WA","name":"CAMAS","zip":"98607"}},{"arcs":[[825,826]],"type":"Polygon","properties":{"state":"WA","name":"CARSON","zip":"98610"}},{"arcs":[[827,828,829,-772,-794,-790,830]],"type":"Polygon","properties":{"state":"WA","name":"CASTLE ROCK","zip":"98611"}},{"arcs":[[831,832,833,-758,-774]],"type":"Polygon","properties":{"state":"WA","name":"CATHLAMET","zip":"98612"}},{"arcs":[[834,835,836,837]],"type":"Polygon","properties":{"state":"WA","name":"CENTERVILLE","zip":"98613"}},{"arcs":[[-809,838,839,-798]],"type":"Polygon","properties":{"state":"WA","name":"COUGAR","zip":"98616"}},{"arcs":[[840,-837,841]],"type":"Polygon","properties":{"state":"WA","name":"DALLESPORT","zip":"98617"}},{"arcs":[[842,-24,843,-805,844]],"type":"Polygon","properties":{"state":"WA","name":"GLENWOOD","zip":"98619"}},{"arcs":[[845,846,-835,-802,-844,-23,847]],"type":"Polygon","properties":{"state":"WA","name":"GOLDENDALE","zip":"98620"}},{"arcs":[[848,849,850]],"type":"Polygon","properties":{"state":"WA","name":"GRAYS RIVER","zip":"98621"}},{"arcs":[[851,852,853,854]],"type":"Polygon","properties":{"state":"WA","name":"ILWACO","zip":"98624"}},{"arcs":[[855,856,857,858,-807]],"type":"Polygon","properties":{"state":"WA","name":"KALAMA","zip":"98625"}},{"arcs":[[859,-829,860,861,-858,862]],"type":"Polygon","properties":{"state":"WA","name":"KELSO","zip":"98626"}},{"arcs":[[863,864,-801,865,-813]],"type":"Polygon","properties":{"state":"WA","name":"LA CENTER","zip":"98629"}},{"arcs":[[866,867,-854,868]],"type":"Polygon","properties":{"state":"WA","name":"LONG BEACH","zip":"98631"}},{"arcs":[[-832,-773,-830,-860,869]],"type":"Polygon","properties":{"state":"WA","name":"LONGVIEW","zip":"98632"}},{"arcs":[[870,-803,-838,-841,871]],"type":"Polygon","properties":{"state":"WA","name":"LYLE","zip":"98635"}},{"arcs":[[872,873,-852,874,-783,-769,-760,875,-850]],"type":"Polygon","properties":{"state":"WA","name":"NASELLE","zip":"98638"}},{"arcs":[[-867,876]],"type":"Polygon","properties":{"state":"WA","name":"OCEAN PARK","zip":"98640"}},{"arcs":[[877,878,879,-864,-812,880,881]],"type":"Polygon","properties":{"state":"WA","name":"RIDGEFIELD","zip":"98642"}},{"arcs":[[882,883,-873,-849]],"type":"Polygon","properties":{"state":"WA","name":"ROSBURG","zip":"98643"}},{"arcs":[[-828,884,-861]],"type":"Polygon","properties":{"state":"WA","name":"SILVERLAKE","zip":"98645"}},{"arcs":[[-851,-876,-759,-834,885,-883]],"type":"Polygon","properties":{"state":"WA","name":"SKAMOKAWA","zip":"98647"}},{"arcs":[[886,-826,887,888,889,890,-799,-840,891,-507,-548,-13,892,893]],"type":"Polygon","properties":{"state":"WA","name":"STEVENSON","zip":"98648"}},{"arcs":[[-885,-831,-789,-745,-892,-839,-808,-859,-862]],"type":"Polygon","properties":{"state":"WA","name":"TOUTLE","zip":"98649"}},{"arcs":[[894,-893,-25,-843]],"type":"Polygon","properties":{"state":"WA","name":"TROUT LAKE","zip":"98650"}},{"arcs":[[-827,-887,895,896,-888]],"type":"Polygon","properties":{"state":"WA","name":"UNDERWOOD","zip":"98651"}},{"arcs":[[897,898,899,-878,900,901]],"type":"Polygon","properties":{"state":"WA","name":"VANCOUVER","zip":"98660"}},{"arcs":[[902,903,904,905,906,-899]],"type":"Polygon","properties":{"state":"WA","name":"VANCOUVER","zip":"98661"}},{"arcs":[[907,908,-905,909,910,-810,-818]],"type":"Polygon","properties":{"state":"WA","name":"VANCOUVER","zip":"98662"}},{"arcs":[[-898,911,-903]],"type":"Polygon","properties":{"state":"WA","name":"VANCOUVER","zip":"98663"}},{"arcs":[[912,913,-906,-909,914]],"type":"Polygon","properties":{"state":"WA","name":"VANCOUVER","zip":"98664"}},{"arcs":[[-912,-902,915,916,-910,-904]],"type":"Polygon","properties":{"state":"WA","name":"VANCOUVER","zip":"98665"}},{"arcs":[[917,-890,918,-824]],"type":"Polygon","properties":{"state":"WA","name":"WASHOUGAL","zip":"98671"}},{"arcs":[[-896,-894,-895,-845,-804,-871,919]],"type":"Polygon","properties":{"state":"WA","name":"WHITE SALMON","zip":"98672"}},{"arcs":[[-880,920,-856,-806,-796,-865]],"type":"Polygon","properties":{"state":"WA","name":"WOODLAND","zip":"98674"}},{"arcs":[[-814,-866,-800,-891,-918,-823,-819]],"type":"Polygon","properties":{"state":"WA","name":"YACOLT","zip":"98675"}},{"arcs":[[921,-908,-817,-822]],"type":"Polygon","properties":{"state":"WA","name":"VANCOUVER","zip":"98682"}},{"arcs":[[-913,922,-820,923]],"type":"Polygon","properties":{"state":"WA","name":"VANCOUVER","zip":"98683"}},{"arcs":[[-922,-821,-923,-915]],"type":"Polygon","properties":{"state":"WA","name":"VANCOUVER","zip":"98684"}},{"arcs":[[924,-916,-901,-882]],"type":"Polygon","properties":{"state":"WA","name":"VANCOUVER","zip":"98685"}},{"arcs":[[-917,-925,-881,-811,-911]],"type":"Polygon","properties":{"state":"WA","name":"VANCOUVER","zip":"98686"}},{"arcs":[[925,926,927,928,929,930,931]],"type":"Polygon","properties":{"state":"WA","name":"WENATCHEE","zip":"98801"}},{"arcs":[[932,933,934,935]],"type":"Polygon","properties":{"state":"WA","name":"EAST WENATCHEE","zip":"98802"}},{"arcs":[[936,937,938,939,940,941,942]],"type":"Polygon","properties":{"state":"WA","name":"BREWSTER","zip":"98812"}},{"arcs":[[943,944,945]],"type":"Polygon","properties":{"state":"WA","name":"BRIDGEPORT","zip":"98813"}},{"arcs":[[946,947,948,-940]],"type":"Polygon","properties":{"state":"WA","name":"CARLTON","zip":"98814"}},{"arcs":[[949,950,-927]],"type":"Polygon","properties":{"state":"WA","name":"CASHMERE","zip":"98815"}},{"arcs":[[951,952,953,954,955]],"type":"Polygon","properties":{"state":"WA","name":"CHELAN","zip":"98816"}},{"arcs":[[-929,956,957,-952,958]],"type":"Polygon","properties":{"state":"WA","name":"ENTIAT","zip":"98822"}},{"arcs":[[959,960,961,962,963,964]],"type":"Polygon","properties":{"state":"WA","name":"EPHRATA","zip":"98823"}},{"arcs":[[-404,-341,965,-957,-928,-951,966,967,-398]],"type":"Polygon","properties":{"state":"WA","name":"LEAVENWORTH","zip":"98826"}},{"arcs":[[968,969,-28,970,971,972,973]],"type":"Polygon","properties":{"state":"WA","name":"LOOMIS","zip":"98827"}},{"arcs":[[974,-931,975]],"type":"Polygon","properties":{"state":"WA","name":"MALAGA","zip":"98828"}},{"arcs":[[976,977,-946,978,979,980]],"type":"Polygon","properties":{"state":"WA","name":"MANSFIELD","zip":"98830"}},{"arcs":[[981,982,-954]],"type":"Polygon","properties":{"state":"WA","name":"MANSON","zip":"98831"}},{"arcs":[[983,984,985,986,987,988]],"type":"Polygon","properties":{"state":"WA","name":"MARLIN","zip":"98832"}},{"arcs":[[989,-29,-970,990]],"type":"Polygon","properties":{"state":"WA","name":"MAZAMA","zip":"98833"}},{"arcs":[[991,-947,992,993,-955,-983]],"type":"Polygon","properties":{"state":"WA","name":"METHOW","zip":"98834"}},{"arcs":[[994,-965,995,-986,996]],"type":"Polygon","properties":{"state":"WA","name":"MOSES LAKE","zip":"98837"}},{"arcs":[[997,998,999,-943]],"type":"Polygon","properties":{"state":"WA","name":"OKANOGAN","zip":"98840"}},{"arcs":[[1000,1001,-999]],"type":"Polygon","properties":{"state":"WA","name":"OMAK","zip":"98841"}},{"arcs":[[-944,1002,-933,1003]],"type":"Polygon","properties":{"state":"WA","name":"ORONDO","zip":"98843"}},{"arcs":[[1004,1005,-972,1006]],"type":"Polygon","properties":{"state":"WA","name":"OROVILLE","zip":"98844"}},{"arcs":[[1007,1008,1009]],"type":"Polygon","properties":{"state":"WA","name":"PALISADES","zip":"98845"}},{"arcs":[[-939,1010,-993]],"type":"Polygon","properties":{"state":"WA","name":"PATEROS","zip":"98846"}},{"arcs":[[1011,1012,-967,-950,-926]],"type":"Polygon","properties":{"state":"WA","name":"PESHASTIN","zip":"98847"}},{"arcs":[[1013,1014,1015,-1010,1016,1017,-963]],"type":"Polygon","properties":{"state":"WA","name":"QUINCY","zip":"98848"}},{"arcs":[[1018,1019,-974,1020,1021,-1001,-998,-942]],"type":"Polygon","properties":{"state":"WA","name":"RIVERSIDE","zip":"98849"}},{"arcs":[[-935,1022,-1008,-1016,1023]],"type":"Polygon","properties":{"state":"WA","name":"ROCK ISLAND","zip":"98850"}},{"arcs":[[-996,-964,-1018,1024,1025,-987]],"type":"Polygon","properties":{"state":"WA","name":"SOAP LAKE","zip":"98851"}},{"arcs":[[-982,-953,-958,-966,-344,-333,-378,-31,1026,-948,-992]],"type":"Polygon","properties":{"state":"WA","name":"STEHEKIN","zip":"98852"}},{"arcs":[[-973,-1006,1027,1028,1029,-1021]],"type":"Polygon","properties":{"state":"WA","name":"TONASKET","zip":"98855"}},{"arcs":[[-949,-1027,-30,-990,1030,-1019,-941]],"type":"Polygon","properties":{"state":"WA","name":"TWISP","zip":"98856"}},{"arcs":[[1031,1032,-960,-995,1033]],"type":"Polygon","properties":{"state":"WA","name":"WARDEN","zip":"98857"}},{"arcs":[[-1009,-1023,-934,-1003,-978,1034,1035,1036,-1025,-1017]],"type":"Polygon","properties":{"state":"WA","name":"WATERVILLE","zip":"98858"}},{"arcs":[[1037,-1028,-1005,1038,1039]],"type":"Polygon","properties":{"state":"WA","name":"WAUCONDA","zip":"98859"}},{"arcs":[[-1031,-991,-969,-1020]],"type":"Polygon","properties":{"state":"WA","name":"WINTHROP","zip":"98862"}},{"arcs":[[1040,1041,1042,1043,1044]],"type":"Polygon","properties":{"state":"WA","name":"YAKIMA","zip":"98901"}},{"arcs":[[1045,1046,-1041,1047]],"type":"Polygon","properties":{"state":"WA","name":"YAKIMA","zip":"98902"}},{"arcs":[[1048,1049,-1048,-1045,1050,1051,-16]],"type":"Polygon","properties":{"state":"WA","name":"YAKIMA","zip":"98903"}},{"arcs":[[-1050,1052,1053,1054,1055,1056,-1046]],"type":"Polygon","properties":{"state":"WA","name":"YAKIMA","zip":"98908"}},{"arcs":[[-164,-399,-968,-1013,1057,1058,-105]],"type":"Polygon","properties":{"state":"WA","name":"CLE ELUM","zip":"98922"}},{"arcs":[[1059,-1054,1060]],"type":"Polygon","properties":{"state":"WA","name":"COWICHE","zip":"98923"}},{"arcs":[[1061,-1043,1062,-1058,-1012,-932,-975,1063]],"type":"Polygon","properties":{"state":"WA","name":"ELLENSBURG","zip":"98926"}},{"arcs":[[1064,1065,1066]],"type":"Polygon","properties":{"state":"WA","name":"GRANDVIEW","zip":"98930"}},{"arcs":[[1067,1068,1069,1070,1071]],"type":"Polygon","properties":{"state":"WA","name":"GRANGER","zip":"98932"}},{"arcs":[[1072,-18,1073]],"type":"Polygon","properties":{"state":"WA","name":"HARRAH","zip":"98933"}},{"arcs":[[1074,-1068,1075,-1065,1076,1077,-21]],"type":"Polygon","properties":{"state":"WA","name":"MABTON","zip":"98935"}},{"arcs":[[1078,-1051,-1044,-1062,1079,1080,1081,1082,1083]],"type":"Polygon","properties":{"state":"WA","name":"MOXEE","zip":"98936"}},{"arcs":[[1084,-1061,-1053,-1049,-15,-549,-98,1085,1086,-1056]],"type":"Polygon","properties":{"state":"WA","name":"NACHES","zip":"98937"}},{"arcs":[[1087,-1083,1088,-1071]],"type":"Polygon","properties":{"state":"WA","name":"OUTLOOK","zip":"98938"}},{"arcs":[[-1087,1089,-1042,-1047,-1057]],"type":"Polygon","properties":{"state":"WA","name":"SELAH","zip":"98942"}},{"arcs":[[-1082,1090,-1066,-1076,-1072,-1089]],"type":"Polygon","properties":{"state":"WA","name":"SUNNYSIDE","zip":"98944"}},{"arcs":[[-1086,-106,-1059,-1063,-1090]],"type":"Polygon","properties":{"state":"WA","name":"THORP","zip":"98946"}},{"arcs":[[-1055,-1060,-1085]],"type":"Polygon","properties":{"state":"WA","name":"TIETON","zip":"98947"}},{"arcs":[[-1075,-20,1091,1092,1093,-1069]],"type":"Polygon","properties":{"state":"WA","name":"TOPPENISH","zip":"98948"}},{"arcs":[[-17,-1052,-1079,1094,-1093,1095,-1074]],"type":"Polygon","properties":{"state":"WA","name":"WAPATO","zip":"98951"}},{"arcs":[[-19,-1073,-1096,-1092]],"type":"Polygon","properties":{"state":"WA","name":"WHITE SWAN","zip":"98952"}},{"arcs":[[-1094,-1095,-1084,-1088,-1070]],"type":"Polygon","properties":{"state":"WA","name":"ZILLAH","zip":"98953"}},{"arcs":[[1096,1097,1098,1099,1100]],"type":"Polygon","properties":{"state":"WA","name":"CHATTAROY","zip":"99003"}},{"arcs":[[1101,1102,1103,1104,1105,1106,1107]],"type":"Polygon","properties":{"state":"WA","name":"CHENEY","zip":"99004"}},{"arcs":[[1108,1109,-1098,1110]],"type":"Polygon","properties":{"state":"WA","name":"COLBERT","zip":"99005"}},{"arcs":[[1111,1112,1113,1114,-1099,-1110,1115,1116]],"type":"Polygon","properties":{"state":"WA","name":"DEER PARK","zip":"99006"}},{"arcs":[[1117,1118,1119,1120,-1103,1121]],"type":"Polygon","properties":{"state":"WA","name":"EDWALL","zip":"99008"}},{"arcs":[[-1115,1122,-1100]],"type":"Polygon","properties":{"state":"WA","name":"ELK","zip":"99009"}},{"arcs":[[1123,1124,1125,1126,1127,1128,1129]],"type":"Polygon","properties":{"state":"WA","name":"FAIRFIELD","zip":"99012"}},{"arcs":[[1130,1131,1132,1133,1134]],"type":"Polygon","properties":{"state":"WA","name":"FORD","zip":"99013"}},{"arcs":[[1135,1136,1137,1138,1139]],"type":"Polygon","properties":{"state":"WA","name":"GREENACRES","zip":"99016"}},{"arcs":[[1140,1141,-1108,1142,1143,1144]],"type":"Polygon","properties":{"state":"WA","name":"LAMONT","zip":"99017"}},{"arcs":[[1145,1146,-1125]],"type":"Polygon","properties":{"state":"WA","name":"LATAH","zip":"99018"}},{"arcs":[[1147,1148,1149,-1136,1150]],"type":"Polygon","properties":{"state":"WA","name":"LIBERTY LAKE","zip":"99019"}},{"arcs":[[1151,-1111,-1097,1152,1153,1154]],"type":"Polygon","properties":{"state":"WA","name":"MEAD","zip":"99021"}},{"arcs":[[-1104,-1121,1155,1156]],"type":"Polygon","properties":{"state":"WA","name":"MEDICAL LAKE","zip":"99022"}},{"arcs":[[1157,1158,-1137,-1150,1159,1160]],"type":"Polygon","properties":{"state":"WA","name":"MICA","zip":"99023"}},{"arcs":[[1161,1162,1163,-1154,1164]],"type":"Polygon","properties":{"state":"WA","name":"NEWMAN LAKE","zip":"99025"}},{"arcs":[[1165,1166,1167,-1132,1168,1169,-1117,1170]],"type":"Polygon","properties":{"state":"WA","name":"NINE MILE FALLS","zip":"99026"}},{"arcs":[[-1140,1171,1172,-1163,1173,-1151]],"type":"Polygon","properties":{"state":"WA","name":"OTIS ORCHARDS","zip":"99027"}},{"arcs":[[1174,1175,-1133,-1168,1176,-1156,-1120]],"type":"Polygon","properties":{"state":"WA","name":"REARDAN","zip":"99029"}},{"arcs":[[1177,-1129,1178,-1160,-1149]],"type":"Polygon","properties":{"state":"WA","name":"ROCKFORD","zip":"99030"}},{"arcs":[[1179,-1106,1180,1181,-1127]],"type":"Polygon","properties":{"state":"WA","name":"SPANGLE","zip":"99031"}},{"arcs":[[1182,1183,-1122,-1102,-1142]],"type":"Polygon","properties":{"state":"WA","name":"SPRAGUE","zip":"99032"}},{"arcs":[[1184,1185,1186,-1146,-1124,1187]],"type":"Polygon","properties":{"state":"WA","name":"TEKOA","zip":"99033"}},{"arcs":[[-1131,1188,1189,-1169]],"type":"Polygon","properties":{"state":"WA","name":"TUMTUM","zip":"99034"}},{"arcs":[[-1128,-1182,1190,1191,1192,-1161,-1179]],"type":"Polygon","properties":{"state":"WA","name":"VALLEYFORD","zip":"99036"}},{"arcs":[[1193,1194,-1138,-1159]],"type":"Polygon","properties":{"state":"WA","name":"VERADALE","zip":"99037"}},{"arcs":[[1195,1196,-1134,-1176,1197]],"type":"Polygon","properties":{"state":"WA","name":"WELLPINIT","zip":"99040"}},{"arcs":[[1198,1199,1200,1201]],"type":"Polygon","properties":{"state":"WA","name":"ADDY","zip":"99101"}},{"arcs":[[1202,1203,1204,1205,1206,1207]],"type":"Polygon","properties":{"state":"WA","name":"ALMIRA","zip":"99103"}},{"arcs":[[1208,1209]],"type":"Polygon","properties":{"state":"WA","name":"BENGE","zip":"99105"}},{"arcs":[[1210,1211,1212,1213,1214,1215]],"type":"Polygon","properties":{"state":"WA","name":"BOYDS","zip":"99107"}},{"arcs":[[1216,1217,1218,1219,-1199,1220,1221]],"type":"Polygon","properties":{"state":"WA","name":"CHEWELAH","zip":"99109"}},{"arcs":[[1222,1223,-1112,-1170,-1190]],"type":"Polygon","properties":{"state":"WA","name":"CLAYTON","zip":"99110"}},{"arcs":[[1224,1225,1226,1227,1228,1229,1230,1231]],"type":"Polygon","properties":{"state":"WA","name":"COLFAX","zip":"99111"}},{"arcs":[[1232,1233,1234,1235,1236]],"type":"Polygon","properties":{"state":"WA","name":"COLTON","zip":"99113"}},{"arcs":[[1237,-1221,-1202,1238,1239,1240,1241,1242,1243,1244]],"type":"Polygon","properties":{"state":"WA","name":"COLVILLE","zip":"99114"}},{"arcs":[[-1026,-1037,1245,-988]],"type":"Polygon","properties":{"state":"WA","name":"COULEE CITY","zip":"99115"}},{"arcs":[[-937,-1000,-1002,-1022,-1030,1246,1247,1248,1249,1250,-980,1251]],"type":"Polygon","properties":{"state":"WA","name":"COULEE DAM","zip":"99116"}},{"arcs":[[1252,-1208,1253,1254,1255,1256]],"type":"Polygon","properties":{"state":"WA","name":"CRESTON","zip":"99117"}},{"arcs":[[1257,-1040,1258,1259,-1214,1260,1261]],"type":"Polygon","properties":{"state":"WA","name":"CURLEW","zip":"99118"}},{"arcs":[[1262,1263,-1245,1264]],"type":"Polygon","properties":{"state":"WA","name":"CUSICK","zip":"99119"}},{"arcs":[[-1260,1265,-1215]],"type":"Polygon","properties":{"state":"WA","name":"DANVILLE","zip":"99121"}},{"arcs":[[1266,-1255,1267,1268,-1198,-1175,-1119,1269]],"type":"Polygon","properties":{"state":"WA","name":"DAVENPORT","zip":"99122"}},{"arcs":[[-977,1270,1271,-1035]],"type":"Polygon","properties":{"state":"WA","name":"ELECTRIC CITY","zip":"99123"}},{"arcs":[[1272,1273,-1145,1274,-1228,1275,1276,-1210]],"type":"Polygon","properties":{"state":"WA","name":"ENDICOTT","zip":"99125"}},{"arcs":[[-1241,1277,1278]],"type":"Polygon","properties":{"state":"WA","name":"EVANS","zip":"99126"}},{"arcs":[[1279,1280,1281,-1185]],"type":"Polygon","properties":{"state":"WA","name":"FARMINGTON","zip":"99128"}},{"arcs":[[-1269,1282,1283,1284,-1196]],"type":"Polygon","properties":{"state":"WA","name":"FRUITLAND","zip":"99129"}},{"arcs":[[1285,-1232,1286,-1281,1287]],"type":"Polygon","properties":{"state":"WA","name":"GARFIELD","zip":"99130"}},{"arcs":[[1288,-1200,-1220,1289,1290]],"type":"Polygon","properties":{"state":"WA","name":"GIFFORD","zip":"99131"}},{"arcs":[[-981,-1251,1291,-1206,1292,-1271]],"type":"Polygon","properties":{"state":"WA","name":"GRAND COULEE","zip":"99133"}},{"arcs":[[1293,1294,1295,-1270,-1118,-1184]],"type":"Polygon","properties":{"state":"WA","name":"HARRINGTON","zip":"99134"}},{"arcs":[[-989,-1246,-1036,-1272,-1293,-1205]],"type":"Polygon","properties":{"state":"WA","name":"HARTLINE","zip":"99135"}},{"arcs":[[1296,-1284,1297,-1290,-1219,1298]],"type":"Polygon","properties":{"state":"WA","name":"HUNTERS","zip":"99137"}},{"arcs":[[1299,-1212,1300,1301,1302,-1248]],"type":"Polygon","properties":{"state":"WA","name":"INCHELIUM","zip":"99138"}},{"arcs":[[1303,-1265,-1244,1304,1305]],"type":"Polygon","properties":{"state":"WA","name":"IONE","zip":"99139"}},{"arcs":[[-1249,-1303,1306]],"type":"Polygon","properties":{"state":"WA","name":"KELLER","zip":"99140"}},{"arcs":[[[-1301,-1211,1307,1308,1309]],[[1310,1311,-1278,-1240]]],"type":"MultiPolygon","properties":{"state":"WA","name":"KETTLE FALLS","zip":"99141"}},{"arcs":[[1312,1313,-1276,-1227,1314,1315,1316]],"type":"Polygon","properties":{"state":"WA","name":"LACROSSE","zip":"99143"}},{"arcs":[[1317,-1257]],"type":"Polygon","properties":{"state":"WA","name":"LINCOLN","zip":"99147"}},{"arcs":[[-1224,1318,1319,-1217,1320,1321,-1113]],"type":"Polygon","properties":{"state":"WA","name":"LOON LAKE","zip":"99148"}},{"arcs":[[1322,-1262]],"type":"Polygon","properties":{"state":"WA","name":"MALO","zip":"99150"}},{"arcs":[[-1243,1323,-1305]],"type":"Polygon","properties":{"state":"WA","name":"METALINE FALLS","zip":"99153"}},{"arcs":[[1324,-1165,-1153,-1101,-1123,-1114,-1322,1325,-1263,-1304]],"type":"Polygon","properties":{"state":"WA","name":"NEWPORT","zip":"99156"}},{"arcs":[[-1309,1326]],"type":"Polygon","properties":{"state":"WA","name":"NORTHPORT","zip":"99157"}},{"arcs":[[1327,1328,-1186,-1282,-1287,-1231]],"type":"Polygon","properties":{"state":"WA","name":"OAKESDALE","zip":"99158"}},{"arcs":[[-1204,1329,-1295,1330,-984]],"type":"Polygon","properties":{"state":"WA","name":"ODESSA","zip":"99159"}},{"arcs":[[-1286,1331,1332,-1225]],"type":"Polygon","properties":{"state":"WA","name":"PALOUSE","zip":"99161"}},{"arcs":[[1333,-1315,-1226,-1333,1334,-1236]],"type":"Polygon","properties":{"state":"WA","name":"PULLMAN","zip":"99163"}},{"arcs":[[-1038,-1258,-1323,-1261,-1213,-1300,-1247,-1029]],"type":"Polygon","properties":{"state":"WA","name":"REPUBLIC","zip":"99166"}},{"arcs":[[-1289,1335,-1311,-1239,-1201]],"type":"Polygon","properties":{"state":"WA","name":"RICE","zip":"99167"}},{"arcs":[[-997,-985,-1331,-1294,-1183,-1141,-1274,1336,1337,-1034]],"type":"Polygon","properties":{"state":"WA","name":"RITZVILLE","zip":"99169"}},{"arcs":[[-1329,1338,1339,-1143,-1107,-1180,-1126,-1147,-1187]],"type":"Polygon","properties":{"state":"WA","name":"ROSALIA","zip":"99170"}},{"arcs":[[-1144,-1340,1340,-1229,-1275]],"type":"Polygon","properties":{"state":"WA","name":"SAINT JOHN","zip":"99171"}},{"arcs":[[-1285,-1297,1341,-1319,-1223,-1189,-1135,-1197]],"type":"Polygon","properties":{"state":"WA","name":"SPRINGDALE","zip":"99173"}},{"arcs":[[-1341,-1339,-1328,-1230]],"type":"Polygon","properties":{"state":"WA","name":"THORNTON","zip":"99176"}},{"arcs":[[1342,-1233,1343]],"type":"Polygon","properties":{"state":"WA","name":"UNIONTOWN","zip":"99179"}},{"arcs":[[-1222,-1238,-1264,-1326,-1321]],"type":"Polygon","properties":{"state":"WA","name":"USK","zip":"99180"}},{"arcs":[[-1342,-1299,-1218,-1320]],"type":"Polygon","properties":{"state":"WA","name":"VALLEY","zip":"99181"}},{"arcs":[[-1253,-1318,-1256,-1267,-1296,-1330,-1203]],"type":"Polygon","properties":{"state":"WA","name":"WILBUR","zip":"99185"}},{"arcs":[[1344,1345,1346,1347]],"type":"Polygon","properties":{"state":"WA","name":"SPOKANE","zip":"99201"}},{"arcs":[[1348,1349,1350,1351,-1345,1352,1353]],"type":"Polygon","properties":{"state":"WA","name":"SPOKANE","zip":"99202"}},{"arcs":[[1354,1355,-1351,1356]],"type":"Polygon","properties":{"state":"WA","name":"SPOKANE","zip":"99203"}},{"arcs":[[1357,-1346,-1352,-1356]],"type":"Polygon","properties":{"state":"WA","name":"SPOKANE","zip":"99204"}},{"arcs":[[1358,-1348,1359,-1166,1360]],"type":"Polygon","properties":{"state":"WA","name":"SPOKANE","zip":"99205"}},{"arcs":[[1361,1362,1363,1364,-1194,-1158,-1193]],"type":"Polygon","properties":{"state":"WA","name":"SPOKANE","zip":"99206"}},{"arcs":[[1365,-1353,-1359,1366]],"type":"Polygon","properties":{"state":"WA","name":"SPOKANE","zip":"99207"}},{"arcs":[[1367,-1367,-1361,-1171,-1116,-1109,-1152]],"type":"Polygon","properties":{"state":"WA","name":"SPOKANE","zip":"99208"}},{"arcs":[[1368,-1349,1369,-1363]],"type":"Polygon","properties":{"state":"WA","name":"SPOKANE","zip":"99212"}},{"arcs":[[-1365,1370,-1172,-1139,-1195]],"type":"Polygon","properties":{"state":"WA","name":"SPOKANE","zip":"99216"}},{"arcs":[[-1354,-1366,-1368,-1155,-1164,-1173,-1371,-1364,-1370]],"type":"Polygon","properties":{"state":"WA","name":"SPOKANE","zip":"99217"}},{"arcs":[[-1192,1371,-1357,-1350,-1369,-1362]],"type":"Polygon","properties":{"state":"WA","name":"SPOKANE","zip":"99223"}},{"arcs":[[-1191,-1181,-1105,-1157,-1177,-1167,-1360,-1347,-1358,-1355,-1372]],"type":"Polygon","properties":{"state":"WA","name":"SPOKANE","zip":"99224"}},{"arcs":[[1372,1373,1374,1375,1376,1377,1378,1379,-1313,1380,1381]],"type":"Polygon","properties":{"state":"WA","name":"PASCO","zip":"99301"}},{"arcs":[[1382,1383,-9,1384,1385]],"type":"Polygon","properties":{"state":"WA","name":"BENTON CITY","zip":"99320"}},{"arcs":[[1386,1387,1388]],"type":"Polygon","properties":{"state":"WA","name":"BEVERLY","zip":"99321"}},{"arcs":[[1389,1390,1391,-848,-22,-1078,1392]],"type":"Polygon","properties":{"state":"WA","name":"BICKLETON","zip":"99322"}},{"arcs":[[1393,1394,1395,1396,-1379]],"type":"Polygon","properties":{"state":"WA","name":"CONNELL","zip":"99326"}},{"arcs":[[1397,1398,1399]],"type":"Polygon","properties":{"state":"WA","name":"DAYTON","zip":"99328"}},{"arcs":[[1400,-1377]],"type":"Polygon","properties":{"state":"WA","name":"ELTOPIA","zip":"99330"}},{"arcs":[[1401,1402,1403,1404]],"type":"Polygon","properties":{"state":"WA","name":"KENNEWICK","zip":"99336"}},{"arcs":[[1405,-1405,1406]],"type":"Polygon","properties":{"state":"WA","name":"KENNEWICK","zip":"99337"}},{"arcs":[[1407,1408,1409,-1383,1410,-1402,-1406,1411]],"type":"Polygon","properties":{"state":"WA","name":"KENNEWICK","zip":"99338"}},{"arcs":[[1412,-1032,-1338,1413,-1396]],"type":"Polygon","properties":{"state":"WA","name":"LIND","zip":"99341"}},{"arcs":[[-1376,1414,1415,-1394,-1378,-1401]],"type":"Polygon","properties":{"state":"WA","name":"MESA","zip":"99343"}},{"arcs":[[-1416,1416,1417,1418,-961,-1033,-1413,-1395]],"type":"Polygon","properties":{"state":"WA","name":"OTHELLO","zip":"99344"}},{"arcs":[[1419,1420,1421,-1390]],"type":"Polygon","properties":{"state":"WA","name":"PATERSON","zip":"99345"}},{"arcs":[[-1421,1422,-1409,1423]],"type":"Polygon","properties":{"state":"WA","name":"PLYMOUTH","zip":"99346"}},{"arcs":[[1424,-1316,-1334,-1235,1425,1426,-1400]],"type":"Polygon","properties":{"state":"WA","name":"POMEROY","zip":"99347"}},{"arcs":[[1427,1428,-1382]],"type":"Polygon","properties":{"state":"WA","name":"PRESCOTT","zip":"99348"}},{"arcs":[[-1388,1429,-1418,1430]],"type":"Polygon","properties":{"state":"WA","name":"MATTAWA","zip":"99349"}},{"arcs":[[-1067,-1091,-1081,1431,-10,-1384,-1410,-1423,-1420,-1393,-1077]],"type":"Polygon","properties":{"state":"WA","name":"PROSSER","zip":"99350"}},{"arcs":[[1432,-12,1433,-1403,-1411,-1386]],"type":"Polygon","properties":{"state":"WA","name":"RICHLAND","zip":"99352"}},{"arcs":[[-1385,-8,-1433]],"type":"Polygon","properties":{"state":"WA","name":"WEST RICHLAND","zip":"99353"}},{"arcs":[[-846,-1392,1434]],"type":"Polygon","properties":{"state":"WA","name":"ROOSEVELT","zip":"99356"}},{"arcs":[[-1014,-962,-1419,-1430,-1387,1435]],"type":"Polygon","properties":{"state":"WA","name":"ROYAL CITY","zip":"99357"}},{"arcs":[[1436,-1374,1437]],"type":"Polygon","properties":{"state":"WA","name":"TOUCHET","zip":"99360"}},{"arcs":[[1438,1439,-1428,-1381,-1317,-1425,-1399]],"type":"Polygon","properties":{"state":"WA","name":"WAITSBURG","zip":"99361"}},{"arcs":[[-1373,-1429,-1440,1440,-1438]],"type":"Polygon","properties":{"state":"WA","name":"WALLA WALLA","zip":"99362"}},{"arcs":[[-1397,-1414,-1337,-1273,-1209,-1277,-1314,-1380]],"type":"Polygon","properties":{"state":"WA","name":"WASHTUCNA","zip":"99371"}},{"arcs":[[1441,1442]],"type":"Polygon","properties":{"state":"WA","name":"ANATONE","zip":"99401"}},{"arcs":[[1443,-1442,1444,1445]],"type":"Polygon","properties":{"state":"WA","name":"ASOTIN","zip":"99402"}},{"arcs":[[1446,-1426,-1234,-1343,1447,-1445,-1443,-1444]],"type":"Polygon","properties":{"state":"WA","name":"CLARKSTON","zip":"99403"}}]}},"arcs":[[[2342,24669],[-180,0]],[[2162,24669],[4,298]],[[2166,24967],[5,68]],[[2171,25035],[855,0]],[[3026,25035],[149,-282],[-72,-71]],[[3103,24682],[-595,-15]],[[2508,24667],[-166,2]],[[4157,22337],[-14,8]],[[4143,22345],[-135,-5]],[[4008,22340],[-153,71],[-9,191]],[[3846,22602],[243,84],[171,-311]],[[4260,22375],[-103,-38]],[[2499,22002],[0,353]],[[2499,22355],[104,5],[-23,102]],[[2580,22462],[410,28]],[[2990,22490],[189,-18]],[[3179,22472],[86,-15],[-117,-41]],[[3148,22416],[0,-5]],[[3148,22411],[-131,3],[0,-122],[185,-11]],[[3202,22281],[311,-2],[49,-94]],[[3562,22185],[-31,-150],[-99,-36]],[[3432,21999],[-9,0]],[[3423,21999],[-649,3]],[[2774,22002],[-212,0]],[[2562,22002],[-63,0]],[[3143,24555],[-40,127]],[[3026,25035],[725,0]],[[3751,25035],[-9,-236]],[[3742,24799],[-112,-79],[-212,178],[-126,-221],[40,-56]],[[3332,24621],[-153,-76]],[[3179,24545],[-36,10]],[[1923,23245],[-23,0]],[[1900,23245],[0,104]],[[1900,23349],[54,-12]],[[1954,23337],[-4,-77]],[[1950,23260],[-27,-15]],[[1968,23334],[-18,-79]],[[1950,23255],[0,5]],[[1954,23337],[-4,7]],[[1950,23344],[18,-10]],[[1869,23248],[0,5]],[[1869,23253],[0,81]],[[1869,23334],[9,5]],[[1878,23339],[9,3]],[[1887,23342],[13,7]],[[1900,23245],[-31,3]],[[1986,23647],[-5,-71]],[[1981,23576],[-22,38],[-9,23],[18,10]],[[1968,23647],[18,0]],[[1999,23578],[-18,-2]],[[1986,23647],[18,13]],[[2004,23660],[4,0]],[[2008,23660],[-9,-82]],[[1999,23532],[-22,11]],[[1977,23543],[4,33]],[[1999,23578],[28,-2]],[[2027,23576],[13,-8]],[[2040,23568],[-9,-43]],[[2031,23525],[-32,7]],[[2027,23629],[0,-53]],[[2008,23660],[19,-31]],[[2067,23614],[-9,-38]],[[2058,23576],[-18,-8]],[[2027,23629],[40,-2]],[[2067,23627],[0,-13]],[[2180,23314],[-41,-38]],[[2139,23276],[-40,25]],[[2099,23301],[-9,38]],[[2090,23339],[27,-2]],[[2117,23337],[63,-23]],[[1941,23733],[9,46]],[[1950,23779],[49,0]],[[1999,23779],[-4,-41]],[[1995,23738],[-54,-5]],[[2008,23858],[-4,-41]],[[2004,23817],[-5,-5]],[[1999,23812],[-54,8]],[[1945,23820],[-4,13]],[[1941,23833],[9,38]],[[1950,23871],[36,12],[13,-12],[9,-13]],[[2261,23695],[-99,-96]],[[2162,23599],[-36,112]],[[2126,23711],[135,-16]],[[2454,23779],[-4,-71]],[[2450,23708],[-189,-13]],[[2126,23711],[-5,0]],[[2121,23711],[9,66]],[[2130,23777],[126,2]],[[2256,23779],[135,-2]],[[2391,23777],[63,2]],[[1851,23779],[-5,0]],[[1846,23779],[-22,0]],[[1824,23779],[22,54]],[[1846,23833],[5,-54]],[[1999,23812],[0,-33]],[[1950,23779],[-27,0]],[[1923,23779],[22,41]],[[2612,23070],[-108,-216],[49,-95]],[[2553,22759],[-58,0]],[[2495,22759],[-18,0]],[[2477,22759],[-23,301],[-418,167]],[[2036,23227],[103,49]],[[2180,23314],[85,46]],[[2265,23360],[306,-77]],[[2571,23283],[72,-20]],[[2643,23263],[-31,-193]],[[1869,23253],[-68,58]],[[1801,23311],[68,23]],[[2153,23553],[9,46]],[[2450,23708],[4,-3]],[[2454,23705],[0,-71]],[[2454,23634],[-67,8]],[[2387,23642],[-176,-125]],[[2211,23517],[-58,36]],[[1873,23807],[0,-28]],[[1873,23779],[-22,0]],[[1846,23833],[27,66]],[[1873,23899],[32,-21]],[[1905,23878],[-32,-45]],[[1873,23833],[0,-26]],[[2090,23459],[-59,66]],[[2058,23576],[9,-3]],[[2067,23573],[86,-20]],[[2211,23517],[41,-7]],[[2252,23510],[-5,-89]],[[2247,23421],[-58,-13]],[[2189,23408],[-99,51]],[[1927,23759],[-9,20]],[[1918,23779],[5,0]],[[1941,23733],[-18,3]],[[1923,23736],[4,23]],[[2067,23573],[86,26]],[[2153,23599],[9,0]],[[2004,23413],[-5,-76]],[[1999,23337],[-31,-3]],[[1950,23344],[9,92]],[[1959,23436],[27,-15]],[[1986,23421],[18,-8]],[[1887,23342],[18,74]],[[1905,23416],[36,20]],[[1941,23436],[18,0]],[[1968,23647],[0,53]],[[1968,23700],[31,3]],[[1999,23703],[5,-43]],[[2008,23733],[-9,-30]],[[1968,23700],[-45,36]],[[1995,23738],[13,-5]],[[1918,23779],[-13,0]],[[1905,23779],[-32,28]],[[1873,23833],[68,0]],[[1905,23878],[4,16]],[[1909,23894],[32,-18]],[[1941,23876],[9,-5]],[[2090,23339],[-27,46]],[[2063,23385],[9,64]],[[2072,23449],[18,10]],[[2189,23408],[-72,-71]],[[2099,23301],[-100,36]],[[2004,23413],[59,-28]],[[1905,23779],[-32,0]],[[2265,23360],[-18,61]],[[2252,23510],[135,132]],[[2454,23634],[-9,-104],[275,5]],[[2720,23535],[-144,-122],[-5,-130]],[[1950,23255],[0,-10]],[[1950,23245],[-27,0]],[[2063,23657],[4,-30]],[[2008,23733],[55,-30]],[[2063,23703],[0,-46]],[[2153,23599],[-36,0]],[[2117,23599],[-54,58]],[[2063,23703],[58,8]],[[1941,23436],[-5,33]],[[1936,23469],[23,28]],[[1959,23497],[13,2]],[[1972,23499],[18,-28]],[[1990,23471],[-4,-50]],[[1999,23532],[9,-66]],[[2008,23466],[-18,5]],[[1972,23499],[5,44]],[[2008,23466],[64,-17]],[[1747,23319],[14,188],[76,-127],[-90,-61]],[[2004,23817],[113,-40]],[[2117,23777],[13,0]],[[2117,23599],[-50,15]],[[2027,23232],[-77,13]],[[2036,23227],[-9,5]],[[1860,23606],[9,10]],[[1869,23616],[4,0]],[[1873,23616],[5,-7]],[[1878,23609],[-14,-8]],[[1864,23601],[-4,5]],[[1873,23616],[0,16]],[[1873,23632],[14,10]],[[1887,23642],[0,-26]],[[1887,23616],[-14,0]],[[1873,23672],[0,-20]],[[1873,23652],[-22,0]],[[1851,23652],[0,23]],[[1851,23675],[0,25]],[[1851,23700],[22,0]],[[1873,23700],[0,-28]],[[1882,23599],[0,-5]],[[1882,23594],[-13,2]],[[1869,23596],[-5,5]],[[1878,23609],[4,-10]],[[1873,23672],[59,-2]],[[1932,23670],[-27,-15],[-18,-6],[-14,3]],[[1864,23545],[5,-30]],[[1869,23515],[-23,-3]],[[1846,23512],[0,66]],[[1846,23578],[14,-12]],[[1860,23566],[4,-21]],[[1810,23677],[41,-2]],[[1851,23652],[-41,25]],[[1869,23510],[0,5]],[[1864,23545],[18,26]],[[1882,23571],[18,-5]],[[1900,23566],[0,-56]],[[1900,23510],[-31,0]],[[1869,23616],[-18,0]],[[1851,23616],[0,33]],[[1851,23649],[22,-17]],[[1909,23616],[-22,0]],[[1887,23642],[22,-26]],[[1873,23700],[45,-2]],[[1918,23698],[14,-28]],[[1833,23553],[-18,5]],[[1815,23558],[22,25]],[[1837,23583],[-4,-30]],[[1810,23677],[14,23]],[[1824,23700],[27,0]],[[1945,23505],[-36,0]],[[1909,23505],[-9,5]],[[1900,23566],[9,5]],[[1909,23571],[36,-66]],[[1851,23616],[-23,13],[9,26],[14,-6]],[[1860,23606],[-9,10]],[[1909,23599],[-27,0]],[[1909,23616],[0,-17]],[[1873,23700],[0,36]],[[1873,23736],[36,-3]],[[1909,23733],[9,-35]],[[1833,23510],[0,43]],[[1837,23583],[9,-5]],[[1846,23512],[-13,-2]],[[1851,23700],[-5,79]],[[1873,23779],[0,-43]],[[1882,23594],[0,-23]],[[1860,23566],[9,30]],[[1833,23510],[-9,-3]],[[1824,23507],[-9,51]],[[1909,23599],[0,-28]],[[1869,23510],[0,-33]],[[1869,23477],[-23,2]],[[1846,23479],[-22,28]],[[1869,23416],[0,48]],[[1869,23464],[18,0]],[[1887,23464],[0,-5],[4,-31],[0,-12]],[[1891,23416],[-22,0]],[[1927,23759],[-18,-26]],[[1869,23477],[0,-13]],[[1869,23416],[0,-16]],[[1869,23400],[-23,79]],[[1909,23505],[23,-36]],[[1932,23469],[-45,-5]],[[1824,23700],[0,79]],[[1936,23469],[-4,0]],[[1945,23505],[14,-8]],[[1905,23416],[-14,0]],[[1878,23339],[-9,61]],[[1977,23970],[-27,8]],[[1950,23978],[18,53]],[[1968,24031],[9,-61]],[[1914,23929],[-9,31]],[[1905,23960],[45,18]],[[1977,23970],[4,-15]],[[1981,23955],[-31,-28]],[[1950,23927],[-36,2]],[[1950,23927],[-9,-51]],[[1909,23894],[5,35]],[[1986,23955],[-5,0]],[[1968,24031],[45,-8]],[[2013,24023],[32,59]],[[2045,24082],[9,-8]],[[2054,24074],[31,-89]],[[2085,23985],[-90,-35]],[[1995,23950],[-9,5]],[[1986,23955],[22,-97]],[[2036,24672],[-113,63]],[[1923,24735],[4,0]],[[1927,24735],[109,-63]],[[1729,24476],[-31,-13]],[[1698,24463],[-117,56],[144,-41]],[[1725,24478],[4,-2]],[[2045,24082],[0,20]],[[2045,24102],[-122,48]],[[1923,24150],[31,163]],[[1954,24313],[226,0]],[[2180,24313],[234,0]],[[2414,24313],[-27,-178]],[[2387,24135],[-293,-30]],[[2094,24105],[-40,-31]],[[2454,23779],[59,0]],[[2513,23779],[103,3]],[[2616,23782],[-162,-77]],[[1689,24807],[81,-8],[-36,-74]],[[1734,24725],[-45,82]],[[1689,24807],[-68,-64],[-9,79]],[[1612,24822],[122,96]],[[1734,24918],[49,-17]],[[1783,24901],[131,-31]],[[1914,24870],[13,-135]],[[1923,24735],[-54,-91]],[[1869,24644],[-9,0]],[[1860,24644],[-113,25]],[[1747,24669],[-13,56]],[[1590,24954],[-36,-66]],[[1554,24888],[-45,122],[193,25]],[[1702,25035],[-4,-17]],[[1698,25018],[-108,-64]],[[1783,24506],[-22,34]],[[1761,24540],[-68,58],[81,-20],[-27,91]],[[1860,24644],[-77,-138]],[[1869,24644],[40,-148]],[[1909,24496],[-126,10]],[[1756,24003],[86,2]],[[1842,24005],[-5,-94],[-81,92]],[[2414,24313],[0,115],[-230,109],[158,132]],[[2508,24667],[50,-117]],[[2558,24550],[-122,-44],[99,-68],[45,102]],[[2580,24540],[280,-62]],[[2860,24478],[49,-167]],[[2909,24311],[-495,2]],[[1536,24260],[27,-13]],[[1563,24247],[121,-81]],[[1684,24166],[-22,-33]],[[1662,24133],[-126,127]],[[1698,24967],[-108,-13]],[[1698,25018],[0,-51]],[[2981,24176],[-184,-188]],[[2797,23988],[-239,-13]],[[2558,23975],[0,160],[-171,0]],[[2909,24311],[72,-135]],[[1914,24870],[40,59]],[[1954,24929],[32,22]],[[1986,24951],[81,6]],[[2067,24957],[99,10]],[[2162,24669],[-126,3]],[[1441,24738],[14,-66]],[[1455,24672],[-131,-21],[117,87]],[[1783,24901],[90,114]],[[1873,25015],[81,-86]],[[1698,24967],[36,-49]],[[1612,24822],[-58,66]],[[1725,24097],[27,-94]],[[1752,24003],[-95,71]],[[1657,24074],[45,-13]],[[1702,24061],[23,36]],[[1378,24471],[-144,63],[-5,112],[149,-175]],[[2391,23777],[-40,104],[162,-102]],[[2558,23975],[-266,-8]],[[2292,23967],[-49,13]],[[2243,23980],[-131,81]],[[2112,24061],[-18,44]],[[1657,24074],[5,59]],[[1684,24166],[18,-105]],[[1729,24476],[14,-81]],[[1743,24395],[-45,68]],[[2112,24061],[-27,-76]],[[1756,24003],[-4,0]],[[1725,24097],[117,-92]],[[1450,24438],[-9,157],[63,-127],[-54,-30]],[[1702,25035],[198,0]],[[1900,25035],[-27,-20]],[[1986,24951],[86,84],[-5,-78]],[[2580,24540],[-22,10]],[[3143,24555],[-283,-77]],[[1986,24046],[59,56]],[[2013,24023],[-27,23]],[[1846,24135],[77,15]],[[1986,24046],[-140,89]],[[2117,23777],[-27,58]],[[2090,23835],[153,145]],[[2292,23967],[-36,-188]],[[1981,24402],[-112,38],[22,-127]],[[1891,24313],[-49,-5]],[[1842,24308],[-99,87]],[[1725,24478],[36,62]],[[1909,24496],[72,-94]],[[1954,24313],[-63,0]],[[1981,24402],[199,-89]],[[1873,23899],[32,61]],[[1536,24260],[45,79],[31,48],[122,-74],[-171,-66]],[[1441,24738],[108,-51],[-94,-15]],[[1819,24265],[9,-26]],[[1828,24239],[-72,-50],[95,-125],[-140,132],[108,69]],[[2815,23782],[4,-188]],[[2819,23594],[-99,-59]],[[2616,23782],[199,0]],[[2090,23835],[-95,115]],[[1846,24135],[-18,104]],[[1819,24265],[23,43]],[[2797,23988],[18,-206]],[[1900,25035],[271,0]],[[2193,22836],[0,-122]],[[2193,22714],[-171,15]],[[2022,22729],[50,23]],[[2072,22752],[31,132]],[[2103,22884],[90,-48]],[[315,23978],[-4,172],[171,-78],[-167,-94]],[[1594,23647],[23,10]],[[1617,23657],[36,0]],[[1653,23657],[13,-51],[-49,-2],[-23,43]],[[1450,23517],[72,138]],[[1522,23655],[0,5]],[[1522,23660],[63,-26]],[[1585,23634],[45,-58]],[[1630,23576],[-9,-16]],[[1621,23560],[-4,-12]],[[1617,23548],[-18,-26]],[[1599,23522],[-90,-28]],[[1509,23494],[-59,23]],[[1621,23560],[23,-2]],[[1644,23558],[-27,-10]],[[1590,23700],[-41,23]],[[1549,23723],[32,51]],[[1581,23774],[9,-74]],[[1081,23606],[-113,0],[18,265]],[[986,23871],[234,0]],[[1220,23871],[172,7]],[[1392,23878],[63,-66]],[[1455,23812],[-95,-208]],[[1360,23604],[-279,2]],[[2193,22836],[5,71],[-122,153],[-40,63]],[[2036,23123],[-9,109]],[[2477,22759],[-216,-48]],[[2261,22711],[-68,3]],[[1563,23967],[-41,-51]],[[1522,23916],[-31,16]],[[1491,23932],[18,117]],[[1509,24049],[54,-82]],[[617,24143],[-378,38],[-36,-84]],[[203,24097],[-153,114],[288,72]],[[338,24283],[274,-105]],[[612,24178],[5,-35]],[[1608,23103],[-23,-59]],[[1585,23044],[-4,10]],[[1581,23054],[4,28]],[[1585,23082],[23,21]],[[1972,22739],[-184,89]],[[1788,22828],[54,135]],[[1842,22963],[108,-38]],[[1950,22925],[153,-41]],[[2072,22752],[-91,-13]],[[1981,22739],[-9,0]],[[1536,23334],[-27,8]],[[1509,23342],[-5,7]],[[1504,23349],[0,46]],[[1504,23395],[131,0]],[[1635,23395],[-77,-66]],[[1558,23329],[-22,5]],[[2022,22729],[-41,10]],[[72,23914],[131,183]],[[617,24143],[104,-54],[-343,-203]],[[378,23886],[131,-79],[-153,-277]],[[356,23530],[-63,0]],[[293,23530],[-54,216],[-167,168]],[[1675,23324],[-54,5]],[[1621,23329],[18,66]],[[1639,23395],[5,0]],[[1644,23395],[58,0]],[[1702,23395],[-27,-71]],[[1675,23324],[0,-81],[-54,86]],[[2004,22442],[-45,114]],[[1959,22556],[171,23]],[[2130,22579],[-126,-137]],[[1630,23576],[14,-18]],[[1842,22963],[-9,8]],[[1833,22971],[54,96]],[[1887,23067],[13,3]],[[1900,23070],[45,0]],[[1945,23070],[5,-145]],[[1509,24049],[22,10]],[[1531,24059],[41,-61]],[[1572,23998],[-9,-31]],[[1698,23756],[13,10]],[[1711,23766],[23,-22]],[[1734,23744],[-36,12]],[[1711,23766],[-31,49]],[[1680,23815],[-5,74],[50,12],[9,-157]],[[1518,23291],[18,43]],[[1558,23329],[5,-125],[-63,6],[18,81]],[[1873,23227],[-4,18]],[[1869,23245],[0,3]],[[1900,23245],[0,-15]],[[1900,23230],[-27,-3]],[[1657,22604],[-58,28]],[[1599,22632],[27,107]],[[1626,22739],[94,0]],[[1720,22739],[252,0]],[[2261,22711],[49,-58]],[[2310,22653],[-180,-74]],[[1959,22556],[-194,71]],[[1765,22627],[-108,-23]],[[2004,22442],[149,-89]],[[2153,22353],[-212,0]],[[1941,22353],[-104,155]],[[1837,22508],[-76,61]],[[1761,22569],[4,58]],[[1644,23395],[72,61]],[[1716,23456],[-14,-61]],[[1945,23070],[9,56]],[[1954,23126],[82,-3]],[[2495,22759],[-86,-198],[-99,92]],[[1180,24138],[40,-267]],[[986,23871],[-94,180],[130,0],[-9,82]],[[1013,24133],[167,5]],[[986,23871],[-608,15]],[[612,24178],[401,-45]],[[1576,23822],[-54,94]],[[1572,23998],[81,-107],[-77,-69]],[[1504,23395],[5,99]],[[1599,23522],[18,13],[126,-28],[-27,-51]],[[1639,23395],[-4,0]],[[1392,23983],[58,73]],[[1450,24056],[90,100],[-9,-97]],[[1491,23932],[-99,51]],[[1617,23657],[-27,43]],[[1581,23774],[99,41]],[[1698,23756],[0,-10],[-9,-33],[-50,-15],[9,-8],[5,-33]],[[1851,23156],[0,13]],[[1851,23169],[-5,43]],[[1846,23212],[27,15]],[[1900,23230],[0,-74]],[[1900,23156],[-49,0]],[[1923,23245],[40,-89]],[[1963,23156],[-63,0]],[[1851,23110],[0,46]],[[1900,23156],[0,-46]],[[1900,23110],[-49,0]],[[1900,23070],[0,40]],[[1963,23156],[-9,-30]],[[1887,23067],[-36,10]],[[1851,23077],[0,33]],[[1392,23878],[0,105]],[[1576,23822],[-72,-139],[0,172],[-49,-43]],[[2499,22355],[-346,-2]],[[2553,22759],[77,-68],[-50,-229]],[[1450,23517],[-54,0]],[[1396,23517],[-68,-10]],[[1328,23507],[194,148]],[[72,23914],[-72,483],[338,-114]],[[1180,24138],[90,61],[-63,-41],[243,-102]],[[1522,23660],[27,63]],[[1594,23647],[-9,-13]],[[1833,22971],[-41,96]],[[1792,23067],[-27,15]],[[1765,23082],[0,33]],[[1765,23115],[27,-17]],[[1792,23098],[32,-31]],[[1824,23067],[27,10]],[[1666,23146],[-18,-3]],[[1648,23143],[27,31]],[[1675,23174],[5,0]],[[1680,23174],[-14,-28]],[[1518,23291],[-9,51]],[[1792,23235],[0,-13]],[[1792,23222],[-4,-2]],[[1788,23220],[0,5]],[[1788,23225],[-5,28]],[[1783,23253],[0,2]],[[1783,23255],[9,-20]],[[1783,23253],[-18,-8]],[[1765,23245],[0,15]],[[1765,23260],[5,5]],[[1770,23265],[13,-10]],[[1792,23169],[0,33]],[[1792,23202],[0,20]],[[1792,23222],[23,8]],[[1815,23230],[4,0]],[[1819,23230],[5,-5]],[[1824,23225],[4,-59]],[[1828,23166],[-36,3]],[[1788,23225],[-54,7]],[[1734,23232],[0,13]],[[1734,23245],[31,0]],[[1734,23245],[-36,-10]],[[1698,23235],[13,30]],[[1711,23265],[54,-5]],[[1711,23265],[59,0]],[[1792,23169],[-27,0]],[[1765,23169],[5,2]],[[1770,23171],[0,31]],[[1770,23202],[22,0]],[[1734,23176],[0,26]],[[1734,23202],[0,28]],[[1734,23230],[0,2]],[[1788,23220],[-18,-18]],[[1770,23171],[-36,5]],[[1851,23250],[0,-2]],[[1851,23248],[-32,-18]],[[1819,23230],[32,20]],[[1792,23235],[23,-5]],[[1869,23245],[-18,3]],[[1851,23250],[-50,61]],[[1846,23212],[-22,13]],[[1666,23146],[18,-36],[14,-7],[4,7]],[[1702,23110],[36,-2]],[[1738,23108],[27,-26]],[[1792,23067],[-103,-119]],[[1689,22948],[-54,15]],[[1635,22963],[-50,81]],[[1608,23103],[40,40]],[[1738,23108],[5,18]],[[1743,23126],[22,12]],[[1765,23138],[0,-23]],[[1702,23110],[18,13]],[[1720,23123],[23,3]],[[1851,23169],[-23,-3]],[[1765,23138],[0,31]],[[1792,23169],[0,-71]],[[1828,23166],[-4,-99]],[[1734,23230],[-41,2]],[[1693,23232],[5,3]],[[1734,23202],[-54,-3]],[[1680,23199],[13,33]],[[1734,23176],[-14,8]],[[1720,23184],[-40,-10]],[[1675,23174],[5,25]],[[1720,23184],[0,-61]],[[1482,22978],[18,-79]],[[1500,22899],[-77,-20]],[[1423,22879],[0,125]],[[1423,23004],[0,22]],[[1423,23026],[9,6]],[[1432,23032],[45,0]],[[1477,23032],[5,-54]],[[1423,23004],[-230,35]],[[1193,23039],[0,31]],[[1193,23070],[99,12]],[[1292,23082],[109,87],[-64,-117],[73,81],[13,-107]],[[1477,23032],[5,0]],[[1482,23032],[54,7]],[[1536,23039],[-54,-61]],[[1432,23032],[45,73]],[[1477,23105],[5,-73]],[[1225,22874],[0,43]],[[1225,22917],[-32,79]],[[1193,22996],[0,43]],[[1423,22879],[-36,-3]],[[1387,22876],[-162,-2]],[[1635,22963],[-99,-46]],[[1536,22917],[-36,-18]],[[1536,23039],[45,15]],[[1477,23105],[108,-23]],[[820,22940],[-81,3],[13,-87]],[[752,22856],[-203,-2]],[[549,22854],[136,91]],[[685,22945],[63,125],[-54,165]],[[694,23235],[40,84]],[[734,23319],[113,18]],[[847,23337],[-86,-290],[59,-107]],[[1482,23329],[-54,36]],[[1428,23365],[58,33]],[[1486,23398],[-4,-69]],[[644,23416],[-122,-138]],[[522,23278],[-103,69],[94,183]],[[513,23530],[221,-18]],[[734,23512],[-90,-96]],[[1315,23365],[81,152]],[[1504,23349],[-18,49]],[[1428,23365],[-50,-18]],[[1378,23347],[-9,23]],[[1369,23370],[104,71],[-158,-76]],[[1513,22739],[-18,-97],[-297,67]],[[1198,22709],[198,83]],[[1396,22792],[117,-53]],[[1513,22518],[-18,-31]],[[1495,22487],[-112,61],[-68,-96]],[[1315,22452],[-135,76],[67,-48]],[[1247,22480],[-180,99]],[[1067,22579],[-4,191]],[[1063,22770],[63,0]],[[1126,22770],[-45,-67],[117,6]],[[1513,22739],[95,0]],[[1608,22739],[18,0]],[[1599,22632],[-86,-114]],[[1684,22548],[-27,56]],[[1761,22569],[-77,-21]],[[509,23095],[-63,-66]],[[446,23029],[-9,48]],[[437,23077],[72,18]],[[437,23077],[-5,0]],[[432,23077],[-9,69]],[[423,23146],[104,43]],[[527,23189],[27,13]],[[554,23202],[-45,-107]],[[1004,22851],[-22,-81]],[[982,22770],[-126,0]],[[856,22770],[-104,86]],[[820,22940],[184,-89]],[[1274,22391],[-27,89]],[[1315,22452],[-41,-61]],[[1225,22917],[-221,-48]],[[1004,22869],[-103,79],[72,12],[-5,260]],[[968,23220],[63,7]],[[1031,23227],[63,-160]],[[1094,23067],[0,-96],[99,25]],[[1635,22503],[-50,-18]],[[1585,22485],[-31,2]],[[1554,22487],[-59,0]],[[1513,22518],[122,-15]],[[1410,23271],[-100,35]],[[1310,23306],[68,41]],[[1482,23329],[-72,-58]],[[856,22770],[-203,0]],[[653,22770],[-144,-64]],[[509,22706],[-23,117],[18,15],[45,16]],[[1229,23352],[-67,56]],[[1162,23408],[-59,89]],[[1103,23497],[158,-41]],[[1261,23456],[-32,-104]],[[455,22998],[-18,0]],[[437,22998],[0,16]],[[437,23014],[9,15]],[[554,23202],[9,13]],[[563,23215],[131,20]],[[685,22945],[-230,53]],[[563,23215],[-59,48]],[[504,23263],[18,15]],[[644,23416],[90,-97]],[[1103,23497],[-22,109]],[[1360,23604],[-99,-148]],[[1094,23067],[99,3]],[[968,23220],[32,185],[99,-106]],[[1099,23299],[-68,-72]],[[401,23232],[103,31]],[[527,23189],[-113,5]],[[414,23194],[-13,38]],[[1004,22869],[0,-18]],[[847,23337],[90,175],[-203,0]],[[513,23530],[-157,0]],[[1162,23408],[-63,-109]],[[1941,22353],[-311,0]],[[1630,22353],[41,119]],[[1671,22472],[0,3]],[[1671,22475],[166,33]],[[1225,22874],[0,-104],[-99,0]],[[1063,22770],[-81,0]],[[437,23014],[-5,63]],[[455,22998],[-23,-91],[5,91]],[[1684,22548],[-40,-38]],[[1644,22510],[-9,-7]],[[1581,22459],[-27,28]],[[1585,22485],[-4,-26]],[[423,23146],[-9,48]],[[1180,22350],[-81,0]],[[1099,22350],[-27,0]],[[1072,22350],[0,132]],[[1072,22482],[-5,97]],[[1274,22391],[-31,-38]],[[1243,22353],[-63,-3]],[[1608,22739],[-41,143]],[[1567,22882],[153,-143]],[[833,22485],[-139,193]],[[694,22678],[-37,43]],[[657,22721],[-4,49]],[[1072,22482],[-239,3]],[[1387,22876],[9,-84]],[[1788,22828],[-99,120]],[[1365,22353],[-37,-107]],[[1328,22246],[-144,-5]],[[1184,22241],[-4,109]],[[1243,22353],[76,0]],[[1319,22353],[46,0]],[[1644,22510],[27,-35]],[[1671,22472],[-113,-20]],[[1558,22452],[23,7]],[[1229,23352],[23,-33]],[[1252,23319],[58,-13]],[[1410,23271],[-131,-72],[122,-15],[-109,-102]],[[833,22485],[-185,-10]],[[648,22475],[-45,134],[91,69]],[[401,23232],[-108,298]],[[1315,23365],[-59,17],[72,125]],[[1536,22917],[31,-35]],[[657,22721],[-148,-15]],[[1630,22353],[-49,0]],[[1581,22353],[-180,0]],[[1401,22353],[9,25]],[[1410,22378],[148,74]],[[1252,23319],[117,51]],[[1401,22353],[-36,0]],[[1319,22353],[91,25]],[[1698,21880],[135,35]],[[1833,21915],[90,102]],[[1923,22017],[13,-5]],[[1936,22012],[5,-127]],[[1941,21885],[-212,-31]],[[1729,21854],[-31,26]],[[2815,21938],[31,-153]],[[2846,21785],[-31,31],[-5,8],[-162,-36]],[[2648,21788],[59,109]],[[2707,21897],[108,41]],[[1833,21915],[-203,56]],[[1630,21971],[14,36]],[[1644,22007],[207,58]],[[1851,22065],[72,-48]],[[1684,21679],[-22,17]],[[1662,21696],[-9,18]],[[1653,21714],[-23,74]],[[1630,21788],[86,38]],[[1716,21826],[135,-155]],[[1851,21671],[-167,8]],[[1869,21658],[-32,-12]],[[1837,21646],[-139,10]],[[1698,21656],[-14,23]],[[1851,21671],[18,-13]],[[1738,21531],[23,36]],[[1761,21567],[13,18]],[[1774,21585],[63,61]],[[1869,21658],[49,-25]],[[1918,21633],[-85,-109]],[[1833,21524],[-95,7]],[[2337,21735],[-99,-72],[-90,79],[45,84],[140,-89]],[[2333,21737],[4,-2]],[[1563,22294],[-81,3],[31,-87]],[[1513,22210],[-112,-48]],[[1401,22162],[-73,84]],[[1581,22353],[-18,-59]],[[1184,22241],[0,-105]],[[1184,22136],[-189,97]],[[995,22233],[104,117]],[[2846,21785],[198,-76],[-85,-102],[63,18]],[[3022,21625],[-189,-33]],[[2833,21592],[-23,13]],[[2810,21605],[36,160],[-4,0],[4,20]],[[1851,22065],[85,38]],[[1936,22103],[0,-91]],[[2797,21559],[13,46]],[[2833,21592],[-36,-33]],[[2571,21859],[-9,143]],[[2774,22002],[41,-64]],[[2707,21897],[-136,-38]],[[3328,21948],[-149,-7],[104,-105],[-14,-127],[-135,-35],[81,28]],[[3215,21702],[-193,-77]],[[3423,21999],[-95,-51]],[[937,22284],[-63,38]],[[874,22322],[94,28]],[[968,22350],[-31,-66]],[[603,22320],[-9,-54]],[[594,22266],[-76,15]],[[518,22281],[40,54]],[[558,22335],[45,-15]],[[1630,21971],[-121,-63]],[[1509,21908],[-54,127]],[[1455,22035],[189,-26]],[[1644,22009],[0,-2]],[[1419,22055],[-18,107]],[[1513,22210],[5,-2]],[[1518,22208],[135,-77],[-9,-122]],[[1455,22035],[-36,20]],[[1630,21788],[-54,38]],[[1576,21826],[122,54]],[[1729,21854],[-13,-28]],[[527,22363],[22,63]],[[549,22426],[9,-91]],[[518,22281],[9,82]],[[1419,22055],[-235,81]],[[2607,21651],[41,137]],[[2797,21559],[-190,92]],[[874,22322],[-72,-51]],[[802,22271],[-208,-5]],[[603,22320],[23,106],[86,-84],[-64,133]],[[1072,22350],[-104,0]],[[527,22363],[4,257],[18,-194]],[[1558,21684],[-27,46]],[[1531,21730],[-9,73]],[[1522,21803],[54,23]],[[1653,21714],[-36,-30]],[[1617,21684],[-59,0]],[[937,22284],[-18,-56]],[[919,22228],[-117,43]],[[1563,22294],[-45,-86]],[[995,22233],[-76,-5]],[[2436,21811],[-103,-74]],[[2337,21735],[50,-77]],[[2387,21658],[-212,-68],[-130,-46]],[[2045,21544],[49,201],[-158,5]],[[1936,21750],[5,135]],[[1936,22103],[5,250]],[[2499,22002],[-67,0],[0,-125]],[[2432,21877],[4,-66]],[[2571,21859],[-139,18]],[[2436,21811],[68,-135]],[[2504,21676],[-117,-18]],[[1590,21618],[22,-44]],[[1612,21574],[-9,-7]],[[1603,21567],[-72,163]],[[1558,21684],[23,-43]],[[1581,21641],[9,-23]],[[1612,21574],[23,46]],[[1635,21620],[27,5]],[[1662,21625],[0,-43]],[[1662,21582],[0,-28]],[[1662,21554],[-59,13]],[[1698,21656],[-5,-66]],[[1693,21590],[-31,-8]],[[1662,21625],[0,10]],[[1662,21635],[0,61]],[[1590,21618],[45,2]],[[1693,21567],[9,-23]],[[1702,21544],[-40,10]],[[1693,21590],[0,-23]],[[1581,21641],[31,0]],[[1612,21641],[50,-6]],[[1918,21633],[18,117]],[[2045,21544],[-212,-20]],[[2607,21651],[-63,5],[-40,20]],[[1522,21803],[-13,105]],[[1774,21585],[-81,5]],[[1693,21567],[68,0]],[[1738,21531],[-36,13]],[[1617,21684],[-5,-43]],[[3332,23288],[14,138]],[[3346,23426],[68,96],[-82,97]],[[3332,23619],[14,18]],[[3346,23637],[153,-10]],[[3499,23627],[-72,-176],[68,-79]],[[3495,23372],[-41,-122]],[[3454,23250],[-122,38]],[[3490,23545],[50,38]],[[3540,23583],[63,-25],[-90,-76],[36,-64]],[[3549,23418],[58,-53],[-67,2]],[[3540,23367],[-90,59],[40,119]],[[3945,24153],[-36,-41]],[[3909,24112],[-126,-40]],[[3783,24072],[-68,96]],[[3715,24168],[5,125]],[[3720,24293],[54,114]],[[3774,24407],[90,-56]],[[3864,24351],[81,-198]],[[3783,23789],[-77,21]],[[3706,23810],[72,257],[158,20],[31,-87]],[[3967,24000],[-184,-211]],[[3715,24168],[-117,92],[-94,-153]],[[3504,24107],[-63,28]],[[3441,24135],[126,229],[153,-71]],[[3346,23426],[-113,0],[-40,180]],[[3193,23606],[139,13]],[[3594,23779],[-230,206]],[[3364,23985],[167,-13]],[[3531,23972],[81,-114],[54,109]],[[3666,23967],[121,0]],[[3787,23967],[-193,-188]],[[3346,23637],[-293,524]],[[3053,24161],[311,-176]],[[3594,23779],[-95,-152]],[[4274,22968],[-14,0]],[[4260,22968],[-193,-25]],[[4067,22943],[-32,71]],[[4035,23014],[-149,315],[117,69]],[[4003,23398],[113,-153]],[[4116,23245],[-31,-155],[189,-122]],[[2981,24176],[72,-15]],[[3193,23606],[-23,-150],[-220,10]],[[2950,23466],[-131,128]],[[3760,24730],[-4,10]],[[3756,24740],[-14,59]],[[3751,25035],[302,0]],[[4053,25035],[14,-190]],[[4067,24845],[-136,-120]],[[3931,24725],[-171,5]],[[3612,23250],[-158,0]],[[3495,23372],[117,-122]],[[4373,23952],[-72,-112]],[[4301,23840],[-234,8],[-14,-163],[-270,104]],[[3967,24000],[401,163],[113,-185]],[[4481,23978],[-14,-8]],[[4467,23970],[-94,-18]],[[3531,23972],[85,56]],[[3616,24028],[50,-61]],[[4485,23505],[-4,-334]],[[4481,23171],[0,-25]],[[4481,23146],[-270,216]],[[4211,23362],[9,64]],[[4220,23426],[148,56]],[[4368,23482],[117,23]],[[3427,24567],[-95,54]],[[3756,24740],[-329,-173]],[[3616,24028],[-112,79]],[[3715,24168],[-36,-79],[86,-30]],[[3765,24059],[22,-92]],[[4481,23115],[-207,-147]],[[4116,23245],[95,117]],[[4481,23146],[0,-31]],[[3864,24351],[36,214],[121,-94]],[[4021,24471],[19,-61]],[[4040,24410],[184,-282],[-279,25]],[[4021,24471],[73,28]],[[4094,24499],[-54,-89]],[[3783,23789],[-189,-53],[-54,-153]],[[3490,23545],[36,204],[180,61]],[[4449,25035],[-18,-145]],[[4431,24890],[-364,-45]],[[4053,25035],[396,0]],[[3769,23400],[14,64]],[[3783,23464],[99,71],[36,-102]],[[3918,23433],[-149,-33]],[[3783,24072],[-18,-13]],[[3332,23288],[-58,18]],[[3274,23306],[-324,160]],[[4035,23014],[-329,-54]],[[3706,22960],[-22,252]],[[3684,23212],[85,188]],[[3918,23433],[85,3]],[[4003,23436],[0,-38]],[[3774,24407],[-5,38]],[[3769,24445],[-9,285]],[[3931,24725],[-13,-96],[302,-3],[22,-122]],[[4242,24504],[-148,-5]],[[3549,23418],[234,46]],[[3684,23212],[-144,155]],[[4003,23436],[32,0]],[[4035,23436],[185,-10]],[[3179,24545],[50,-211],[212,-199]],[[4431,24890],[-27,-150],[194,-53]],[[4598,24687],[-9,-229]],[[4589,24458],[-347,46]],[[3427,24567],[158,-160],[184,38]],[[4517,23026],[45,-83],[-81,-51]],[[4481,22892],[-221,76]],[[4481,23115],[36,-89]],[[4301,23840],[0,-28]],[[4301,23812],[-90,-188]],[[4211,23624],[-176,-188]],[[4593,24857],[5,-170]],[[4449,25035],[144,0]],[[4593,25035],[0,-178]],[[3301,22548],[-18,49]],[[3283,22597],[54,117]],[[3337,22714],[-5,84],[239,-87]],[[3571,22711],[-252,-208]],[[3319,22503],[-18,45]],[[3251,22546],[0,48]],[[3251,22594],[32,3]],[[3301,22548],[-50,-2]],[[2990,22490],[77,38]],[[3067,22528],[184,18]],[[3319,22503],[-5,-13]],[[3314,22490],[-135,-18]],[[3067,22528],[90,64],[-54,40]],[[3103,22632],[40,36]],[[3143,22668],[-4,13]],[[3139,22681],[49,-11]],[[3188,22670],[63,-76]],[[3274,23306],[-176,-226]],[[3098,23080],[-455,183]],[[3040,22637],[103,31]],[[3103,22632],[-63,5]],[[3706,22711],[-135,0]],[[3337,22714],[-86,221],[-229,43],[126,15],[-50,87]],[[3612,23250],[72,-48],[22,-491]],[[3792,22157],[-104,63]],[[3688,22220],[99,49]],[[3787,22269],[5,-112]],[[3562,22281],[9,-48]],[[3571,22233],[-58,107]],[[3513,22340],[63,35]],[[3576,22375],[31,-96]],[[3607,22279],[-45,2]],[[3265,22340],[-117,71]],[[3148,22416],[117,-76]],[[3562,22185],[9,48]],[[3562,22281],[126,-61]],[[3792,22157],[0,-160],[-81,0]],[[3711,21997],[-279,2]],[[3508,22462],[-194,28]],[[3706,22711],[81,-112]],[[3787,22599],[0,-112]],[[3787,22487],[-27,-23]],[[3760,22464],[-148,-15]],[[3612,22449],[-104,13]],[[3139,22681],[-216,-39],[117,-5]],[[2612,23070],[365,-178]],[[2977,22892],[211,-222]],[[3576,22375],[36,74]],[[3760,22464],[-153,-185]],[[2977,22892],[211,0],[149,-178]],[[3787,22487],[0,-218]],[[3202,22281],[63,51]],[[3265,22332],[180,43]],[[3445,22375],[68,-35]],[[3508,22462],[-108,-36],[45,-51]],[[3265,22332],[0,8]],[[5908,23911],[-67,-35]],[[5841,23876],[-131,25]],[[5710,23901],[45,104]],[[5755,24005],[113,-35]],[[5868,23970],[40,-59]],[[5386,23250],[0,166]],[[5386,23416],[18,124]],[[5404,23540],[149,51]],[[5553,23591],[126,-81]],[[5679,23510],[-63,-59],[45,-69]],[[5661,23382],[9,-134],[-162,0]],[[5508,23248],[-122,2]],[[5751,23812],[-99,46]],[[5652,23858],[58,43]],[[5841,23876],[-90,-64]],[[5589,23850],[45,206]],[[5634,24056],[54,0]],[[5688,24056],[13,0]],[[5701,24056],[54,-51]],[[5652,23858],[-41,-38]],[[5611,23820],[-22,30]],[[5161,23461],[4,59]],[[5165,23520],[9,122],[122,15]],[[5296,23657],[90,-43]],[[5386,23614],[18,-74]],[[5386,23416],[-225,45]],[[5701,24056],[234,-12],[-67,-74]],[[5994,23309],[-23,0]],[[5971,23309],[-139,-16]],[[5832,23293],[-68,59]],[[5764,23352],[68,-13],[-36,115]],[[5796,23454],[81,-3]],[[5877,23451],[117,-46]],[[5994,23405],[0,-48],[0,-48]],[[5409,23873],[27,-30]],[[5436,23843],[-73,0]],[[5363,23843],[-13,5]],[[5350,23848],[-5,63]],[[5345,23911],[113,97],[-49,-135]],[[5940,23683],[27,-97]],[[5967,23586],[-86,15]],[[5881,23601],[5,71]],[[5886,23672],[18,5]],[[5904,23677],[36,6]],[[5278,23057],[0,193]],[[5278,23250],[108,0]],[[5508,23248],[54,-21]],[[5562,23227],[-194,-198]],[[5368,23029],[-90,28]],[[5971,23309],[-139,-61]],[[5832,23248],[0,45]],[[5994,23698],[0,-43],[0,-100]],[[5994,23555],[-27,21]],[[5967,23576],[0,10]],[[5940,23683],[54,15]],[[5746,23754],[-27,-3],[14,23],[18,38]],[[5908,23911],[41,-7]],[[5949,23904],[-41,-110]],[[5908,23794],[-162,-40]],[[5386,23614],[68,86]],[[5454,23700],[85,-71],[0,-2],[14,-36]],[[5859,23566],[4,22]],[[5863,23588],[18,13]],[[5967,23576],[-95,-59]],[[5872,23517],[-13,49]],[[5994,23932],[0,-112],[0,-120]],[[5994,23700],[-63,51]],[[5931,23751],[-23,43]],[[5949,23904],[45,28]],[[5638,23721],[-9,-3]],[[5629,23718],[-175,71]],[[5454,23789],[-91,54]],[[5436,23843],[117,0]],[[5553,23843],[36,7]],[[5611,23820],[27,-99]],[[5904,23677],[-5,23]],[[5899,23700],[32,51]],[[5994,23700],[0,-2]],[[5296,23657],[-95,135],[113,43]],[[5314,23835],[36,13]],[[5454,23789],[0,-89]],[[5994,23555],[0,-35],[0,-115]],[[5877,23451],[-5,66]],[[5764,23352],[-103,30]],[[5679,23510],[58,15]],[[5737,23525],[59,-71]],[[5278,23250],[-279,-101],[144,101],[-77,0]],[[5066,23250],[95,211]],[[5994,23189],[-99,-33]],[[5895,23156],[-68,-2]],[[5827,23154],[5,94]],[[5994,23309],[0,-79],[0,-41]],[[5409,23873],[94,89]],[[5503,23962],[50,-119]],[[5737,23525],[0,10]],[[5737,23535],[68,38]],[[5805,23573],[54,-7]],[[5863,23588],[-9,39]],[[5854,23627],[32,45]],[[5170,23833],[13,147]],[[5183,23980],[162,-69]],[[5314,23835],[-144,-2]],[[5409,24423],[-194,-140]],[[5215,24283],[18,45]],[[5233,24328],[9,26]],[[5242,24354],[0,124],[167,-55]],[[4688,23861],[-104,17],[-58,-167],[108,-206]],[[4634,23505],[-149,0]],[[4485,23505],[-49,361]],[[4436,23866],[54,73]],[[4490,23939],[221,-2]],[[4711,23937],[-23,-76]],[[5242,22823],[-126,43],[108,26]],[[5224,22892],[18,-69]],[[5071,25035],[9,-534]],[[5080,24501],[-234,0]],[[4846,24501],[-99,120],[157,18],[14,147]],[[4918,24786],[31,137]],[[4949,24923],[14,112]],[[4963,25035],[108,0]],[[5638,24252],[-81,-41]],[[5557,24211],[-297,-33]],[[5260,24178],[-45,100]],[[5215,24278],[0,5]],[[5409,24423],[229,10]],[[5638,24433],[0,-181]],[[5503,23962],[23,59]],[[5526,24021],[108,35]],[[5814,22892],[45,-72]],[[5859,22820],[-198,-144]],[[5661,22676],[-167,2],[189,71],[-112,87]],[[5571,22836],[45,66]],[[5616,22902],[67,122]],[[5683,23024],[45,18]],[[5728,23042],[90,-74]],[[5818,22968],[-4,-76]],[[5994,22559],[-131,-140]],[[5863,22419],[-13,12]],[[5850,22431],[-158,201]],[[5692,22632],[302,-40]],[[5994,22592],[0,-16],[0,-17]],[[5638,24448],[0,-15]],[[5242,24354],[-45,130]],[[5197,24484],[85,239]],[[5282,24723],[41,114],[-72,5]],[[5251,24842],[441,193]],[[5692,25035],[-103,-221]],[[5589,24814],[-50,-132],[99,-76]],[[5638,24606],[0,-158]],[[4211,23624],[157,-142]],[[4589,24458],[0,-2]],[[4589,24456],[0,-204]],[[4589,24252],[0,-280]],[[4589,23972],[-108,-10]],[[4481,23962],[-14,8]],[[4481,23978],[-108,185],[-388,-155],[-76,104]],[[4850,23761],[-81,-43],[-81,143]],[[4711,23937],[283,-120]],[[4994,23817],[-63,-122]],[[4931,23695],[-63,59]],[[4868,23754],[45,63],[-63,-56]],[[4778,24885],[-185,-28]],[[4593,25035],[266,0]],[[4859,25035],[90,-112]],[[4918,24786],[-95,28]],[[4823,24814],[-45,71]],[[5823,24512],[-14,-181]],[[5809,24331],[-171,117]],[[5638,24606],[108,33],[77,-127]],[[4859,25035],[104,0]],[[4922,23566],[9,129]],[[4994,23817],[-9,82]],[[4985,23899],[99,53],[86,-119]],[[5165,23520],[-243,46]],[[4373,23952],[81,-2],[-59,-74]],[[4395,23876],[-94,-64]],[[5224,22892],[0,81]],[[5224,22973],[54,84]],[[5368,23029],[248,-127]],[[5571,22836],[-320,-36]],[[5251,22800],[-9,23]],[[5282,24723],[-45,-8]],[[5237,24715],[14,127]],[[5994,23189],[0,-48],[0,-28],[0,-165]],[[5994,22948],[-135,114]],[[5859,23062],[36,94]],[[4985,23899],[-31,145],[90,5]],[[5044,24049],[99,94],[54,-87]],[[5197,24056],[-14,-76]],[[5994,22930],[-180,-38]],[[5818,22968],[41,94]],[[5994,22948],[0,-18]],[[5107,24438],[126,-110]],[[5215,24278],[-108,-46]],[[5107,24232],[0,206]],[[4481,23962],[9,-23]],[[4436,23866],[-41,10]],[[5066,23250],[-198,0]],[[4868,23250],[-40,252]],[[4828,23502],[94,64]],[[5233,24069],[-36,-13]],[[5044,24049],[63,183]],[[5260,24178],[-27,-109]],[[4589,24456],[257,45]],[[5080,24501],[4,0]],[[5084,24501],[50,-226],[-99,-206]],[[5035,24069],[-158,89],[-81,-104],[-13,188],[-194,10]],[[5998,24522],[-175,-10]],[[5589,24814],[414,5]],[[6003,24819],[-5,-252],[0,-45]],[[5035,24069],[-104,-28],[-4,-198],[-338,129]],[[5071,25035],[229,0]],[[5300,25035],[63,-48],[-45,-102]],[[5318,24885],[-234,-384]],[[5197,24484],[-54,78]],[[5143,24562],[94,153]],[[5080,22561],[4,153]],[[5084,22714],[167,86]],[[5661,22676],[0,-3]],[[5661,22673],[-509,-186]],[[5152,22487],[-72,74]],[[4868,23754],[-18,7]],[[5526,24021],[-77,46]],[[5449,24067],[108,144]],[[5638,24252],[-4,-20]],[[5634,24232],[54,-176]],[[4823,24814],[-81,-20],[36,91]],[[5692,25035],[311,-2],[0,-155],[0,-59]],[[5998,24522],[0,-247],[-4,-178],[0,-112],[0,-35],[0,-18]],[[5634,24232],[211,25],[-36,74]],[[5300,25035],[230,0],[-212,-150]],[[5728,23042],[54,71]],[[5782,23113],[45,41]],[[4634,23505],[194,-3]],[[4868,23250],[-387,-79]],[[5994,22930],[0,-43],[0,-49]],[[5994,22838],[-135,-18]],[[5692,22632],[-31,41]],[[5994,22838],[0,-35],[0,-211]],[[5107,24438],[36,124]],[[5224,22973],[-72,61],[-140,-97],[77,-53],[-216,-8]],[[4873,22876],[-194,186],[-162,-36]],[[5782,23113],[-108,43]],[[5674,23156],[-112,71]],[[5674,23156],[9,-132]],[[5233,24069],[216,-2]],[[5994,22401],[-131,18]],[[5994,22559],[0,-46],[0,-112]],[[5706,23672],[0,-23]],[[5706,23649],[-32,6]],[[5674,23655],[0,25]],[[5674,23680],[32,-8]],[[5755,23672],[0,-30]],[[5755,23642],[-18,-3]],[[5737,23639],[-31,3]],[[5706,23642],[0,7]],[[5706,23672],[36,0]],[[5742,23672],[13,0]],[[5701,23611],[-18,28]],[[5683,23639],[23,3]],[[5737,23639],[-36,-28]],[[5683,23639],[-9,16]],[[5706,23716],[0,-44]],[[5674,23680],[-45,38]],[[5638,23721],[68,-5]],[[5805,23573],[-14,56]],[[5791,23629],[14,71]],[[5805,23700],[36,5]],[[5841,23705],[13,-78]],[[5724,23716],[18,-44]],[[5706,23716],[18,0]],[[5746,23754],[-22,-38]],[[5791,23629],[-36,13]],[[5755,23672],[50,28]],[[5841,23705],[58,-5]],[[5737,23535],[-36,76]],[[4751,22261],[0,-71]],[[4751,22190],[-230,-107]],[[4521,22083],[-256,153],[4,208]],[[4269,22444],[32,23]],[[4301,22467],[130,-81],[90,129]],[[4521,22515],[59,92]],[[4580,22607],[401,107]],[[4981,22714],[103,0]],[[5080,22561],[-9,3]],[[5071,22564],[-284,-66],[-144,-245],[108,8]],[[4202,22195],[-36,-79]],[[4166,22116],[-104,94],[-140,-61],[86,191]],[[4143,22345],[36,-117]],[[4179,22228],[23,-33]],[[3720,22869],[130,-59]],[[3850,22810],[-99,-18]],[[3751,22792],[-31,77]],[[3792,21834],[0,-38]],[[3792,21796],[-50,-11]],[[3742,21785],[-180,-55],[-234,218]],[[3711,21997],[81,-163]],[[4580,22607],[-225,23]],[[4355,22630],[324,81]],[[4679,22711],[167,0]],[[4846,22711],[135,3]],[[5557,21956],[-293,0],[-13,0]],[[5251,21956],[4,213],[-99,36],[72,48],[-85,5],[90,138]],[[5233,22396],[230,-66],[-109,-28],[194,-155],[9,-191]],[[4301,22467],[220,48]],[[4346,22159],[-68,10]],[[4278,22169],[18,31]],[[4296,22200],[95,-25]],[[4391,22175],[-45,-16]],[[4274,21902],[72,257]],[[4391,22175],[108,-189],[-225,-84]],[[4238,21890],[-5,0],[-81,-13]],[[4152,21877],[-40,135]],[[4112,22012],[54,104]],[[4202,22195],[76,-26]],[[4274,21902],[-36,-12]],[[4679,22711],[-59,71],[54,107],[-193,3]],[[4873,22876],[-27,-165]],[[4269,22444],[-94,122]],[[4175,22566],[180,64]],[[4175,22566],[-59,87]],[[4116,22653],[63,0],[0,142]],[[4179,22795],[-112,148]],[[3792,21834],[0,137],[207,-76]],[[3999,21895],[9,-8]],[[4008,21887],[-216,-91]],[[3999,21895],[0,104],[113,13]],[[4152,21877],[-144,10]],[[5233,22396],[-81,91]],[[5850,22431],[-194,-73],[-4,-405]],[[5652,21953],[-95,3]],[[5071,22564],[31,-308],[-85,0]],[[5017,22256],[-266,5]],[[3850,22810],[329,-15]],[[4116,22653],[-351,-46],[-14,185]],[[3787,22599],[59,3]],[[4179,22228],[-22,109]],[[4260,22375],[36,-175]],[[3742,21785],[-328,-127],[-199,44]],[[3720,22869],[-14,91]],[[4909,21956],[-122,0],[-158,0],[-144,0],[90,61],[-54,66]],[[4751,22190],[131,-110],[-90,-96],[117,-28]],[[5251,21956],[-63,0]],[[5188,21956],[-180,170],[9,130]],[[5188,21956],[-279,0]],[[5913,22093],[99,115],[72,-82],[-158,-127]],[[5926,21999],[-13,94]],[[5881,21953],[45,46]],[[5913,22093],[-113,28],[23,112],[157,79]],[[5980,22312],[113,-361],[-135,2],[-77,0]],[[5881,21953],[-229,0]],[[5994,22401],[0,-8],[-14,-81]]]}