{"type":"Topology","transform":{"scale":[0.0012831345112129487,0.0009745357309423489],"translate":[-124.73273099999999,24.60334863324381]},"objects":{"area":{"type":"GeometryCollection","geometries":[{"arcs":[[0,1,2,3]],"type":"Polygon","properties":{"state":"WV","name":"BLUEFIELD","zip":"24701"}},{"arcs":[[4,5,6,7]],"type":"Polygon","properties":{"state":"WV","name":"ATHENS","zip":"24712"}},{"arcs":[[8,9,10,11,12]],"type":"Polygon","properties":{"state":"WV","name":"BEESON","zip":"24714"}},{"arcs":[[13,14,15,-3]],"type":"Polygon","properties":{"state":"WV","name":"BRAMWELL","zip":"24715"}},{"arcs":[[16,17,18,19,20,21,22]],"type":"Polygon","properties":{"state":"WV","name":"HERNDON","zip":"24726"}},{"arcs":[[23,24,25]],"type":"Polygon","properties":{"state":"WV","name":"KEGLEY","zip":"24731"}},{"arcs":[[26,-11,27]],"type":"Polygon","properties":{"state":"WV","name":"LASHMEET","zip":"24733"}},{"arcs":[[28,29,30,-12,-27,31]],"type":"Polygon","properties":{"state":"WV","name":"MATOAKA","zip":"24736"}},{"arcs":[[32,-26,33,34,-6,35,-1]],"type":"Polygon","properties":{"state":"WV","name":"PRINCETON","zip":"24740"}},{"arcs":[[36,-32,-28,-10,37,-24,-33,-4,-16]],"type":"Polygon","properties":{"state":"WV","name":"ROCK","zip":"24747"}},{"arcs":[[38,39,40,41,42,43]],"type":"Polygon","properties":{"state":"WV","name":"WELCH","zip":"24801"}},{"arcs":[[44,45,46,47]],"type":"Polygon","properties":{"state":"WV","name":"BERWIND","zip":"24815"}},{"arcs":[[48,49,50,51,52,53,54,55]],"type":"Polygon","properties":{"state":"WV","name":"BRENTON","zip":"24818"}},{"arcs":[[56,57,58,-51]],"type":"Polygon","properties":{"state":"WV","name":"CLEAR FORK","zip":"24822"}},{"arcs":[[59,60,61,-58]],"type":"Polygon","properties":{"state":"WV","name":"COAL MOUNTAIN","zip":"24823"}},{"arcs":[[62,63,64,65,66,-62]],"type":"Polygon","properties":{"state":"WV","name":"CYCLONE","zip":"24827"}},{"arcs":[[67,68,-40]],"type":"Polygon","properties":{"state":"WV","name":"DAVY","zip":"24828"}},{"arcs":[[69,-54]],"type":"Polygon","properties":{"state":"WV","name":"FANROCK","zip":"24834"}},{"arcs":[[70,71,72,73,74]],"type":"Polygon","properties":{"state":"WV","name":"HANOVER","zip":"24839"}},{"arcs":[[75,-74,76,-49,77]],"type":"Polygon","properties":{"state":"WV","name":"IAEGER","zip":"24844"}},{"arcs":[[78,79,80,81,82]],"type":"Polygon","properties":{"state":"WV","name":"JESSE","zip":"24849"}},{"arcs":[[83,-47]],"type":"Polygon","properties":{"state":"WV","name":"JOLO","zip":"24850"}},{"arcs":[[84,-53,85,-83,86]],"type":"Polygon","properties":{"state":"WV","name":"MARIANNA","zip":"24859"}},{"arcs":[[87,-79,-86,-52]],"type":"Polygon","properties":{"state":"WV","name":"MATHENY","zip":"24860"}},{"arcs":[[-76,88,89,90,91,-75]],"type":"Polygon","properties":{"state":"WV","name":"MOHAWK","zip":"24862"}},{"arcs":[[-29,-37,-15,-42,92]],"type":"Polygon","properties":{"state":"WV","name":"NORTHFORK","zip":"24868"}},{"arcs":[[-88,-59,-67,93,94,95,96,97,98,-80]],"type":"Polygon","properties":{"state":"WV","name":"OCEANA","zip":"24870"}},{"arcs":[[99,-48,100,-68,-39]],"type":"Polygon","properties":{"state":"WV","name":"PAYNESVILLE","zip":"24873"}},{"arcs":[[-55,-70,-85,101,102,-17,103]],"type":"Polygon","properties":{"state":"WV","name":"PINEVILLE","zip":"24874"}},{"arcs":[[104,105,-60,-57,-50,-77,-73]],"type":"Polygon","properties":{"state":"WV","name":"SIMON","zip":"24882"}},{"arcs":[[106,-45,-100,-44]],"type":"Polygon","properties":{"state":"WV","name":"SQUIRE","zip":"24884"}},{"arcs":[[107,108,109,110,111,112,113,114,115]],"type":"Polygon","properties":{"state":"WV","name":"LEWISBURG","zip":"24901"}},{"arcs":[[116,117,118,119,120,121,122,123,124,-116,125,126,127,128]],"type":"Polygon","properties":{"state":"WV","name":"ALDERSON","zip":"24910"}},{"arcs":[[129,130,131]],"type":"Polygon","properties":{"state":"WV","name":"ARBOVALE","zip":"24915"}},{"arcs":[[-125,132,133,134,-108]],"type":"Polygon","properties":{"state":"WV","name":"ASBURY","zip":"24916"}},{"arcs":[[135,136,137,138]],"type":"Polygon","properties":{"state":"WV","name":"AUTO","zip":"24917"}},{"arcs":[[139,140,141,142]],"type":"Polygon","properties":{"state":"WV","name":"BALLARD","zip":"24918"}},{"arcs":[[143,-132,144,145,146,147,148]],"type":"Polygon","properties":{"state":"WV","name":"BARTOW","zip":"24920"}},{"arcs":[[149,150,-113]],"type":"Polygon","properties":{"state":"WV","name":"CALDWELL","zip":"24925"}},{"arcs":[[151,152,153,154,-145,-131,155,156,157]],"type":"Polygon","properties":{"state":"WV","name":"CASS","zip":"24927"}},{"arcs":[[158,-134,159,160,161,162,163]],"type":"Polygon","properties":{"state":"WV","name":"CRAWLEY","zip":"24931"}},{"arcs":[[164,-157,165,166]],"type":"Polygon","properties":{"state":"WV","name":"DUNMORE","zip":"24934"}},{"arcs":[[167,168,169,-142,170]],"type":"Polygon","properties":{"state":"WV","name":"FOREST HILL","zip":"24935"}},{"arcs":[[171,-126,-115,172]],"type":"Polygon","properties":{"state":"WV","name":"FORT SPRING","zip":"24936"}},{"arcs":[[173,174,-111]],"type":"Polygon","properties":{"state":"WV","name":"FRANKFORD","zip":"24938"}},{"arcs":[[175,176,177]],"type":"Polygon","properties":{"state":"WV","name":"GAP MILLS","zip":"24941"}},{"arcs":[[178,179,180,181,-178]],"type":"Polygon","properties":{"state":"WV","name":"GLACE","zip":"24942"}},{"arcs":[[182,-123,183,184,185,186]],"type":"Polygon","properties":{"state":"WV","name":"GRASSY MEADOWS","zip":"24943"}},{"arcs":[[187,-166,-156,-130]],"type":"Polygon","properties":{"state":"WV","name":"GREEN BANK","zip":"24944"}},{"arcs":[[188,189,190,191,-140]],"type":"Polygon","properties":{"state":"WV","name":"GREENVILLE","zip":"24945"}},{"arcs":[[192,193,194]],"type":"Polygon","properties":{"state":"WV","name":"HILLSBORO","zip":"24946"}},{"arcs":[[195,196,197]],"type":"Polygon","properties":{"state":"WV","name":"LINDSIDE","zip":"24951"}},{"arcs":[[198,199,200,-158,-165,201,-139,202,-195]],"type":"Polygon","properties":{"state":"WV","name":"MARLINTON","zip":"24954"}},{"arcs":[[203,204,-161,205,-187]],"type":"Polygon","properties":{"state":"WV","name":"MEADOW BLUFF","zip":"24958"}},{"arcs":[[206,-117,207]],"type":"Polygon","properties":{"state":"WV","name":"PENCE SPRINGS","zip":"24962"}},{"arcs":[[208,-197]],"type":"Polygon","properties":{"state":"WV","name":"PETERSTOWN","zip":"24963"}},{"arcs":[[209,-174,-110,210,211,212,213,-193,-203,-138]],"type":"Polygon","properties":{"state":"WV","name":"RENICK","zip":"24966"}},{"arcs":[[214,-173,-114,-151,215]],"type":"Polygon","properties":{"state":"WV","name":"RONCEVERTE","zip":"24970"}},{"arcs":[[216,217,-216,218,-180]],"type":"Polygon","properties":{"state":"WV","name":"SECONDCREEK","zip":"24974"}},{"arcs":[[219,-127,-172,-215,-218,220]],"type":"Polygon","properties":{"state":"WV","name":"SINKS GROVE","zip":"24976"}},{"arcs":[[-124,-183,-206,-160,-133]],"type":"Polygon","properties":{"state":"WV","name":"SMOOT","zip":"24977"}},{"arcs":[[221,-118,-207,222]],"type":"Polygon","properties":{"state":"WV","name":"TALCOTT","zip":"24981"}},{"arcs":[[-191,223,-221,-217,-179,-177,224]],"type":"Polygon","properties":{"state":"WV","name":"UNION","zip":"24983"}},{"arcs":[[225]],"type":"Polygon","properties":{"state":"WV","name":"WAITEVILLE","zip":"24984"}},{"arcs":[[226,-189,-143,-170,227,-223,-208,-129]],"type":"Polygon","properties":{"state":"WV","name":"WAYSIDE","zip":"24985"}},{"arcs":[[228,-181,-219,-150,-112,-175,-210,-137]],"type":"Polygon","properties":{"state":"WV","name":"WHITE SULPHUR SPRINGS","zip":"24986"}},{"arcs":[[-135,-159,229,-211,-109]],"type":"Polygon","properties":{"state":"WV","name":"WILLIAMSBURG","zip":"24991"}},{"arcs":[[-190,-227,-128,-220,-224]],"type":"Polygon","properties":{"state":"WV","name":"WOLFCREEK","zip":"24993"}},{"arcs":[[230,231,232,233,234,235,236,237]],"type":"Polygon","properties":{"state":"WV","name":"ALUM CREEK","zip":"25003"}},{"arcs":[[238,239,240,241,242]],"type":"Polygon","properties":{"state":"WV","name":"AMMA","zip":"25005"}},{"arcs":[[243,244,245,246]],"type":"Polygon","properties":{"state":"WV","name":"ARNETT","zip":"25007"}},{"arcs":[[247,248,249,250,251,252]],"type":"Polygon","properties":{"state":"WV","name":"ARTIE","zip":"25008"}},{"arcs":[[253,254,255,256,-238,257,258]],"type":"Polygon","properties":{"state":"WV","name":"ASHFORD","zip":"25009"}},{"arcs":[[259,260,261,262,-94,-66]],"type":"Polygon","properties":{"state":"WV","name":"BALD KNOB","zip":"25010"}},{"arcs":[[263,264,265,266,267,268,269,270]],"type":"Polygon","properties":{"state":"WV","name":"BELLE","zip":"25015"}},{"arcs":[[271,272,273,274]],"type":"Polygon","properties":{"state":"WV","name":"BENTREE","zip":"25018"}},{"arcs":[[275,276,277]],"type":"Polygon","properties":{"state":"WV","name":"BICKMORE","zip":"25019"}},{"arcs":[[278,279,280,281,-261,282]],"type":"Polygon","properties":{"state":"WV","name":"BIM","zip":"25021"}},{"arcs":[[283,284,285,286]],"type":"Polygon","properties":{"state":"WV","name":"BLOOMINGROSE","zip":"25024"}},{"arcs":[[287,288,289,290,-270]],"type":"Polygon","properties":{"state":"WV","name":"BLOUNT","zip":"25025"}},{"arcs":[[291,292,293,-281]],"type":"Polygon","properties":{"state":"WV","name":"BOB WHITE","zip":"25028"}},{"arcs":[[294,295,296,297]],"type":"Polygon","properties":{"state":"WV","name":"BOMONT","zip":"25030"}},{"arcs":[[298,299,300,301]],"type":"Polygon","properties":{"state":"WV","name":"BUFFALO","zip":"25033"}},{"arcs":[[302,303,304,-267,305]],"type":"Polygon","properties":{"state":"WV","name":"CABIN CREEK","zip":"25035"}},{"arcs":[[306,307,308,-271,309]],"type":"Polygon","properties":{"state":"WV","name":"CEDAR GROVE","zip":"25039"}},{"arcs":[[310,311,312,313,314,315,316,317,-277]],"type":"Polygon","properties":{"state":"WV","name":"CLAY","zip":"25043"}},{"arcs":[[318,319,320,-253]],"type":"Polygon","properties":{"state":"WV","name":"CLEAR CREEK","zip":"25044"}},{"arcs":[[321,322,323,-240,324,-295,325,326,-289,327]],"type":"Polygon","properties":{"state":"WV","name":"CLENDENIN","zip":"25045"}},{"arcs":[[-324,328,329,330,-241]],"type":"Polygon","properties":{"state":"WV","name":"CLIO","zip":"25046"}},{"arcs":[[331,332,333]],"type":"Polygon","properties":{"state":"WV","name":"CLOTHIER","zip":"25047"}},{"arcs":[[334,335,336,337,-249]],"type":"Polygon","properties":{"state":"WV","name":"COLCORD","zip":"25048"}},{"arcs":[[338,-284,339,340,341]],"type":"Polygon","properties":{"state":"WV","name":"COMFORT","zip":"25049"}},{"arcs":[[342,343,344,-256]],"type":"Polygon","properties":{"state":"WV","name":"COSTA","zip":"25051"}},{"arcs":[[345,346,347,348,349,350,351]],"type":"Polygon","properties":{"state":"WV","name":"DANVILLE","zip":"25053"}},{"arcs":[[-272,352,353,354,355]],"type":"Polygon","properties":{"state":"WV","name":"DIXIE","zip":"25059"}},{"arcs":[[356,357,358,359,-337]],"type":"Polygon","properties":{"state":"WV","name":"DOROTHY","zip":"25060"}},{"arcs":[[360,361,-245,362,363]],"type":"Polygon","properties":{"state":"WV","name":"DRY CREEK","zip":"25062"}},{"arcs":[[364,365,-315,366,367,368,369,370]],"type":"Polygon","properties":{"state":"WV","name":"DUCK","zip":"25063"}},{"arcs":[[371,372,373,374,375,376]],"type":"Polygon","properties":{"state":"WV","name":"DUNBAR","zip":"25064"}},{"arcs":[[377,378,379,380,381,-322]],"type":"Polygon","properties":{"state":"WV","name":"ELKVIEW","zip":"25071"}},{"arcs":[[382,383,-341,384,-306,-266,385,-359]],"type":"Polygon","properties":{"state":"WV","name":"ESKDALE","zip":"25075"}},{"arcs":[[386,387,-352,388,389]],"type":"Polygon","properties":{"state":"WV","name":"FOSTER","zip":"25081"}},{"arcs":[[390,391,392,393,394,395,396,-300,397]],"type":"Polygon","properties":{"state":"WV","name":"FRAZIERS BOTTOM","zip":"25082"}},{"arcs":[[398,399,-264,-309,400,401]],"type":"Polygon","properties":{"state":"WV","name":"GALLAGHER","zip":"25083"}},{"arcs":[[402,403,404]],"type":"Polygon","properties":{"state":"WV","name":"GAULEY BRIDGE","zip":"25085"}},{"arcs":[[405,-326,-298,406,-274]],"type":"Polygon","properties":{"state":"WV","name":"GLEN","zip":"25088"}},{"arcs":[[407,408,409]],"type":"Polygon","properties":{"state":"WV","name":"GORDON","zip":"25093"}},{"arcs":[[410,411,-399,412]],"type":"Polygon","properties":{"state":"WV","name":"HANSFORD","zip":"25103"}},{"arcs":[[413,414,415]],"type":"Polygon","properties":{"state":"WV","name":"HENDERSON","zip":"25106"}},{"arcs":[[416,-259,417,418,419,-304,420,-340,-287]],"type":"Polygon","properties":{"state":"WV","name":"HERNSHAW","zip":"25107"}},{"arcs":[[421,-348,422,423,424]],"type":"Polygon","properties":{"state":"WV","name":"HEWETT","zip":"25108"}},{"arcs":[[425,-353,-275,-407,-297,426,427,428,-276]],"type":"Polygon","properties":{"state":"WV","name":"INDORE","zip":"25111"}},{"arcs":[[429,-423,-347,430,-292,-280]],"type":"Polygon","properties":{"state":"WV","name":"JEFFREY","zip":"25114"}},{"arcs":[[431,-413,432,433]],"type":"Polygon","properties":{"state":"WV","name":"KIMBERLY","zip":"25118"}},{"arcs":[[434,435,436,437]],"type":"Polygon","properties":{"state":"WV","name":"KINCAID","zip":"25119"}},{"arcs":[[438,439,440,-425]],"type":"Polygon","properties":{"state":"WV","name":"LAKE","zip":"25121"}},{"arcs":[[441,-250,-338,-360,-386,-265,-400,-412,442]],"type":"Polygon","properties":{"state":"WV","name":"LEEWOOD","zip":"25122"}},{"arcs":[[443,444,445,446,447,448,449,-301,-397]],"type":"Polygon","properties":{"state":"WV","name":"LEON","zip":"25123"}},{"arcs":[[-450,450,451,452,453,454,455,-302]],"type":"Polygon","properties":{"state":"WV","name":"LIBERTY","zip":"25124"}},{"arcs":[[456,-293,-431,-346,-388,457,-409]],"type":"Polygon","properties":{"state":"WV","name":"MADISON","zip":"25130"}},{"arcs":[[-291,458,-310]],"type":"Polygon","properties":{"state":"WV","name":"MAMMOTH","zip":"25132"}},{"arcs":[[459,-311,-429]],"type":"Polygon","properties":{"state":"WV","name":"MAYSEL","zip":"25133"}},{"arcs":[[460,-436,461,462,-251,-442,463,-434,464,-401,-308,465,-356,466,467,-403,468]],"type":"Polygon","properties":{"state":"WV","name":"MONTGOMERY","zip":"25136"}},{"arcs":[[-402,-465,-433]],"type":"Polygon","properties":{"state":"WV","name":"MOUNT CARBON","zip":"25139"}},{"arcs":[[469,470,-95,-263,471,472,-357,-336,-364]],"type":"Polygon","properties":{"state":"WV","name":"NAOMA","zip":"25140"}},{"arcs":[[473,474,475,-368]],"type":"Polygon","properties":{"state":"WV","name":"NEBO","zip":"25141"}},{"arcs":[[476,-231,-257,-345]],"type":"Polygon","properties":{"state":"WV","name":"NELLIS","zip":"25142"}},{"arcs":[[477,-375,478,479,480,481]],"type":"Polygon","properties":{"state":"WV","name":"NITRO","zip":"25143"}},{"arcs":[[482,483,-342,-384]],"type":"Polygon","properties":{"state":"WV","name":"ORGAS","zip":"25148"}},{"arcs":[[484,485,-239,486,487,-313]],"type":"Polygon","properties":{"state":"WV","name":"OVAPA","zip":"25150"}},{"arcs":[[-255,488,489,-390,490,-343]],"type":"Polygon","properties":{"state":"WV","name":"PEYTONA","zip":"25154"}},{"arcs":[[491,492,-455,493,494,-482]],"type":"Polygon","properties":{"state":"WV","name":"POCA","zip":"25159"}},{"arcs":[[-290,-327,-406,-273,-466,-307,-459]],"type":"Polygon","properties":{"state":"WV","name":"POND GAP","zip":"25160"}},{"arcs":[[-411,-432,-464,-443]],"type":"Polygon","properties":{"state":"WV","name":"POWELLTON","zip":"25161"}},{"arcs":[[-486,495,-427,-296,-325]],"type":"Polygon","properties":{"state":"WV","name":"PROCIOUS","zip":"25164"}},{"arcs":[[496,-489,-254,-417,-286]],"type":"Polygon","properties":{"state":"WV","name":"RACINE","zip":"25165"}},{"arcs":[[497,-398,-299,-456,-493]],"type":"Polygon","properties":{"state":"WV","name":"RED HOUSE","zip":"25168"}},{"arcs":[[-491,498,-232,-477,-344]],"type":"Polygon","properties":{"state":"WV","name":"RIDGEVIEW","zip":"25169"}},{"arcs":[[-461,499,-437]],"type":"Polygon","properties":{"state":"WV","name":"ROBSON","zip":"25173"}},{"arcs":[[-363,-244,-470]],"type":"Polygon","properties":{"state":"WV","name":"ROCK CREEK","zip":"25174"}},{"arcs":[[500,501,-479,-374,502,503]],"type":"Polygon","properties":{"state":"WV","name":"SAINT ALBANS","zip":"25177"}},{"arcs":[[-247,504,505,506,-96,-471]],"type":"Polygon","properties":{"state":"WV","name":"SAXON","zip":"25180"}},{"arcs":[[-387,-490,-497,-285,-339,-484,507,508,-410,-458]],"type":"Polygon","properties":{"state":"WV","name":"SETH","zip":"25181"}},{"arcs":[[-396,509,510,511,-444]],"type":"Polygon","properties":{"state":"WV","name":"SOUTHSIDE","zip":"25187"}},{"arcs":[[-483,-383,-358,-473,512,-508]],"type":"Polygon","properties":{"state":"WV","name":"SYLVESTER","zip":"25193"}},{"arcs":[[513,514,515,-504]],"type":"Polygon","properties":{"state":"WV","name":"TORNADO","zip":"25202"}},{"arcs":[[-294,-457,-408,-509,-513,-472,-262,-282]],"type":"Polygon","properties":{"state":"WV","name":"TWILIGHT","zip":"25204"}},{"arcs":[[516,-361,-335,-248,-321]],"type":"Polygon","properties":{"state":"WV","name":"WHITESVILLE","zip":"25209"}},{"arcs":[[-481,517,518,-391,-498,-492]],"type":"Polygon","properties":{"state":"WV","name":"WINFIELD","zip":"25213"}},{"arcs":[[-421,-303,-385]],"type":"Polygon","properties":{"state":"WV","name":"WINIFREDE","zip":"25214"}},{"arcs":[[519,520,521]],"type":"Polygon","properties":{"state":"WV","name":"ADVENT","zip":"25231"}},{"arcs":[[522,523,524,525,526,527,528,529,530]],"type":"Polygon","properties":{"state":"WV","name":"ARNOLDSBURG","zip":"25234"}},{"arcs":[[531,532,533,534,535,536,-475]],"type":"Polygon","properties":{"state":"WV","name":"CHLOE","zip":"25235"}},{"arcs":[[537,538,539,540,541,-447]],"type":"Polygon","properties":{"state":"WV","name":"COTTAGEVILLE","zip":"25239"}},{"arcs":[[542,-448,-542,543]],"type":"Polygon","properties":{"state":"WV","name":"EVANS","zip":"25241"}},{"arcs":[[544,545,546,547,548,-521]],"type":"Polygon","properties":{"state":"WV","name":"GANDEEVILLE","zip":"25243"}},{"arcs":[[549,550,551,552,553,554,-546]],"type":"Polygon","properties":{"state":"WV","name":"GAY","zip":"25244"}},{"arcs":[[-543,555,556,557,-451,-449]],"type":"Polygon","properties":{"state":"WV","name":"GIVEN","zip":"25245"}},{"arcs":[[-558,558,-550,-545,-520,559,-452]],"type":"Polygon","properties":{"state":"WV","name":"KENNA","zip":"25248"}},{"arcs":[[-331,560,561,562,-242]],"type":"Polygon","properties":{"state":"WV","name":"LEFT HAND","zip":"25251"}},{"arcs":[[563,564,565,566,567,-554]],"type":"Polygon","properties":{"state":"WV","name":"LE ROY","zip":"25252"}},{"arcs":[[568,569,570,571,572,-445,-512]],"type":"Polygon","properties":{"state":"WV","name":"LETART","zip":"25253"}},{"arcs":[[573,574,575,576,-534]],"type":"Polygon","properties":{"state":"WV","name":"LINDEN","zip":"25256"}},{"type":null,"properties":{"state":"WV","name":"LOCKNEY","zip":"25258"}},{"arcs":[[-330,577,578,-576,579,-561]],"type":"Polygon","properties":{"state":"WV","name":"LOONEYVILLE","zip":"25259"}},{"arcs":[[580,581,-572]],"type":"Polygon","properties":{"state":"WV","name":"MASON","zip":"25260"}},{"arcs":[[582,583,-529]],"type":"Polygon","properties":{"state":"WV","name":"MILLSTONE","zip":"25261"}},{"arcs":[[584,585,-539]],"type":"Polygon","properties":{"state":"WV","name":"MILLWOOD","zip":"25262"}},{"arcs":[[-446,586,-538]],"type":"Polygon","properties":{"state":"WV","name":"MOUNT ALTO","zip":"25264"}},{"arcs":[[587,-487,-243,-563,588,-574,-533]],"type":"Polygon","properties":{"state":"WV","name":"NEWTON","zip":"25266"}},{"arcs":[[589,590,-531,591,592,593,594,595,596,597]],"type":"Polygon","properties":{"state":"WV","name":"NORMANTOWN","zip":"25267"}},{"arcs":[[598,-524,599,600,-535]],"type":"Polygon","properties":{"state":"WV","name":"ORMA","zip":"25268"}},{"arcs":[[-555,-568,601,602,-547]],"type":"Polygon","properties":{"state":"WV","name":"REEDY","zip":"25270"}},{"arcs":[[-541,603,604,-552,605,-556,-544]],"type":"Polygon","properties":{"state":"WV","name":"RIPLEY","zip":"25271"}},{"arcs":[[-553,-605,606,607,608,-564]],"type":"Polygon","properties":{"state":"WV","name":"SANDYVILLE","zip":"25275"}},{"arcs":[[-603,609,610,-525,-599,-577,-579,611,-548]],"type":"Polygon","properties":{"state":"WV","name":"SPENCER","zip":"25276"}},{"arcs":[[-557,-606,-551,-559]],"type":"Polygon","properties":{"state":"WV","name":"STATTS MILLS","zip":"25279"}},{"arcs":[[-580,-575,-589,-562]],"type":"Polygon","properties":{"state":"WV","name":"TARIFF","zip":"25281"}},{"arcs":[[-485,-312,-460,-428,-496]],"type":"Polygon","properties":{"state":"WV","name":"VALLEY FORK","zip":"25283"}},{"arcs":[[-532,-474,-367,-314,-488,-588]],"type":"Polygon","properties":{"state":"WV","name":"WALLBACK","zip":"25285"}},{"arcs":[[612,-549,-612,-578,-329,-323,-382]],"type":"Polygon","properties":{"state":"WV","name":"WALTON","zip":"25286"}},{"arcs":[[-581,-571,613,614]],"type":"Polygon","properties":{"state":"WV","name":"WEST COLUMBIA","zip":"25287"}},{"arcs":[[615,616,617]],"type":"Polygon","properties":{"state":"WV","name":"CHARLESTON","zip":"25301"}},{"arcs":[[618,619,620,-380,621,-618,622]],"type":"Polygon","properties":{"state":"WV","name":"CHARLESTON","zip":"25302"}},{"arcs":[[623,-372,624,-619,625]],"type":"Polygon","properties":{"state":"WV","name":"CHARLESTON","zip":"25303"}},{"arcs":[[626,627,628,629,-419]],"type":"Polygon","properties":{"state":"WV","name":"CHARLESTON","zip":"25304"}},{"arcs":[[630,-629,631,-378,-328,-288,-269]],"type":"Polygon","properties":{"state":"WV","name":"CHARLESTON","zip":"25306"}},{"arcs":[[632,-236,633,-514,-503,-373,-624]],"type":"Polygon","properties":{"state":"WV","name":"CHARLESTON","zip":"25309"}},{"arcs":[[634,-616,-622,-379,-632,-628]],"type":"Polygon","properties":{"state":"WV","name":"CHARLESTON","zip":"25311"}},{"arcs":[[635,-494,-454,636,-620,-625,-377]],"type":"Polygon","properties":{"state":"WV","name":"CHARLESTON","zip":"25312"}},{"arcs":[[-376,-478,-495,-636]],"type":"Polygon","properties":{"state":"WV","name":"CHARLESTON","zip":"25313"}},{"arcs":[[-633,-626,-623,-617,-635,-627,-418,-258,-237]],"type":"Polygon","properties":{"state":"WV","name":"CHARLESTON","zip":"25314"}},{"arcs":[[-420,-630,-631,-268,-305]],"type":"Polygon","properties":{"state":"WV","name":"CHARLESTON","zip":"25315"}},{"arcs":[[-621,-637,-453,-560,-522,-613,-381]],"type":"Polygon","properties":{"state":"WV","name":"CHARLESTON","zip":"25320"}},{"arcs":[[637,638,639,640,641,642,643,644,645,646]],"type":"Polygon","properties":{"state":"WV","name":"MARTINSBURG","zip":"25401"}},{"arcs":[[647,648,649,650]],"type":"Polygon","properties":{"state":"WV","name":"BERKELEY SPRINGS","zip":"25411"}},{"arcs":[[651,652,653,-641,654]],"type":"Polygon","properties":{"state":"WV","name":"BUNKER HILL","zip":"25413"}},{"arcs":[[655,656,657,658,659]],"type":"Polygon","properties":{"state":"WV","name":"CHARLES TOWN","zip":"25414"}},{"arcs":[[-645,660]],"type":"Polygon","properties":{"state":"WV","name":"FALLING WATERS","zip":"25419"}},{"arcs":[[661,662,-642,-654]],"type":"Polygon","properties":{"state":"WV","name":"GERRARDSTOWN","zip":"25420"}},{"arcs":[[663,664,-649]],"type":"Polygon","properties":{"state":"WV","name":"GREAT CACAPON","zip":"25422"}},{"arcs":[[665,-656,666,667,668]],"type":"Polygon","properties":{"state":"WV","name":"HARPERS FERRY","zip":"25425"}},{"arcs":[[669,-651,670,-643,-663]],"type":"Polygon","properties":{"state":"WV","name":"HEDGESVILLE","zip":"25427"}},{"arcs":[[-640,671,-655]],"type":"Polygon","properties":{"state":"WV","name":"INWOOD","zip":"25428"}},{"arcs":[[-652,-672,-639,672,-659,673]],"type":"Polygon","properties":{"state":"WV","name":"KEARNEYSVILLE","zip":"25430"}},{"arcs":[[674,675,676,677]],"type":"Polygon","properties":{"state":"WV","name":"LEVELS","zip":"25431"}},{"arcs":[[678,679,680,681,-678,682,-664,683]],"type":"Polygon","properties":{"state":"WV","name":"PAW PAW","zip":"25434"}},{"arcs":[[684,685,686,-675,-682]],"type":"Polygon","properties":{"state":"WV","name":"POINTS","zip":"25437"}},{"arcs":[[-638,687,-667,-660,-673]],"type":"Polygon","properties":{"state":"WV","name":"SHENANDOAH JUNCTION","zip":"25442"}},{"arcs":[[-647,688,-668,-688]],"type":"Polygon","properties":{"state":"WV","name":"SHEPHERDSTOWN","zip":"25443"}},{"arcs":[[689,690,-685,-681]],"type":"Polygon","properties":{"state":"WV","name":"SLANESVILLE","zip":"25444"}},{"arcs":[[691,-674,-658]],"type":"Polygon","properties":{"state":"WV","name":"SUMMIT POINT","zip":"25446"}},{"arcs":[[692,693,694,695,696,697,698,699]],"type":"Polygon","properties":{"state":"WV","name":"ALKOL","zip":"25501"}},{"arcs":[[700,701,702,-510,-395,703]],"type":"Polygon","properties":{"state":"WV","name":"APPLE GROVE","zip":"25502"}},{"arcs":[[704,-704,-394]],"type":"Polygon","properties":{"state":"WV","name":"ASHTON","zip":"25503"}},{"arcs":[[705,706,707,708,709,710,711,712,713]],"type":"Polygon","properties":{"state":"WV","name":"BARBOURSVILLE","zip":"25504"}},{"arcs":[[[714,-706,715,716,717]],[[718,719,720,721,722,723,-693]]],"type":"MultiPolygon","properties":{"state":"WV","name":"BRANCHLAND","zip":"25506"}},{"arcs":[[724,725,726,727,728,-349,-422,-441]],"type":"Polygon","properties":{"state":"WV","name":"CHAPMANVILLE","zip":"25508"}},{"arcs":[[729,730,731,732]],"type":"Polygon","properties":{"state":"WV","name":"CULLODEN","zip":"25510"}},{"arcs":[[733,734,735,736]],"type":"Polygon","properties":{"state":"WV","name":"DUNLOW","zip":"25511"}},{"arcs":[[737,738,739,-707,-715,740,741]],"type":"Polygon","properties":{"state":"WV","name":"EAST LYNN","zip":"25512"}},{"arcs":[[742,743,744,745]],"type":"Polygon","properties":{"state":"WV","name":"FORT GAY","zip":"25514"}},{"arcs":[[-414,746,-569,-511,-703,747]],"type":"Polygon","properties":{"state":"WV","name":"GALLIPOLIS FERRY","zip":"25515"}},{"arcs":[[748,749,750,-743,751,-738,-736]],"type":"Polygon","properties":{"state":"WV","name":"GENOA","zip":"25517"}},{"arcs":[[752,753,754,755,-701,-705,-393,-732]],"type":"Polygon","properties":{"state":"WV","name":"GLENWOOD","zip":"25520"}},{"arcs":[[756,-695,757,758,759]],"type":"Polygon","properties":{"state":"WV","name":"GRIFFITHSVILLE","zip":"25521"}},{"arcs":[[-724,760,761,762,763,-730,764,-758,-694]],"type":"Polygon","properties":{"state":"WV","name":"HAMLIN","zip":"25523"}},{"arcs":[[765,766,767,-734,768,769,770,-720,771,-728]],"type":"Polygon","properties":{"state":"WV","name":"HARTS","zip":"25524"}},{"arcs":[[772,-759,-765,-733,-392,-519,773,-501,-516]],"type":"Polygon","properties":{"state":"WV","name":"HURRICANE","zip":"25526"}},{"arcs":[[-351,-699,774,775,-233,-499,-389]],"type":"Polygon","properties":{"state":"WV","name":"JULIAN","zip":"25529"}},{"arcs":[[776,777]],"type":"Polygon","properties":{"state":"WV","name":"KENOVA","zip":"25530"}},{"arcs":[[-737,-742,778,-769]],"type":"Polygon","properties":{"state":"WV","name":"KIAHSVILLE","zip":"25534"}},{"arcs":[[779,780,781,-708,-740]],"type":"Polygon","properties":{"state":"WV","name":"LAVALETTE","zip":"25535"}},{"arcs":[[782,783,784,-755]],"type":"Polygon","properties":{"state":"WV","name":"LESAGE","zip":"25537"}},{"arcs":[[785,-721,-771]],"type":"Polygon","properties":{"state":"WV","name":"MIDKIFF","zip":"25540"}},{"arcs":[[786,787,-713,788,-753,-731,-764]],"type":"Polygon","properties":{"state":"WV","name":"MILTON","zip":"25541"}},{"arcs":[[789,-761,-723]],"type":"Polygon","properties":{"state":"WV","name":"MYRA","zip":"25544"}},{"arcs":[[-712,790,-783,-754,-789]],"type":"Polygon","properties":{"state":"WV","name":"ONA","zip":"25545"}},{"arcs":[[791,792,-725,-440]],"type":"Polygon","properties":{"state":"WV","name":"PECKS MILL","zip":"25547"}},{"arcs":[[-747,-416,793,-614,-570]],"type":"Polygon","properties":{"state":"WV","name":"POINT PLEASANT","zip":"25550"}},{"arcs":[[794,795,796,-745]],"type":"Polygon","properties":{"state":"WV","name":"PRICHARD","zip":"25555"}},{"arcs":[[-718,797,-762,-790,-722,-786,-770,-779,-741]],"type":"Polygon","properties":{"state":"WV","name":"RANGER","zip":"25557"}},{"arcs":[[798,-716,-714,-788]],"type":"Polygon","properties":{"state":"WV","name":"SALT ROCK","zip":"25559"}},{"arcs":[[-774,-518,-480,-502]],"type":"Polygon","properties":{"state":"WV","name":"SCOTT DEPOT","zip":"25560"}},{"arcs":[[-773,-515,-634,-235,799,800,-760]],"type":"Polygon","properties":{"state":"WV","name":"SOD","zip":"25564"}},{"arcs":[[-772,-719,-700,-350,-729]],"type":"Polygon","properties":{"state":"WV","name":"SPURLOCKVILLE","zip":"25565"}},{"arcs":[[801,-697,802,-800,-234,-776]],"type":"Polygon","properties":{"state":"WV","name":"SUMERCO","zip":"25567"}},{"arcs":[[-797,803,-780,-739,-752,-746]],"type":"Polygon","properties":{"state":"WV","name":"WAYNE","zip":"25570"}},{"arcs":[[-717,-799,-787,-763,-798]],"type":"Polygon","properties":{"state":"WV","name":"WEST HAMLIN","zip":"25571"}},{"arcs":[[-698,-802,-775]],"type":"Polygon","properties":{"state":"WV","name":"WOODVILLE","zip":"25572"}},{"arcs":[[-696,-757,-801,-803]],"type":"Polygon","properties":{"state":"WV","name":"YAWKEY","zip":"25573"}},{"arcs":[[804,805,806,807,-726,-793,808,809,-333]],"type":"Polygon","properties":{"state":"WV","name":"LOGAN","zip":"25601"}},{"arcs":[[810,811,-283,-260,-65]],"type":"Polygon","properties":{"state":"WV","name":"AMHERSTDALE","zip":"25607"}},{"arcs":[[812,-91,813,814,815,816,817]],"type":"Polygon","properties":{"state":"WV","name":"BAISDEN","zip":"25608"}},{"arcs":[[818,-63,-61]],"type":"Polygon","properties":{"state":"WV","name":"DAVIN","zip":"25617"}},{"arcs":[[819,-71,-92,-813]],"type":"Polygon","properties":{"state":"WV","name":"GILBERT","zip":"25621"}},{"arcs":[[820,-817,821]],"type":"Polygon","properties":{"state":"WV","name":"HAMPDEN","zip":"25623"}},{"arcs":[[822,-334,-810,823,824,825]],"type":"Polygon","properties":{"state":"WV","name":"LYBURN","zip":"25632"}},{"arcs":[[-106,826,-825,827,-811,-64,-819]],"type":"Polygon","properties":{"state":"WV","name":"MAN","zip":"25635"}},{"arcs":[[-816,828,829,-805,-332,-823,-822]],"type":"Polygon","properties":{"state":"WV","name":"OMAR","zip":"25638"}},{"arcs":[[-72,-820,-818,-821,-826,-827,-105]],"type":"Polygon","properties":{"state":"WV","name":"VERNER","zip":"25650"}},{"arcs":[[830,831,-814,-90,832]],"type":"Polygon","properties":{"state":"WV","name":"WHARNCLIFFE","zip":"25651"}},{"arcs":[[-828,-824,-809,-792,-439,-424,-430,-279,-812]],"type":"Polygon","properties":{"state":"WV","name":"YOLYN","zip":"25654"}},{"arcs":[[833,834,835,836]],"type":"Polygon","properties":{"state":"WV","name":"WILLIAMSON","zip":"25661"}},{"arcs":[[837,838,839,-767]],"type":"Polygon","properties":{"state":"WV","name":"BREEDEN","zip":"25666"}},{"arcs":[[840,841,-750,842]],"type":"Polygon","properties":{"state":"WV","name":"CRUM","zip":"25669"}},{"arcs":[[843,-837,844,-806,-830,845]],"type":"Polygon","properties":{"state":"WV","name":"DELBARTON","zip":"25670"}},{"arcs":[[-808,846,847,-838,-766,-727]],"type":"Polygon","properties":{"state":"WV","name":"DINGESS","zip":"25671"}},{"arcs":[[848,849,-841,850,-839,-848]],"type":"Polygon","properties":{"state":"WV","name":"KERMIT","zip":"25674"}},{"arcs":[[-836,851,-849,-847,-807,-845]],"type":"Polygon","properties":{"state":"WV","name":"LENORE","zip":"25676"}},{"arcs":[[852,853,-834,-844,854]],"type":"Polygon","properties":{"state":"WV","name":"MATEWAN","zip":"25678"}},{"arcs":[[855,-855,-846,-829,-815,-832,856]],"type":"Polygon","properties":{"state":"WV","name":"MEADOR","zip":"25682"}},{"arcs":[[857,-853,-856]],"type":"Polygon","properties":{"state":"WV","name":"THACKER","zip":"25694"}},{"arcs":[[-851,-843,-749,-735,-768,-840]],"type":"Polygon","properties":{"state":"WV","name":"WILSONDALE","zip":"25699"}},{"arcs":[[858,859,860,861,-709,-782]],"type":"Polygon","properties":{"state":"WV","name":"HUNTINGTON","zip":"25701"}},{"arcs":[[862,863,-784,-791,-711,864]],"type":"Polygon","properties":{"state":"WV","name":"HUNTINGTON","zip":"25702"}},{"arcs":[[865,-861,866,-863]],"type":"Polygon","properties":{"state":"WV","name":"HUNTINGTON","zip":"25703"}},{"arcs":[[-796,867,-778,868,-859,-781,-804]],"type":"Polygon","properties":{"state":"WV","name":"HUNTINGTON","zip":"25704"}},{"arcs":[[-862,-866,-865,-710]],"type":"Polygon","properties":{"state":"WV","name":"HUNTINGTON","zip":"25705"}},{"arcs":[[869,870,-517,-320,871,872,873,874,875,876]],"type":"Polygon","properties":{"state":"WV","name":"BECKLEY","zip":"25801"}},{"arcs":[[877,878,879,-20]],"type":"Polygon","properties":{"state":"WV","name":"AMIGO","zip":"25811"}},{"arcs":[[880,881,882,883]],"type":"Polygon","properties":{"state":"WV","name":"ANSTED","zip":"25812"}},{"arcs":[[884,885,886,887,888,889,-875,890,891,892]],"type":"Polygon","properties":{"state":"WV","name":"BEAVER","zip":"25813"}},{"arcs":[[893,894,-97,-507,895]],"type":"Polygon","properties":{"state":"WV","name":"BOLT","zip":"25817"}},{"arcs":[[896,-13,-31,897]],"type":"Polygon","properties":{"state":"WV","name":"CAMP CREEK","zip":"25820"}},{"arcs":[[898,899,900,901,902,903]],"type":"Polygon","properties":{"state":"WV","name":"COAL CITY","zip":"25823"}},{"arcs":[[904,905,-902,906,907,908,909,910]],"type":"Polygon","properties":{"state":"WV","name":"COOL RIDGE","zip":"25825"}},{"arcs":[[911,912,913,914,-877]],"type":"Polygon","properties":{"state":"WV","name":"CRAB ORCHARD","zip":"25827"}},{"arcs":[[915,916,-892,917,918,919,920]],"type":"Polygon","properties":{"state":"WV","name":"DANESE","zip":"25831"}},{"arcs":[[921,922,-889]],"type":"Polygon","properties":{"state":"WV","name":"DANIELS","zip":"25832"}},{"arcs":[[923,-896,-506,924,925]],"type":"Polygon","properties":{"state":"WV","name":"FAIRDALE","zip":"25839"}},{"arcs":[[926,927,-920,928,929,930,-438,-500,-469,-405,931,-882,932,933,934]],"type":"Polygon","properties":{"state":"WV","name":"FAYETTEVILLE","zip":"25840"}},{"arcs":[[935,936,937,938]],"type":"Polygon","properties":{"state":"WV","name":"FLAT TOP","zip":"25841"}},{"arcs":[[939,-937,940,-910]],"type":"Polygon","properties":{"state":"WV","name":"GHENT","zip":"25843"}},{"arcs":[[941,942,-925,-505,-246,-362,-871]],"type":"Polygon","properties":{"state":"WV","name":"GLEN DANIEL","zip":"25844"}},{"arcs":[[-87,-82,943,-102]],"type":"Polygon","properties":{"state":"WV","name":"GLEN FORK","zip":"25845"}},{"arcs":[[944,-912,-876,-890,-923,945,-900,946]],"type":"Polygon","properties":{"state":"WV","name":"GLEN MORGAN","zip":"25847"}},{"arcs":[[947,948,-98,-895,949]],"type":"Polygon","properties":{"state":"WV","name":"GLEN ROGERS","zip":"25848"}},{"arcs":[[950,951,-935,952,953,954,955,956]],"type":"Polygon","properties":{"state":"WV","name":"HICO","zip":"25854"}},{"arcs":[[957,-903,-906]],"type":"Polygon","properties":{"state":"WV","name":"JONBEN","zip":"25856"}},{"arcs":[[958,959,-904,-958,-905,960]],"type":"Polygon","properties":{"state":"WV","name":"JOSEPHINE","zip":"25857"}},{"arcs":[[961,-953,-934]],"type":"Polygon","properties":{"state":"WV","name":"LANSING","zip":"25862"}},{"arcs":[[-874,962,-918,-891]],"type":"Polygon","properties":{"state":"WV","name":"LAYLAND","zip":"25864"}},{"arcs":[[963,-926,-943,964,-914]],"type":"Polygon","properties":{"state":"WV","name":"LESTER","zip":"25865"}},{"arcs":[[965,-927,-952,966]],"type":"Polygon","properties":{"state":"WV","name":"LOOKOUT","zip":"25868"}},{"arcs":[[967,968,969,970,-948]],"type":"Polygon","properties":{"state":"WV","name":"MABEN","zip":"25870"}},{"arcs":[[971,-970,972,-18,-103]],"type":"Polygon","properties":{"state":"WV","name":"SAULSVILLE","zip":"25876"}},{"arcs":[[973,974,-873]],"type":"Polygon","properties":{"state":"WV","name":"MOUNT HOPE","zip":"25880"}},{"arcs":[[-19,-973,-969,975,-878]],"type":"Polygon","properties":{"state":"WV","name":"MULLENS","zip":"25882"}},{"arcs":[[-919,-963,-975,976,-462,-435,-931,977,-929]],"type":"Polygon","properties":{"state":"WV","name":"OAK HILL","zip":"25901"}},{"arcs":[[978,979,-961,-911,-941,-936,980,-22]],"type":"Polygon","properties":{"state":"WV","name":"ODD","zip":"25902"}},{"arcs":[[981,982,-947,-899,-960]],"type":"Polygon","properties":{"state":"WV","name":"PRINCEWICK","zip":"25908"}},{"arcs":[[983,-884,984,985,986,987,988,-955]],"type":"Polygon","properties":{"state":"WV","name":"RAMSEY","zip":"25912"}},{"arcs":[[-99,-949,-971,-972,-944,-81]],"type":"Polygon","properties":{"state":"WV","name":"RAVENCLIFF","zip":"25913"}},{"arcs":[[989,-982,-959,-980,990,-879]],"type":"Polygon","properties":{"state":"WV","name":"RHODELL","zip":"25915"}},{"arcs":[[-252,-463,-977,-974,-872,-319]],"type":"Polygon","properties":{"state":"WV","name":"SCARBRO","zip":"25917"}},{"arcs":[[991,-907,-901,-946,-922,-888]],"type":"Polygon","properties":{"state":"WV","name":"SHADY SPRING","zip":"25918"}},{"arcs":[[-990,-976,-968,-950,-894,-924,-964,-913,-945,-983]],"type":"Polygon","properties":{"state":"WV","name":"SLAB FORK","zip":"25920"}},{"arcs":[[-9,-897,992,993,-34,-25,-38]],"type":"Polygon","properties":{"state":"WV","name":"SPANISHBURG","zip":"25922"}},{"arcs":[[-21,-880,-991,-979]],"type":"Polygon","properties":{"state":"WV","name":"STEPHENSON","zip":"25928"}},{"arcs":[[-965,-942,-870,-915]],"type":"Polygon","properties":{"state":"WV","name":"SURVEYOR","zip":"25932"}},{"arcs":[[-930,-978]],"type":"Polygon","properties":{"state":"WV","name":"THURMOND","zip":"25936"}},{"arcs":[[-933,-881,-984,-954,-962]],"type":"Polygon","properties":{"state":"WV","name":"VICTOR","zip":"25938"}},{"arcs":[[-228,-169,994,995,996,997,-886,998,-119,-222]],"type":"Polygon","properties":{"state":"WV","name":"HINTON","zip":"25951"}},{"arcs":[[999,1000,1001]],"type":"Polygon","properties":{"state":"WV","name":"CHARMCO","zip":"25958"}},{"arcs":[[-928,-966,1002,-1000,1003,-162,-205,1004,-921]],"type":"Polygon","properties":{"state":"WV","name":"RAINELLE","zip":"25962"}},{"arcs":[[1005,1006,1007,-184,-122]],"type":"Polygon","properties":{"state":"WV","name":"ELTON","zip":"25965"}},{"arcs":[[1008,1009,1010,-1006,-121]],"type":"Polygon","properties":{"state":"WV","name":"GREEN SULPHUR SPRINGS","zip":"25966"}},{"arcs":[[1011,1012,-938,-940,-909,1013,-997,1014]],"type":"Polygon","properties":{"state":"WV","name":"JUMPING BRANCH","zip":"25969"}},{"arcs":[[-7,-35,-994,1015]],"type":"Polygon","properties":{"state":"WV","name":"LERONA","zip":"25971"}},{"arcs":[[1016,-916,-1005,-204,-186,1017,-1007,-1011]],"type":"Polygon","properties":{"state":"WV","name":"MEADOW BRIDGE","zip":"25976"}},{"arcs":[[1018,-893,-917,-1017,-1010]],"type":"Polygon","properties":{"state":"WV","name":"MEADOW CREEK","zip":"25977"}},{"arcs":[[-996,1019,-1015]],"type":"Polygon","properties":{"state":"WV","name":"NIMITZ","zip":"25978"}},{"arcs":[[-1013,1020,-168,1021]],"type":"Polygon","properties":{"state":"WV","name":"PIPESTEM","zip":"25979"}},{"arcs":[[-967,1022,1023,1024,-212,-230,-164,1025,-1001,-1003]],"type":"Polygon","properties":{"state":"WV","name":"QUINWOOD","zip":"25981"}},{"arcs":[[-1004,-1002,-1026,-163]],"type":"Polygon","properties":{"state":"WV","name":"RUPERT","zip":"25984"}},{"arcs":[[-885,-1019,-1009,-120,-999]],"type":"Polygon","properties":{"state":"WV","name":"SANDSTONE","zip":"25985"}},{"arcs":[[1017,1007,184]],"type":"Polygon","properties":{"state":"WV","name":"SPRING DALE","zip":"25986"}},{"arcs":[[-1021,-1012,-1020,-995]],"type":"Polygon","properties":{"state":"WV","name":"TRUE","zip":"25988"}},{"arcs":[[-887,-998,-1014,-908,-992]],"type":"Polygon","properties":{"state":"WV","name":"WHITE OAK","zip":"25989"}},{"arcs":[[1026,1027,1028,1029,1030,1031,1032,1033]],"type":"Polygon","properties":{"state":"WV","name":"WHEELING","zip":"26003"}},{"arcs":[[1034,1035,1036,-1030]],"type":"Polygon","properties":{"state":"WV","name":"BENWOOD","zip":"26031"}},{"arcs":[[1037,1038,1039,1040,1041,1042,1043]],"type":"Polygon","properties":{"state":"WV","name":"CAMERON","zip":"26033"}},{"arcs":[[1044,1045,1046]],"type":"Polygon","properties":{"state":"WV","name":"CHESTER","zip":"26034"}},{"arcs":[[1047,1048,1049,1050,1051]],"type":"Polygon","properties":{"state":"WV","name":"COLLIERS","zip":"26035"}},{"arcs":[[1052,-1040,1053,1054,-1027,1055]],"type":"Polygon","properties":{"state":"WV","name":"DALLAS","zip":"26036"}},{"arcs":[[1056,1057,-1050]],"type":"Polygon","properties":{"state":"WV","name":"FOLLANSBEE","zip":"26037"}},{"arcs":[[1058,-1035,-1029,1059,1060]],"type":"Polygon","properties":{"state":"WV","name":"GLEN DALE","zip":"26038"}},{"arcs":[[1061,1062,-1054,-1039]],"type":"Polygon","properties":{"state":"WV","name":"GLEN EASTON","zip":"26039"}},{"arcs":[[-1036,-1059,1063]],"type":"Polygon","properties":{"state":"WV","name":"MC MECHEN","zip":"26040"}},{"arcs":[[-1060,-1028,-1055,-1063,1064,1065]],"type":"Polygon","properties":{"state":"WV","name":"MOUNDSVILLE","zip":"26041"}},{"arcs":[[1066,-1045,1067,1068,1069]],"type":"Polygon","properties":{"state":"WV","name":"NEW CUMBERLAND","zip":"26047"}},{"arcs":[[-1046,-1067,1070]],"type":"Polygon","properties":{"state":"WV","name":"NEWELL","zip":"26050"}},{"arcs":[[1071,1072,-1065,-1062,-1038,1073,1074]],"type":"Polygon","properties":{"state":"WV","name":"PROCTOR","zip":"26055"}},{"arcs":[[1075,-1056,-1034,1076]],"type":"Polygon","properties":{"state":"WV","name":"TRIADELPHIA","zip":"26059"}},{"arcs":[[1077,-1077,-1033,1078]],"type":"Polygon","properties":{"state":"WV","name":"VALLEY GROVE","zip":"26060"}},{"arcs":[[-1069,1079,-1052,1080]],"type":"Polygon","properties":{"state":"WV","name":"WEIRTON","zip":"26062"}},{"arcs":[[-1057,-1049,1081,-1079,-1032,1082]],"type":"Polygon","properties":{"state":"WV","name":"WELLSBURG","zip":"26070"}},{"arcs":[[1083,1084,1085,1086,1087,1088]],"type":"Polygon","properties":{"state":"WV","name":"PARKERSBURG","zip":"26101"}},{"arcs":[[1089,1090,-1089,1091,1092,1093,1094]],"type":"Polygon","properties":{"state":"WV","name":"PARKERSBURG","zip":"26104"}},{"arcs":[[-1092,-1088,1095]],"type":"Polygon","properties":{"state":"WV","name":"VIENNA","zip":"26105"}},{"arcs":[[1096,1097,1098,1099,1100]],"type":"Polygon","properties":{"state":"WV","name":"BELLEVILLE","zip":"26133"}},{"arcs":[[1101,1102,1103]],"type":"Polygon","properties":{"state":"WV","name":"BELMONT","zip":"26134"}},{"arcs":[[1104,1105,1106,1107]],"type":"Polygon","properties":{"state":"WV","name":"BENS RUN","zip":"26135"}},{"arcs":[[1108,1109,1110,1111,1112,1113,1114]],"type":"Polygon","properties":{"state":"WV","name":"BIG BEND","zip":"26136"}},{"arcs":[[1115,-1109,1116,1117,-593]],"type":"Polygon","properties":{"state":"WV","name":"BIG SPRINGS","zip":"26137"}},{"arcs":[[1118,1119,-1113]],"type":"Polygon","properties":{"state":"WV","name":"BROHARD","zip":"26138"}},{"arcs":[[1120,1121,1122,-1111,1123,-526,-611]],"type":"Polygon","properties":{"state":"WV","name":"CRESTON","zip":"26141"}},{"arcs":[[1124,-1084,-1091,1125]],"type":"Polygon","properties":{"state":"WV","name":"DAVISVILLE","zip":"26142"}},{"arcs":[[1126,1127,1128,1129,1130,1131,1132,-1122,1133,-566]],"type":"Polygon","properties":{"state":"WV","name":"ELIZABETH","zip":"26143"}},{"arcs":[[1134,1135,-1108,1136]],"type":"Polygon","properties":{"state":"WV","name":"FRIENDLY","zip":"26146"}},{"arcs":[[1137,-527,-1124,-1110,-1116,-592,-530,-584]],"type":"Polygon","properties":{"state":"WV","name":"GRANTSVILLE","zip":"26147"}},{"arcs":[[1138,-1132,1139,1140,1141,-1114,-1120]],"type":"Polygon","properties":{"state":"WV","name":"MACFARLAN","zip":"26148"}},{"arcs":[[1142,1143,1144,-1105,-1136,1145,1146,1147]],"type":"Polygon","properties":{"state":"WV","name":"MIDDLEBOURNE","zip":"26149"}},{"arcs":[[1148,-1085,-1125,1149,-1129,1150,-1101]],"type":"Polygon","properties":{"state":"WV","name":"MINERAL WELLS","zip":"26150"}},{"arcs":[[-1138,-583,-528]],"type":"Polygon","properties":{"state":"WV","name":"MOUNT ZION","zip":"26151"}},{"arcs":[[-1139,-1119,-1112,-1123,-1133]],"type":"Polygon","properties":{"state":"WV","name":"MUNDAY","zip":"26152"}},{"arcs":[[1151,1152,1153,-1072,1154]],"type":"Polygon","properties":{"state":"WV","name":"NEW MARTINSVILLE","zip":"26155"}},{"arcs":[[1155,1156,-1153]],"type":"Polygon","properties":{"state":"WV","name":"PADEN CITY","zip":"26159"}},{"arcs":[[-602,-567,-1134,-1121,-610]],"type":"Polygon","properties":{"state":"WV","name":"PALESTINE","zip":"26160"}},{"arcs":[[1157,-1140,-1131,1158,1159,1160]],"type":"Polygon","properties":{"state":"WV","name":"PETROLEUM","zip":"26161"}},{"arcs":[[-1098,1161,-1127,-565,-609,1162,-607,-604,-540,-586,1163]],"type":"Polygon","properties":{"state":"WV","name":"RAVENSWOOD","zip":"26164"}},{"arcs":[[1164,1165,-1147,1166,-1155,-1075,1167,1168]],"type":"Polygon","properties":{"state":"WV","name":"READER","zip":"26167"}},{"arcs":[[-1162,-1097,-1151,-1128]],"type":"Polygon","properties":{"state":"WV","name":"ROCKPORT","zip":"26169"}},{"arcs":[[-1106,-1145,1169,1170,1171,1172,-1104,1173]],"type":"Polygon","properties":{"state":"WV","name":"SAINT MARYS","zip":"26170"}},{"arcs":[[-608,-1163]],"type":"Polygon","properties":{"state":"WV","name":"SHERMAN","zip":"26173"}},{"arcs":[[-1156,-1152,-1167,-1146,-1135,1174]],"type":"Polygon","properties":{"state":"WV","name":"SISTERSVILLE","zip":"26175"}},{"arcs":[[1175,-1117,-1115,-1142,1176]],"type":"Polygon","properties":{"state":"WV","name":"SMITHVILLE","zip":"26178"}},{"arcs":[[-1126,-1090,1177,-1159,-1130,-1150]],"type":"Polygon","properties":{"state":"WV","name":"WALKER","zip":"26180"}},{"arcs":[[-1086,-1149,-1100,1178]],"type":"Polygon","properties":{"state":"WV","name":"WASHINGTON","zip":"26181"}},{"arcs":[[1179,1180,-1102,-1173,1181,-1160,-1178,-1095]],"type":"Polygon","properties":{"state":"WV","name":"WAVERLY","zip":"26184"}},{"arcs":[[1182,-1168,-1074,-1044,1183]],"type":"Polygon","properties":{"state":"WV","name":"WILEYVILLE","zip":"26186"}},{"arcs":[[-1180,-1094,1184]],"type":"Polygon","properties":{"state":"WV","name":"WILLIAMSTOWN","zip":"26187"}},{"arcs":[[1185,1186,1187,1188,1189,1190,1191,1192,1193,1194,1195,1196]],"type":"Polygon","properties":{"state":"WV","name":"BUCKHANNON","zip":"26201"}},{"arcs":[[1197,1198,1199,1200]],"type":"Polygon","properties":{"state":"WV","name":"FENWICK","zip":"26202"}},{"arcs":[[1201,1202,1203]],"type":"Polygon","properties":{"state":"WV","name":"ERBACON","zip":"26203"}},{"arcs":[[1204,1205,1206,1207,1208,1209,-1201]],"type":"Polygon","properties":{"state":"WV","name":"CRAIGSVILLE","zip":"26205"}},{"arcs":[[1210,1211,1212,-1202,1213,1214,1215,-199,-194,-214,1216,-1209]],"type":"Polygon","properties":{"state":"WV","name":"COWEN","zip":"26206"}},{"arcs":[[1217,-1211,-1208]],"type":"Polygon","properties":{"state":"WV","name":"CAMDEN ON GAULEY","zip":"26208"}},{"arcs":[[1218,1219,-1190]],"type":"Polygon","properties":{"state":"WV","name":"ADRIAN","zip":"26210"}},{"arcs":[[1220,1221,1222]],"type":"Polygon","properties":{"state":"WV","name":"CLEVELAND","zip":"26215"}},{"arcs":[[1223,1224,-1215,1225,1226,1227]],"type":"Polygon","properties":{"state":"WV","name":"DIANA","zip":"26217"}},{"arcs":[[1228,1229,1230,-1222,1231,1232,1233,-1219,-1189]],"type":"Polygon","properties":{"state":"WV","name":"FRENCH CREEK","zip":"26218"}},{"arcs":[[1234,1235,1236,1237,1238,-1228]],"type":"Polygon","properties":{"state":"WV","name":"HACKER VALLEY","zip":"26222"}},{"arcs":[[1239,1240,-1230,1241,1242,1243,1244,-1238]],"type":"Polygon","properties":{"state":"WV","name":"HELVETIA","zip":"26224"}},{"arcs":[[1245,1246,1247,1248,-1236]],"type":"Polygon","properties":{"state":"WV","name":"KANAWHA HEAD","zip":"26228"}},{"arcs":[[-1245,1249,1250,1251,-1224,-1239]],"type":"Polygon","properties":{"state":"WV","name":"PICKENS","zip":"26230"}},{"arcs":[[-1241,1252,-1248,1253,-1223,-1231]],"type":"Polygon","properties":{"state":"WV","name":"ROCK CAVE","zip":"26234"}},{"arcs":[[-1237,-1249,-1253,-1240]],"type":"Polygon","properties":{"state":"WV","name":"SELBYVILLE","zip":"26236"}},{"arcs":[[-1229,-1188,1254,1255,-1242]],"type":"Polygon","properties":{"state":"WV","name":"TALLMANSVILLE","zip":"26237"}},{"arcs":[[1256,1257,-1196]],"type":"Polygon","properties":{"state":"WV","name":"VOLGA","zip":"26238"}},{"arcs":[[1258,1259,1260,1261,1262,1263,1264]],"type":"Polygon","properties":{"state":"WV","name":"ELKINS","zip":"26241"}},{"arcs":[[1265,1266,-1197,-1258,1267,1268,-1260]],"type":"Polygon","properties":{"state":"WV","name":"BELINGTON","zip":"26250"}},{"arcs":[[1269,1270,1271,1272,-1265,1273,1274,1275]],"type":"Polygon","properties":{"state":"WV","name":"BEVERLY","zip":"26253"}},{"arcs":[[1276,1277,1278,1279,1280,-1263]],"type":"Polygon","properties":{"state":"WV","name":"BOWDEN","zip":"26254"}},{"arcs":[[-1187,1281,-1266,-1259,-1273,1282,-1255]],"type":"Polygon","properties":{"state":"WV","name":"COALTON","zip":"26257"}},{"arcs":[[1283,1284,1285,1286,1287,1288,1289,1290,1291]],"type":"Polygon","properties":{"state":"WV","name":"DAVIS","zip":"26260"}},{"arcs":[[1292,1293,-1198,-1210,-1217,-213,-1025]],"type":"Polygon","properties":{"state":"WV","name":"RICHWOOD","zip":"26261"}},{"arcs":[[1294,1295,-1286,1296]],"type":"Polygon","properties":{"state":"WV","name":"DRYFORK","zip":"26263"}},{"arcs":[[1297,-1275,1298,-146,-155]],"type":"Polygon","properties":{"state":"WV","name":"DURBIN","zip":"26264"}},{"arcs":[[-1186,-1267,-1282]],"type":"Polygon","properties":{"state":"WV","name":"ELLAMORE","zip":"26267"}},{"arcs":[[1299,-147,-1299,-1274,-1264,-1281,1300]],"type":"Polygon","properties":{"state":"WV","name":"GLADY","zip":"26268"}},{"arcs":[[1301,1302,1303,-1289]],"type":"Polygon","properties":{"state":"WV","name":"HAMBLETON","zip":"26269"}},{"arcs":[[-1280,1304,-1287,-1296,1305,1306,-1301]],"type":"Polygon","properties":{"state":"WV","name":"HARMAN","zip":"26270"}},{"arcs":[[1307,1308,-1302]],"type":"Polygon","properties":{"state":"WV","name":"HENDRICKS","zip":"26271"}},{"arcs":[[1309,-1251,1310,-1276,-1298,-154,1311]],"type":"Polygon","properties":{"state":"WV","name":"HUTTONSVILLE","zip":"26273"}},{"arcs":[[-1262,1312,1313,-1277]],"type":"Polygon","properties":{"state":"WV","name":"KERENS","zip":"26276"}},{"arcs":[[1314,1315,-1243,-1256,-1283,-1272]],"type":"Polygon","properties":{"state":"WV","name":"MABIE","zip":"26278"}},{"arcs":[[-1316,1316,-1270,-1311,-1250,-1244]],"type":"Polygon","properties":{"state":"WV","name":"MILL CREEK","zip":"26280"}},{"arcs":[[1317,-200,1318,-1252,-1310,1319]],"type":"Polygon","properties":{"state":"WV","name":"MONTERVILLE","zip":"26282"}},{"arcs":[[-1261,-1269,1320,1321,-1313]],"type":"Polygon","properties":{"state":"WV","name":"MONTROSE","zip":"26283"}},{"arcs":[[1322,-1278,-1314,-1322,1323,1324,1325,1326,1327,1328,-1303,-1309]],"type":"Polygon","properties":{"state":"WV","name":"PARSONS","zip":"26287"}},{"arcs":[[-1216,-1225,-1319]],"type":"Polygon","properties":{"state":"WV","name":"WEBSTER SPRINGS","zip":"26288"}},{"arcs":[[-1305,-1279,-1323,-1308,-1288]],"type":"Polygon","properties":{"state":"WV","name":"RED CREEK","zip":"26289"}},{"arcs":[[-201,-1318,1329,-152]],"type":"Polygon","properties":{"state":"WV","name":"SLATYFORK","zip":"26291"}},{"arcs":[[-1304,-1329,1330,1331,-1290]],"type":"Polygon","properties":{"state":"WV","name":"THOMAS","zip":"26292"}},{"arcs":[[-1315,-1271,-1317]],"type":"Polygon","properties":{"state":"WV","name":"VALLEY BEND","zip":"26293"}},{"arcs":[[-1330,-1320,-1312,-153]],"type":"Polygon","properties":{"state":"WV","name":"VALLEY HEAD","zip":"26294"}},{"arcs":[[1332,-148,-1300,-1307,1333]],"type":"Polygon","properties":{"state":"WV","name":"WHITMER","zip":"26296"}},{"arcs":[[1334,1335,1336,1337,1338,1339,1340,1341]],"type":"Polygon","properties":{"state":"WV","name":"CLARKSBURG","zip":"26301"}},{"arcs":[[1342,-1143,1343,1344]],"type":"Polygon","properties":{"state":"WV","name":"ALMA","zip":"26320"}},{"arcs":[[1345,1346,1347,1348,1349,1350]],"type":"Polygon","properties":{"state":"WV","name":"ALUM BRIDGE","zip":"26321"}},{"arcs":[[1351,1352,1353,1354,1355]],"type":"Polygon","properties":{"state":"WV","name":"AUBURN","zip":"26325"}},{"arcs":[[1356,-1354,1357,1358]],"type":"Polygon","properties":{"state":"WV","name":"BEREA","zip":"26327"}},{"arcs":[[1359,1360,1361,-1340,1362,1363,1364,1365]],"type":"Polygon","properties":{"state":"WV","name":"BRIDGEPORT","zip":"26330"}},{"arcs":[[1366,1367,1368,1369,-1335]],"type":"Polygon","properties":{"state":"WV","name":"BRISTOL","zip":"26332"}},{"arcs":[[1370,1371,1372,1373,1374,1375,1376,1377,1378,1379,1380,1381]],"type":"Polygon","properties":{"state":"WV","name":"BURNSVILLE","zip":"26335"}},{"arcs":[[1382,-1161,-1182,-1172,1383]],"type":"Polygon","properties":{"state":"WV","name":"CAIRO","zip":"26337"}},{"arcs":[[1384,1385,-1349]],"type":"Polygon","properties":{"state":"WV","name":"CAMDEN","zip":"26338"}},{"arcs":[[1386,1387,1388,1389]],"type":"Polygon","properties":{"state":"WV","name":"CENTER POINT","zip":"26339"}},{"arcs":[[1390,1391,-594,-1118,-1176,1392,-1352,1393,1394,-1346]],"type":"Polygon","properties":{"state":"WV","name":"COXS MILLS","zip":"26342"}},{"arcs":[[-1247,1395,1396,-1232,-1221,-1254]],"type":"Polygon","properties":{"state":"WV","name":"CRAWFORD","zip":"26343"}},{"arcs":[[-1171,1397,1398,-1384]],"type":"Polygon","properties":{"state":"WV","name":"ELLENBORO","zip":"26346"}},{"arcs":[[1399,1400,-1360]],"type":"Polygon","properties":{"state":"WV","name":"FLEMINGTON","zip":"26347"}},{"arcs":[[1401,-1389,1402,1403]],"type":"Polygon","properties":{"state":"WV","name":"FOLSOM","zip":"26348"}},{"arcs":[[1404,1405,-595,-1392,1406]],"type":"Polygon","properties":{"state":"WV","name":"GLENVILLE","zip":"26351"}},{"arcs":[[1407,1408,-1400,-1366,1409,1410,1411]],"type":"Polygon","properties":{"state":"WV","name":"GRAFTON","zip":"26354"}},{"arcs":[[-1353,-1393,-1177,-1141,-1158,-1383,-1399,1412,1413,-1358]],"type":"Polygon","properties":{"state":"WV","name":"HARRISVILLE","zip":"26362"}},{"arcs":[[1414,1415,-1191,-1220,-1234]],"type":"Polygon","properties":{"state":"WV","name":"HORNER","zip":"26372"}},{"arcs":[[1416,1417,1418,1419,-1411]],"type":"Polygon","properties":{"state":"WV","name":"INDEPENDENCE","zip":"26374"}},{"arcs":[[-1227,1420,1421,1422,1423,-1396,-1246,-1235]],"type":"Polygon","properties":{"state":"WV","name":"IRELAND","zip":"26376"}},{"arcs":[[1424,-1344,-1148,-1166,1425,1426,1427,-1387]],"type":"Polygon","properties":{"state":"WV","name":"JACKSONBURG","zip":"26377"}},{"arcs":[[1428,1429,1430,-1193]],"type":"Polygon","properties":{"state":"WV","name":"JANE LEW","zip":"26378"}},{"arcs":[[-1391,-1351,1431,-1379,1432,-1407]],"type":"Polygon","properties":{"state":"WV","name":"LINN","zip":"26384"}},{"arcs":[[1433,-1194,-1431,1434,-1368,1435,1436]],"type":"Polygon","properties":{"state":"WV","name":"LOST CREEK","zip":"26385"}},{"arcs":[[1437,-1337,1438,1439]],"type":"Polygon","properties":{"state":"WV","name":"LUMBERPORT","zip":"26386"}},{"arcs":[[1440,-1363,-1339]],"type":"Polygon","properties":{"state":"WV","name":"MEADOWBROOK","zip":"26404"}},{"arcs":[[1441,-1325,1442,-1408,1443,1444]],"type":"Polygon","properties":{"state":"WV","name":"MOATSVILLE","zip":"26405"}},{"arcs":[[1445,-1437,1446,-1341,-1362]],"type":"Polygon","properties":{"state":"WV","name":"MOUNT CLARE","zip":"26408"}},{"arcs":[[1447,1448,-1419,1449,1450]],"type":"Polygon","properties":{"state":"WV","name":"NEWBURG","zip":"26410"}},{"arcs":[[1451,-1394,-1356,1452,1453,1454,-1385,-1348]],"type":"Polygon","properties":{"state":"WV","name":"NEW MILTON","zip":"26411"}},{"arcs":[[1455,-1381]],"type":"Polygon","properties":{"state":"WV","name":"ORLANDO","zip":"26412"}},{"arcs":[[1456,1457,-1413,-1398,-1170,-1144,-1343]],"type":"Polygon","properties":{"state":"WV","name":"PENNSBORO","zip":"26415"}},{"arcs":[[-1446,-1361,-1401,-1409,-1443,-1324,-1321,-1268,-1257,-1195,-1434]],"type":"Polygon","properties":{"state":"WV","name":"PHILIPPI","zip":"26416"}},{"arcs":[[-1165,1458,-1426]],"type":"Polygon","properties":{"state":"WV","name":"PINE GROVE","zip":"26419"}},{"arcs":[[1459,-1359,-1414,-1458]],"type":"Polygon","properties":{"state":"WV","name":"PULLMAN","zip":"26421"}},{"arcs":[[-1442,1460,1461,1462,-1326]],"type":"Polygon","properties":{"state":"WV","name":"ROWLESBURG","zip":"26425"}},{"arcs":[[-1435,-1430,-1454,1463,-1345,-1425,-1390,1464,-1369]],"type":"Polygon","properties":{"state":"WV","name":"SALEM","zip":"26426"}},{"arcs":[[-1433,-1378,1465,1466,-1405]],"type":"Polygon","properties":{"state":"WV","name":"SAND FORK","zip":"26430"}},{"arcs":[[-1438,1467,1468,-1364,-1441,-1338]],"type":"Polygon","properties":{"state":"WV","name":"SHINNSTON","zip":"26431"}},{"arcs":[[-1388,-1428,1469,1470,-1403]],"type":"Polygon","properties":{"state":"WV","name":"SMITHFIELD","zip":"26437"}},{"arcs":[[-1420,-1449,1471,-1444,-1412]],"type":"Polygon","properties":{"state":"WV","name":"THORNTON","zip":"26440"}},{"arcs":[[-1395,-1452,-1347]],"type":"Polygon","properties":{"state":"WV","name":"TROY","zip":"26443"}},{"arcs":[[-1448,1472,1473,-1461,-1445,-1472]],"type":"Polygon","properties":{"state":"WV","name":"TUNNELTON","zip":"26444"}},{"arcs":[[-1456,-1380,1474,-1415,-1233,-1397,-1424,1475,-1382]],"type":"Polygon","properties":{"state":"WV","name":"WALKERSVILLE","zip":"26447"}},{"arcs":[[-1402,1476,1477,-1439,-1336,-1370,-1465]],"type":"Polygon","properties":{"state":"WV","name":"WALLACE","zip":"26448"}},{"arcs":[[-1436,-1367,-1342,-1447]],"type":"Polygon","properties":{"state":"WV","name":"WEST MILFORD","zip":"26451"}},{"arcs":[[-1475,-1432,-1350,-1386,-1455,-1429,-1192,-1416]],"type":"Polygon","properties":{"state":"WV","name":"WESTON","zip":"26452"}},{"arcs":[[-1355,-1357,-1460,-1457,-1464,-1453]],"type":"Polygon","properties":{"state":"WV","name":"WEST UNION","zip":"26456"}},{"arcs":[[1478,1479,1480,1481,1482,1483,1484,1485,1486,1487]],"type":"Polygon","properties":{"state":"WV","name":"MORGANTOWN","zip":"26501"}},{"arcs":[[1488,1489,-1479]],"type":"Polygon","properties":{"state":"WV","name":"MORGANTOWN","zip":"26505"}},{"arcs":[[1490,-1417,1491,-1480,-1490,1492,1493,1494,1495]],"type":"Polygon","properties":{"state":"WV","name":"MORGANTOWN","zip":"26508"}},{"arcs":[[1496,1497,1498]],"type":"Polygon","properties":{"state":"WV","name":"ALBRIGHT","zip":"26519"}},{"arcs":[[1499,1500,1501,1502,-1485]],"type":"Polygon","properties":{"state":"WV","name":"BLACKSVILLE","zip":"26521"}},{"arcs":[[1503,1504,-1495,1505,1506,-1498]],"type":"Polygon","properties":{"state":"WV","name":"BRUCETON MILLS","zip":"26525"}},{"arcs":[[1507,-1500,-1484]],"type":"Polygon","properties":{"state":"WV","name":"CORE","zip":"26529"}},{"arcs":[[1508,1509,-1504,-1497,1510,-1473,-1451]],"type":"Polygon","properties":{"state":"WV","name":"KINGWOOD","zip":"26537"}},{"arcs":[[-1488,1511,1512,-1493,-1489]],"type":"Polygon","properties":{"state":"WV","name":"MAIDSVILLE","zip":"26541"}},{"arcs":[[1513,-1496,-1505,-1510]],"type":"Polygon","properties":{"state":"WV","name":"MASONTOWN","zip":"26542"}},{"arcs":[[1514,-1512,-1487]],"type":"Polygon","properties":{"state":"WV","name":"PURSGLOVE","zip":"26546"}},{"arcs":[[-1450,-1418,-1491,-1514,-1509]],"type":"Polygon","properties":{"state":"WV","name":"REEDSVILLE","zip":"26547"}},{"arcs":[[1515,1516,1517,1518,-1481,-1492,-1410,-1365,-1469]],"type":"Polygon","properties":{"state":"WV","name":"FAIRMONT","zip":"26554"}},{"arcs":[[-1459,-1169,-1183,1519,1520,1521,-1470,-1427]],"type":"Polygon","properties":{"state":"WV","name":"BIG RUN","zip":"26561"}},{"arcs":[[1522,1523,1524,1525,1526]],"type":"Polygon","properties":{"state":"WV","name":"BURTON","zip":"26562"}},{"arcs":[[-1440,-1478,1527,1528,-1468]],"type":"Polygon","properties":{"state":"WV","name":"ENTERPRISE","zip":"26568"}},{"arcs":[[1529,-1518,1530,1531,1532,1533,-1501,-1508,-1483]],"type":"Polygon","properties":{"state":"WV","name":"FAIRVIEW","zip":"26570"}},{"arcs":[[1534,-1531,-1517,1535]],"type":"Polygon","properties":{"state":"WV","name":"FARMINGTON","zip":"26571"}},{"arcs":[[1536,-1042,1537,-1525,1538]],"type":"Polygon","properties":{"state":"WV","name":"HUNDRED","zip":"26575"}},{"arcs":[[-1184,-1043,-1537,1539,-1520]],"type":"Polygon","properties":{"state":"WV","name":"LITTLETON","zip":"26581"}},{"arcs":[[-1471,-1522,1540,1541,-1532,-1535,1542,-1528,-1477,-1404]],"type":"Polygon","properties":{"state":"WV","name":"MANNINGTON","zip":"26582"}},{"arcs":[[-1540,-1539,-1524,-1541,-1521]],"type":"Polygon","properties":{"state":"WV","name":"METZ","zip":"26585"}},{"arcs":[[-1530,-1482,-1519]],"type":"Polygon","properties":{"state":"WV","name":"RIVESVILLE","zip":"26588"}},{"arcs":[[-1542,-1523,1543,-1533]],"type":"Polygon","properties":{"state":"WV","name":"WADESTOWN","zip":"26589"}},{"arcs":[[-1544,-1527,1544,-1502,-1534]],"type":"Polygon","properties":{"state":"WV","name":"WANA","zip":"26590"}},{"arcs":[[-1529,-1543,-1536,-1516]],"type":"Polygon","properties":{"state":"WV","name":"WORTHINGTON","zip":"26591"}},{"arcs":[[[1545,1546,1547,-1374,1548,-1421,-1226,-1214,-1204,1549]],[[1550]]],"type":"MultiPolygon","properties":{"state":"WV","name":"SUTTON","zip":"26601"}},{"arcs":[[1551,1552,1553,-365,1554,-1550,-1203,-1213]],"type":"Polygon","properties":{"state":"WV","name":"BIRCH RIVER","zip":"26610"}},{"arcs":[[1555,1556,-596,-1406,-1467,1557,-1376,1558,1559]],"type":"Polygon","properties":{"state":"WV","name":"CEDARVILLE","zip":"26611"}},{"arcs":[[-1466,-1377,-1558]],"type":"Polygon","properties":{"state":"WV","name":"COPEN","zip":"26615"}},{"arcs":[[1560,-316,-366,-1554]],"type":"Polygon","properties":{"state":"WV","name":"DILLE","zip":"26617"}},{"arcs":[[1561,-476,-537,1562]],"type":"Polygon","properties":{"state":"WV","name":"ELMIRA","zip":"26618"}},{"arcs":[[1563,-1559,-1375,-1548]],"type":"Polygon","properties":{"state":"WV","name":"EXCHANGE","zip":"26619"}},{"arcs":[[-1549,-1373,1564,1565,-1422]],"type":"Polygon","properties":{"state":"WV","name":"FLATWOODS","zip":"26621"}},{"arcs":[[-1555,-371,1566,-369,-1562,1567,1568,1569,1570,-1546]],"type":"Polygon","properties":{"state":"WV","name":"FRAMETOWN","zip":"26623"}},{"arcs":[[-1547,-1571,1571,-1569,1572,-1560,-1564]],"type":"Polygon","properties":{"state":"WV","name":"GASSAWAY","zip":"26624"}},{"arcs":[[-1372,1573,-1565]],"type":"Polygon","properties":{"state":"WV","name":"HEATERS","zip":"26627"}},{"arcs":[[1550]],"type":"Polygon","properties":{"state":"WV","name":"LITTLE BIRCH","zip":"26629"}},{"arcs":[[-1566,-1574,-1371,-1476,-1423]],"type":"Polygon","properties":{"state":"WV","name":"NAPIER","zip":"26631"}},{"arcs":[[-597,-1557,1574,1575,-590]],"type":"Polygon","properties":{"state":"WV","name":"PERKINS","zip":"26634"}},{"arcs":[[-1563,-536,-601,1576,-1575,-1556,-1573,-1568]],"type":"Polygon","properties":{"state":"WV","name":"ROSEDALE","zip":"26636"}},{"arcs":[[-523,-591,-1576,-1577,-600]],"type":"Polygon","properties":{"state":"WV","name":"SHOCK","zip":"26638"}},{"arcs":[[-1567,-370]],"type":"Polygon","properties":{"state":"WV","name":"STRANGE CREEK","zip":"26639"}},{"arcs":[[-1572,-1570]],"type":"Polygon","properties":{"state":"WV","name":"WILSIE","zip":"26641"}},{"arcs":[[1577,1578,1579,1580,1581,1582,-317,-1561,-1553,1583]],"type":"Polygon","properties":{"state":"WV","name":"SUMMERSVILLE","zip":"26651"}},{"arcs":[[1584,-467,-355,1585]],"type":"Polygon","properties":{"state":"WV","name":"BELVA","zip":"26656"}},{"arcs":[[1586,-1206,1587,-1578]],"type":"Polygon","properties":{"state":"WV","name":"CALVIN","zip":"26660"}},{"arcs":[[1588,-1579,-1588,-1205,-1200,1589]],"type":"Polygon","properties":{"state":"WV","name":"CANVAS","zip":"26662"}},{"arcs":[[1590,-987,1591,1592]],"type":"Polygon","properties":{"state":"WV","name":"DRENNEN","zip":"26667"}},{"arcs":[[1593,-1593,1594,-1582]],"type":"Polygon","properties":{"state":"WV","name":"GILBOA","zip":"26671"}},{"arcs":[[-404,-468,-1585,1595,-985,-883,-932]],"type":"Polygon","properties":{"state":"WV","name":"JODIE","zip":"26674"}},{"arcs":[[1596,1597,-988,-1591,-1594,-1581]],"type":"Polygon","properties":{"state":"WV","name":"KESLERS CROSS LANES","zip":"26675"}},{"arcs":[[1598,1599,1600,-1293,-1024]],"type":"Polygon","properties":{"state":"WV","name":"LEIVASY","zip":"26676"}},{"arcs":[[1601,-956,-989,-1598,1602]],"type":"Polygon","properties":{"state":"WV","name":"MOUNT LOOKOUT","zip":"26678"}},{"arcs":[[1603,-1603,-1597,-1580,-1589,1604,-1600,1605]],"type":"Polygon","properties":{"state":"WV","name":"MOUNT NEBO","zip":"26679"}},{"arcs":[[-951,1606,-1606,-1599,-1023]],"type":"Polygon","properties":{"state":"WV","name":"NALLEN","zip":"26680"}},{"arcs":[[-1601,-1605,-1590,-1199,-1294]],"type":"Polygon","properties":{"state":"WV","name":"NETTIE","zip":"26681"}},{"arcs":[[-957,-1602,-1604,-1607]],"type":"Polygon","properties":{"state":"WV","name":"POOL","zip":"26684"}},{"arcs":[[-354,-426,-278,-318,-1583,-1595,-1592,-986,-1596,-1586]],"type":"Polygon","properties":{"state":"WV","name":"SWISS","zip":"26690"}},{"arcs":[[-1552,-1212,-1218,-1207,-1587,-1584]],"type":"Polygon","properties":{"state":"WV","name":"TIOGA","zip":"26691"}},{"arcs":[[1607,1608,-691,1609,1610,1611]],"type":"Polygon","properties":{"state":"WV","name":"AUGUSTA","zip":"26704"}},{"arcs":[[1612,-1327,-1463,1613,1614]],"type":"Polygon","properties":{"state":"WV","name":"AURORA","zip":"26705"}},{"arcs":[[1615,1616,1617,1618,1619,1620,1621,1622,1623]],"type":"Polygon","properties":{"state":"WV","name":"BURLINGTON","zip":"26710"}},{"arcs":[[1624,-1610,-690,-680,1625,1626]],"type":"Polygon","properties":{"state":"WV","name":"CAPON BRIDGE","zip":"26711"}},{"arcs":[[1627,1628,-1611,-1625,1629,1630]],"type":"Polygon","properties":{"state":"WV","name":"DELRAY","zip":"26714"}},{"arcs":[[1631,-1331,-1328,-1613,1632]],"type":"Polygon","properties":{"state":"WV","name":"EGLON","zip":"26716"}},{"arcs":[[1633,1634,1635,1636]],"type":"Polygon","properties":{"state":"WV","name":"ELK GARDEN","zip":"26717"}},{"arcs":[[1637,1638,-1619]],"type":"Polygon","properties":{"state":"WV","name":"FORT ASHBY","zip":"26719"}},{"arcs":[[-1332,-1632,1639,1640,-1291]],"type":"Polygon","properties":{"state":"WV","name":"GORMANIA","zip":"26720"}},{"arcs":[[1641,1642,-676,-687]],"type":"Polygon","properties":{"state":"WV","name":"GREEN SPRING","zip":"26722"}},{"arcs":[[1643,1644,1645,1646,-1617,1647,-1637]],"type":"Polygon","properties":{"state":"WV","name":"KEYSER","zip":"26726"}},{"arcs":[[1648,1649,1650,1651]],"type":"Polygon","properties":{"state":"WV","name":"LAHMANSVILLE","zip":"26731"}},{"arcs":[[1652,-1652,1653,1654,1655,-1624]],"type":"Polygon","properties":{"state":"WV","name":"MEDLEY","zip":"26734"}},{"arcs":[[-1635,-1655,1656,-1292,-1641]],"type":"Polygon","properties":{"state":"WV","name":"MOUNT STORM","zip":"26739"}},{"arcs":[[-1656,-1634,-1648,-1616]],"type":"Polygon","properties":{"state":"WV","name":"NEW CREEK","zip":"26743"}},{"arcs":[[1657,-1645]],"type":"Polygon","properties":{"state":"WV","name":"PIEDMONT","zip":"26750"}},{"arcs":[[-1618,-1647,1658,1659,1660,1661,-1638]],"type":"Polygon","properties":{"state":"WV","name":"RIDGELEY","zip":"26753"}},{"arcs":[[1662,1663,1664,-1612,-1629,1665]],"type":"Polygon","properties":{"state":"WV","name":"RIO","zip":"26755"}},{"arcs":[[1666,-1664,1667,1668,1669,-1621,1670,-686,-1609]],"type":"Polygon","properties":{"state":"WV","name":"ROMNEY","zip":"26757"}},{"arcs":[[-1667,-1608,-1665]],"type":"Polygon","properties":{"state":"WV","name":"SHANKS","zip":"26761"}},{"arcs":[[-1662,1671,-1642,-1671,-1620,-1639]],"type":"Polygon","properties":{"state":"WV","name":"SPRINGFIELD","zip":"26763"}},{"arcs":[[-1511,-1499,-1507,1672,-1614,-1462,-1474]],"type":"Polygon","properties":{"state":"WV","name":"TERRA ALTA","zip":"26764"}},{"arcs":[[1673,-1660]],"type":"Polygon","properties":{"state":"WV","name":"WILEY FORD","zip":"26767"}},{"arcs":[[1674,1675,1676,-1666,-1628]],"type":"Polygon","properties":{"state":"WV","name":"BAKER","zip":"26801"}},{"arcs":[[1677,1678,1679,1680,1681,1682]],"type":"Polygon","properties":{"state":"WV","name":"BRANDYWINE","zip":"26802"}},{"arcs":[[-1333,1683,1684,1685,1686,-149]],"type":"Polygon","properties":{"state":"WV","name":"CIRCLEVILLE","zip":"26804"}},{"arcs":[[1687,1688,1689,-1678,1690,1691,-1686]],"type":"Polygon","properties":{"state":"WV","name":"FRANKLIN","zip":"26807"}},{"arcs":[[-1627,1692,1693,1694,-1630]],"type":"Polygon","properties":{"state":"WV","name":"HIGH VIEW","zip":"26808"}},{"arcs":[[1695,1696,1697]],"type":"Polygon","properties":{"state":"WV","name":"LOST CITY","zip":"26810"}},{"arcs":[[1698,-1676,1699,-1696,1700]],"type":"Polygon","properties":{"state":"WV","name":"MATHIAS","zip":"26812"}},{"arcs":[[-1685,1701,1702,-1688]],"type":"Polygon","properties":{"state":"WV","name":"RIVERTON","zip":"26814"}},{"arcs":[[1703,-1691,-1683]],"type":"Polygon","properties":{"state":"WV","name":"SUGAR GROVE","zip":"26815"}},{"arcs":[[1704,-1693,-1626,-679]],"type":"Polygon","properties":{"state":"WV","name":"BLOOMERY","zip":"26817"}},{"arcs":[[1705,-1622,-1670]],"type":"Polygon","properties":{"state":"WV","name":"JUNCTION","zip":"26824"}},{"arcs":[[1706,1707,-1284,-1657,-1654,-1651]],"type":"Polygon","properties":{"state":"WV","name":"MAYSVILLE","zip":"26833"}},{"arcs":[[1708,-1649,-1653,1709,-1668,-1663,-1677,-1699,1710,1711,-1680]],"type":"Polygon","properties":{"state":"WV","name":"MOOREFIELD","zip":"26836"}},{"arcs":[[-1712,1712,-1681]],"type":"Polygon","properties":{"state":"WV","name":"MILAM","zip":"26838"}},{"arcs":[[1713,1714,-1707,-1650,-1709]],"type":"Polygon","properties":{"state":"WV","name":"PETERSBURG","zip":"26847"}},{"arcs":[[-1675,-1631,-1695,1715,-1697,-1700]],"type":"Polygon","properties":{"state":"WV","name":"WARDENSVILLE","zip":"26851"}},{"arcs":[[-1710,-1623,-1706,-1669]],"type":"Polygon","properties":{"state":"WV","name":"PURGITSVILLE","zip":"26852"}},{"arcs":[[1716,-1297,-1285,-1708,-1715,1717]],"type":"Polygon","properties":{"state":"WV","name":"CABINS","zip":"26855"}},{"arcs":[[1718,-1718,-1714,-1679,-1690]],"type":"Polygon","properties":{"state":"WV","name":"UPPER TRACT","zip":"26866"}},{"arcs":[[-1689,-1703,1719,-1295,-1717,-1719]],"type":"Polygon","properties":{"state":"WV","name":"SENECA ROCKS","zip":"26884"}},{"arcs":[[-1334,-1306,-1720,-1702,-1684]],"type":"Polygon","properties":{"state":"WV","name":"ONEGO","zip":"26886"}}]}},"arcs":[[[33928,13086],[59,-84]],[[33987,13002],[-81,-41],[-45,44],[-23,17],[-13,16]],[[33825,13038],[4,48]],[[33829,13086],[99,0]],[[34194,13162],[-9,-28]],[[34185,13134],[-113,8],[18,79]],[[34090,13221],[50,-13]],[[34140,13208],[54,-46]],[[33964,13211],[23,-33]],[[33987,13178],[-45,5]],[[33942,13183],[-9,20]],[[33933,13203],[4,13]],[[33937,13216],[27,-5]],[[33825,13038],[-23,30]],[[33802,13068],[14,28]],[[33816,13096],[13,-10]],[[33717,13218],[9,89]],[[33726,13307],[18,10]],[[33744,13317],[54,-12]],[[33798,13305],[9,7]],[[33807,13312],[31,-17]],[[33838,13295],[72,-51]],[[33910,13244],[-94,-5],[0,-72],[-99,51]],[[33960,13124],[9,21]],[[33969,13145],[4,-3]],[[33973,13142],[-13,-18]],[[33897,13152],[36,51]],[[33942,13183],[-45,-31]],[[33838,13157],[-22,10]],[[33816,13167],[0,72],[117,-13]],[[33933,13226],[4,-10]],[[33897,13152],[-59,5]],[[33928,13086],[32,38]],[[33973,13142],[81,86]],[[34054,13228],[36,-7]],[[34185,13134],[-5,-7],[14,-41],[-207,-84]],[[33816,13096],[22,61]],[[33987,13178],[-18,-33]],[[33649,13040],[-54,94]],[[33595,13134],[41,89]],[[33636,13223],[108,-35]],[[33744,13188],[-27,-77],[85,-43]],[[33802,13068],[-108,-84]],[[33694,12984],[-45,56]],[[33586,13040],[18,-109]],[[33604,12931],[-99,33],[-36,48]],[[33469,13012],[0,64]],[[33469,13076],[117,-36]],[[33568,13256],[-68,46]],[[33500,13302],[32,59]],[[33532,13361],[63,45]],[[33595,13406],[14,-25]],[[33609,13381],[-5,-56]],[[33604,13325],[-36,-5],[41,-41]],[[33609,13279],[-5,-25]],[[33604,13254],[-36,2]],[[33532,13361],[-45,28]],[[33487,13389],[63,28]],[[33550,13417],[45,-11]],[[33487,13389],[-23,17]],[[33464,13406],[72,34]],[[33536,13440],[14,-23]],[[33536,13440],[-45,50]],[[33491,13490],[-4,5]],[[33487,13495],[122,36]],[[33609,13531],[31,-23]],[[33640,13508],[-90,-91]],[[33595,13134],[-54,16]],[[33541,13150],[-27,81],[122,-8]],[[33604,13325],[5,-46]],[[33415,13284],[22,51]],[[33437,13335],[14,5]],[[33451,13340],[27,-23]],[[33478,13317],[-9,-33],[-18,-43]],[[33451,13241],[-36,43]],[[33338,13178],[113,63]],[[33478,13317],[22,-15]],[[33568,13256],[-54,-28],[27,-78],[-72,-74],[-95,-3],[-36,105]],[[33631,13381],[27,36]],[[33658,13417],[0,5]],[[33658,13422],[23,-13]],[[33681,13409],[-36,-25]],[[33645,13384],[-14,-3]],[[33469,13012],[-36,0],[-18,21],[-41,40],[95,3]],[[33658,13368],[-54,-43]],[[33609,13381],[22,0]],[[33645,13384],[13,-16]],[[33595,13406],[63,11]],[[33338,13178],[-27,38],[50,30]],[[33361,13246],[9,8]],[[33370,13254],[31,18]],[[33401,13272],[14,12]],[[33744,13188],[72,-21]],[[33640,13508],[41,26]],[[33681,13534],[40,-8]],[[33721,13526],[14,-20]],[[33735,13506],[0,-3]],[[33735,13503],[-36,-33]],[[33699,13470],[-41,-48]],[[33649,13040],[-63,0]],[[33469,13076],[72,74]],[[33658,13368],[36,31]],[[33694,13399],[32,-92]],[[33717,13218],[-113,36]],[[33451,13340],[4,59]],[[33455,13399],[9,7]],[[33694,12984],[-4,-23],[-86,-30]],[[34419,13511],[27,94]],[[34446,13605],[63,91]],[[34509,13696],[9,-10],[27,-48],[0,5]],[[34545,13643],[45,-41]],[[34590,13602],[-27,-71]],[[34563,13531],[-9,-8]],[[34554,13523],[-117,-28]],[[34437,13495],[-18,13]],[[34419,13508],[0,3]],[[34316,13394],[22,43],[-49,-13]],[[34289,13424],[-19,-33]],[[34270,13391],[-54,13],[5,61]],[[34221,13465],[4,5]],[[34225,13470],[50,25],[-36,77]],[[34239,13572],[36,10]],[[34275,13582],[36,-43],[5,48]],[[34316,13587],[67,-23]],[[34383,13564],[36,-53]],[[34419,13508],[-27,-53]],[[34392,13455],[18,-59]],[[34410,13396],[-36,-7]],[[34374,13389],[-58,5]],[[35099,14225],[-94,-38]],[[35005,14187],[36,107]],[[35041,14294],[58,-69]],[[34383,13564],[14,18]],[[34397,13582],[36,36]],[[34433,13618],[13,-13]],[[34892,13811],[-72,-115],[-18,-10]],[[34802,13686],[-77,26],[-31,-51],[0,71]],[[34694,13732],[22,56]],[[34716,13788],[176,23]],[[34293,13317],[14,-127]],[[34307,13190],[-82,33]],[[34225,13223],[36,72]],[[34261,13295],[32,22]],[[35135,14352],[-13,-81],[-23,-46]],[[35041,14294],[-45,25]],[[34996,14319],[99,125]],[[35095,14444],[22,5]],[[35117,14449],[36,-20]],[[35153,14429],[-18,-77]],[[34563,13531],[63,-13],[-36,-71]],[[34590,13447],[-36,76]],[[34874,14093],[45,20],[-77,102]],[[34842,14215],[127,97]],[[34969,14312],[13,46]],[[34982,14358],[14,-39]],[[35005,14187],[-27,-15]],[[34978,14172],[-50,-97]],[[34928,14075],[-54,18]],[[34424,13699],[9,-81]],[[34397,13582],[-59,76]],[[34338,13658],[0,3]],[[34338,13661],[14,38]],[[34352,13699],[13,28]],[[34365,13727],[59,-28]],[[35023,14078],[-95,-3]],[[34978,14172],[63,-74]],[[35041,14098],[-18,-20]],[[34198,13236],[-45,41]],[[34153,13277],[59,-28],[-32,61],[63,25]],[[34243,13335],[18,-40]],[[34225,13223],[-27,13]],[[34437,13473],[-45,-18]],[[34437,13495],[0,-22]],[[34545,13643],[45,58],[27,-48]],[[34617,13653],[-27,-51]],[[34635,13417],[54,-51],[-81,-66],[32,-33],[-95,-77],[-22,54]],[[34523,13244],[18,53]],[[34541,13297],[94,120]],[[34541,13297],[-23,51]],[[34518,13348],[81,79]],[[34599,13427],[32,2]],[[34631,13429],[4,-12]],[[34293,13612],[23,-25]],[[34275,13582],[-41,30]],[[34234,13612],[14,-2]],[[34248,13610],[32,-3]],[[34280,13607],[13,5]],[[35099,14225],[-58,-127]],[[34293,13317],[63,6]],[[34356,13323],[41,0]],[[34397,13323],[18,-41]],[[34415,13282],[-108,-92]],[[34680,13790],[-103,74],[4,115]],[[34581,13979],[5,122],[54,20]],[[34640,14121],[31,-127],[77,-74],[-68,-130]],[[34455,13211],[-90,-49]],[[34365,13162],[-27,23]],[[34338,13185],[63,94],[54,-68]],[[34640,14121],[31,25]],[[34671,14146],[18,18]],[[34689,14164],[45,0],[54,-137],[86,66]],[[35023,14078],[0,-59],[-100,-89],[-31,-119]],[[34716,13788],[-36,2]],[[34280,13607],[-14,23]],[[34266,13630],[72,31]],[[34338,13658],[-45,-46]],[[34311,13381],[-22,43]],[[34316,13394],[-5,-13]],[[34365,13162],[-104,-58],[-22,25],[-45,31],[0,79],[144,-54]],[[34694,13732],[-77,-79]],[[34509,13696],[27,49],[-72,40]],[[34464,13785],[9,28]],[[34473,13813],[-9,155],[59,54]],[[34523,14022],[58,-43]],[[34505,13424],[-68,49]],[[34590,13447],[-85,-23]],[[34518,13348],[-13,-3]],[[34505,13345],[0,79]],[[34590,13447],[9,-20]],[[34419,13384],[-9,12]],[[34505,13345],[-86,39]],[[34266,13348],[4,43]],[[34311,13381],[-9,-15],[-18,-26],[-18,8]],[[34397,13323],[22,61]],[[34523,13244],[-68,-33],[-40,71]],[[34491,13155],[-18,23],[-9,38],[63,25],[18,-51],[-54,-35]],[[34374,13389],[-18,-66]],[[34243,13335],[23,13]],[[34802,13686],[-171,-257]],[[34424,13699],[40,86]],[[33523,13935],[-45,26]],[[33478,13961],[-18,-31]],[[33460,13930],[-27,31]],[[33433,13961],[4,41]],[[33437,14002],[18,38]],[[33455,14040],[63,15]],[[33518,14055],[23,-76]],[[33541,13979],[-18,-44]],[[33942,14296],[-9,-7]],[[33933,14289],[-108,10]],[[33825,14299],[54,36]],[[33879,14335],[40,10]],[[33919,14345],[23,-49]],[[33735,13551],[-5,44]],[[33730,13595],[45,-23]],[[33775,13572],[-22,-13]],[[33753,13559],[-18,-8]],[[33816,13661],[-59,33]],[[33757,13694],[-9,25]],[[33748,13719],[36,-5]],[[33784,13714],[59,-20]],[[33843,13694],[9,-43]],[[33852,13651],[-36,10]],[[33586,13930],[-36,-28]],[[33550,13902],[-14,0]],[[33536,13902],[-9,13]],[[33527,13915],[-4,20]],[[33541,13979],[36,-5]],[[33577,13974],[9,-44]],[[33609,13531],[-37,43]],[[33572,13574],[-18,87]],[[33554,13661],[95,-41]],[[33649,13620],[32,-86]],[[33757,13956],[5,-71]],[[33762,13885],[-18,-3]],[[33744,13882],[-36,66]],[[33708,13948],[-32,20]],[[33676,13968],[-40,54]],[[33636,14022],[112,-3]],[[33748,14019],[14,-30]],[[33762,13989],[-5,-33]],[[33933,14037],[-32,-20]],[[33901,14017],[-4,48]],[[33897,14065],[22,38]],[[33919,14103],[14,-66]],[[34005,14080],[-9,110]],[[33996,14190],[36,-92]],[[34032,14098],[-27,-18]],[[33487,13653],[-41,38]],[[33446,13691],[68,-10]],[[33514,13681],[18,15]],[[33532,13696],[22,-35]],[[33572,13574],[-58,-18],[-27,97]],[[33631,13897],[-32,-10]],[[33599,13887],[-27,3]],[[33572,13890],[14,38]],[[33586,13928],[45,-31]],[[33748,14019],[5,74]],[[33753,14093],[85,0]],[[33838,14093],[-18,-69]],[[33820,14024],[-58,-35]],[[33514,13681],[-9,53]],[[33505,13734],[27,-15]],[[33532,13719],[0,-23]],[[33897,14139],[-9,48]],[[33888,14187],[45,3]],[[33933,14190],[-9,-51]],[[33924,14139],[-27,0]],[[33446,14342],[-121,-18]],[[33325,14324],[0,67]],[[33325,14391],[121,0]],[[33446,14391],[0,-49]],[[33663,13892],[-18,31]],[[33645,13923],[-5,10]],[[33640,13933],[36,35]],[[33708,13948],[-45,-56]],[[33825,13968],[31,-12]],[[33856,13956],[-54,-16]],[[33802,13940],[-45,16]],[[33762,13989],[63,-21]],[[33996,14190],[-9,76]],[[33987,14266],[-5,3]],[[33982,14269],[0,45]],[[33982,14314],[68,44]],[[34050,14358],[94,-130]],[[34144,14228],[32,-36]],[[34176,14192],[-126,-84]],[[34050,14108],[-18,-10]],[[33852,13651],[0,-16]],[[33852,13635],[-41,10]],[[33811,13645],[5,16]],[[33748,14101],[45,53],[-22,76],[9,16],[-18,61]],[[33762,14307],[49,-5]],[[33811,14302],[14,-3]],[[33933,14289],[-72,-59],[27,-43]],[[33897,14139],[-14,-10]],[[33883,14129],[-45,-36]],[[33753,14093],[-5,8]],[[33811,14302],[32,73]],[[33843,14375],[13,16]],[[33856,14391],[23,-56]],[[33325,13518],[-41,-5]],[[33284,13513],[50,26]],[[33334,13539],[-9,-21]],[[33757,13694],[-13,-38]],[[33744,13656],[-50,30]],[[33694,13686],[36,38]],[[33730,13724],[18,-5]],[[33604,13879],[-5,8]],[[33631,13897],[27,-10]],[[33658,13887],[23,-28]],[[33681,13859],[-77,20]],[[33536,13902],[-36,-40]],[[33500,13862],[5,38]],[[33505,13900],[22,15]],[[33428,13834],[72,-94]],[[33500,13740],[-54,-13]],[[33446,13727],[-67,15]],[[33379,13742],[-18,33]],[[33361,13775],[-27,69]],[[33334,13844],[90,10]],[[33424,13854],[4,-20]],[[33933,14037],[27,18]],[[33960,14055],[9,-20]],[[33969,14035],[-32,-44]],[[33937,13991],[-36,26]],[[33694,13686],[-22,31]],[[33672,13717],[54,17]],[[33726,13734],[0,-5]],[[33726,13729],[4,-5]],[[33744,13656],[49,-87]],[[33793,13569],[-18,3]],[[33730,13595],[-13,15]],[[33717,13610],[27,46]],[[34176,14266],[0,-3]],[[34176,14263],[-32,-35]],[[34050,14358],[4,5]],[[34054,14363],[45,15]],[[34099,14378],[32,-31]],[[34131,14347],[22,-43]],[[34153,14304],[23,-38]],[[33532,14126],[-9,-8]],[[33523,14118],[-27,-5]],[[33496,14113],[-27,26]],[[33469,14139],[0,7]],[[33469,14146],[63,-17]],[[33532,14129],[0,-3]],[[33748,14101],[-63,0]],[[33685,14101],[-36,53]],[[33649,14154],[41,26],[-45,43]],[[33645,14223],[45,117]],[[33690,14340],[72,-33]],[[33726,13734],[-5,21]],[[33721,13755],[-40,104]],[[33658,13887],[5,5]],[[33744,13882],[-18,-153]],[[33563,13885],[-63,-74]],[[33500,13811],[-72,23]],[[33424,13854],[72,10]],[[33496,13864],[67,21]],[[33343,14299],[-54,-41]],[[33289,14258],[-32,-2]],[[33257,14256],[-9,68]],[[33248,14324],[14,51]],[[33262,14375],[13,56]],[[33275,14431],[63,-10]],[[33338,14421],[-13,-30]],[[33325,14324],[18,-25]],[[33820,13892],[-54,-7]],[[33766,13885],[-4,0]],[[33802,13940],[23,-27]],[[33825,13913],[-5,-21]],[[33964,13885],[-54,33],[36,40]],[[33946,13958],[36,-45]],[[33982,13913],[-18,-28]],[[33897,14065],[-14,64]],[[33924,14139],[-5,-36]],[[33613,13694],[-77,28]],[[33536,13722],[23,53]],[[33559,13775],[54,-81]],[[33816,13862],[-5,-8]],[[33811,13854],[-45,31]],[[33820,13892],[-4,-30]],[[33217,14586],[-41,3]],[[33176,14589],[18,18]],[[33194,14607],[23,-21]],[[33586,13928],[0,2]],[[33577,13974],[4,7]],[[33581,13981],[14,13]],[[33595,13994],[45,-61]],[[33645,13923],[13,-36]],[[33352,13691],[27,51]],[[33446,13727],[0,-33]],[[33446,13694],[-13,0]],[[33433,13694],[-81,-3]],[[34005,14080],[-45,-25]],[[33933,14190],[18,20]],[[33951,14210],[13,0]],[[33964,14210],[32,-20]],[[33446,13691],[0,3]],[[33500,13740],[5,-6]],[[33847,13885],[-31,-23]],[[33820,13892],[9,-2]],[[33829,13890],[18,-5]],[[33928,13783],[-9,-15]],[[33919,13768],[-45,38]],[[33874,13806],[50,-16]],[[33924,13790],[4,-7]],[[33433,13694],[-77,-51]],[[33356,13643],[-18,36]],[[33338,13679],[14,12]],[[33807,13831],[-23,-117]],[[33811,13854],[-4,-23]],[[33338,14421],[-27,120]],[[33311,14541],[63,104]],[[33374,14645],[23,-36]],[[33397,14609],[18,-28]],[[33415,14581],[45,-71]],[[33460,14510],[22,-63]],[[33482,14447],[-36,-56]],[[33482,14447],[27,-13]],[[33509,14434],[32,-43]],[[33541,14391],[-23,-26]],[[33518,14365],[-22,-20]],[[33496,14345],[-50,-8]],[[33446,14337],[0,5]],[[33536,13722],[-4,-3]],[[33500,13811],[59,-36]],[[33820,14024],[5,-56]],[[33964,14210],[23,56]],[[33928,13801],[-27,50],[-27,-45]],[[33919,13768],[-4,-3]],[[33915,13765],[-72,-71]],[[33807,13831],[49,3],[-9,51]],[[33829,13890],[-4,23]],[[33856,13956],[45,61]],[[33937,13991],[27,-12]],[[33964,13979],[-18,-21]],[[33964,13885],[-22,-34],[-14,-50]],[[33717,13610],[18,-59]],[[33735,13551],[-14,-25]],[[33649,13620],[-9,56]],[[33640,13676],[32,41]],[[34054,14363],[-31,20]],[[34023,14383],[58,28]],[[34081,14411],[18,-33]],[[33505,13900],[-27,61]],[[33460,14197],[9,-51]],[[33469,14139],[-50,41]],[[33419,14180],[5,22]],[[33424,14202],[13,11]],[[33437,14213],[23,-16]],[[33721,13755],[-85,35]],[[33636,13790],[-32,89]],[[33982,14269],[-45,-11]],[[33937,14258],[-4,31]],[[33942,14296],[36,31]],[[33978,14327],[4,-13]],[[33550,13902],[18,-12]],[[33568,13890],[-5,-5]],[[33496,13864],[4,-2]],[[33437,14213],[-13,61]],[[33424,14274],[22,63]],[[33496,14345],[36,-97],[-36,-33]],[[33496,14215],[-36,-18]],[[33937,14258],[14,-48]],[[33572,13890],[-4,0]],[[33424,14274],[-81,25]],[[33496,13864],[-36,66]],[[33928,13801],[-4,-11]],[[33374,14101],[9,56]],[[33383,14157],[36,23]],[[33496,14113],[-36,-25]],[[33460,14088],[-86,13]],[[33753,13559],[9,-18]],[[33762,13541],[0,-2]],[[33762,13539],[-27,-33]],[[33636,13790],[-14,-96]],[[33622,13694],[-9,0]],[[33275,14431],[-31,51]],[[33244,14482],[45,64]],[[33289,14546],[22,-5]],[[33640,13676],[-18,18]],[[33460,14088],[-14,-20]],[[33446,14068],[-36,-44],[-40,56]],[[33370,14080],[4,21]],[[33811,13645],[-18,-76]],[[33424,14202],[-63,39]],[[33361,14241],[-72,17]],[[33640,14347],[-36,41],[59,-8],[-5,54]],[[33658,14434],[18,-59]],[[33676,14375],[-36,-28]],[[34050,14566],[0,-25]],[[34050,14541],[-104,-31]],[[33946,14510],[-81,176]],[[33865,14686],[27,45],[59,-58]],[[33951,14673],[4,-10]],[[33955,14663],[32,-33]],[[33987,14630],[54,-54],[9,102]],[[34050,14678],[27,2]],[[34077,14680],[-27,-114]],[[34023,14383],[-5,-8]],[[34018,14375],[-54,33]],[[33964,14408],[-13,72]],[[33951,14480],[85,-26],[18,48]],[[34054,14502],[14,-53]],[[34068,14449],[13,-38]],[[33397,14609],[13,44]],[[33410,14653],[86,2]],[[33496,14655],[13,-23]],[[33509,14632],[-49,-20]],[[33460,14612],[-45,-31]],[[33500,14548],[-40,-38]],[[33460,14612],[40,-64]],[[33658,14434],[9,58]],[[33667,14492],[5,23]],[[33672,14515],[76,10]],[[33748,14525],[27,-89]],[[33775,14436],[-31,26],[-68,-87]],[[33667,14492],[-31,0]],[[33636,14492],[-46,61]],[[33590,14553],[5,74]],[[33595,14627],[41,20]],[[33636,14647],[36,-5]],[[33672,14642],[0,-127]],[[33500,14548],[36,-63],[27,38]],[[33563,14523],[41,-64]],[[33604,14459],[-95,-25]],[[33604,14459],[32,33]],[[33640,14347],[-50,-30],[-49,74]],[[33856,14391],[32,-8]],[[33888,14383],[13,5]],[[33901,14388],[18,-43]],[[33636,14647],[-37,84]],[[33599,14731],[37,66]],[[33636,14797],[31,-17]],[[33667,14780],[23,-92]],[[33690,14688],[-18,-46]],[[33289,14546],[-41,33]],[[33248,14579],[50,112]],[[33298,14691],[-5,23]],[[33293,14714],[18,68]],[[33311,14782],[63,-137]],[[33964,14408],[-4,-10]],[[33960,14398],[-54,31]],[[33906,14429],[-45,53]],[[33861,14482],[90,-2]],[[33843,14375],[-36,59]],[[33807,14434],[54,48]],[[33906,14429],[-18,-46]],[[33293,14714],[-49,38]],[[33244,14752],[67,30]],[[33987,14630],[18,48]],[[34005,14678],[45,0]],[[33410,14653],[63,40]],[[33473,14693],[23,-38]],[[33374,14645],[36,8]],[[34018,14375],[-40,-48]],[[33901,14388],[59,10]],[[34144,14612],[-45,-43]],[[34099,14569],[-49,-3]],[[34077,14680],[4,26]],[[34081,14706],[63,8]],[[34144,14714],[14,-16]],[[34158,14698],[40,-45]],[[34198,14653],[-40,-39]],[[34158,14614],[-14,-2]],[[34144,14612],[-36,28],[36,-28]],[[33951,14480],[-5,30]],[[34050,14541],[36,-26]],[[34086,14515],[-32,-13]],[[33690,14688],[121,-20]],[[33811,14668],[-63,-143]],[[33509,14632],[18,18]],[[33527,14650],[68,-23]],[[33590,14553],[-27,-30]],[[33527,14650],[45,92]],[[33572,14742],[18,7]],[[33590,14749],[9,-18]],[[33811,14668],[18,5]],[[33829,14673],[36,13]],[[33807,14434],[-32,2]],[[33690,14340],[-14,35]],[[33298,14691],[-95,-16]],[[33203,14675],[41,77]],[[33595,14113],[-5,-17]],[[33590,14096],[-9,15]],[[33581,14111],[14,2]],[[33577,14111],[-9,7]],[[33568,14118],[31,36],[-31,64]],[[33568,14218],[77,5]],[[33649,14154],[-54,-41]],[[33581,14111],[-4,0]],[[33527,14106],[-4,12]],[[33532,14126],[36,-8]],[[33577,14111],[-50,-5]],[[33581,13981],[18,112]],[[33599,14093],[46,-20]],[[33645,14073],[0,-26]],[[33645,14047],[-50,-53]],[[33636,14022],[9,25]],[[33645,14073],[40,28]],[[33527,14106],[-9,-51]],[[33455,14040],[-9,28]],[[33599,14093],[-9,3]],[[33532,14129],[-36,86]],[[33518,14365],[50,-147]],[[36509,15202],[-23,-28]],[[36486,15174],[-40,-36]],[[36446,15138],[-59,61]],[[36387,15199],[-13,-7]],[[36374,15192],[-41,-18],[36,63]],[[36369,15237],[90,138]],[[36459,15375],[9,2]],[[36468,15377],[41,-30]],[[36509,15347],[49,-69]],[[36558,15278],[-49,-76]],[[36243,15174],[-14,13],[-81,63]],[[36148,15250],[54,160]],[[36202,15410],[77,77],[86,-33]],[[36365,15454],[-122,-280]],[[36432,15118],[-36,-74]],[[36396,15044],[-58,48]],[[36338,15092],[36,100]],[[36387,15199],[-18,-76],[63,-5]],[[36563,15146],[-5,-110],[50,6]],[[36608,15042],[-36,-92],[-14,-30],[-4,-11],[-72,61]],[[36482,14970],[-23,64]],[[36459,15034],[68,109]],[[36527,15143],[36,3]],[[36468,15377],[81,16],[-40,-46]],[[36338,15092],[-41,33]],[[36297,15125],[72,112]],[[36148,15250],[-63,97]],[[36085,15347],[0,30],[77,49],[40,-16]],[[36639,15103],[-31,-61]],[[36563,15146],[4,38]],[[36567,15184],[54,3]],[[36621,15187],[18,-84]],[[36297,15125],[-54,49]],[[36365,15454],[94,-79]],[[36446,15138],[-14,-20]],[[36486,15174],[41,-31]],[[36459,15034],[-63,10]],[[35991,15270],[-32,-33]],[[35959,15237],[5,79]],[[35964,15316],[49,-5]],[[36013,15311],[-22,-41]],[[36153,15242],[-63,-2],[4,-53]],[[36094,15187],[-13,-3]],[[36081,15184],[-72,58]],[[36009,15242],[-18,28]],[[36013,15311],[72,36]],[[36148,15250],[5,-8]],[[36009,15242],[-32,-40]],[[35977,15202],[-27,30]],[[35950,15232],[9,5]],[[36509,15202],[58,-18]],[[36558,15278],[45,5],[-27,-63],[45,-33]],[[36081,15184],[-50,-69]],[[36031,15115],[-54,87]],[[36482,14970],[-86,74]],[[33289,13862],[-9,99]],[[33280,13961],[9,15]],[[33289,13976],[18,-2]],[[33307,13974],[45,-39]],[[33352,13935],[31,-25]],[[33383,13910],[-4,-18]],[[33379,13892],[-45,-48]],[[33334,13844],[-45,18]],[[33176,14388],[-4,13]],[[33172,14401],[-14,94]],[[33158,14495],[18,-51],[68,38]],[[33262,14375],[-86,13]],[[33248,14324],[-72,64]],[[33086,14063],[-22,-13]],[[33064,14050],[-18,-3]],[[33046,14047],[-14,16]],[[33032,14063],[5,73]],[[33037,14136],[36,38]],[[33073,14174],[13,33]],[[33086,14207],[68,-43]],[[33154,14164],[-23,-46]],[[33131,14118],[-45,-55]],[[33095,13976],[-31,74]],[[33086,14063],[50,-23]],[[33136,14040],[22,-33]],[[33158,14007],[-4,-54],[-59,23]],[[33289,13862],[-36,-8]],[[33253,13854],[-14,10]],[[33239,13864],[-31,66]],[[33208,13930],[-9,28]],[[33199,13958],[18,3]],[[33217,13961],[63,0]],[[33338,13679],[-13,-13]],[[33325,13666],[-50,-84],[-58,15]],[[33217,13597],[-63,125]],[[33154,13722],[94,33]],[[33248,13755],[9,2],[99,16],[5,2]],[[33266,14131],[-54,-25]],[[33212,14106],[32,142]],[[33244,14248],[13,8]],[[33257,14256],[41,-120],[-32,-5]],[[33122,13752],[-45,-51]],[[33077,13701],[-90,44]],[[32987,13745],[-22,81],[49,41]],[[33014,13867],[108,-115]],[[33014,13867],[-13,46]],[[33001,13913],[0,114]],[[33001,14027],[45,20]],[[33095,13976],[9,-122]],[[33104,13854],[-90,13]],[[32947,13925],[-73,-107]],[[32874,13818],[-67,74],[22,41]],[[32829,13933],[90,38]],[[32919,13971],[28,-46]],[[33217,14586],[31,-7]],[[33158,14495],[-22,56],[40,38]],[[32987,13745],[-22,-16]],[[32965,13729],[-23,-7]],[[32942,13722],[-68,96]],[[32947,13925],[54,-12]],[[33244,14248],[-72,-46]],[[33172,14202],[13,72],[-45,40]],[[33140,14314],[-54,33]],[[33086,14347],[86,54]],[[33329,13986],[-22,-12]],[[33289,13976],[18,43]],[[33307,14019],[9,13]],[[33316,14032],[45,-25],[-32,-21]],[[33217,13961],[-36,33]],[[33181,13994],[4,38]],[[33185,14032],[-13,59]],[[33172,14091],[40,15]],[[33266,14131],[41,-112]],[[33154,13722],[-32,-13]],[[33122,13709],[-58,-20]],[[33064,13689],[13,12]],[[33122,13752],[23,28]],[[33145,13780],[85,82]],[[33230,13862],[9,2]],[[33253,13854],[58,-43],[-63,-56]],[[33370,14080],[-54,-48]],[[33361,14241],[22,-84]],[[33379,13892],[13,26]],[[33392,13918],[41,43]],[[32852,14040],[-14,129],[50,-10]],[[32888,14159],[-36,-33],[67,-25],[-67,-61]],[[33104,13854],[41,-74]],[[33001,14027],[-86,0]],[[32915,14027],[27,84]],[[32942,14111],[90,-48]],[[33140,14314],[-54,-86]],[[33086,14228],[-22,0]],[[33064,14228],[22,119]],[[33230,13862],[-22,68]],[[33172,14091],[-23,-18]],[[33149,14073],[-18,45]],[[33154,14164],[18,38]],[[33199,13958],[-18,36]],[[33086,14207],[0,21]],[[33356,13643],[5,-5]],[[33361,13638],[-45,-15],[9,43]],[[33194,14607],[9,68]],[[32829,13933],[5,69],[13,-3]],[[32847,13999],[41,8]],[[32888,14007],[31,-36]],[[33158,14007],[27,25]],[[33149,14073],[-13,-33]],[[33437,14002],[-63,-18]],[[33374,13984],[-45,2]],[[33392,13918],[-9,-8]],[[33352,13935],[22,49]],[[32888,14007],[27,20]],[[33284,13513],[-63,-2]],[[33221,13511],[5,25]],[[33226,13536],[-18,10]],[[33208,13546],[9,51]],[[33361,13638],[-23,-92]],[[33338,13546],[-4,-7]],[[33487,13495],[-59,34]],[[33428,13529],[14,111],[45,13]],[[33388,13356],[13,-84]],[[33370,13254],[-68,76]],[[33302,13330],[5,48]],[[33307,13378],[4,6]],[[33311,13384],[63,-11]],[[33374,13373],[14,-17]],[[33464,13406],[-63,74],[90,10]],[[33388,13356],[49,-21]],[[33338,13414],[36,-41]],[[33311,13384],[27,30]],[[33338,13414],[-13,104]],[[33338,13546],[27,-28]],[[33365,13518],[36,-43],[-45,-53]],[[33356,13422],[-18,-8]],[[33455,13399],[-99,23]],[[33365,13518],[63,11]],[[33307,13378],[-5,11]],[[33302,13389],[-81,122]],[[33329,13272],[-58,12]],[[33271,13284],[31,46]],[[33361,13246],[-32,26]],[[33172,13406],[-9,-20]],[[33163,13386],[-5,-20],[-63,35],[-27,13],[-27,69],[18,20]],[[33059,13503],[59,13]],[[33118,13516],[54,-110]],[[33122,13709],[18,-69],[-36,-12]],[[33104,13628],[-54,45]],[[33050,13673],[14,16]],[[32965,13645],[0,-2]],[[32965,13643],[-27,0],[-23,48],[27,31]],[[32965,13729],[0,-84]],[[33230,13396],[-58,10]],[[33118,13516],[108,20]],[[33302,13389],[-72,7]],[[33208,13546],[-104,3],[9,48]],[[33113,13597],[-9,31]],[[33113,13597],[-103,-48]],[[33010,13549],[-18,20],[-27,74]],[[32965,13645],[85,28]],[[33059,13503],[-49,46]],[[33239,13361],[-67,-10]],[[33172,13351],[-9,35]],[[33230,13396],[9,-35]],[[33208,13315],[58,-5],[-27,51]],[[33271,13284],[-50,3],[-13,28]],[[33208,13315],[-5,0],[-31,36]],[[32942,14111],[-4,66]],[[32938,14177],[27,8]],[[32965,14185],[0,-3],[4,-2],[9,-8]],[[32978,14172],[59,-36]],[[32996,14182],[0,8]],[[32996,14190],[68,38]],[[33073,14174],[-77,8]],[[32996,14182],[-18,-10]],[[32965,14185],[31,5]],[[32847,13999],[5,41]],[[32888,14159],[50,18]],[[33861,13503],[-27,8]],[[33834,13511],[-41,58]],[[33852,13635],[27,-5]],[[33879,13630],[36,-63],[22,58],[77,-5]],[[34014,13620],[-36,-30],[31,0]],[[34009,13590],[-45,-89]],[[33964,13501],[-45,-21]],[[33919,13480],[-58,23]],[[33798,13305],[22,56]],[[33820,13361],[14,-26]],[[33834,13335],[-27,-23]],[[34027,13897],[-4,-15]],[[34023,13882],[-32,25]],[[33991,13907],[32,-2]],[[34023,13905],[4,-8]],[[34162,13521],[5,-61]],[[34167,13460],[-5,-48],[-63,28]],[[34099,13440],[-22,2]],[[34077,13442],[22,69],[-72,-36]],[[34027,13475],[-49,3]],[[33978,13478],[-14,23]],[[34009,13590],[0,5]],[[34009,13595],[117,-33]],[[34126,13562],[36,-41]],[[33784,13511],[-36,-21]],[[33748,13490],[-13,13]],[[33762,13539],[22,-28]],[[34005,13228],[-41,-17]],[[33933,13226],[72,2]],[[33915,13384],[4,33]],[[33919,13417],[5,7]],[[33924,13424],[18,-23]],[[33942,13401],[-9,-7]],[[33933,13394],[-5,-10]],[[33928,13384],[-13,0]],[[33969,13343],[-9,18]],[[33960,13361],[-27,33]],[[33942,13401],[72,3]],[[34014,13404],[54,5]],[[34068,13409],[-41,-43]],[[34027,13366],[-58,-26]],[[33969,13340],[0,3]],[[33919,13480],[-18,-43]],[[33901,13437],[-40,10]],[[33861,13447],[0,31]],[[33861,13478],[0,25]],[[34185,13658],[-86,-43],[45,-46]],[[34144,13569],[-18,-7]],[[34009,13595],[18,25]],[[34027,13620],[36,38]],[[34063,13658],[117,23]],[[34180,13681],[5,-23]],[[34027,13475],[-63,-23]],[[33964,13452],[14,26]],[[33789,13513],[-5,-2]],[[33762,13541],[31,-20]],[[33793,13521],[-4,-8]],[[34108,13813],[41,-35]],[[34149,13778],[58,-49],[-27,-48]],[[34063,13658],[0,23]],[[34063,13681],[0,26]],[[34063,13707],[-4,76],[-32,23],[-99,-23]],[[33982,13913],[9,-6]],[[34023,13882],[36,-8]],[[34059,13874],[-18,-35],[36,28]],[[34077,13867],[31,-54]],[[33915,13244],[63,89]],[[33978,13333],[31,-8]],[[34009,13325],[59,-53]],[[34068,13272],[-153,-28]],[[34027,13366],[-18,-41]],[[33978,13333],[-9,7]],[[33834,13511],[4,-18]],[[33838,13493],[-45,28]],[[33681,13409],[13,-10]],[[33892,13422],[9,15]],[[33964,13452],[-40,-28]],[[33919,13417],[-27,5]],[[33766,13455],[-18,-8]],[[33748,13447],[-49,23]],[[33748,13490],[18,-35]],[[34158,13872],[9,-46]],[[34167,13826],[-59,-13]],[[34077,13867],[0,7]],[[34077,13874],[13,23]],[[34090,13897],[32,23]],[[34122,13920],[31,-28]],[[34153,13892],[5,-20]],[[33960,13361],[-32,23]],[[33897,13351],[0,22]],[[33897,13373],[18,11]],[[33969,13343],[-72,8]],[[34059,13874],[18,0]],[[34014,13620],[13,0]],[[33861,13447],[-72,66]],[[33838,13493],[23,-15]],[[34216,13790],[-67,-12]],[[34167,13826],[49,-36]],[[33766,13455],[41,-69]],[[33807,13386],[-18,-41],[-32,46]],[[33757,13391],[-27,33]],[[33730,13424],[18,23]],[[33694,13399],[36,25]],[[33757,13391],[-13,-74]],[[33879,13630],[13,66],[54,3]],[[33946,13699],[68,-79]],[[33807,13386],[13,-25]],[[33946,13699],[-31,66]],[[34063,13707],[-45,-3],[45,-23]],[[33838,13295],[-4,38]],[[33834,13333],[36,-36],[27,54]],[[33915,13244],[-5,0]],[[33897,13373],[-9,28]],[[33888,13401],[4,21]],[[34090,13897],[-63,0]],[[34023,13905],[0,43]],[[34023,13948],[22,28]],[[34045,13976],[45,0]],[[34090,13976],[36,-30]],[[34126,13946],[-4,-26]],[[33820,13361],[68,40]],[[33834,13333],[0,2]],[[34077,13442],[-63,-38]],[[34005,13228],[40,11]],[[34045,13239],[9,-11]],[[34153,13277],[0,74]],[[34153,13351],[9,48],[-45,-13]],[[34117,13386],[-22,46]],[[34095,13432],[4,8]],[[34167,13460],[54,5]],[[34325,13717],[-32,43]],[[34293,13760],[59,5]],[[34352,13765],[-27,-48]],[[34216,13790],[77,-30]],[[34325,13717],[27,-18]],[[34266,13630],[-32,59],[-49,-31]],[[34239,13572],[-45,23]],[[34194,13595],[13,5]],[[34207,13600],[27,12]],[[34225,13470],[-13,74],[-36,-15]],[[34176,13529],[-14,50]],[[34162,13579],[32,16]],[[34104,13320],[-9,-15]],[[34095,13305],[-27,-33]],[[34068,13409],[27,23]],[[34117,13386],[-13,-66]],[[34045,13239],[95,-31]],[[34162,13579],[-18,-10]],[[34248,13610],[-41,-10]],[[34176,13529],[-14,-8]],[[34153,13351],[-49,-31]],[[34095,13305],[54,28],[4,-56]],[[34198,13236],[-4,-76],[-126,112]],[[34167,13826],[9,25]],[[34176,13851],[135,-22],[63,56]],[[34374,13885],[99,-72]],[[34365,13727],[-13,38]],[[34392,15822],[9,-53]],[[34401,15769],[-49,-20]],[[34352,15749],[-18,40]],[[34334,15789],[-41,43]],[[34293,15832],[41,156]],[[34334,15988],[94,-18]],[[34428,15970],[-27,-41]],[[34401,15929],[-40,-15],[31,-92]],[[34334,15789],[-41,5]],[[34293,15794],[-4,0]],[[34289,15794],[4,38]],[[34370,15512],[-27,31]],[[34343,15543],[76,160]],[[34419,15703],[41,7]],[[34460,15710],[0,-61],[0,-63],[0,-74]],[[34460,15512],[-9,0]],[[34451,15512],[-45,3]],[[34406,15515],[-36,-3]],[[34460,16366],[-63,36]],[[34397,16402],[13,25]],[[34410,16427],[50,23],[0,-84]],[[34460,16176],[0,-74],[0,-5]],[[34460,16097],[-45,15]],[[34415,16112],[13,61],[-40,-18]],[[34388,16155],[4,21]],[[34392,16176],[68,0]],[[34460,15815],[0,-8],[0,-97]],[[34419,15703],[-22,18]],[[34397,15721],[4,48]],[[34392,15822],[68,-7]],[[34415,16112],[-18,3]],[[34397,16115],[-9,40]],[[34289,15776],[4,18]],[[34352,15749],[-82,-18]],[[34270,15731],[19,45]],[[34343,15543],[-50,-31],[-13,71]],[[34280,15583],[117,138]],[[34289,15776],[0,18]],[[34280,15583],[-55,21]],[[34225,15604],[45,127]],[[34365,16420],[32,-18]],[[34460,16366],[0,-76]],[[34460,16290],[-63,-30]],[[34397,16260],[-32,160]],[[34365,16420],[45,7]],[[34230,15448],[-18,44]],[[34212,15492],[-27,66],[40,46]],[[34370,15512],[-63,-99]],[[34307,15413],[-77,35]],[[34460,15835],[0,-20]],[[34401,15929],[59,-94]],[[34460,15962],[0,-127]],[[34428,15970],[32,-8]],[[34460,16290],[0,-114]],[[34392,16176],[5,84]],[[34460,16097],[0,-97],[0,-38]],[[34334,15988],[63,127]],[[33685,15011],[0,-28]],[[33685,14983],[-54,-2]],[[33631,14981],[-50,68]],[[33581,15049],[68,28]],[[33649,15077],[5,5]],[[33654,15082],[31,-71]],[[33753,15052],[0,-33]],[[33753,15019],[-68,-8]],[[33654,15082],[27,59]],[[33681,15141],[4,2]],[[33685,15143],[68,-28]],[[33753,15115],[0,-63]],[[33649,15077],[32,64]],[[33622,14907],[-45,-79]],[[33577,14828],[-72,41]],[[33505,14869],[0,58]],[[33505,14927],[22,41],[59,-41]],[[33586,14927],[36,-20]],[[33874,15095],[-81,25]],[[33793,15120],[95,49]],[[33888,15169],[-14,-74]],[[34063,15227],[9,-40]],[[34072,15187],[-81,55]],[[33991,15242],[18,31]],[[34009,15273],[54,-46]],[[34005,14795],[27,-41]],[[34032,14754],[-90,-30]],[[33942,14724],[-27,33]],[[33915,14757],[31,38]],[[33946,14795],[9,10]],[[33955,14805],[36,8]],[[33991,14813],[14,-18]],[[34081,14706],[-49,48]],[[34005,14795],[90,-3]],[[34095,14792],[67,-40],[-18,-38]],[[33946,14795],[0,15]],[[33946,14810],[9,-5]],[[33829,14673],[0,63]],[[33829,14736],[50,16]],[[33879,14752],[36,5]],[[33942,14724],[9,-51]],[[33739,14958],[-54,25]],[[33753,15019],[-14,-61]],[[33636,14797],[0,11]],[[33636,14808],[72,63]],[[33708,14871],[45,41]],[[33753,14912],[27,-56],[72,51]],[[33852,14907],[27,-36]],[[33879,14871],[13,-61]],[[33892,14810],[-13,-58]],[[33829,14736],[-36,67],[-126,-23]],[[34059,15326],[63,-58]],[[34122,15268],[-59,-41]],[[34009,15273],[50,53]],[[34005,14678],[-50,-15]],[[33946,14810],[-54,0]],[[33879,14871],[63,33]],[[33942,14904],[40,5]],[[33982,14909],[9,-96]],[[34280,15270],[-127,-28],[0,-68]],[[34153,15174],[-76,-41]],[[34077,15133],[-5,54]],[[34122,15268],[76,109]],[[34198,15377],[91,-99]],[[34289,15278],[-9,-8]],[[33586,14927],[45,54]],[[33739,14958],[14,-46]],[[33708,14871],[-86,36]],[[34198,15380],[-9,2]],[[34189,15382],[-4,41]],[[34185,15423],[27,69]],[[34230,15448],[-32,-68]],[[34189,15382],[-67,0]],[[34122,15382],[63,41]],[[33964,14937],[-22,-33]],[[33852,14907],[22,127]],[[33874,15034],[27,33]],[[33901,15067],[9,-130],[54,0]],[[33577,14828],[59,-20]],[[33590,14749],[-90,79],[18,-86],[54,0]],[[33473,14693],[-22,160],[54,16]],[[34347,15367],[-36,-15]],[[34311,15352],[41,-99],[-63,25]],[[34198,15377],[0,3]],[[34307,15413],[40,-13]],[[34347,15400],[0,-33]],[[34077,15133],[-9,0]],[[34068,15133],[-63,-28]],[[34005,15105],[-68,-15]],[[33937,15090],[-63,5]],[[33888,15169],[103,73]],[[34059,15326],[63,56]],[[34108,14803],[-13,-11]],[[33982,14909],[68,0],[-9,-61],[67,-45]],[[33753,15052],[121,-18]],[[33505,14927],[76,122]],[[33753,15115],[9,51]],[[33762,15166],[31,-46]],[[33937,15090],[-36,-23]],[[34356,15408],[-9,-8]],[[34406,15515],[-50,-107]],[[33685,15143],[77,23]],[[34806,14742],[-54,-16],[41,-38]],[[34793,14688],[-14,-20]],[[34779,14668],[-81,5]],[[34698,14673],[-13,13]],[[34685,14686],[-72,40]],[[34613,14726],[0,77]],[[34613,14803],[-18,22]],[[34595,14825],[31,54]],[[34626,14879],[59,10]],[[34685,14889],[13,-15]],[[34698,14874],[113,-61]],[[34811,14813],[-5,-71]],[[34392,14012],[-4,-38]],[[34388,13974],[-54,5]],[[34334,13979],[-5,45]],[[34329,14024],[63,-12]],[[34428,14370],[50,-84],[-131,-7]],[[34347,14279],[9,7]],[[34356,14286],[72,84]],[[34329,14024],[-22,31]],[[34307,14055],[36,13],[-18,50]],[[34325,14118],[27,44]],[[34352,14162],[99,-89]],[[34451,14073],[18,-13]],[[34469,14060],[-77,-48]],[[34451,14073],[-90,117]],[[34361,14190],[-5,15]],[[34356,14205],[-9,74]],[[34428,14370],[41,49]],[[34469,14419],[45,-97],[-50,-92]],[[34464,14230],[-9,-12],[45,-38],[171,-34]],[[34523,14022],[-54,38]],[[34352,14162],[9,28]],[[34685,14686],[-104,-18]],[[34581,14668],[32,58]],[[34586,14576],[13,56]],[[34599,14632],[9,-43]],[[34608,14589],[-22,-13]],[[34581,14365],[117,-33]],[[34698,14332],[-180,-23],[-54,-79]],[[34469,14419],[9,15]],[[34478,14434],[0,5]],[[34478,14439],[103,-74]],[[34698,14673],[-9,-120],[50,-30]],[[34739,14523],[-63,-13]],[[34676,14510],[-68,79]],[[34599,14632],[-40,10]],[[34559,14642],[18,23]],[[34577,14665],[4,3]],[[34478,14439],[27,66],[49,-13]],[[34554,14492],[23,8]],[[34577,14500],[67,-41]],[[34644,14459],[0,-2]],[[34644,14457],[-63,-92]],[[34644,14459],[14,18]],[[34658,14477],[18,33]],[[34739,14523],[36,35]],[[34775,14558],[-5,-15]],[[34770,14543],[0,-69]],[[34770,14474],[-67,-50],[-59,33]],[[34554,14492],[-9,46]],[[34545,14538],[41,36]],[[34586,14574],[22,-59]],[[34608,14515],[-31,-15]],[[34770,14474],[81,28],[-72,-86]],[[34779,14416],[-9,-25]],[[34770,14391],[-72,-59]],[[34658,14477],[-50,38]],[[34586,14574],[0,2]],[[34779,14668],[5,-41]],[[34784,14627],[-9,-69]],[[34698,14874],[126,-38]],[[34824,14836],[-13,-23]],[[34923,14673],[-9,66]],[[34914,14739],[37,43]],[[34951,14782],[31,-5]],[[34982,14777],[108,-33]],[[35090,14744],[-49,-58]],[[35041,14686],[13,-41],[-49,5]],[[35005,14650],[-82,23]],[[34914,14739],[-103,-18]],[[34811,14721],[-5,21]],[[34824,14836],[122,71]],[[34946,14907],[50,-26],[-45,-99]],[[34941,14480],[-22,48]],[[34919,14528],[36,48],[-45,26]],[[34910,14602],[0,15]],[[34910,14617],[13,56]],[[35005,14650],[58,-71],[-31,-82]],[[35032,14497],[-23,-53]],[[35009,14444],[-68,36]],[[35090,14744],[23,43]],[[35113,14787],[27,-10]],[[35140,14777],[76,-20]],[[35216,14757],[-40,-102]],[[35176,14655],[-135,31]],[[34793,14688],[49,-15],[-31,48]],[[34910,14617],[-126,10]],[[35405,14841],[-31,-102]],[[35374,14739],[-9,-3]],[[35365,14736],[-108,13]],[[35257,14749],[-9,-7]],[[35248,14742],[58,127],[-108,-31]],[[35198,14838],[50,48]],[[35248,14886],[45,77]],[[35293,14963],[117,10]],[[35410,14973],[-45,-109],[40,-23]],[[34374,13885],[14,35]],[[34388,13920],[0,54]],[[35369,14729],[-85,-64]],[[35284,14665],[-27,84]],[[35365,14736],[4,-7]],[[34982,14358],[27,86]],[[35032,14497],[63,-53]],[[35185,14645],[-99,-171],[31,-25]],[[35176,14655],[9,-10]],[[35198,14838],[-54,18]],[[35144,14856],[-36,56],[90,15]],[[35198,14927],[50,-41]],[[35216,14757],[32,-15]],[[35284,14665],[-54,-43]],[[35230,14622],[-45,23]],[[35198,14838],[-63,-23]],[[35135,14815],[9,41]],[[34779,14358],[-9,33]],[[34779,14416],[95,76],[49,-76],[18,64]],[[34969,14312],[-190,46]],[[34982,14777],[50,94],[67,-28]],[[35099,14843],[14,-56]],[[34910,14602],[-23,-49]],[[34887,14553],[-117,-10]],[[34887,14553],[32,-25]],[[34770,14233],[-81,-69]],[[34671,14146],[27,186]],[[34779,14358],[-9,-125]],[[34946,14907],[45,25]],[[34991,14932],[81,-53],[18,63],[9,-99]],[[35135,14815],[5,-38]],[[34991,14932],[5,41]],[[34996,14973],[22,38]],[[35018,15011],[117,28]],[[35135,15039],[72,-28]],[[35207,15011],[41,-15]],[[35248,14996],[-50,-69]],[[34770,14233],[-4,-61],[76,43]],[[35248,14996],[13,-23]],[[35261,14973],[32,-10]],[[35216,14508],[-63,-79]],[[35230,14622],[-14,-114]],[[34554,15014],[-72,50],[32,49]],[[34514,15113],[9,51]],[[34523,15164],[31,-49],[50,44]],[[34604,15159],[22,-21]],[[34626,15138],[-13,-43]],[[34613,15095],[18,-76]],[[34631,15019],[-27,-23]],[[34604,14996],[-50,18]],[[34225,15133],[-72,41]],[[34280,15270],[13,-86]],[[34293,15184],[-68,-51]],[[34280,14790],[-64,-13],[14,64]],[[34230,14841],[81,25]],[[34311,14866],[36,48]],[[34347,14914],[-9,-78],[90,-13]],[[34428,14823],[-85,-89]],[[34343,14734],[-63,56]],[[34216,14861],[-54,-30]],[[34162,14831],[-67,55]],[[34095,14886],[76,-5]],[[34171,14881],[59,5]],[[34230,14886],[-14,-25]],[[34158,14930],[45,-28],[-32,-21]],[[34095,14886],[31,49]],[[34126,14935],[32,-5]],[[34752,15138],[-40,-81],[31,-84]],[[34743,14973],[-54,-23]],[[34689,14950],[-58,69]],[[34613,15095],[13,41]],[[34626,15136],[81,40]],[[34707,15176],[18,-12]],[[34725,15164],[27,-26]],[[34554,15014],[-13,-36]],[[34541,14978],[-90,8]],[[34451,14986],[-32,45],[27,107]],[[34446,15138],[68,-25]],[[34428,14563],[-54,-15]],[[34374,14548],[-18,3]],[[34356,14551],[-27,-18]],[[34329,14533],[-27,10]],[[34302,14543],[-22,15]],[[34280,14558],[13,13]],[[34293,14571],[18,74]],[[34311,14645],[27,20],[-45,31]],[[34293,14696],[72,7]],[[34365,14703],[23,-28]],[[34388,14675],[22,-48]],[[34410,14627],[18,-64]],[[34023,15039],[0,-81],[-59,-21]],[[34005,15105],[18,-66]],[[34347,14914],[27,6]],[[34374,14920],[77,-46],[-23,-51]],[[34338,15214],[41,21]],[[34379,15235],[54,-18]],[[34433,15217],[4,-3]],[[34437,15214],[-76,-40],[-23,40]],[[34280,14790],[-23,-33]],[[34257,14757],[-99,-59]],[[34108,14803],[63,-16],[-9,44]],[[34216,14861],[18,-8]],[[34234,14853],[-4,-12]],[[34545,14538],[9,64],[-45,-8]],[[34509,14594],[0,48],[50,0]],[[34068,15133],[-23,-51],[36,-28]],[[34081,15054],[-58,-15]],[[34752,15138],[63,-91]],[[34815,15047],[-72,-74]],[[34478,15255],[-41,-41]],[[34433,15217],[-5,61],[68,13]],[[34496,15291],[-18,-36]],[[34257,14701],[-23,-89]],[[34234,14612],[-36,41]],[[34257,14757],[0,-56]],[[34905,15077],[-13,-28]],[[34892,15049],[-77,-2]],[[34725,15164],[185,73]],[[34910,15237],[18,-73]],[[34928,15164],[-36,-16],[13,-71]],[[34081,15054],[23,-73]],[[34104,14981],[22,-46]],[[34577,14665],[-14,64]],[[34563,14729],[50,74]],[[34910,15237],[59,82]],[[34969,15319],[27,-54]],[[34996,15265],[-27,-94]],[[34969,15171],[-41,-7]],[[34478,14434],[-50,46]],[[34428,14480],[-4,38]],[[34424,14518],[18,25]],[[34442,14543],[67,51]],[[34338,15214],[-45,-30]],[[34311,15352],[90,0]],[[34401,15352],[5,-3]],[[34406,15349],[-50,-38],[23,-76]],[[34595,14825],[-86,-12],[-112,132]],[[34397,14945],[49,28]],[[34446,14973],[180,-94]],[[34343,14734],[22,-31]],[[34293,14696],[-36,5]],[[34685,14940],[0,-51]],[[34446,14973],[5,13]],[[34541,14978],[72,-23]],[[34613,14955],[72,-15]],[[34608,15176],[-4,-17]],[[34523,15164],[18,58]],[[34541,15222],[67,-46]],[[34626,15138],[0,-2]],[[35027,15042],[-9,-31]],[[34996,14973],[-149,-33],[63,56],[-18,53]],[[34905,15077],[41,-51],[32,54]],[[34978,15080],[49,-38]],[[34689,14950],[-4,-10]],[[34613,14955],[-9,41]],[[35054,15225],[-81,-105]],[[34973,15120],[-4,51]],[[34996,15265],[9,-28]],[[35005,15237],[49,-12]],[[34311,14866],[-77,-13]],[[34230,14886],[-23,46],[50,-10],[13,99],[23,33],[23,0]],[[34316,15054],[81,-109]],[[34397,14945],[-23,-25]],[[34388,14675],[67,-28],[-45,-20]],[[34225,15133],[-18,-71],[-54,-5],[18,-54]],[[34171,15003],[-67,-22]],[[34347,15367],[54,-15]],[[34171,15003],[-13,-73]],[[35027,15042],[32,81],[63,5]],[[35122,15128],[27,-56]],[[35149,15072],[-14,-33]],[[34316,15054],[-9,79],[-82,0]],[[34437,15214],[9,-76]],[[34311,14645],[-31,-26]],[[34280,14619],[-46,-7]],[[34608,15176],[59,28]],[[34667,15204],[40,-28]],[[34406,15349],[72,-12]],[[34478,15337],[18,-46]],[[34973,15120],[5,-40]],[[35054,15225],[54,-16]],[[35108,15209],[14,-81]],[[34365,14703],[77,51],[121,-25]],[[34442,14543],[-14,20]],[[34478,15255],[67,-18]],[[34545,15237],[-4,-15]],[[34874,15459],[40,-59]],[[34914,15400],[-63,-58]],[[34851,15342],[-54,-5]],[[34797,15337],[-90,78]],[[34707,15415],[-13,3]],[[34694,15418],[-5,58]],[[34689,15476],[18,36]],[[34707,15512],[18,0],[54,0]],[[34779,15512],[36,-5]],[[34815,15507],[59,-48]],[[34874,15459],[49,48]],[[34923,15507],[28,-84],[-37,-23]],[[34991,15357],[-22,-38]],[[34910,15237],[-59,105]],[[34923,15507],[5,5]],[[34928,15512],[45,0],[72,0]],[[35045,15512],[-22,-107]],[[35023,15405],[-54,-20],[22,-28]],[[35149,15273],[-90,109]],[[35059,15382],[144,-2],[-54,-102]],[[35149,15278],[0,-5]],[[34689,15476],[-13,0]],[[34676,15476],[-9,23]],[[34667,15499],[9,13]],[[34676,15512],[31,0]],[[35059,15382],[-18,13]],[[35041,15395],[-18,10]],[[35045,15512],[14,0],[108,0],[49,0],[18,0],[36,0],[0,-94]],[[35270,15418],[-121,-140]],[[34694,15418],[-36,10],[18,48]],[[35005,15237],[18,102]],[[35023,15339],[18,56]],[[35149,15273],[-41,-64]],[[34815,15507],[0,5]],[[34815,15512],[14,0],[99,0]],[[35023,15339],[-32,18]],[[34779,15512],[36,0]],[[34667,15204],[-5,33]],[[34662,15237],[36,100]],[[34698,15337],[14,12]],[[34712,15349],[18,-10],[31,-25],[36,23]],[[34356,15408],[81,10]],[[34437,15418],[54,-31]],[[34491,15387],[-13,-50]],[[34599,15466],[-4,-63]],[[34595,15403],[-95,53]],[[34500,15456],[32,56]],[[34532,15512],[22,0],[36,0]],[[34590,15512],[9,-46]],[[34545,15237],[59,-12]],[[34604,15225],[63,-21]],[[34707,15415],[5,-66]],[[34698,15337],[-58,15]],[[34640,15352],[-18,48]],[[34622,15400],[-23,64]],[[34599,15464],[68,35]],[[34626,15283],[14,10],[0,21],[0,38]],[[34662,15237],[-36,46]],[[34455,15443],[-4,69]],[[34460,15512],[72,0]],[[34500,15456],[-45,-13]],[[34455,15443],[-18,-25]],[[34491,15387],[99,-48],[5,64]],[[34595,15403],[27,-3]],[[34626,15283],[-22,-58]],[[34599,15466],[0,-2]],[[34590,15512],[86,0]],[[34248,14319],[0,51]],[[34248,14370],[50,66]],[[34298,14436],[4,107]],[[34329,14533],[18,-56],[81,3]],[[34356,14286],[-108,33]],[[34307,14299],[-18,64],[72,-18],[-54,-46]],[[34356,14205],[-40,-38]],[[34316,14167],[-127,38]],[[34189,14205],[36,33],[-49,25]],[[34176,14266],[72,53]],[[34198,14561],[-4,13]],[[34194,14574],[-36,40]],[[34280,14619],[13,-48]],[[34280,14558],[-50,26]],[[34230,14584],[-32,-23]],[[34189,14205],[-13,-13]],[[34086,14469],[40,-38],[-27,-53]],[[34068,14449],[18,20]],[[34298,14436],[-68,148]],[[34356,14551],[5,-59],[22,44]],[[34383,14536],[41,-18]],[[34153,14304],[32,48],[-54,-5]],[[34086,14469],[49,44]],[[34135,14513],[32,-41]],[[34167,14472],[27,-71],[4,40]],[[34198,14441],[50,-71]],[[34198,14441],[-31,31]],[[34135,14513],[63,48]],[[34374,14548],[9,-12]],[[34194,14574],[-72,-46]],[[34122,14528],[-23,41]],[[34086,14515],[36,13]],[[34302,14118],[-13,-73]],[[34289,14045],[-64,-26]],[[34225,14019],[-54,-38]],[[34171,13981],[-31,76]],[[34140,14057],[-77,21]],[[34063,14078],[-13,30]],[[34316,14167],[-14,-49]],[[33982,13986],[-18,-7]],[[33969,14035],[45,7],[-32,-56]],[[34302,14118],[23,0]],[[34307,14055],[-18,-10]],[[34270,13986],[-45,33]],[[34334,13979],[-64,7]],[[34090,14024],[0,-48]],[[34045,13976],[45,51]],[[34090,14027],[0,-3]],[[34140,14057],[-50,-33]],[[34090,14027],[-27,51]],[[33982,13986],[41,-38]],[[34171,13981],[-4,-7]],[[34167,13974],[-41,-28]],[[34176,13851],[4,11]],[[34180,13862],[127,61]],[[34307,13923],[81,-3]],[[34185,13907],[-32,-15]],[[34167,13974],[18,-67]],[[34171,13887],[14,20]],[[34270,13986],[37,-63]],[[34180,13862],[-9,25]],[[34158,13872],[13,15]],[[35874,14996],[45,94]],[[35919,15090],[58,112]],[[36031,15115],[-58,-109]],[[35973,15006],[-45,36],[-41,-54]],[[35887,14988],[-13,8]],[[35261,15077],[-40,10],[-14,-76]],[[35149,15072],[117,61]],[[35266,15133],[-5,-56]],[[35594,15057],[46,63]],[[35640,15120],[94,148]],[[35734,15268],[59,2]],[[35793,15270],[22,-50]],[[35815,15220],[-4,-8]],[[35811,15212],[-36,-71]],[[35775,15141],[-27,-33]],[[35748,15108],[-90,-92]],[[35658,15016],[-64,41]],[[35937,14935],[36,71]],[[36094,15187],[5,-105]],[[36099,15082],[-41,-109],[-63,-33],[-58,-5]],[[35901,14909],[-23,16]],[[35878,14925],[9,63]],[[35937,14935],[-27,-33]],[[35910,14902],[-9,7]],[[35261,14983],[0,-10]],[[35261,15077],[0,-94]],[[35581,15169],[-45,-77]],[[35536,15092],[-108,18]],[[35428,15110],[31,33],[59,49],[22,10]],[[35540,15202],[41,-33]],[[35793,15270],[36,31]],[[35829,15301],[31,-36],[-45,-45]],[[35261,14983],[167,127]],[[35428,15110],[-18,-137]],[[35950,15232],[-67,56],[27,33]],[[35910,15321],[54,-5]],[[35540,15202],[41,56],[9,7],[4,-10]],[[35594,15255],[18,3]],[[35612,15258],[50,-28],[50,53]],[[35712,15283],[22,-15]],[[35640,15120],[-14,67],[-45,-18]],[[35635,14960],[-23,-51]],[[35612,14909],[-27,11]],[[35585,14920],[18,40]],[[35603,14960],[32,0]],[[35658,15016],[-23,-56]],[[35603,14960],[-126,26]],[[35477,14986],[59,106]],[[35536,15092],[58,-35]],[[35477,14986],[-40,-59],[18,-71],[-50,-15]],[[35594,15255],[5,10],[13,-7]],[[35712,15283],[49,66],[54,69]],[[35815,15418],[0,-31]],[[35815,15387],[41,-35]],[[35856,15352],[-27,-51]],[[35788,14950],[0,3]],[[35788,14953],[63,86]],[[35851,15039],[23,-43]],[[35878,14925],[-90,25]],[[35919,15090],[-54,15],[-14,-66]],[[35788,14953],[-67,25]],[[35721,14978],[54,102]],[[35775,15080],[0,61]],[[35811,15212],[76,-36],[63,56]],[[35856,15352],[49,-28],[5,-3]],[[35270,15418],[0,-74],[-4,-211]],[[35815,15418],[36,-15],[-36,-16]],[[35901,14909],[-108,-175]],[[35793,14734],[-86,13]],[[35707,14747],[81,203]],[[35410,14360],[49,114]],[[35459,14474],[77,107]],[[35536,14581],[22,-18]],[[35558,14563],[41,-35]],[[35599,14528],[-9,-10],[-23,-92],[-54,-84],[-9,-12],[-4,-11]],[[35500,14319],[-90,41]],[[35216,14508],[9,-6]],[[35225,14502],[-9,-58],[41,51],[-14,-74],[54,8]],[[35297,14429],[-58,-138]],[[35239,14291],[-104,61]],[[35297,14429],[27,40]],[[35324,14469],[27,39]],[[35351,14508],[108,-34]],[[35410,14360],[-140,-145]],[[35270,14215],[-31,71],[0,5]],[[36099,15082],[18,-18]],[[36117,15064],[-23,-109],[-13,-41],[-54,-50]],[[36027,14864],[-117,38]],[[35793,14630],[-45,15],[45,79]],[[35793,14724],[54,-26]],[[35847,14698],[-50,-63],[-4,-5]],[[35649,14617],[58,130]],[[35793,14734],[0,-10]],[[35793,14630],[-36,-77],[-14,-23],[-22,18],[-72,69]],[[35225,14502],[45,8]],[[35270,14510],[54,-41]],[[35500,14319],[-32,-81],[-72,-69],[-45,16],[-45,17],[-36,13]],[[36153,15242],[-9,-134],[-27,-44]],[[35775,15080],[-27,28]],[[35585,14920],[-45,-6],[18,-89],[-76,-56]],[[35482,14769],[-108,-30]],[[35536,14581],[67,112],[-31,120],[40,96]],[[35658,15016],[63,-38]],[[35649,14617],[-23,-38]],[[35626,14579],[-68,-16]],[[35626,14579],[-27,-51]],[[35536,14581],[-90,79]],[[35446,14660],[36,109]],[[36027,14864],[-135,-166],[-45,0]],[[35423,14680],[-54,49]],[[35446,14660],[-23,20]],[[35351,14508],[72,172]],[[35270,14510],[54,84],[-40,71]]]}