{"type":"Topology","transform":{"scale":[0.0012831345112129487,0.0009745357309423489],"translate":[-124.73273099999999,24.60334863324381]},"objects":{"area":{"type":"GeometryCollection","geometries":[{"arcs":[[0,1]],"type":"Polygon","properties":{"state":"WY","name":"CHEYENNE","zip":"82001"}},{"arcs":[[2,3,4,5,6,7,-2,8,9]],"type":"Polygon","properties":{"state":"WY","name":"CHEYENNE","zip":"82007"}},{"arcs":[[-8,10,11,12,13,14,15,16,17,18,19,-9,-1]],"type":"Polygon","properties":{"state":"WY","name":"CHEYENNE","zip":"82009"}},{"arcs":[[20,-19,21,22,23]],"type":"Polygon","properties":{"state":"WY","name":"ALBIN","zip":"82050"}},{"arcs":[[24,25,26,-13,27,28]],"type":"Polygon","properties":{"state":"WY","name":"BOSLER","zip":"82051"}},{"arcs":[[29,30,-6]],"type":"Polygon","properties":{"state":"WY","name":"BUFORD","zip":"82052"}},{"arcs":[[31,32,-10,-20,-21]],"type":"Polygon","properties":{"state":"WY","name":"BURNS","zip":"82053"}},{"arcs":[[33,-3,-33,34]],"type":"Polygon","properties":{"state":"WY","name":"CARPENTER","zip":"82054"}},{"arcs":[[35,36,-29,37,38,39]],"type":"Polygon","properties":{"state":"WY","name":"CENTENNIAL","zip":"82055"}},{"arcs":[[40,41,42,43,44,45,46,-26]],"type":"Polygon","properties":{"state":"WY","name":"GARRETT","zip":"82058"}},{"arcs":[[47,48]],"type":"Polygon","properties":{"state":"WY","name":"JELM","zip":"82063"}},{"arcs":[[49,50,-49,51,52,-39,53,-11,-7,-31]],"type":"Polygon","properties":{"state":"WY","name":"LARAMIE","zip":"82070"}},{"arcs":[[-38,-28,-12,-54]],"type":"Polygon","properties":{"state":"WY","name":"LARAMIE","zip":"82072"}},{"arcs":[[54,-17]],"type":"Polygon","properties":{"state":"WY","name":"MERIDEN","zip":"82081"}},{"arcs":[[-32,-24,55,-35]],"type":"Polygon","properties":{"state":"WY","name":"PINE BLUFFS","zip":"82082"}},{"arcs":[[-37,56,57,58,-41,-25]],"type":"Polygon","properties":{"state":"WY","name":"ROCK RIVER","zip":"82083"}},{"arcs":[[59,-50,-30,-5]],"type":"Polygon","properties":{"state":"WY","name":"TIE SIDING","zip":"82084"}},{"arcs":[[60,61,62,63],[64]],"type":"Polygon","properties":{"state":"WY","name":"YELLOWSTONE NATIONAL PARK","zip":"82190"}},{"arcs":[[-47,65,66,67,68,-14,-27]],"type":"Polygon","properties":{"state":"WY","name":"WHEATLAND","zip":"82201"}},{"arcs":[[69,-15,-69,70,71]],"type":"Polygon","properties":{"state":"WY","name":"CHUGWATER","zip":"82210"}},{"arcs":[[72,73,74]],"type":"Polygon","properties":{"state":"WY","name":"FORT LARAMIE","zip":"82212"}},{"arcs":[[75,76,-66,-46,77,78,79,80,81]],"type":"Polygon","properties":{"state":"WY","name":"GLENDO","zip":"82213"}},{"arcs":[[82,-67,-77,83,84]],"type":"Polygon","properties":{"state":"WY","name":"GUERNSEY","zip":"82214"}},{"arcs":[[-76,85,-84]],"type":"Polygon","properties":{"state":"WY","name":"HARTVILLE","zip":"82215"}},{"arcs":[[86,-72,87,88]],"type":"Polygon","properties":{"state":"WY","name":"HAWK SPRINGS","zip":"82217"}},{"arcs":[[89,-74,90,-85,-86,-82,91,92,93,94,95]],"type":"Polygon","properties":{"state":"WY","name":"JAY EM","zip":"82219"}},{"arcs":[[96,-22,-18,-55,-16,-70,-87]],"type":"Polygon","properties":{"state":"WY","name":"LAGRANGE","zip":"82221"}},{"arcs":[[97,98,99,100,101,102,103]],"type":"Polygon","properties":{"state":"WY","name":"LANCE CREEK","zip":"82222"}},{"arcs":[[104,-96]],"type":"Polygon","properties":{"state":"WY","name":"LINGLE","zip":"82223"}},{"arcs":[[[105,-100,106]],[[107,108]]],"type":"MultiPolygon","properties":{"state":"WY","name":"LOST SPRINGS","zip":"82224"}},{"arcs":[[-81,109,-98,110,-92]],"type":"Polygon","properties":{"state":"WY","name":"LUSK","zip":"82225"}},{"arcs":[[-80,111,-109,112,-107,-99,-110]],"type":"Polygon","properties":{"state":"WY","name":"MANVILLE","zip":"82227"}},{"arcs":[[-79,113,-101,-106,-113,-108,-112]],"type":"Polygon","properties":{"state":"WY","name":"SHAWNEE","zip":"82229"}},{"arcs":[[114,115,-75,-90,-105,-95,116,117]],"type":"Polygon","properties":{"state":"WY","name":"TORRINGTON","zip":"82240"}},{"arcs":[[118,-93,-111,-104,119]],"type":"Polygon","properties":{"state":"WY","name":"VAN TASSELL","zip":"82242"}},{"arcs":[[120,-115]],"type":"Polygon","properties":{"state":"WY","name":"VETERAN","zip":"82243"}},{"arcs":[[121,-88,-71,-68,-83,-91,-73,-116,-121,-118]],"type":"Polygon","properties":{"state":"WY","name":"YODER","zip":"82244"}},{"arcs":[[122,123,124,125,126,127,128,129,130,131,132,133]],"type":"Polygon","properties":{"state":"WY","name":"RAWLINS","zip":"82301"}},{"arcs":[[134,135,136,137,-128,138]],"type":"Polygon","properties":{"state":"WY","name":"JEFFREY CITY","zip":"82310"}},{"arcs":[[139,140,-125,141]],"type":"Polygon","properties":{"state":"WY","name":"BAGGS","zip":"82321"}},{"arcs":[[142,143,144,-139,-127]],"type":"Polygon","properties":{"state":"WY","name":"BAIROIL","zip":"82322"}},{"arcs":[[145,-142,-124,146]],"type":"Polygon","properties":{"state":"WY","name":"DIXON","zip":"82323"}},{"arcs":[[147,-134,148,-40,-53,149]],"type":"Polygon","properties":{"state":"WY","name":"ENCAMPMENT","zip":"82325"}},{"arcs":[[150,-130,151,152,-43,153,-58,154,-132]],"type":"Polygon","properties":{"state":"WY","name":"HANNA","zip":"82327"}},{"arcs":[[-42,-59,-154]],"type":"Polygon","properties":{"state":"WY","name":"MEDICINE BOW","zip":"82329"}},{"arcs":[[-149,-133,-155,-57,-36]],"type":"Polygon","properties":{"state":"WY","name":"SARATOGA","zip":"82331"}},{"arcs":[[155,-147,-123,-148]],"type":"Polygon","properties":{"state":"WY","name":"SAVERY","zip":"82332"}},{"arcs":[[-151,-131]],"type":"Polygon","properties":{"state":"WY","name":"SINCLAIR","zip":"82334"}},{"arcs":[[156,157,-143,-126,-141]],"type":"Polygon","properties":{"state":"WY","name":"WAMSUTTER","zip":"82336"}},{"arcs":[[158,159,160,161]],"type":"Polygon","properties":{"state":"WY","name":"WORLAND","zip":"82401"}},{"arcs":[[162,163,164,165]],"type":"Polygon","properties":{"state":"WY","name":"BASIN","zip":"82410"}},{"arcs":[[166,167,168,169,-166]],"type":"Polygon","properties":{"state":"WY","name":"BURLINGTON","zip":"82411"}},{"arcs":[[170,-64,171,172,173,174]],"type":"Polygon","properties":{"state":"WY","name":"CODY","zip":"82414"}},{"arcs":[[175,176,177]],"type":"Polygon","properties":{"state":"WY","name":"DEAVER","zip":"82421"}},{"arcs":[[178,-169,179,180,181,182,183,184,-164]],"type":"Polygon","properties":{"state":"WY","name":"GREYBULL","zip":"82426"}},{"arcs":[[185]],"type":"Polygon","properties":{"state":"WY","name":"HYATTVILLE","zip":"82428"}},{"arcs":[[186,-176,187,188,-182]],"type":"Polygon","properties":{"state":"WY","name":"LOVELL","zip":"82431"}},{"arcs":[[189,-167,-165,-185,190,191,192,193,194,-162],[-186]],"type":"Polygon","properties":{"state":"WY","name":"MANDERSON","zip":"82432"}},{"arcs":[[195,-180,-168,-190,-161,196,197,-174]],"type":"Polygon","properties":{"state":"WY","name":"MEETEETSE","zip":"82433"}},{"arcs":[[-170,-179,-163]],"type":"Polygon","properties":{"state":"WY","name":"OTTO","zip":"82434"}},{"arcs":[[198,-177,-187,-181,-196,-173]],"type":"Polygon","properties":{"state":"WY","name":"POWELL","zip":"82435"}},{"arcs":[[-184,199,-191]],"type":"Polygon","properties":{"state":"WY","name":"SHELL","zip":"82441"}},{"arcs":[[200,201,-159,-195,202,203,204]],"type":"Polygon","properties":{"state":"WY","name":"TEN SLEEP","zip":"82442"}},{"arcs":[[205,206,207,208,209,-197,-160,-202]],"type":"Polygon","properties":{"state":"WY","name":"THERMOPOLIS","zip":"82443"}},{"arcs":[[210,211,212,213,214,215,216,217,218,219,-208,220,-136,221]],"type":"Polygon","properties":{"state":"WY","name":"RIVERTON","zip":"82501"}},{"arcs":[[222,-211]],"type":"Polygon","properties":{"state":"WY","name":"ARAPAHOE","zip":"82510"}},{"arcs":[[223,224,225,-218]],"type":"Polygon","properties":{"state":"WY","name":"CROWHEART","zip":"82512"}},{"arcs":[[-217,226,227,228,229,230,-175,-198,-210,231,-224]],"type":"Polygon","properties":{"state":"WY","name":"DUBOIS","zip":"82513"}},{"arcs":[[232,-213]],"type":"Polygon","properties":{"state":"WY","name":"FORT WASHAKIE","zip":"82514"}},{"arcs":[[-226,233,-219]],"type":"Polygon","properties":{"state":"WY","name":"KINNEAR","zip":"82516"}},{"arcs":[[-145,234,235,-214,-233,-212,-223,-222,-135]],"type":"Polygon","properties":{"state":"WY","name":"LANDER","zip":"82520"}},{"arcs":[[-225,-232,-209,-220,-234]],"type":"Polygon","properties":{"state":"WY","name":"PAVILLION","zip":"82523"}},{"arcs":[[236,237,238,239,240,241]],"type":"Polygon","properties":{"state":"WY","name":"CASPER","zip":"82601"}},{"arcs":[[242,-153,243,-129,-138,244,245,-205,246,-239,247,248]],"type":"Polygon","properties":{"state":"WY","name":"CASPER","zip":"82604"}},{"arcs":[[249,-248,-238]],"type":"Polygon","properties":{"state":"WY","name":"CASPER","zip":"82609"}},{"arcs":[[-244,-152]],"type":"Polygon","properties":{"state":"WY","name":"ALCOVA","zip":"82620"}},{"arcs":[[-45,250,251,252,-102,-114,-78]],"type":"Polygon","properties":{"state":"WY","name":"DOUGLAS","zip":"82633"}},{"arcs":[[-237,253,-249,-250]],"type":"Polygon","properties":{"state":"WY","name":"EVANSVILLE","zip":"82636"}},{"arcs":[[-254,-242,254,255,256,-251,-44,-243]],"type":"Polygon","properties":{"state":"WY","name":"GLENROCK","zip":"82637"}},{"arcs":[[257,-240,-247,-204,258,259,-256]],"type":"Polygon","properties":{"state":"WY","name":"KAYCEE","zip":"82639"}},{"arcs":[[260,-206,-201,-246]],"type":"Polygon","properties":{"state":"WY","name":"LYSITE","zip":"82642"}},{"arcs":[[-258,-255,-241]],"type":"Polygon","properties":{"state":"WY","name":"MIDWEST","zip":"82643"}},{"arcs":[[-137,-221,-207,-261,-245]],"type":"Polygon","properties":{"state":"WY","name":"SHOSHONI","zip":"82649"}},{"arcs":[[-103,-253,261,262,263,264,265,266,267,-120]],"type":"Polygon","properties":{"state":"WY","name":"NEWCASTLE","zip":"82701"}},{"arcs":[[268,269,270,271]],"type":"Polygon","properties":{"state":"WY","name":"ALADDIN","zip":"82710"}},{"arcs":[[272,-270,273]],"type":"Polygon","properties":{"state":"WY","name":"BEULAH","zip":"82712"}},{"arcs":[[274,275,276]],"type":"Polygon","properties":{"state":"WY","name":"DEVILS TOWER","zip":"82714"}},{"arcs":[[277,278,-267]],"type":"Polygon","properties":{"state":"WY","name":"FOUR CORNERS","zip":"82715"}},{"arcs":[[279,280,281,282,283,284,285]],"type":"Polygon","properties":{"state":"WY","name":"GILLETTE","zip":"82716"}},{"arcs":[[-257,-260,286,-281,287,288,-262,-252],[289]],"type":"Polygon","properties":{"state":"WY","name":"GILLETTE","zip":"82718"}},{"arcs":[[290,-276,291,292,293,-272]],"type":"Polygon","properties":{"state":"WY","name":"HULETT","zip":"82720"}},{"arcs":[[294,295,296,-286,297,-292,-275]],"type":"Polygon","properties":{"state":"WY","name":"MOORCROFT","zip":"82721"}},{"arcs":[[298,-264]],"type":"Polygon","properties":{"state":"WY","name":"OSAGE","zip":"82723"}},{"arcs":[[299,-284,300,301]],"type":"Polygon","properties":{"state":"WY","name":"RECLUSE","zip":"82725"}},{"arcs":[[302,-288,-280,-297]],"type":"Polygon","properties":{"state":"WY","name":"ROZET","zip":"82727"}},{"arcs":[[303,-295,-277,-291,-271,-273,304,-278,-266]],"type":"Polygon","properties":{"state":"WY","name":"SUNDANCE","zip":"82729"}},{"arcs":[[-263,-289,-303,-296,-304,-265,-299]],"type":"Polygon","properties":{"state":"WY","name":"UPTON","zip":"82730"}},{"arcs":[[-300,305,-293,-298,-285]],"type":"Polygon","properties":{"state":"WY","name":"WESTON","zip":"82731"}},{"arcs":[[-290]],"type":"Polygon","properties":{"state":"WY","name":"WRIGHT","zip":"82732"}},{"arcs":[[306,307,308,309,310,311]],"type":"Polygon","properties":{"state":"WY","name":"SHERIDAN","zip":"82801"}},{"arcs":[[312,313,314,-301,-283]],"type":"Polygon","properties":{"state":"WY","name":"ARVADA","zip":"82831"}},{"arcs":[[315,316,317,-311]],"type":"Polygon","properties":{"state":"WY","name":"BANNER","zip":"82832"}},{"arcs":[[318,319,-317,320,-313,-282,-287,-259,-203,-194]],"type":"Polygon","properties":{"state":"WY","name":"BUFFALO","zip":"82834"}},{"arcs":[[-316,-310,321,-314,-321]],"type":"Polygon","properties":{"state":"WY","name":"CLEARMONT","zip":"82835"}},{"arcs":[[-183,-189,322,323,324,325,-192,-200]],"type":"Polygon","properties":{"state":"WY","name":"DAYTON","zip":"82836"}},{"arcs":[[326,327,-324]],"type":"Polygon","properties":{"state":"WY","name":"PARKMAN","zip":"82838"}},{"arcs":[[328,-325,-328,329,-308]],"type":"Polygon","properties":{"state":"WY","name":"RANCHESTER","zip":"82839"}},{"arcs":[[-320,330,-312,-318]],"type":"Polygon","properties":{"state":"WY","name":"STORY","zip":"82842"}},{"arcs":[[-326,-329,-307,-331,-319,-193]],"type":"Polygon","properties":{"state":"WY","name":"WOLF","zip":"82844"}},{"arcs":[[331,332,333,334,-235,-144,-158]],"type":"Polygon","properties":{"state":"WY","name":"ROCK SPRINGS","zip":"82901"}},{"arcs":[[335,336,337,338,339,-229]],"type":"Polygon","properties":{"state":"WY","name":"BONDURANT","zip":"82922"}},{"arcs":[[-335,340,341,342,343,-215,-236]],"type":"Polygon","properties":{"state":"WY","name":"BOULDER","zip":"82923"}},{"arcs":[[344,-336,-228,345]],"type":"Polygon","properties":{"state":"WY","name":"CORA","zip":"82925"}},{"arcs":[[346,347,348]],"type":"Polygon","properties":{"state":"WY","name":"EVANSTON","zip":"82930"}},{"arcs":[[349,350,351,352,353,354,-349],[355]],"type":"Polygon","properties":{"state":"WY","name":"FORT BRIDGER","zip":"82933"}},{"arcs":[[356,357,-341,-334,358,-351]],"type":"Polygon","properties":{"state":"WY","name":"GREEN RIVER","zip":"82935"}},{"arcs":[[359,-354]],"type":"Polygon","properties":{"state":"WY","name":"LONETREE","zip":"82936"}},{"arcs":[[-356]],"type":"Polygon","properties":{"state":"WY","name":"LYMAN","zip":"82937"}},{"arcs":[[-359,-333,360,-352]],"type":"Polygon","properties":{"state":"WY","name":"MC KINNON","zip":"82938"}},{"arcs":[[361,-346,-227,-216,-344,362]],"type":"Polygon","properties":{"state":"WY","name":"PINEDALE","zip":"82941"}},{"arcs":[[363,364,365,366,367,-339]],"type":"Polygon","properties":{"state":"WY","name":"JACKSON","zip":"83001"}},{"arcs":[[368,369,-230,-340,-368]],"type":"Polygon","properties":{"state":"WY","name":"KELLY","zip":"83011"}},{"arcs":[[370,371,-62,372,-369,-367]],"type":"Polygon","properties":{"state":"WY","name":"MOOSE","zip":"83012"}},{"arcs":[[-370,-373,-61,-171,-231]],"type":"Polygon","properties":{"state":"WY","name":"MORAN","zip":"83013"}},{"arcs":[[373,374,-371,-366]],"type":"Polygon","properties":{"state":"WY","name":"WILSON","zip":"83014"}},{"arcs":[[-350,375,376,-357]],"type":"Polygon","properties":{"state":"WY","name":"KEMMERER","zip":"83101"}},{"arcs":[[377,378,379,380]],"type":"Polygon","properties":{"state":"WY","name":"AFTON","zip":"83110"}},{"arcs":[[381,382,383,-379]],"type":"Polygon","properties":{"state":"WY","name":"AUBURN","zip":"83111"}},{"arcs":[[384,385,386,387]],"type":"Polygon","properties":{"state":"WY","name":"BEDFORD","zip":"83112"}},{"arcs":[[388,389,390,-363,-343,391]],"type":"Polygon","properties":{"state":"WY","name":"BIG PINEY","zip":"83113"}},{"arcs":[[392,393,394,-389,395,-376,-348]],"type":"Polygon","properties":{"state":"WY","name":"COKEVILLE","zip":"83114"}},{"arcs":[[-391,396,-337,-345,-362]],"type":"Polygon","properties":{"state":"WY","name":"DANIEL","zip":"83115"}},{"arcs":[[397,-374,-365,398,-387,399]],"type":"Polygon","properties":{"state":"WY","name":"ETNA","zip":"83118"}},{"arcs":[[400,401,-400,-386]],"type":"Polygon","properties":{"state":"WY","name":"FREEDOM","zip":"83120"}},{"arcs":[[-384,402,-388,-399,-364,-338,-397,-390,-395,403,-380]],"type":"Polygon","properties":{"state":"WY","name":"GROVER","zip":"83122"}},{"arcs":[[-377,-396,-392,-342,-358]],"type":"Polygon","properties":{"state":"WY","name":"LA BARGE","zip":"83123"}},{"arcs":[[404,-381,-404,-394]],"type":"Polygon","properties":{"state":"WY","name":"SMOOT","zip":"83126"}},{"arcs":[[405,-401,-385,-403,-383]],"type":"Polygon","properties":{"state":"WY","name":"THAYNE","zip":"83127"}}]}},"arcs":[[[15487,16944],[-4,15],[18,38],[126,-20]],[[15627,16977],[-140,-33]],[[15780,16959],[-59,-31],[72,-101]],[[15793,16827],[-121,0],[-117,-3],[-131,0],[-180,0],[-81,0]],[[15163,16824],[0,92]],[[15163,16916],[0,28]],[[15163,16944],[0,30]],[[15163,16974],[324,-30]],[[15627,16977],[153,10]],[[15780,16987],[0,-28]],[[15163,16974],[-5,191]],[[15158,17165],[5,242]],[[15163,17407],[0,91]],[[15163,17498],[121,0]],[[15284,17498],[365,-2]],[[15649,17496],[0,-92],[167,0]],[[15816,17404],[-95,-74],[149,74]],[[15870,17404],[148,0]],[[16018,17404],[-220,-178]],[[15798,17226],[-18,-239]],[[15960,17195],[-162,31]],[[16018,17404],[99,0]],[[16117,17404],[0,-61]],[[16117,17343],[-31,-120],[-126,-28]],[[14546,17371],[270,61],[95,346]],[[14911,17778],[256,71]],[[15167,17849],[-85,-303],[81,-48]],[[15163,17407],[-288,10],[-91,-97]],[[14784,17320],[-238,51]],[[15163,16916],[-167,-3]],[[14996,16913],[-85,125],[252,-94]],[[15960,17195],[31,-267]],[[15991,16928],[-211,31]],[[16063,16827],[-270,0]],[[15991,16928],[72,-101]],[[14348,17063],[0,155]],[[14348,17218],[198,13],[0,140]],[[14784,17320],[32,-41]],[[14816,17279],[-293,-234],[-175,11]],[[14348,17056],[0,7]],[[14911,17778],[-370,-31]],[[14541,17747],[158,405],[-158,-23]],[[14541,18129],[0,168]],[[14541,18297],[293,-3]],[[14834,18294],[113,0],[-45,-132],[72,-15],[112,2],[72,145]],[[15158,18294],[0,-86]],[[15158,18208],[-103,-201],[103,-11],[9,-147]],[[14654,16822],[-117,0]],[[14537,16822],[-41,66],[108,74],[50,-140]],[[14996,16913],[-67,3],[13,-94]],[[14942,16822],[-112,0],[-176,0]],[[14537,16822],[-86,0],[-103,2]],[[14348,16824],[0,232]],[[14816,17279],[108,-134],[5,0],[229,20]],[[15816,17404],[54,0]],[[16117,17343],[0,-114],[0,-402],[-54,0]],[[14348,17218],[-162,178]],[[14186,17396],[103,-5],[252,277]],[[14541,17668],[0,79]],[[15163,16824],[-221,-2]],[[11439,20038],[-473,0]],[[10966,20038],[-302,0]],[[10664,20038],[0,351],[-5,542],[383,-10],[9,0],[5,0],[22,0],[401,13]],[[11479,20934],[140,-290],[-271,-183],[131,-56],[-40,-367]],[[11245,20191],[4,117],[72,-81],[-54,198],[-175,203],[94,-142],[-148,-165],[112,23],[95,-153]],[[15158,18208],[307,-34]],[[15465,18174],[108,-50],[-113,-143],[189,64]],[[15649,18045],[0,-387]],[[15649,17658],[-320,-20],[-45,-140]],[[15649,17511],[0,-15]],[[15649,17658],[0,-28]],[[15649,17630],[0,-119]],[[15744,18050],[-77,56]],[[15667,18106],[122,-46]],[[15789,18060],[-45,-10]],[[15649,18274],[-230,45],[59,-132]],[[15478,18187],[-13,-13]],[[15158,18294],[-4,178],[157,3]],[[15311,18475],[154,2]],[[15465,18477],[175,0]],[[15640,18477],[5,0]],[[15645,18477],[4,-203]],[[15649,18103],[0,-58]],[[15478,18187],[126,54],[-18,-110],[63,28]],[[15649,18159],[0,-56]],[[15649,18274],[0,-115]],[[16117,17551],[-468,-40]],[[15649,17630],[468,-2]],[[16117,17628],[0,-77]],[[15883,18002],[-94,58]],[[15667,18106],[-18,-3]],[[15645,18477],[355,3]],[[16000,18480],[117,0]],[[16117,18480],[0,-509],[0,-23]],[[16117,17948],[-166,38]],[[15951,17986],[-23,84],[-45,-68]],[[16117,17551],[0,-10],[0,-137]],[[15870,18925],[-216,-3]],[[15654,18922],[-50,-2]],[[15604,18920],[-144,5]],[[15460,18925],[0,124]],[[15460,19049],[-5,341]],[[15455,19390],[545,3]],[[16000,19393],[-130,-468]],[[15951,17986],[-68,16]],[[15460,18836],[0,89]],[[15604,18920],[-144,-84]],[[15465,18551],[-59,43],[54,26]],[[15460,18620],[5,-69]],[[15640,18477],[14,445]],[[15870,18925],[-63,-285],[193,-160]],[[15465,18477],[0,74]],[[15460,18620],[0,216]],[[15311,18475],[-63,45],[108,89],[-36,79],[-175,64],[315,297]],[[15919,17778],[-13,91]],[[15906,17869],[54,28],[-216,153]],[[16117,17948],[0,-94],[0,-30],[0,-59],[0,-109]],[[16117,17656],[-198,122]],[[16113,19393],[0,-26],[4,-488],[0,-399]],[[16000,19393],[113,0]],[[15919,17778],[-99,23],[86,68]],[[16117,17656],[0,-28]],[[13654,17000],[-184,-31]],[[13470,16969],[-41,76],[-104,-96]],[[13325,16949],[-220,-46]],[[13105,16903],[-9,582],[310,13],[23,374]],[[13429,17872],[-18,247]],[[13411,18119],[0,178]],[[13411,18297],[477,0]],[[13888,18297],[45,-519],[-162,-56],[41,-56]],[[13812,17666],[-99,-53],[148,-18]],[[13861,17595],[45,-59]],[[13906,17536],[-207,-180],[-76,-255]],[[13623,17101],[31,-101]],[[12776,18121],[95,120],[-36,127],[256,20],[-356,125],[18,267]],[[12753,18780],[167,10],[0,221]],[[12920,19011],[306,-124],[45,-143],[158,5]],[[13429,18749],[-18,-452]],[[13411,18119],[-635,2]],[[13375,16827],[-95,0],[-175,0]],[[13105,16827],[0,76]],[[13325,16949],[50,-122]],[[13429,17872],[-788,99]],[[12641,17971],[-18,150]],[[12623,18121],[153,0]],[[13447,16829],[-72,-2]],[[13470,16969],[-23,-140]],[[13582,16829],[113,117],[-41,54]],[[13623,17101],[148,-68],[252,122],[154,-125],[171,33]],[[14348,16824],[-419,5],[-347,0]],[[13861,17595],[-49,71]],[[13888,18297],[280,-3]],[[14168,18294],[373,3]],[[14541,18129],[-130,-28],[-122,-199],[252,-234]],[[14186,17396],[-167,46],[-36,140],[-77,-46]],[[13582,16829],[-9,0],[-126,0]],[[13105,16827],[-135,0],[-162,-3]],[[12808,16824],[-199,575],[-9,86],[135,-17],[-94,503]],[[13285,20074],[67,-102],[-27,-432]],[[13325,19540],[-513,206],[-203,239]],[[12609,19985],[0,92]],[[12609,20077],[676,-3]],[[12762,20321],[109,-3]],[[12871,20318],[202,-5]],[[13073,20313],[41,-86],[-86,-46],[-324,132]],[[12704,20313],[58,8]],[[12704,20313],[-113,-5]],[[12591,20308],[0,36]],[[12591,20344],[167,2]],[[12758,20346],[4,-25]],[[11439,19911],[0,127]],[[11479,20934],[158,-3],[108,0]],[[11745,20931],[40,-145],[446,-119],[117,-255]],[[12348,20412],[-482,-246],[-22,-308]],[[11844,19858],[-198,-158],[-59,158],[-148,53]],[[12564,20931],[72,-119],[-81,-8]],[[12555,20804],[0,127]],[[12555,20931],[9,0]],[[12871,20318],[-113,28]],[[12591,20344],[0,33]],[[12591,20377],[-13,190]],[[12578,20567],[360,-17],[-9,190],[243,-12]],[[13172,20728],[18,-18]],[[13190,20710],[-126,-155],[32,-168]],[[13096,20387],[-23,-74]],[[13357,20094],[-59,44],[86,157],[-27,-201]],[[12578,20567],[-23,237]],[[12564,20931],[284,-2],[261,2]],[[13109,20931],[63,-203]],[[12609,20077],[-18,231]],[[13096,20387],[108,-97],[72,115],[-63,48],[216,107]],[[13429,20560],[63,-38]],[[13492,20522],[41,-44]],[[13533,20478],[130,-127],[41,-277]],[[13704,20074],[-419,0]],[[12348,20412],[243,-35]],[[12609,19985],[-184,-5],[-95,-175],[-311,-92]],[[12019,19713],[-175,145]],[[11745,20931],[310,5],[145,-7],[355,2]],[[13190,20710],[239,-150]],[[13402,19393],[-45,0]],[[13357,19393],[-32,147]],[[13704,20074],[18,-5]],[[13722,20069],[13,-679]],[[13735,19390],[-333,3]],[[13357,19393],[-167,-31]],[[13190,19362],[-270,-13]],[[12920,19349],[-221,16]],[[12699,19365],[-553,147],[-73,145]],[[12073,19657],[-54,56]],[[12587,18795],[81,66],[-140,0]],[[12528,18861],[-117,46]],[[12411,18907],[-126,38],[27,-89]],[[12312,18856],[-90,-114],[-216,0]],[[12006,18742],[-36,78]],[[11970,18820],[-104,69]],[[11866,18889],[36,168]],[[11902,19057],[90,117],[86,-43],[-54,-115],[234,97]],[[12258,19113],[261,-150],[-63,109]],[[12456,19072],[198,31],[-126,114],[167,3],[4,145]],[[12920,19349],[0,-241],[-185,-54],[185,-43]],[[12753,18780],[-166,15]],[[12587,18795],[-59,66]],[[11902,19057],[0,376]],[[11902,19433],[144,-46],[131,-218]],[[12177,19169],[81,-56]],[[11866,18889],[-36,8]],[[11830,18897],[-81,162]],[[11749,19059],[-76,293],[-230,2]],[[11443,19354],[0,247]],[[11443,19601],[-4,310]],[[12073,19657],[-171,-224]],[[12411,18907],[-99,-51]],[[12177,19169],[279,-97]],[[12623,18121],[-396,0]],[[12227,18121],[-23,435],[-198,186]],[[14541,18843],[-157,-91]],[[14384,18752],[13,-66]],[[14397,18686],[-27,-168],[-130,10],[94,196],[-184,236],[-86,359]],[[14064,19319],[216,63]],[[14280,19382],[63,-218],[198,43]],[[14541,19207],[0,-364]],[[14541,18744],[0,-447]],[[14168,18294],[-45,214],[-235,-211]],[[13429,18749],[-14,338]],[[13415,19087],[-13,306]],[[13735,19390],[329,-71]],[[14397,18686],[9,35]],[[14406,18721],[135,23]],[[14384,18752],[22,-31]],[[14834,18294],[-81,132],[117,359],[-122,13],[104,91],[-4,244],[-190,252]],[[14658,19385],[658,5]],[[15316,19390],[139,0]],[[14541,18843],[0,-99]],[[14541,19207],[-4,178]],[[14537,19385],[49,0]],[[14586,19385],[72,0]],[[14537,19385],[-257,-3]],[[13722,20069],[328,-117],[149,43],[81,171],[86,-112],[225,-10]],[[14591,20044],[-5,-659]],[[13415,19087],[-184,-38],[-86,61],[68,89],[-113,-40],[126,114],[-36,89]],[[15316,19390],[0,323]],[[15316,19713],[221,-15],[54,150],[54,-145],[103,-3],[32,224]],[[15780,19924],[85,-30],[-22,129]],[[15843,20023],[-9,66]],[[15834,20089],[166,0]],[[16000,20089],[41,-117],[76,110]],[[16117,20082],[0,-33],[-4,-176],[0,-119],[0,-361]],[[15874,20929],[239,-3],[0,-364]],[[16113,20562],[-131,3]],[[15982,20565],[-81,13]],[[15901,20578],[-94,139],[85,28],[-18,184]],[[16113,20290],[-131,275]],[[16113,20562],[0,-73],[0,-199]],[[15618,20433],[-302,178]],[[15316,20611],[176,48],[139,-112]],[[15631,20547],[-13,-114]],[[16000,20089],[117,0]],[[16117,20089],[0,-7]],[[15217,20219],[-131,-20]],[[15086,20199],[-396,-133],[-104,59]],[[14586,20125],[5,356]],[[14591,20481],[49,155]],[[14640,20636],[266,-53]],[[14906,20583],[180,66],[68,-132]],[[15154,20517],[63,-298]],[[14591,20044],[-5,81]],[[15086,20199],[32,-183],[198,-46]],[[15316,19970],[0,-257]],[[14866,19543],[148,30],[-9,89],[-139,-119]],[[15901,20578],[-270,-31]],[[15316,20611],[-5,-3]],[[15311,20608],[-4,323]],[[15307,20931],[40,0],[491,-2],[36,0]],[[15618,20433],[180,-344]],[[15798,20089],[-482,-5]],[[15316,20084],[-5,110],[-94,25]],[[15154,20517],[162,-97],[-5,188]],[[15780,19924],[63,99]],[[14915,20931],[-9,-348]],[[14640,20636],[-49,287]],[[14591,20923],[81,8],[243,0]],[[15316,20084],[0,-114]],[[15834,20089],[-36,0]],[[16113,20290],[0,-12],[4,-189]],[[14915,20931],[392,0]],[[13627,20583],[68,81],[-50,81]],[[13645,20745],[207,89],[-103,92]],[[13749,20926],[67,0],[446,-3]],[[14262,20923],[0,-175],[-252,-31]],[[14010,20717],[-113,-178]],[[13897,20539],[-270,44]],[[14591,20481],[-153,0]],[[14438,20481],[-14,198],[104,107],[-72,137]],[[14456,20923],[135,0]],[[14010,20717],[-27,-165],[194,-76]],[[14177,20476],[-343,0]],[[13834,20476],[63,63]],[[13533,20478],[58,-2]],[[13591,20476],[243,0]],[[14177,20476],[261,5]],[[14262,20923],[131,0],[63,0]],[[13109,20931],[338,0]],[[13447,20931],[194,-66]],[[13641,20865],[0,-117]],[[13641,20748],[-135,-36],[-14,-190]],[[13447,20931],[189,0]],[[13636,20931],[5,-66]],[[13645,20745],[-4,3]],[[13636,20931],[113,-5]],[[13591,20476],[36,107]],[[12808,16824],[-586,3],[-396,-3]],[[11826,16824],[-23,242],[126,208]],[[11929,17274],[113,87],[-149,142],[104,102],[-122,516]],[[11875,18121],[352,0]],[[11749,19059],[-252,196],[-63,-236]],[[11434,19019],[-410,-143]],[[11024,18876],[9,242]],[[11033,19118],[351,147]],[[11384,19265],[59,89]],[[11875,18121],[-436,8]],[[11439,18129],[-104,0]],[[11335,18129],[171,295]],[[11506,18424],[207,7],[14,275],[243,114]],[[11484,18864],[-50,155]],[[11830,18897],[-346,-33]],[[11024,16822],[-220,0],[-136,2],[0,260],[0,302],[0,33]],[[10668,17419],[356,0]],[[11024,17419],[-121,-300],[171,0],[-50,-297]],[[11024,17419],[419,-2]],[[11443,17417],[0,-115]],[[11443,17302],[0,-478]],[[11443,16824],[-68,-2]],[[11375,16822],[-4,81],[-23,-81]],[[11348,16822],[-324,0]],[[11281,17134],[31,87],[-135,-41],[104,-46]],[[11443,17417],[-4,465]],[[11439,17882],[0,247]],[[11929,17274],[-126,120],[-360,-92]],[[11375,16822],[-27,0]],[[11826,16824],[-9,0],[-333,-2],[-41,2]],[[11506,18536],[-22,328]],[[11506,18424],[0,112]],[[11033,19118],[-153,0]],[[10880,19118],[-153,84]],[[10727,19202],[135,264],[-113,41]],[[10749,19507],[190,51]],[[10939,19558],[216,-61],[13,-214],[216,-18]],[[10939,19558],[121,122]],[[11060,19680],[-27,-79],[410,0]],[[10749,19507],[-81,-31]],[[10668,19476],[0,100],[0,106],[-4,204],[0,152]],[[10966,20038],[94,-358]],[[10727,19202],[-59,0]],[[10668,19202],[0,191],[0,83]],[[11024,17419],[50,529]],[[11074,17948],[365,-66]],[[10668,18518],[0,122]],[[10668,18640],[41,5]],[[10709,18645],[153,-109]],[[10862,18536],[-194,-18]],[[10668,18640],[0,71]],[[10668,18711],[54,5]],[[10722,18716],[-13,-71]],[[10772,18736],[-81,125]],[[10691,18861],[4,76]],[[10695,18937],[27,39]],[[10722,18976],[95,-143],[-45,-97]],[[11060,18144],[-36,178]],[[11024,18322],[0,394]],[[11024,18716],[482,-180]],[[11335,18129],[-275,15]],[[10668,17419],[0,194],[0,239],[-4,267],[0,144]],[[10664,18263],[225,115]],[[10889,18378],[135,-56]],[[11060,18144],[14,-196]],[[11024,18716],[0,160]],[[10668,18935],[0,89],[0,178]],[[10880,19118],[36,-112],[-225,33],[31,-63]],[[10695,18937],[-27,-2]],[[10691,18861],[-23,0]],[[10668,18861],[0,38],[0,36]],[[10722,18716],[50,20]],[[10889,18378],[-27,158]],[[10664,18263],[4,115],[0,140]],[[10668,18711],[0,150]]]}